{"type": "FeatureCollection","name": "aoc_geojson","features": [{"type":"Feature","properties":{"dt":"Pau","type_prod":"Vins","categorie":"Vin tranquille","type_denom":"appellation","signe":"AOC","id_app":9,"app":"Béarn","id_denom":61,"denom":"Béarn","insee":"64423","cvi":"1B101S, 1R101S, 1S101S","nomcom":"ORAAS","insee2011":"64423","nomcom2011":"ORAAS","id_aire":75,"crinao":null,"grp_name1":null,"grp_name2":null},"geometry":{"type":"MultiPolygon","coordinates":[[[[-0.977783191529516,43.44925920007325],[-0.977496833813851,43.44912694004507],[-0.977467515049501,43.44909991165793],[-0.977480906420778,43.44851974872241],[-0.977476094023375,43.44846092246002],[-0.977449070551433,43.44838129259513],[-0.977408694557739,43.44831953879048],[-0.977370538318895,43.44827914270781],[-0.977270979481764,43.448200105133616],[-0.9770930398191,43.44808899482575],[-0.977250362784133,43.448064750093074],[-0.977409731109071,43.44807006662404],[-0.978215979196567,43.448111073488946],[-0.978839206711702,43.44812835195428],[-0.979353377794803,43.448140176008714],[-0.979082219196341,43.449049059045755],[-0.978763207561891,43.44948109897026],[-0.978241529968389,43.44935919813932],[-0.977783191529516,43.44925920007325]]],[[[-0.977342401078936,43.449000013086895],[-0.976674801092239,43.44867925105482],[-0.975906122621766,43.44831454373785],[-0.976912641654383,43.44809066574387],[-0.977276656109905,43.44833754029402],[-0.977316443604573,43.44837292204447],[-0.977348214793931,43.44841931784898],[-0.977358640177029,43.44845920111232],[-0.977342401078936,43.449000013086895]]],[[[-0.976537100009068,43.448651157983605],[-0.977100821141808,43.44892339895832],[-0.977340270937479,43.44903891622708],[-0.977339909561367,43.44910874226228],[-0.977027091164995,43.4490282586036],[-0.976670215206058,43.4489614628486],[-0.976355585335186,43.44890302358988],[-0.975224926324595,43.44878202946881],[-0.975238330076742,43.448684430277325],[-0.974769867798755,43.44863811938612],[-0.974561428390914,43.44861514255954],[-0.974353248744509,43.44861737842359],[-0.973971130073053,43.44861816021324],[-0.974024928263967,43.448487820833385],[-0.974029806173842,43.44847611148442],[-0.97434354843498,43.44770278425136],[-0.974411134206871,43.4475268983138],[-0.974534934647793,43.44754712662702],[-0.974532471862748,43.447554423478465],[-0.974921353381184,43.44762293354039],[-0.97508524064322,43.447652499442164],[-0.975378918078312,43.447704865096206],[-0.975479977629983,43.44772520656397],[-0.975454635811997,43.44782180272065],[-0.975722286039834,43.44834516476205],[-0.97581507075032,43.44832986751939],[-0.976017961063253,43.44841204862184],[-0.976537100009068,43.448651157983605]]],[[[-0.972941641617964,43.43946917597125],[-0.972917469833082,43.4396399539984],[-0.972904212455215,43.439725386001975],[-0.972907860815995,43.43979785670197],[-0.972918560102981,43.43983998192226],[-0.97304715019499,43.44011937615794],[-0.973203287606812,43.44045748262937],[-0.973652372338515,43.44033353646216],[-0.974684701051226,43.44005395965838],[-0.974841810356385,43.44087801154457],[-0.974951152419051,43.4414438455822],[-0.974723441804543,43.441447520749364],[-0.97425953102937,43.44143221077741],[-0.974164676384951,43.441429927241145],[-0.974041748607449,43.44145074366598],[-0.97378906350602,43.441484789753346],[-0.973748860328333,43.44150410112392],[-0.973727830058555,43.441530725978104],[-0.973717724890995,43.44155622923551],[-0.973700531735286,43.44161153895194],[-0.973677757297728,43.44163975917157],[-0.973639133999937,43.44166225540756],[-0.973573149289643,43.44166449681087],[-0.973314694692941,43.44166695515154],[-0.972611993976122,43.4407543739116],[-0.972704335289286,43.44062370257859],[-0.97261525115621,43.44051527175542],[-0.972214693537643,43.440447003837726],[-0.971882643670991,43.440472066605956],[-0.971791309688277,43.44047956071526],[-0.970858040267555,43.44055234586914],[-0.970921994955025,43.440005286406034],[-0.970249574479489,43.44006732855154],[-0.970084004380323,43.44003988992974],[-0.970056003651101,43.440019297444245],[-0.970045759495793,43.43999805387475],[-0.970043902534253,43.43995326214222],[-0.969918233221624,43.43994688022525],[-0.970002863879002,43.44030418710392],[-0.970067336651952,43.44033019829874],[-0.970265439518212,43.44040445669242],[-0.970629397232929,43.440490558562686],[-0.970609341650703,43.440658392505235],[-0.970652777989185,43.44078074975478],[-0.970702610246484,43.44093485087323],[-0.970175126274187,43.441064001278626],[-0.970115997928153,43.44106526854994],[-0.969922218543942,43.44105543862768],[-0.969544344210071,43.44103100878377],[-0.969415143067628,43.44103259263649],[-0.96923194151618,43.44103093129827],[-0.969026760378906,43.44101710383988],[-0.968307186281096,43.44096573980875],[-0.96816823778879,43.44095326663406],[-0.968189237441934,43.44075423112365],[-0.968196979715146,43.440689089841804],[-0.967218516683188,43.44065702529609],[-0.967260602110512,43.44035326540403],[-0.967292359884236,43.44011302991603],[-0.967306314971468,43.43999280251229],[-0.967336481722606,43.43991044516494],[-0.967401083138954,43.439734133928894],[-0.967341013594873,43.43972174209234],[-0.967340464557753,43.439563311866856],[-0.967337694716845,43.4392598445335],[-0.967362891814125,43.439209377381935],[-0.967394381096767,43.43916768763658],[-0.9674334934403,43.43913256460933],[-0.967474205369982,43.43910449925325],[-0.967535597156389,43.4390787387963],[-0.967587929699242,43.439063219051164],[-0.967698991666443,43.43904068280105],[-0.967846733119557,43.439021216149115],[-0.968005251831852,43.439002074958914],[-0.968178249939587,43.43899032988182],[-0.96838055465809,43.43898408620499],[-0.969034835635104,43.4389602835719],[-0.969035680458598,43.439165904887766],[-0.96960868801317,43.439152014304966],[-0.969760105856428,43.43913745471432],[-0.970057996150888,43.43914950258412],[-0.970060603209055,43.439119230220335],[-0.970065651594023,43.43908850801963],[-0.970079750580763,43.43900088377491],[-0.97008723236388,43.438951696048285],[-0.97005134061844,43.43894571564801],[-0.970060942667948,43.43889500890229],[-0.970028555510706,43.43878224540483],[-0.970073368559607,43.43877420654006],[-0.970107339304527,43.43878638280059],[-0.970218502176938,43.438842299805906],[-0.9702417514946,43.43885495925344],[-0.970315174074675,43.43890676520576],[-0.970432489938019,43.43898912003777],[-0.970433959412008,43.43897996807858],[-0.970434709467757,43.43898903864507],[-0.971013022516596,43.43897323448323],[-0.971575696997639,43.4388455810595],[-0.97242827555579,43.43865738418175],[-0.972739083134486,43.43861129945411],[-0.972849460087959,43.43889730710745],[-0.972851233607807,43.439019570748],[-0.972854825598204,43.439482991019005],[-0.972941641617964,43.43946917597125]]],[[[-0.972572123771794,43.44553189520261],[-0.973095317907874,43.44564782030762],[-0.97346539976707,43.44583448977986],[-0.973645438779851,43.44605308450643],[-0.973817189059079,43.446352064851695],[-0.973934340508642,43.446496128339035],[-0.97361779102128,43.44678348165247],[-0.972759354090806,43.44755409058969],[-0.971714966359401,43.44798866588822],[-0.97140113689502,43.44811881203116],[-0.971044422636732,43.4482313427079],[-0.970968083040669,43.4481929753258],[-0.970861313862773,43.448131131746685],[-0.970793085191631,43.448083098452884],[-0.970719601625594,43.44803237523293],[-0.97065398544746,43.44797920155841],[-0.970598903956698,43.44791744424616],[-0.970374718647001,43.44765569301188],[-0.970383626568261,43.44758059959497],[-0.970062410065201,43.44743194335736],[-0.970239265457472,43.4470639663759],[-0.971117854735216,43.446656294395616],[-0.972271748393321,43.445758116870124],[-0.972572123771794,43.44553189520261]]],[[[-0.968424345011203,43.44532420426356],[-0.968545910006614,43.445023835471815],[-0.969460696155,43.44504038930579],[-0.969508197086201,43.44540779696956],[-0.969094398630548,43.44616702869899],[-0.969293268700091,43.44626107943106],[-0.969497864208598,43.44637536818596],[-0.969699844116336,43.44681341130367],[-0.969564335523713,43.44720545438884],[-0.969025836885956,43.446989723272466],[-0.968701884310022,43.44685863918854],[-0.968574828630012,43.446816273811834],[-0.968470217830758,43.44678740850277],[-0.96830347398589,43.44646742854206],[-0.968424345011203,43.44532420426356]]],[[[-0.967232040876499,43.43499331166776],[-0.967030610752104,43.43510518485582],[-0.966954132295245,43.43515050466199],[-0.966644538290513,43.435319667346924],[-0.966479807011615,43.43546541593458],[-0.966140189911763,43.43576205852102],[-0.965324383006179,43.43492555767117],[-0.965564967229673,43.434549762372484],[-0.965603869135802,43.43450086561908],[-0.965728232334639,43.43440785230189],[-0.965757425183129,43.43439561311292],[-0.966289822063572,43.43413775972717],[-0.966506555522786,43.43403631692723],[-0.967232040876499,43.43499331166776]]],[[[-0.965461973688821,43.43451173804056],[-0.965335553993525,43.43475237631991],[-0.965284017712436,43.43486542181947],[-0.965116737775056,43.43494018894807],[-0.964712640093459,43.43506902846539],[-0.964666460497207,43.435076935054106],[-0.963992293336479,43.43514693095091],[-0.963534525645251,43.435259354826194],[-0.963065925165454,43.435433427144886],[-0.962739798092395,43.43566957183863],[-0.962552698852311,43.434766349537],[-0.962566212993279,43.43470775383205],[-0.962582524068187,43.4346628378709],[-0.962640671069019,43.43459900536718],[-0.962770847759591,43.43454902084514],[-0.963681556164168,43.434148519460216],[-0.963787720720189,43.43410526793314],[-0.963911684465231,43.43406559832623],[-0.964103412307137,43.434042454087304],[-0.964286504011475,43.43405899036392],[-0.964418110240968,43.43408714022659],[-0.964681576481369,43.434127396084826],[-0.965197808581586,43.43401868091297],[-0.965943725902882,43.43386191456918],[-0.966157047540943,43.4338543700415],[-0.966575162332127,43.43388228980828],[-0.966585309020572,43.433912905348144],[-0.96565770212257,43.43433152632735],[-0.965461973688821,43.43451173804056]],[[-0.963025963312637,43.43537552771625],[-0.962979173850746,43.43530823971949],[-0.962920021460534,43.43533238427843],[-0.962969480121413,43.435398944041246],[-0.963025963312637,43.43537552771625]]],[[[-0.964549599595763,43.43404368120525],[-0.964400932593864,43.43400831934917],[-0.964146927416173,43.433977985444805],[-0.964002478515475,43.433982283623024],[-0.96391910116586,43.43399209236844],[-0.963850928872142,43.434009091154984],[-0.963669314932899,43.43408032727372],[-0.963065744277912,43.434336899354406],[-0.962590575548594,43.434542918026786],[-0.962537348198326,43.434586662940276],[-0.9625048693034,43.43462118098273],[-0.962471507910396,43.43469311417312],[-0.962460896990341,43.434770520232824],[-0.962465507668476,43.43482845255668],[-0.962522702886196,43.43509695711384],[-0.962631823273469,43.435672262768065],[-0.962626568324872,43.43576460618272],[-0.962553224246316,43.435832147680664],[-0.962224034289753,43.436086688922245],[-0.961923496304246,43.43631757072444],[-0.961768432392846,43.43641008142451],[-0.961483825914925,43.436484722022946],[-0.96124092754175,43.43654216207412],[-0.960990180129899,43.43659871769484],[-0.960762039499824,43.436653274666355],[-0.960509651545299,43.43671115026966],[-0.960034984420417,43.43682435713497],[-0.959805467085541,43.436878692152824],[-0.959568569662672,43.436933566812264],[-0.95934750326781,43.43698497947026],[-0.959118742582122,43.43703775397692],[-0.958360106931574,43.4372152943861],[-0.958208585448005,43.43727857469058],[-0.957968912705638,43.43742425686873],[-0.957635218406876,43.43762814344509],[-0.957435328630117,43.437750210704216],[-0.957247981558405,43.43785875767339],[-0.957051444161327,43.43798106197335],[-0.95666913560376,43.4382150970655],[-0.956483524601028,43.43832556093841],[-0.956313313550973,43.43843348001043],[-0.955727297642691,43.43878818443322],[-0.955280464292215,43.43906375615925],[-0.954865257095023,43.43931213789593],[-0.954455984321913,43.439564174612244],[-0.954216281679612,43.43968093376113],[-0.953398090071603,43.43980206160118],[-0.952121649073691,43.43999711087851],[-0.951496397642183,43.43977437637373],[-0.952572648203787,43.438988878944514],[-0.952925018448604,43.438914220639006],[-0.953990563101965,43.438683535066076],[-0.953343295807309,43.43745921799432],[-0.953679216069653,43.43720481974169],[-0.95367472038223,43.43719696689474],[-0.954025140824375,43.43691978852587],[-0.954394956798958,43.436624515335524],[-0.954476974377613,43.43674582849511],[-0.955219054787711,43.43662945335427],[-0.954803000228989,43.43594338796724],[-0.954967941542805,43.435834402699655],[-0.954967392707706,43.435833612039175],[-0.955182252273952,43.43569019436759],[-0.955181851463653,43.43568975861589],[-0.955180445375124,43.43568728777602],[-0.955578796480066,43.43541709071276],[-0.955577803556229,43.43541523533463],[-0.955772502307656,43.43528246168898],[-0.955776165597035,43.43528899367431],[-0.955975474679206,43.43515497024614],[-0.955976886971308,43.435157530927654],[-0.956181434840611,43.435020613310236],[-0.956520804734551,43.43479337356024],[-0.956785998508595,43.434643248798004],[-0.957675257412914,43.434318438922155],[-0.957675689157572,43.434319323928094],[-0.958120404335177,43.434157318364115],[-0.958351941529946,43.43408039310911],[-0.958583051675166,43.433999069089325],[-0.959007086812932,43.433845562684475],[-0.959245461162931,43.43375487358324],[-0.959452327878831,43.43367155170964],[-0.959673093235342,43.43357826279487],[-0.95988390895278,43.43348948096957],[-0.960279954553417,43.43441559908005],[-0.96100655636554,43.43416841390694],[-0.961984776154955,43.43384887029478],[-0.962086116877016,43.43399928692026],[-0.962763712416324,43.433789103982555],[-0.963593587730537,43.433691885817645],[-0.964115300130169,43.433569463250166],[-0.964447406874781,43.433420291838644],[-0.964689606684831,43.43333323365218],[-0.965884993932296,43.43303911990984],[-0.966174022868278,43.433048619294354],[-0.966476806926123,43.43320912734071],[-0.966563114067199,43.43366464912694],[-0.966573466558754,43.43371795711683],[-0.96659117399903,43.43380441507308],[-0.96621381490438,43.43379031578786],[-0.966058686103129,43.433786720692254],[-0.965865224918237,43.43380263551802],[-0.965462740916066,43.433883046383535],[-0.9651866553883,43.43394657558011],[-0.964676842179439,43.434056947315156],[-0.964549599595763,43.43404368120525]]],[[[-0.964949332911556,43.44190865983231],[-0.964784201757864,43.44207045454739],[-0.964508241856271,43.44232998996546],[-0.964277633751273,43.44254804895538],[-0.964150720229791,43.4426706999789],[-0.963956505035929,43.44288409291375],[-0.963535515125099,43.443351524475176],[-0.963403131445205,43.44350067811136],[-0.963088879059662,43.44385412330136],[-0.962815795591748,43.444175343638115],[-0.962504345170243,43.444540845274204],[-0.962352244708631,43.44467486502841],[-0.962088664693402,43.444863228239164],[-0.96176203747235,43.44510371165612],[-0.961386243032264,43.445380673486696],[-0.961195259313137,43.44553358948603],[-0.960998366866111,43.44570662890975],[-0.960824505815847,43.445864052422046],[-0.960161402366279,43.44617728141009],[-0.960108910422619,43.44620496394289],[-0.960053462474955,43.44624716732087],[-0.960024884248568,43.44627919989539],[-0.959978835902412,43.446330427785014],[-0.959940729721023,43.446382085851184],[-0.95981756078018,43.44657909056361],[-0.959800245292363,43.44660053219717],[-0.959741128049791,43.446715113596625],[-0.95941279781993,43.447080142101015],[-0.959365668848107,43.44713005803167],[-0.959311251954342,43.44715853117367],[-0.959262086692228,43.44717888524846],[-0.959180022134765,43.44719188458747],[-0.959076087745665,43.44718892860478],[-0.958943095363997,43.4471769459447],[-0.958726395090982,43.4471397382835],[-0.958549229909246,43.447112885403065],[-0.958211103824716,43.447026968483755],[-0.957464215992753,43.446838345972914],[-0.957406844556843,43.44630131582212],[-0.958371862145464,43.44646007550777],[-0.958387630242612,43.446385633732284],[-0.958550991902831,43.44640776676565],[-0.959987699089689,43.44528535846048],[-0.959359940962024,43.44530038715588],[-0.95890388428273,43.44531327849166],[-0.958813710662416,43.44579552896118],[-0.95822460615011,43.44582616276616],[-0.958220557991737,43.44583919213578],[-0.95792471947071,43.44623266424379],[-0.957414413190644,43.44617240547239],[-0.957399030740757,43.446211161414695],[-0.957177811551656,43.44627167225073],[-0.956614057943741,43.44627731941806],[-0.956620374202891,43.44646787725726],[-0.956584036819671,43.44646983553297],[-0.956584287146557,43.44648784231076],[-0.956315096976285,43.44647831065273],[-0.956177372080534,43.44647118173203],[-0.956171471062997,43.44647166756258],[-0.956122979144124,43.446469475684694],[-0.956095755672515,43.446598473377],[-0.956070086535577,43.446730296832335],[-0.95548763608601,43.44669068045107],[-0.955239887079066,43.446656762039936],[-0.954970438115543,43.44661651934976],[-0.954371894564674,43.446533435944126],[-0.954220638803136,43.44651292641798],[-0.953606779085218,43.44642102990284],[-0.953335736279659,43.445719388339846],[-0.954294474513033,43.44580517815713],[-0.955376153115457,43.44559875501471],[-0.955753992470409,43.44476000475364],[-0.956375258740707,43.443975324739256],[-0.956524546030879,43.44307637217242],[-0.957166518883737,43.443153261073974],[-0.957817158399207,43.44318361868623],[-0.957792595761284,43.44379651657203],[-0.957713599257584,43.44405333812617],[-0.957614436836813,43.444938480979395],[-0.958253517933951,43.44499997635522],[-0.95841935142741,43.445009588072466],[-0.958874551420839,43.44498249743003],[-0.95882203074729,43.44463634987516],[-0.958715003561245,43.44406240211244],[-0.959823826366415,43.444001230007636],[-0.959889217715083,43.44452337251583],[-0.960236008163517,43.44429017466414],[-0.961346408368388,43.443957609213754],[-0.960540362395848,43.44297631087279],[-0.960862124281136,43.44286986755469],[-0.962217834880065,43.44242346579364],[-0.962697571209752,43.44225763853107],[-0.96307975141629,43.44213645612648],[-0.963742083423468,43.44202987906786],[-0.96416053977727,43.44196510587516],[-0.96429016033858,43.441939101396244],[-0.963965097763983,43.44135566535827],[-0.96364811071625,43.44078526500193],[-0.964397937945176,43.44056017843588],[-0.964448181362774,43.44054122365493],[-0.9655956309232,43.43950337269571],[-0.966303601219329,43.43929547918649],[-0.967162685535189,43.439032860523],[-0.96719697113717,43.43912663838972],[-0.967255400172124,43.439281866795284],[-0.967263686099592,43.43986591069846],[-0.967215702062956,43.44015763577109],[-0.967130704971423,43.44070303064043],[-0.966893344922817,43.440876753403415],[-0.966514349570756,43.44107791404265],[-0.965921630259116,43.44138157566956],[-0.965545623745321,43.44151146022545],[-0.965048722595111,43.44172576147412],[-0.964949332911556,43.44190865983231]]],[[[-0.962623748912741,43.42684238815756],[-0.963126251148792,43.42759875930683],[-0.963783879884889,43.4286186946717],[-0.963989565461511,43.42893274467854],[-0.963494012381089,43.429147171373025],[-0.963342062377762,43.42921281720364],[-0.962987272431808,43.42855733106472],[-0.962894692721285,43.42838866975078],[-0.962619686069334,43.4278577238248],[-0.962668042164765,43.427829470560326],[-0.962482115563439,43.427708724980775],[-0.961437944679361,43.426590421831094],[-0.962241559165409,43.42649741467709],[-0.962354245106828,43.426597420875666],[-0.962623748912741,43.42684238815756]]],[[[-0.963307772636545,43.43604044615462],[-0.962086899042786,43.43685548973904],[-0.961805079571219,43.436477290718834],[-0.961862272617618,43.43645159708075],[-0.961934762674601,43.43640930952351],[-0.962485843000509,43.43598441563389],[-0.962948162113629,43.435636632825165],[-0.963307772636545,43.43604044615462]]],[[[-0.963202537850271,43.44766358819193],[-0.962810327234286,43.44771154184184],[-0.961952934011783,43.44773534827856],[-0.961518789571431,43.447738170004904],[-0.961926243041832,43.44712387097301],[-0.962990309868668,43.44704034458181],[-0.963899090290151,43.446965825098],[-0.963845019290188,43.44670882422228],[-0.963816029237355,43.44645874225408],[-0.963861299070728,43.44607712758247],[-0.964629527329742,43.44590811786821],[-0.96476325566086,43.446287503115336],[-0.964883423004799,43.44662261509189],[-0.965072346340246,43.447133568161334],[-0.965133069472756,43.4472126870526],[-0.964993191020983,43.44726221842006],[-0.964719676505706,43.44735141346324],[-0.964427176393887,43.44744499614886],[-0.964118910603466,43.44754663181036],[-0.963779787567508,43.44759345632753],[-0.963502662621059,43.44762675053223],[-0.963202537850271,43.44766358819193]]],[[[-0.956012762182848,43.42405035530513],[-0.956063100854215,43.423979065358736],[-0.956643461374951,43.424444275169634],[-0.957234262186762,43.42468750827909],[-0.958158563542289,43.425067983958385],[-0.958205127228282,43.42504601368205],[-0.959068261733334,43.42502255547266],[-0.959277078833127,43.425294701281615],[-0.95971612082127,43.42572083678589],[-0.960227917070132,43.426259339452486],[-0.959146030886788,43.426627790652745],[-0.959147950038763,43.42666104948901],[-0.958785925949845,43.42684742039926],[-0.958503890775295,43.42653507337422],[-0.958273683088631,43.426287939057254],[-0.958222008997825,43.42618002304201],[-0.958173498845855,43.426105500476815],[-0.957347094171132,43.42636658600369],[-0.955801422965533,43.426482803069355],[-0.95526675498584,43.42615202615848],[-0.954952290120839,43.42595363366967],[-0.955241016723451,43.42514535225641],[-0.955315636475796,43.42493472538089],[-0.955409165628773,43.4248193406959],[-0.955629807218346,43.42457374204992],[-0.955670256783161,43.42451857733938],[-0.956012762182848,43.42405035530513]]],[[[-0.955302424257265,43.42905493722907],[-0.955566824268775,43.429037349569185],[-0.955806836647228,43.42898146831894],[-0.95584969000464,43.4289737770343],[-0.956348549710089,43.429345946439156],[-0.956374979029347,43.42938875867079],[-0.956190574963103,43.42981994771823],[-0.956061933174491,43.43009695614747],[-0.95596677100323,43.43022104879182],[-0.955910220208666,43.43020212700036],[-0.954960801131686,43.42983479653524],[-0.954463853501528,43.42962514240604],[-0.955001271828767,43.429071885247566],[-0.955277077538358,43.42906198865491],[-0.955302424257265,43.42905493722907]]],[[[-0.955282422011826,43.44020264471395],[-0.954846102465678,43.44034910732159],[-0.954777297533034,43.4403678347167],[-0.954594202916036,43.4404000145636],[-0.954326566993376,43.44044320864208],[-0.954210711182397,43.440457258399086],[-0.953750314591834,43.440472990227725],[-0.953259569905915,43.44048424324525],[-0.952999816672446,43.44042814934813],[-0.9525125561391,43.44016462097653],[-0.952248599131725,43.4400527398],[-0.953438472737177,43.439873370933604],[-0.954010769492218,43.439780770016505],[-0.954276695361439,43.43974151248725],[-0.954388610472875,43.43969355665682],[-0.954484629578142,43.439639155113895],[-0.95490457472017,43.43938411616614],[-0.955321379098389,43.439135585852384],[-0.955529063811133,43.43900630184598],[-0.955746605196425,43.43935984152621],[-0.95597041785925,43.439736212086295],[-0.955767794409798,43.439903145273504],[-0.955700001122494,43.43995273346295],[-0.955344083292843,43.440164540699655],[-0.955282422011826,43.44020264471395]]],[[[-0.953276272571928,43.43342118507492],[-0.953026560907569,43.433307526142286],[-0.952910827166257,43.433256623865354],[-0.952608608420186,43.43312353258487],[-0.952499429593015,43.433079867098975],[-0.952341486592667,43.43303167627963],[-0.951843559641239,43.4328763620352],[-0.952793460468375,43.43124738527156],[-0.953615018625005,43.43115180777141],[-0.953060683362778,43.43197005567973],[-0.953382376928753,43.43218152314507],[-0.953752505309157,43.432446619201066],[-0.954320916981662,43.43189962000037],[-0.954687174204763,43.432043698633876],[-0.954980621928902,43.43225952631129],[-0.955080097115624,43.432368760693514],[-0.955227638319366,43.43254064516593],[-0.953957844054167,43.43355429267737],[-0.953276272571928,43.43342118507492]]],[[[-0.951806905781653,43.440682209238034],[-0.951609244865662,43.440711132272064],[-0.951287477448926,43.44075818594249],[-0.950329028168331,43.44089837046118],[-0.949367756530982,43.44103891952894],[-0.94882016950701,43.441118973955064],[-0.948559828265958,43.44033793685683],[-0.949171551613975,43.44029364759341],[-0.950083055812418,43.44022959089552],[-0.951052384392226,43.44015972316376],[-0.951419665483356,43.44013460977864],[-0.951599538531917,43.440120298457266],[-0.951925331036887,43.44009588680008],[-0.9520874472834,43.44008402434768],[-0.952149097516001,43.440088890286965],[-0.952224263940033,43.440103351666735],[-0.952330679391551,43.44013180558277],[-0.95240365505406,43.44017733397552],[-0.952520627278044,43.44021368961972],[-0.952600167882436,43.440246817578405],[-0.95298931582765,43.440466005594004],[-0.953403398668581,43.44054799231569],[-0.95317235489247,43.44055345547891],[-0.95264137190203,43.440560229566465],[-0.952229404642757,43.44062048753558],[-0.951806905781653,43.440682209238034]]],[[[-0.952153624701996,43.44398140217135],[-0.951945675754846,43.44452442272086],[-0.951504800611262,43.4456753306008],[-0.950818552402624,43.445477965334995],[-0.9507138198741,43.445353603803085],[-0.950678329693806,43.445313912611006],[-0.950307963731025,43.44521725776498],[-0.949731474993923,43.44522990984747],[-0.949639521341585,43.44525191027669],[-0.949516907844828,43.445252328969005],[-0.949238222391012,43.44532041421165],[-0.949034784469496,43.44534107527728],[-0.948582726090043,43.44534017532636],[-0.94815420039388,43.44527869304504],[-0.947968063618217,43.44517143958334],[-0.947846037781895,43.44508680035781],[-0.947616800647542,43.44484158533899],[-0.947343426131053,43.44453510383003],[-0.947267174355953,43.444479692489956],[-0.94706187262067,43.44423909886446],[-0.946842734728248,43.443959014250304],[-0.946766384106212,43.44386072867842],[-0.946533415789666,43.443476386025765],[-0.946245078691587,43.44300578378841],[-0.946169944567951,43.44288736604294],[-0.945498343746912,43.44226138145963],[-0.945324189391551,43.44214116666992],[-0.944290062384303,43.44142029015323],[-0.94310425384003,43.44075852571856],[-0.94246697001322,43.440513118073],[-0.942424872156737,43.440488708326065],[-0.943104403839401,43.440486753527985],[-0.943923068691418,43.44049648123528],[-0.944350111135391,43.44060000919849],[-0.944871982679758,43.440624414619265],[-0.945348321389402,43.44064462157259],[-0.945681875797829,43.4406143611784],[-0.946341974386504,43.44059760076391],[-0.946972025685113,43.44036646344471],[-0.947933428495635,43.441045196868686],[-0.948452682316968,43.44141657420342],[-0.948630804902711,43.44218124368201],[-0.948772910175673,43.442300910712966],[-0.949164353290896,43.442630916242756],[-0.949757228593281,43.44289493163099],[-0.949682391628897,43.44316780838885],[-0.949409494536223,43.443553932338176],[-0.949906179305943,43.44368273411014],[-0.94995370382745,43.44358272423326],[-0.950092195206881,43.44342480797861],[-0.950165789703624,43.44333537708175],[-0.950384914416135,43.443143711781715],[-0.950660043501773,43.44296288396643],[-0.950832407509954,43.44287156036035],[-0.951412622528068,43.44303216784307],[-0.952200152225803,43.44325015265992],[-0.952411250104438,43.443308655599274],[-0.952153624701996,43.44398140217135]]],[[[-0.950246579099638,43.439829800438346],[-0.950036806141291,43.439802953381474],[-0.949640338973077,43.43990344178995],[-0.950250389176359,43.438647467511906],[-0.950108768097172,43.43849877994238],[-0.950561928199291,43.438153098457875],[-0.951567417922444,43.43850374446845],[-0.951063246822208,43.439121618383886],[-0.951009780379873,43.43964413504143],[-0.951058190447539,43.43997079603685],[-0.950246579099638,43.439829800438346]]],[[[-0.949833850466642,43.433361902010944],[-0.950249362553538,43.432713490739],[-0.950447537064196,43.4320304017623],[-0.9505494400917,43.431660604982994],[-0.950582322836483,43.43166426926083],[-0.95064324849461,43.43166591931514],[-0.950883757911018,43.43137961099874],[-0.95103237031644,43.43116259338181],[-0.951267323090882,43.43078109407144],[-0.951532568088599,43.430741506624635],[-0.951603384624236,43.430723428239794],[-0.952326186981376,43.430437346306704],[-0.952495018013166,43.430086632804],[-0.952929591964153,43.43026821707898],[-0.952947544140286,43.43027584876993],[-0.953599972188475,43.430553696117904],[-0.953881500848932,43.43066826285715],[-0.953744247343686,43.4309909822868],[-0.952809361458046,43.43108673538107],[-0.952712579185096,43.43123772745655],[-0.952459957897412,43.43164978140805],[-0.952108966846022,43.43224197957524],[-0.951770867894044,43.43280425036015],[-0.951749766382751,43.43286050893072],[-0.951640870446,43.433687800966794],[-0.951580506261102,43.434129587370656],[-0.950105548818177,43.433774096395645],[-0.949801896438488,43.433701041886685],[-0.949833850466642,43.433361902010944]]],[[[-0.948026977501348,43.43620960873769],[-0.94730081437217,43.436223024851614],[-0.947121250337865,43.43566550055196],[-0.946869273905671,43.43524690466072],[-0.946841942496214,43.435198087724],[-0.946775740409038,43.43514663428195],[-0.946507637741604,43.43503687363148],[-0.94646658887999,43.43474678656266],[-0.946524635759247,43.43465062891192],[-0.947793660673428,43.4344823060706],[-0.948081397444438,43.43446037358089],[-0.948560318735286,43.434481100873285],[-0.948677762655861,43.4344975354774],[-0.948634680181739,43.43456675565943],[-0.948573696440302,43.434571502045316],[-0.948625188247758,43.434786712954654],[-0.948628954058743,43.43505212673727],[-0.948689754017512,43.43505729566558],[-0.948737830317497,43.43525875912282],[-0.94886631053969,43.4357922017205],[-0.949003223961295,43.43636740353371],[-0.948290095895559,43.43623586489355],[-0.948026977501348,43.43620960873769]]],[[[-0.948135640648385,43.437538177522256],[-0.948473236997306,43.43758144477053],[-0.949102261681776,43.4367870701935],[-0.94916952734815,43.437073498609784],[-0.949246496158525,43.43741839446292],[-0.949350082325141,43.43769367955331],[-0.9493686931706,43.43774326456161],[-0.949530168993553,43.437966894678716],[-0.949641024060276,43.438139224839475],[-0.948913454223691,43.43908636756804],[-0.948872876847781,43.439139912983286],[-0.948380286783921,43.43835014221594],[-0.948050034831191,43.437528237778835],[-0.948135640648385,43.437538177522256]]],[[[-0.9456801589828,43.43958248356409],[-0.945829451752291,43.43962694648467],[-0.945898876193036,43.439658646270594],[-0.945963818638579,43.43970429137971],[-0.946021966946408,43.43975901176688],[-0.946060293341035,43.43982391279454],[-0.946075307247497,43.439860748221136],[-0.946091327145142,43.4399428565137],[-0.946112409220216,43.44003387825524],[-0.946145526102115,43.440103923462445],[-0.946169221162868,43.4401357584092],[-0.946204193288891,43.440175199342484],[-0.946268335234866,43.4402289805674],[-0.946408117455955,43.440304145916926],[-0.946553528574406,43.44035685650875],[-0.946815030928155,43.4403701144912],[-0.946316126892505,43.44055242256571],[-0.945784779336142,43.44055926639341],[-0.945504798298626,43.44057397307222],[-0.945269080258613,43.44059778555635],[-0.944870398100431,43.440604925302715],[-0.944574398439818,43.44058616348648],[-0.944324308293743,43.44056266578754],[-0.944105657173634,43.440516313383775],[-0.943896433983965,43.440448809010434],[-0.94257332289594,43.44046141390981],[-0.942301653704355,43.44045491145303],[-0.942235861067576,43.44044010196747],[-0.941820526059427,43.440334157926465],[-0.940751227001577,43.44030912551625],[-0.941085097742589,43.44016266674599],[-0.942230815876423,43.439661648168396],[-0.942629177761001,43.439484101302284],[-0.942734812790156,43.439448997504066],[-0.942809687016578,43.43944122657342],[-0.943219039298316,43.43946000842535],[-0.943808467869099,43.439485471225964],[-0.945591362765649,43.4395567141308],[-0.9456801589828,43.43958248356409]]],[[[-0.944056068869008,43.435847286642975],[-0.944070976821064,43.43579611961048],[-0.944161720965138,43.4358161440921],[-0.944462954515231,43.43587912395146],[-0.94542865593074,43.436076248360656],[-0.945826209713889,43.4360963502145],[-0.945758726236798,43.436498126880565],[-0.945720376260126,43.43673904284403],[-0.945563339419864,43.43751646718799],[-0.945389035390777,43.43766406194857],[-0.945239650631225,43.437794714432194],[-0.944989370094155,43.43822945449958],[-0.945321522699034,43.43884006394825],[-0.945663106397117,43.438809871006136],[-0.946467980000234,43.43837049929806],[-0.947397921141453,43.437869631950775],[-0.94757439962195,43.43777717262848],[-0.947685519045173,43.437935442646626],[-0.94805880685456,43.43860823029527],[-0.948044514206372,43.438918531852885],[-0.94757992479773,43.4392222819853],[-0.946761869256615,43.43976321081206],[-0.946738523722297,43.43967884742615],[-0.946369074337148,43.43951386810834],[-0.946112099670427,43.439697986489165],[-0.94605237910091,43.43964197227479],[-0.945968064619389,43.43959865463957],[-0.945771580339946,43.43951861918564],[-0.945602237668502,43.43947560747183],[-0.944246633023785,43.43942870484022],[-0.94329443315581,43.439385920533994],[-0.942893848602128,43.43937060299133],[-0.942796608334352,43.43931361140223],[-0.942500440959433,43.43920215970155],[-0.941862731864757,43.438860110994945],[-0.941645110371597,43.43874390585563],[-0.941628520656381,43.43849652438548],[-0.94111611652244,43.43854679467019],[-0.941016145510975,43.438529265208246],[-0.94098234097441,43.438339079490795],[-0.940063041013758,43.438005829169775],[-0.940208553886897,43.438258607601746],[-0.940216419809081,43.43827237353558],[-0.940204508839614,43.43834207709362],[-0.940184998638432,43.43845421377749],[-0.940128276758792,43.43845627796401],[-0.94009415608029,43.43847247262058],[-0.940033282248938,43.43843199080805],[-0.940028271517198,43.43841118494217],[-0.939903124611703,43.43843033164887],[-0.939366572799228,43.43851245920189],[-0.939567361023334,43.43878898972733],[-0.939765340159332,43.439060577844955],[-0.939803758656668,43.439114307732844],[-0.940065403697536,43.439476089108396],[-0.940134437082774,43.439574284421276],[-0.940211626258476,43.43969046878986],[-0.940341771690992,43.43988489558758],[-0.940613063169764,43.44029352607166],[-0.940646908665654,43.44034363891096],[-0.940499585877331,43.440367556716616],[-0.940092451729623,43.440373995655],[-0.93878530378797,43.44056721079847],[-0.93855298376171,43.440615386233965],[-0.938394204790176,43.44040893752322],[-0.938403619134424,43.440358691774335],[-0.938470186754996,43.44026934497981],[-0.938525034364898,43.4402272651129],[-0.938447489896909,43.44005893726159],[-0.937816281210618,43.440174315527294],[-0.93782410373989,43.44018745267407],[-0.937756793004279,43.440195575581676],[-0.937914623381463,43.4404730411768],[-0.937969980082084,43.440458236773644],[-0.938076718791131,43.440619648089076],[-0.937810896074677,43.44064976369241],[-0.937646816315982,43.440450713007436],[-0.937128094008721,43.44051731750207],[-0.93714046275101,43.440697924777055],[-0.936474985852189,43.440785986232484],[-0.936577089529617,43.44104043798275],[-0.93642721268708,43.441050570965295],[-0.936057120993087,43.44106906949441],[-0.935835568690744,43.44107415052744],[-0.935820607917047,43.44109216949514],[-0.935769345456541,43.441098176447234],[-0.935749100522246,43.44103901041194],[-0.93560905033291,43.44105725240635],[-0.935578547465911,43.4410649368104],[-0.935545942094744,43.441072607547525],[-0.935576634787988,43.4410731133572],[-0.935650746605182,43.44122571416044],[-0.935625761772764,43.44123454917721],[-0.935628249789118,43.44125283467167],[-0.935566905236993,43.44126506305893],[-0.935547532217732,43.44126738861759],[-0.935560282904386,43.44130556866322],[-0.935492648927419,43.4413198271701],[-0.935190702127645,43.44139115375335],[-0.93509327674446,43.44117787663094],[-0.934643309174309,43.44132439155258],[-0.934493603110596,43.441373159089565],[-0.93386857467348,43.441553865869814],[-0.934172533026121,43.441920159099666],[-0.934079829299909,43.441960099031796],[-0.934031572301416,43.44197932748295],[-0.933658359749896,43.44209503508272],[-0.93328636295752,43.44216709943291],[-0.932972717461024,43.44215426134566],[-0.932966996991535,43.44211762723126],[-0.932940345649556,43.441952131168925],[-0.932916006881183,43.4418746473769],[-0.932752783636633,43.441624664442564],[-0.932611782402732,43.44140675270321],[-0.931518277815626,43.44181425095448],[-0.931054055262117,43.44190073579202],[-0.930740233915752,43.44193410763601],[-0.93014889855605,43.44198403734781],[-0.930142083877999,43.44196572866737],[-0.930136133341879,43.44194378550897],[-0.929595964966501,43.44195555363878],[-0.929389121679358,43.44195522333739],[-0.929397466683823,43.44178431320901],[-0.929401886225254,43.44162831830577],[-0.929089939489809,43.44164026893043],[-0.929087920660924,43.44171744873054],[-0.92870418845842,43.441740830695906],[-0.928387615561434,43.441627198659106],[-0.92824249593665,43.44129449214881],[-0.928195955784634,43.441214029764566],[-0.928119954541282,43.441160128148816],[-0.92868502454788,43.4408869589827],[-0.929143737052733,43.440956878849],[-0.929734513759513,43.440743393449466],[-0.930720624677946,43.44028405387574],[-0.931720959044667,43.440298628088556],[-0.93197742272909,43.44030156560311],[-0.932296409414264,43.44025890441424],[-0.932635563987879,43.440212897502846],[-0.932828583346286,43.44018651998988],[-0.933225296852193,43.4398760236909],[-0.93371048369512,43.43977642665029],[-0.93413216141352,43.439689944346235],[-0.934714679189052,43.43959644448753],[-0.935222233041209,43.439513052422015],[-0.935280171695322,43.43950527171124],[-0.935318922717943,43.43950071054645],[-0.935253130576093,43.439352221259085],[-0.935126859542188,43.43892335565009],[-0.935030382928014,43.43874013054736],[-0.935977870248386,43.438647590862665],[-0.935862096202662,43.43813195989997],[-0.935659723699378,43.43778684163664],[-0.935861461279147,43.437696546543556],[-0.936265797149493,43.4375195270024],[-0.936653679032753,43.43779367377785],[-0.937193358581802,43.43781503548937],[-0.937349410101911,43.437714688743824],[-0.937506717242521,43.4375298029863],[-0.937895809754745,43.437426294662714],[-0.938232054517286,43.43767736250185],[-0.938565542821272,43.43779071034699],[-0.938669713081491,43.43784069747189],[-0.938761264348358,43.43782016207881],[-0.938688102797984,43.437739231179116],[-0.938201749172751,43.43722050839911],[-0.938124057632068,43.437140192374514],[-0.937707384238895,43.4366947790131],[-0.937293072377883,43.43624945870585],[-0.937204017964502,43.43614577484944],[-0.938706167695412,43.43559408820513],[-0.938748190530442,43.435579588204675],[-0.938891743070549,43.43577505921127],[-0.940826380796456,43.435162117511744],[-0.941302717827292,43.435253321997365],[-0.941178340714215,43.43569112498489],[-0.941130087984819,43.43585817468057],[-0.941083175582002,43.436077240686295],[-0.940980690392197,43.43638183193571],[-0.940802702667097,43.4368941890252],[-0.941763249777149,43.4367168089486],[-0.942016284786344,43.43503835928632],[-0.941950056124175,43.43499185832491],[-0.942504512677086,43.43503616499645],[-0.942603340779754,43.43512903972218],[-0.942869255084088,43.43538724811136],[-0.942900038089303,43.43536387774968],[-0.943438723415215,43.435625121880555],[-0.943479726913062,43.435649841127535],[-0.943555463887542,43.43570878601356],[-0.944056068869008,43.435847286642975]]]]}}]}
