{"type": "FeatureCollection","name": "aoc_geojson","features": [{"type":"Feature","properties":{"dt":"Bordeaux","type_prod":"Vins","categorie":"Vin tranquille","type_denom":"appellation","signe":"AOC","id_app":64,"app":"Premières Côtes de Bordeaux","id_denom":123,"denom":"Premières Côtes de Bordeaux","insee":"33308","cvi":"1B153D","nomcom":"OMET","insee2011":"33308","nomcom2011":"OMET","id_aire":122,"crinao":null,"grp_name1":null,"grp_name2":null},"geometry":{"type":"MultiPolygon","coordinates":[[[[-0.296717527768644,44.65069381383137],[-0.29678121128771,44.65067119048191],[-0.296847383997202,44.650652277298],[-0.296913189500734,44.65063571776929],[-0.296962389229287,44.65062659155479],[-0.296996531483344,44.65062115817393],[-0.29711240523965,44.65061031379207],[-0.297173565835289,44.650604975621405],[-0.297326178046477,44.6506050193551],[-0.297433674477189,44.65060848096748],[-0.297437616923438,44.650637016960964],[-0.2974592301002,44.6507172871492],[-0.297474463155372,44.6507597230672],[-0.297495176709712,44.65079658918037],[-0.297535735128296,44.650855479882345],[-0.297574968562225,44.650902516152165],[-0.297738818206051,44.65081419095169],[-0.297812480291028,44.6508714633589],[-0.297878324551937,44.65083616012524],[-0.297959033132895,44.65089520456385],[-0.298061324003303,44.650971446025245],[-0.298100519851345,44.65095099411403],[-0.298441045867194,44.6511896166121],[-0.298537471434328,44.65125621115125],[-0.298905619219305,44.65102879249664],[-0.299105110365044,44.650904620877306],[-0.299138966019201,44.65088351699452],[-0.299135519501092,44.6509259695236],[-0.299137230290974,44.65094871521253],[-0.299144587234754,44.65098165456544],[-0.299158192369531,44.651015668939934],[-0.299169131742919,44.6510300297162],[-0.299181886661564,44.651038749757994],[-0.299197360678299,44.651044325060184],[-0.299203031500027,44.6510463183663],[-0.299228643334377,44.651048257215685],[-0.299229525396588,44.65104823089261],[-0.29936682196314,44.65104106991947],[-0.299388254435181,44.65104277303751],[-0.299414990677991,44.65104882314992],[-0.29942819699132,44.65105662863591],[-0.299442070662526,44.651067207480715],[-0.299476233430897,44.65111169129177],[-0.299489499019393,44.65112697377728],[-0.299513607098326,44.65114418530915],[-0.299587835182738,44.65118522068422],[-0.299596815194224,44.65119414345254],[-0.299610943138168,44.65121552737753],[-0.299626499344154,44.651237589518956],[-0.299641397855469,44.65125273314692],[-0.299688700990882,44.65128880530134],[-0.299704417931697,44.65130068068796],[-0.299719872322628,44.65131238369743],[-0.29974114423096,44.65132427349184],[-0.299760934760536,44.65133242305646],[-0.299784148628089,44.65134083086261],[-0.299792145629734,44.65134374587272],[-0.299808459705594,44.651348575174666],[-0.299814036183788,44.65135111190166],[-0.29982014920602,44.651358498324065],[-0.299821000550618,44.65136225735465],[-0.299820949198346,44.65136784544374],[-0.299818723623725,44.65137079525622],[-0.299806091943531,44.65137495672497],[-0.299781820847606,44.65138297972415],[-0.299765551133651,44.65138968262931],[-0.299751676485143,44.65140063912178],[-0.299724733744442,44.651438476744794],[-0.299715733072938,44.65145721706462],[-0.299699206507528,44.65149186040664],[-0.29969269352231,44.651505660765],[-0.299681712671084,44.65152076584792],[-0.299645680860724,44.65155644187153],[-0.299630139036477,44.651579882699174],[-0.299612142410274,44.65161529074851],[-0.299610831373408,44.651623078971646],[-0.299611894330248,44.651634760993886],[-0.299616958439839,44.65164794550189],[-0.299620251387378,44.65165244261416],[-0.299645723452029,44.65168862573245],[-0.299647104735659,44.6516906569388],[-0.299658369268544,44.65170194437773],[-0.299674086318169,44.651713819770535],[-0.299696549977531,44.65172450263538],[-0.299709771411535,44.65172825288539],[-0.299754370318683,44.65173539168969],[-0.299767365639146,44.651737436672455],[-0.299619157610759,44.65182556840578],[-0.299312502941081,44.65200808377374],[-0.299315628581387,44.65201619011835],[-0.299381796577162,44.65212864975516],[-0.299121482708416,44.652322216160236],[-0.299100179533255,44.65233997195824],[-0.299039659357229,44.652326099513324],[-0.299019197627283,44.652323736605446],[-0.298878812798516,44.65231486027956],[-0.298371806560551,44.65228367324506],[-0.298140634433822,44.65227002574866],[-0.297966678483186,44.652263411247105],[-0.297821831664384,44.65213518656074],[-0.297798789324932,44.652116771492544],[-0.297641638837494,44.65200477220509],[-0.297619678416233,44.65198758631191],[-0.297541356494485,44.65192189266535],[-0.297486605823364,44.65186639871026],[-0.29730000429404,44.65167391201285],[-0.297162151146942,44.65152709644832],[-0.297073708324265,44.651432960667044],[-0.296988726304669,44.65134187531492],[-0.296897116104299,44.651269098797314],[-0.29681391817532,44.65120201832293],[-0.296580899451879,44.65102515146491],[-0.296509842813688,44.65096924226542],[-0.296424676604034,44.65086419567324],[-0.296349067237077,44.65076499125407],[-0.29638912676692,44.65075929152522],[-0.296554410403725,44.65073643211789],[-0.296659571826218,44.65071293244302],[-0.296717527768644,44.65069381383137]]],[[[-0.294819437634255,44.651246339350884],[-0.295107743520253,44.651075827094715],[-0.295161633988216,44.65112098562227],[-0.295457039827983,44.65093377148238],[-0.295541779441421,44.65088051607318],[-0.29569472682628,44.65102652305759],[-0.295754363253498,44.65108358416019],[-0.295850847462775,44.651181445816555],[-0.295923161299373,44.65114234669658],[-0.296384624778519,44.65088728555773],[-0.296479231727355,44.650996195535555],[-0.296515868909986,44.651031235426984],[-0.296607053152076,44.651105376512874],[-0.29681102592676,44.65127554063529],[-0.296878050940159,44.65133156989629],[-0.296962305603444,44.65140591737448],[-0.2971379612015,44.651586116218866],[-0.297303745926554,44.65175940077657],[-0.297359482987774,44.651812342433956],[-0.297508572318967,44.65195269548348],[-0.29757422359892,44.65201110810282],[-0.297721108028977,44.652115934932866],[-0.297823985673135,44.65220432347015],[-0.297870018908653,44.65224674168267],[-0.297870486835667,44.652250422057605],[-0.29786960022999,44.65225468347199],[-0.297867852606148,44.652259330993004],[-0.297862628943153,44.652262820723486],[-0.297847413493642,44.65226597776438],[-0.297729384475282,44.65228103197504],[-0.297708298753167,44.65228310261778],[-0.297688494573697,44.652287657989504],[-0.297590224793986,44.65231248482044],[-0.29748028811959,44.652336398061436],[-0.297340984601894,44.652356771879234],[-0.297178429875962,44.6523659450044],[-0.29683330047607,44.6523873203876],[-0.296635488194884,44.65239583208642],[-0.296583865033148,44.65239592970751],[-0.296565839721198,44.652394214543975],[-0.296505132207789,44.65238791518743],[-0.296474252718168,44.65238009568022],[-0.296461945013085,44.65237685843361],[-0.296425619122293,44.65235793810542],[-0.296155155216114,44.65221642677902],[-0.295918455863402,44.652093190846664],[-0.295844492096143,44.65205448790457],[-0.295541707154193,44.65189771971569],[-0.295452973475813,44.6518525186751],[-0.295409092869747,44.65183391333362],[-0.295321951821388,44.6518008289715],[-0.295201690285056,44.65176260455511],[-0.294774659423079,44.65162891025911],[-0.294670407951435,44.65159678585834],[-0.294561452130767,44.651564080709406],[-0.294375139056106,44.65150800054429],[-0.294429850454255,44.651476545297044],[-0.294658654485475,44.6513418672285],[-0.294774318692317,44.65127345417779],[-0.294819437634255,44.651246339350884]]],[[[-0.294490168090486,44.65726934868676],[-0.294757090748239,44.657220487008026],[-0.295402161786247,44.65709052272966],[-0.296040373814158,44.65697283325168],[-0.296462985569625,44.65689652930296],[-0.296664112518103,44.65710615576242],[-0.296380869246657,44.65735284035493],[-0.296245756864152,44.657468779841665],[-0.296175231657786,44.65751269142186],[-0.295932942621832,44.65760929911889],[-0.29554634594867,44.6577596756335],[-0.295438357946574,44.65779551253644],[-0.295274389513069,44.65783905483281],[-0.294999852635552,44.657906706390165],[-0.294712968692932,44.657964002586986],[-0.29443244303874,44.65801993720052],[-0.293936809774618,44.65809985019659],[-0.293890853442725,44.65795299540977],[-0.293669934879011,44.65798768948668],[-0.293572269613828,44.65770135955884],[-0.293538791740888,44.657396538180905],[-0.293719113822068,44.65737359602524],[-0.294218680906694,44.657309245030156],[-0.294490168090486,44.65726934868676]]],[[[-0.286934399011587,44.66273349590101],[-0.286989866438072,44.66267796399856],[-0.287026916676575,44.662629196821406],[-0.287057166096684,44.662585046966015],[-0.287084695144801,44.66254404155732],[-0.287113285224761,44.66248876792715],[-0.287141622975115,44.66244431445295],[-0.287216011674988,44.662345239613074],[-0.287253912170599,44.66230023150921],[-0.287322723156176,44.66222024456814],[-0.287444421724958,44.66209678616525],[-0.287531570179522,44.66201517263937],[-0.287588806037832,44.661959677941375],[-0.287627367583168,44.661921678276734],[-0.287738063029863,44.66181305366078],[-0.287862023134462,44.66169376248193],[-0.287947684216805,44.661612643357806],[-0.288032510158499,44.66150640955209],[-0.288091157595114,44.66146646085789],[-0.288097637857546,44.66142824362236],[-0.288119782918565,44.6613988414384],[-0.288181455016843,44.661209587986384],[-0.288272061417403,44.66093207168779],[-0.288313262956983,44.6607663137279],[-0.288332865988474,44.660725814009794],[-0.288380200870958,44.66061321609519],[-0.288437975027257,44.660480484481575],[-0.288427530199545,44.660472415297704],[-0.288513046550081,44.66034129143609],[-0.288554851464861,44.66027454140518],[-0.288604890188668,44.660199617184546],[-0.2886876764379,44.66022716008727],[-0.288772873119729,44.66025706408601],[-0.288784021392422,44.66024258593247],[-0.288857906868629,44.66026687933503],[-0.288866487298468,44.66025599166608],[-0.288912330053375,44.66019786162244],[-0.288977325108247,44.660219085480556],[-0.289071766731646,44.66007652258009],[-0.289080509821914,44.660061935727825],[-0.28914409045483,44.659978949452395],[-0.289161949988851,44.65998427504845],[-0.289264535904917,44.65986877167978],[-0.289383629169821,44.65990622686841],[-0.289474525499607,44.659800261808755],[-0.289493676174138,44.65977797664235],[-0.289737676123485,44.65986163388714],[-0.289848000814912,44.65974247568396],[-0.289944377419969,44.65960931548679],[-0.289679604798483,44.6595352873098],[-0.289334048217265,44.65943987390991],[-0.289584419523359,44.65923275154249],[-0.28971870973206,44.659119728486075],[-0.290200315447791,44.65930948762073],[-0.290310822725521,44.659353414560286],[-0.290341973164957,44.65936582321818],[-0.290813558613689,44.65955686916807],[-0.290792254064001,44.65966112467292],[-0.29071466926776,44.65981769449688],[-0.290791857853963,44.65983801376711],[-0.290443728089088,44.660362066178266],[-0.290715505881394,44.660443543194816],[-0.291027798320363,44.660529129953154],[-0.291430452020162,44.660637886433086],[-0.291299229349775,44.66086390292887],[-0.29131916380876,44.66087232012954],[-0.291290228876092,44.66096481886602],[-0.29161300569215,44.6610331521579],[-0.291930053884307,44.66109850138249],[-0.292002980316687,44.661114982121646],[-0.291933944612672,44.661249312610856],[-0.29185783057339,44.661396468579824],[-0.291780266964849,44.66154691145182],[-0.291699347266687,44.66152760490649],[-0.291591948769459,44.661746515068124],[-0.291258031563746,44.66229348459533],[-0.291005516816465,44.6622112550412],[-0.290887609621206,44.66217259471563],[-0.290665886431321,44.662481227538755],[-0.29063008601708,44.662454089843315],[-0.290612495916014,44.662630589719576],[-0.290576876673076,44.6630409097833],[-0.290572376154112,44.66304167445003],[-0.290472350462878,44.663041136852264],[-0.290355225711869,44.66303750373872],[-0.290232282131797,44.66302935814505],[-0.289828245333471,44.66300092206618],[-0.289538077623348,44.66297873842774],[-0.289540623947408,44.6629510002417],[-0.289274108630222,44.662888465808514],[-0.289212681300833,44.66286136912273],[-0.288951791744318,44.66284543141338],[-0.288718194416355,44.66283417783057],[-0.288556348402196,44.662823583176404],[-0.28816211320994,44.662802959087585],[-0.288077285783709,44.6628075539418],[-0.288063395506996,44.6628356293895],[-0.288027653572027,44.66291111939519],[-0.287978777549641,44.662975736728605],[-0.287953911496884,44.663008283378055],[-0.287952992446339,44.66301633010216],[-0.287906584467512,44.66307997295956],[-0.287840094362316,44.66317160500147],[-0.287825831104515,44.663186806408824],[-0.287784180899835,44.663228141774255],[-0.287672563666424,44.66334481321735],[-0.28754769071364,44.663489631156544],[-0.287520386814943,44.66357559268167],[-0.287312240763957,44.663585114603904],[-0.287209407222665,44.66343264941634],[-0.287128816588078,44.66344711928192],[-0.286975134608412,44.66322597323544],[-0.286750309123295,44.66289557125933],[-0.286856517865227,44.66279870456555],[-0.286904963822443,44.66275914988484],[-0.286934399011587,44.66273349590101]]],[[[-0.283456890593428,44.65535149888088],[-0.283411502297173,44.65529400816304],[-0.283298187287301,44.655145365952365],[-0.283661831655362,44.65499733639702],[-0.283767160510491,44.65495050714109],[-0.283898237853279,44.65505519064856],[-0.284008166577793,44.65514572495172],[-0.284088168054037,44.65521011656417],[-0.284221278488273,44.65531717218405],[-0.284432966306229,44.65552479352822],[-0.284455191571386,44.65554656947921],[-0.284569536844324,44.65565652491782],[-0.284653499040385,44.655717374514836],[-0.284716768776815,44.655763250608615],[-0.284787263354591,44.65581612043929],[-0.284826679603723,44.65584693674035],[-0.284870600910259,44.65588140360129],[-0.284919883208021,44.65591904506116],[-0.284964135354741,44.6559548536378],[-0.285250211414489,44.65617810429279],[-0.285326939769445,44.6562317797489],[-0.285432704621631,44.65630711864928],[-0.285501840545754,44.656360478974264],[-0.285626675959997,44.65646192216586],[-0.285803704126784,44.65660542511582],[-0.2859146104718,44.65669313544236],[-0.286021080050666,44.65678268953231],[-0.286071324613273,44.65682597857247],[-0.286208669455036,44.65693840266636],[-0.286380150539602,44.657075491989424],[-0.286414580364334,44.65709870694742],[-0.286584981205413,44.65721942893129],[-0.286724805610807,44.65736565835917],[-0.286775308147374,44.65742416725358],[-0.28681475762222,44.65747498532812],[-0.286959639028455,44.657664585065525],[-0.287042382183292,44.65778016325373],[-0.287080057129577,44.6578395039138],[-0.287099395875176,44.65788100819344],[-0.28711894449731,44.657932598032886],[-0.287133830222813,44.65798432649678],[-0.287169614784494,44.65805669851197],[-0.287204522661822,44.65812053657322],[-0.287294250727007,44.65824762066632],[-0.287405434697949,44.65840488283022],[-0.287225288450699,44.65824489536649],[-0.287165143490958,44.658200729729494],[-0.287077714365415,44.65814331875768],[-0.287007671404377,44.65809827593057],[-0.286956841816667,44.65806879075198],[-0.286914145992672,44.65804672271145],[-0.286839855009073,44.65800892439354],[-0.286699989550111,44.6579528916919],[-0.286573855725597,44.65790068560868],[-0.286427458700013,44.65783871956563],[-0.286044796019062,44.65767177445512],[-0.285620736497345,44.657509302048716],[-0.285296755348489,44.65739818796639],[-0.285049181279409,44.657309221394456],[-0.284874589631152,44.65724863172518],[-0.284652314779922,44.65717999730208],[-0.284494663550404,44.657119804854],[-0.284264141974157,44.65702879825541],[-0.28420382109024,44.656998872983266],[-0.284257592547413,44.65697492967958],[-0.284297695325177,44.65695688878642],[-0.284421867821951,44.656908417961986],[-0.284563967240361,44.65685346749808],[-0.284448725255991,44.65668920513412],[-0.28441094312517,44.656636624782706],[-0.284214937481101,44.65670020449324],[-0.284181680953411,44.65666028457811],[-0.284118990349205,44.65658537707587],[-0.284080604074135,44.656541915192555],[-0.283995184027521,44.65644740909116],[-0.283974439707353,44.656420723369386],[-0.283938086391529,44.65636882128331],[-0.283896173117013,44.656308163914446],[-0.28377727923652,44.656148334488684],[-0.283742894910281,44.65610205049936],[-0.284151470175432,44.655960253811095],[-0.284147096622201,44.65595452688582],[-0.284133372085549,44.65593781457222],[-0.284096015855965,44.65588819497133],[-0.284054475586422,44.65582743649453],[-0.2840376166466,44.65580676254031],[-0.284026748215998,44.655795732112],[-0.283914875248006,44.6558450986935],[-0.283818676524085,44.655886160476456],[-0.283637358185091,44.65596561201041],[-0.28361561128833,44.655939046117126],[-0.283567187194647,44.655883627903634],[-0.283563821872556,44.655877871014646],[-0.283429636384142,44.65569173421168],[-0.283602578774968,44.65561586565427],[-0.28354866377438,44.655546373912905],[-0.283481507785914,44.655459794987976],[-0.283527380426012,44.65544113248204],[-0.283456890593428,44.65535149888088]]],[[[-0.283543540179025,44.654260906590245],[-0.283600447354573,44.654195512205405],[-0.283675201594288,44.65412877678334],[-0.283685703457003,44.654122698150594],[-0.283703052171682,44.65411713700297],[-0.283730445691001,44.654108484257755],[-0.28376310568694,44.654099224560575],[-0.283794326713626,44.65409343158572],[-0.28383317690461,44.654088583369344],[-0.283932121483147,44.65407951736141],[-0.284017272530216,44.65406986982277],[-0.284084403328085,44.65405859496954],[-0.284133141076162,44.654045794013626],[-0.284281228400996,44.65401139007189],[-0.284369200466107,44.65397868165623],[-0.284435697202904,44.65394571009061],[-0.284469470872558,44.653925244062094],[-0.284500046766491,44.653906224598174],[-0.284519548382398,44.65389645452576],[-0.284621866227446,44.6538434965919],[-0.284672174368013,44.65381866475595],[-0.28475353551048,44.653782998748845],[-0.284805859533023,44.65376243200268],[-0.284998273643296,44.653693731609096],[-0.285102022983625,44.65366100433091],[-0.285175249504858,44.6536417085257],[-0.285338336555907,44.65360045995536],[-0.285566642145565,44.65354546924343],[-0.285603722743341,44.65353193277956],[-0.285803234286664,44.65345509076442],[-0.285877502284863,44.65363327403476],[-0.285909417695922,44.65371296961336],[-0.28603772868499,44.653690143861475],[-0.286047972767453,44.653688307600255],[-0.286129683866555,44.65367380486597],[-0.286330474976615,44.6536383722411],[-0.286451555579582,44.65361278744803],[-0.286323409001103,44.65328140535304],[-0.286810632827048,44.6531163559588],[-0.286928514692047,44.653081404659424],[-0.287336718351071,44.65296618756551],[-0.287632825271543,44.65291800675476],[-0.287765260658265,44.65290100323043],[-0.288150579276982,44.652865215584434],[-0.28816970710585,44.65286203364263],[-0.288354826326554,44.652817692389696],[-0.288380958357781,44.65280691345188],[-0.288406591552154,44.65278975187198],[-0.288529396441964,44.65269860692244],[-0.288600525283683,44.652639094130116],[-0.288630343435739,44.652676321692496],[-0.288630679712932,44.652708028741166],[-0.288826898353723,44.652719762411515],[-0.289025663602184,44.65273187050275],[-0.289027222775382,44.652715334852076],[-0.289086385658267,44.65269086824496],[-0.289060391652075,44.65278832452985],[-0.289333326164427,44.65277569921791],[-0.289384072754151,44.65277139612237],[-0.289516449488793,44.65275340106324],[-0.289648778863089,44.65273459630471],[-0.28967591888428,44.65273027464245],[-0.289671498816344,44.65276482639161],[-0.289951864424194,44.65281027657795],[-0.290280397977028,44.65282239527634],[-0.290281592605207,44.65289687684309],[-0.290416159715577,44.65290125175218],[-0.290675034445505,44.65291156792248],[-0.290762724453962,44.652915175133465],[-0.290762900261789,44.65285552014689],[-0.290762222312767,44.65284175420497],[-0.291691533770958,44.65288905699318],[-0.291732030869144,44.65288001207698],[-0.291942430877888,44.65286653903309],[-0.291967029058379,44.65285544447803],[-0.29207833167473,44.65279437270127],[-0.292518588928118,44.65255608878271],[-0.292317826365768,44.65244502057707],[-0.292261596335935,44.652415969106194],[-0.292174576685818,44.652378463505045],[-0.292182131557784,44.65236949830972],[-0.292111857239312,44.652350686470164],[-0.292060800499985,44.65234103373041],[-0.292031749050615,44.65233640236343],[-0.292000114573781,44.65233509169724],[-0.291969609096688,44.652335819829034],[-0.291917702846523,44.652341870659974],[-0.291857553223167,44.65234726586076],[-0.291845608337927,44.65234807204868],[-0.291708748339363,44.65234980424503],[-0.291487567550814,44.6523062007326],[-0.291265452700663,44.652266048599856],[-0.290870337301023,44.652188065508014],[-0.290855766693163,44.65217849752737],[-0.29084547524187,44.65216871206571],[-0.290840591696398,44.65215642289207],[-0.290839147257249,44.65214466208702],[-0.290839220114644,44.65213078369506],[-0.290843834044356,44.65210388506862],[-0.290856234016666,44.652067654041],[-0.290867112039915,44.65204642580208],[-0.290897862073615,44.652002350019636],[-0.290923398817552,44.651968431105054],[-0.291043281860373,44.65183817436804],[-0.291114091207778,44.65176461294447],[-0.291128744262059,44.6517453447224],[-0.291142698595937,44.65171843834407],[-0.291154736590999,44.65169330101331],[-0.291166469888006,44.651665109170075],[-0.291175856151903,44.65163563561519],[-0.291182081743176,44.651608238468775],[-0.291183078173958,44.65158640331235],[-0.291179317047566,44.65155227524898],[-0.291175624699757,44.65152796662068],[-0.29116806304535,44.65150872897335],[-0.291153712259448,44.65148347616523],[-0.291140564234551,44.651465846504344],[-0.291119797792508,44.65144745247649],[-0.291086256808831,44.65142430272364],[-0.291047161111419,44.65140546316176],[-0.290994361751322,44.651385409621156],[-0.29097068728109,44.65137989709036],[-0.290936926747174,44.6513745946855],[-0.290910070712494,44.65137296127242],[-0.290859393707078,44.65137627187681],[-0.290542741392943,44.65140534006746],[-0.290944131390784,44.651288329638206],[-0.291246629673804,44.65119850012222],[-0.291385081019077,44.65116139974589],[-0.29150571816528,44.65113483126205],[-0.291688740022619,44.65110009782356],[-0.29172822263937,44.651093155505286],[-0.291801475783604,44.651085207648094],[-0.291863482950825,44.65108354155544],[-0.291916349386762,44.65108530129404],[-0.292181727099865,44.65110334932839],[-0.292392548284515,44.6511252741108],[-0.292793081660895,44.651198855250236],[-0.292887475200172,44.65121784927538],[-0.293100058033119,44.65126341798662],[-0.293554098428835,44.65137126457304],[-0.293772846995678,44.65142295572565],[-0.293983699177235,44.65147344004353],[-0.294028103441313,44.65148590315059],[-0.294564926083434,44.65164074707539],[-0.294633483780916,44.65166258198785],[-0.294998897653856,44.65177441552013],[-0.295293717773543,44.65186627621424],[-0.295386997165564,44.65190287196171],[-0.295522437016894,44.65197182027256],[-0.295872979530056,44.65215735017632],[-0.296227126373036,44.652344033067465],[-0.296428652036522,44.6524529091048],[-0.296449985895878,44.65245939134476],[-0.29649085660292,44.65246321862068],[-0.2965576542532,44.65246573216863],[-0.296708475746314,44.65246528966606],[-0.296985171214578,44.65245010037787],[-0.297346016299565,44.6524319501451],[-0.2974217014777,44.65242455679487],[-0.297522146396733,44.6524066934864],[-0.297611302106122,44.65238574279647],[-0.297704515365629,44.65235863392306],[-0.297722849551602,44.65235484324196],[-0.297789440657545,44.6523473604737],[-0.297880950870631,44.652340756238836],[-0.298006637731416,44.652340070550906],[-0.298336172324056,44.65234772025053],[-0.29863053063225,44.65236687077976],[-0.298775740874905,44.65237623418383],[-0.298992622396644,44.65239373081925],[-0.299071520973299,44.65241534460147],[-0.299157031443535,44.65244423979975],[-0.299197448219484,44.652461865807226],[-0.299248987812681,44.65249051319887],[-0.299309056696887,44.65253116041619],[-0.299334472858436,44.65254914392791],[-0.299433178314949,44.652630897658995],[-0.299519142775046,44.65269555104022],[-0.29967229900336,44.652812532783166],[-0.299772190886435,44.65288866427917],[-0.299895635276096,44.652981122707224],[-0.300060652311193,44.6530893701131],[-0.300432867333446,44.653334159779675],[-0.300614112541413,44.65345003151366],[-0.300733113087597,44.65352261826874],[-0.300946034657126,44.653629704592284],[-0.301080456255693,44.65369831644849],[-0.30109337548181,44.65370982468228],[-0.301102446239943,44.65372243898804],[-0.301106816566601,44.65373023781606],[-0.301109082532577,44.65374305530058],[-0.301089839179747,44.653813191619975],[-0.301043647764086,44.65396847166106],[-0.301025065464963,44.65403696632693],[-0.300928442934226,44.65396929826569],[-0.30083166868632,44.65406706906447],[-0.300641317017749,44.65426332590455],[-0.300607724373144,44.65429325275557],[-0.300591403114169,44.65430770641243],[-0.300387450677489,44.65448085117473],[-0.300348710125787,44.65445308363872],[-0.30028800583245,44.65449859705726],[-0.300268339954594,44.654514141666304],[-0.300290128721123,44.65453052127478],[-0.300274331995273,44.65454315710655],[-0.300250796933456,44.654561610490575],[-0.300077450752492,44.65469266265418],[-0.300350387005689,44.65487599061129],[-0.300291413954732,44.65491658662835],[-0.300229017264858,44.654956924383065],[-0.300090608430535,44.65503791607502],[-0.29981439019336,44.65518429270376],[-0.299789035987964,44.65519324905231],[-0.299748654886725,44.65520643832333],[-0.299520778787066,44.655272979284135],[-0.299466168030336,44.65528677331656],[-0.299396319559831,44.65530120225729],[-0.299074124762813,44.65535235550565],[-0.298736591978097,44.6554045961642],[-0.298683891448028,44.65541436815161],[-0.298590620134637,44.65543625333907],[-0.298424946101972,44.655491475080126],[-0.298311121940918,44.65553749079657],[-0.298265737513213,44.655557947129005],[-0.298175919926045,44.65560432781323],[-0.298072673069332,44.65566498530899],[-0.297964523263992,44.6557346193215],[-0.297790319940459,44.65584902368712],[-0.297761464359592,44.655867184676794],[-0.297717242896494,44.65590535692847],[-0.297587717398564,44.656015274662025],[-0.297544130709826,44.65605135547403],[-0.297500470958958,44.65609050204389],[-0.297396083767737,44.65618777583442],[-0.29720698275868,44.65634533366842],[-0.297003741002961,44.6565093499183],[-0.296896256218217,44.65658608134764],[-0.296797185956054,44.65664697346376],[-0.296606308394426,44.656744032091204],[-0.296540224487944,44.65677321436997],[-0.296483575412294,44.656795357377234],[-0.296443239450229,44.65680719246001],[-0.296407418891392,44.65681636994344],[-0.296380713702558,44.65682383395859],[-0.296194887873059,44.656858388043155],[-0.29614941587057,44.65686659169028],[-0.295991797077246,44.65689561902258],[-0.295766337494727,44.656936760205014],[-0.295496786652825,44.65698813556958],[-0.295141914385614,44.65705493820909],[-0.294816472472539,44.65711770897997],[-0.294714332151435,44.6571304840836],[-0.294640714784344,44.6571409674788],[-0.294140132107817,44.65721598316217],[-0.29385945598237,44.65725849513973],[-0.29380768215954,44.657266885541944],[-0.293801371126746,44.65727338094597],[-0.293439095688319,44.65733237915641],[-0.293368802752065,44.65735438629464],[-0.292976212018345,44.65747141290711],[-0.292752241977727,44.65754674359562],[-0.292579509193858,44.65760234669654],[-0.29240090025497,44.65765893544603],[-0.292285884792092,44.65769768164389],[-0.292079083940012,44.65777520285373],[-0.291956286474127,44.65782120863748],[-0.291589919742863,44.657609374991885],[-0.291560819856255,44.657629884307816],[-0.291178239932077,44.65789888475541],[-0.291166719578089,44.65790697675007],[-0.290933382570255,44.657761553554934],[-0.290826733224165,44.65785276093266],[-0.290737810414859,44.65792974457929],[-0.290795873069114,44.65797063641405],[-0.29092133036961,44.65806520755167],[-0.291058687576914,44.65817113808634],[-0.290835044184697,44.6582715944819],[-0.290569056040165,44.65839061087705],[-0.290469339427653,44.65842763833653],[-0.290370084668681,44.65846176858135],[-0.290300256690432,44.65848961672522],[-0.290278701288156,44.658498818193614],[-0.290262979783957,44.65850631426085],[-0.290245178961309,44.65851711600028],[-0.290212239609421,44.658538910564516],[-0.290168651350521,44.6585707533931],[-0.29010059896293,44.65862684170678],[-0.289988747574805,44.658538262269865],[-0.289891689195579,44.65846086619098],[-0.289753069559645,44.658603482803045],[-0.289598634817832,44.65840182607887],[-0.288990573183367,44.658660136433866],[-0.288800473353379,44.65874057852247],[-0.288303686521648,44.65895664953524],[-0.288299616892849,44.65895830235719],[-0.288036592331492,44.65906767312569],[-0.287924381311351,44.65891233422003],[-0.287887807438895,44.65886323305387],[-0.287666443500362,44.65858328004965],[-0.287528173427523,44.658418353548285],[-0.287459999667437,44.65833396945139],[-0.287357742277563,44.65819121922987],[-0.287311602197802,44.65812528230937],[-0.287277030169359,44.65806720103734],[-0.287255002883187,44.658014243223704],[-0.287212607682379,44.65791296373589],[-0.287145900910215,44.65778231182764],[-0.287120654877585,44.65773476590882],[-0.287082822438653,44.657674889315764],[-0.287055244945924,44.65763281902079],[-0.287020757288655,44.65758482698746],[-0.286986385029807,44.65754530141812],[-0.286948006339674,44.657504182942205],[-0.286868146075004,44.657409873977485],[-0.286774717832823,44.65730371397257],[-0.28669439597896,44.65721230199852],[-0.286615533572674,44.65714157081743],[-0.286428362149985,44.656995216835284],[-0.286206253219439,44.6568125973931],[-0.286071612800599,44.65670324661853],[-0.285990924353536,44.656637975637494],[-0.285779109414986,44.65646946634955],[-0.285660317211256,44.65637424120735],[-0.285528597763789,44.65627813862482],[-0.28544785756117,44.65622278040829],[-0.285355166810706,44.65616165008708],[-0.285194848580623,44.65603404916647],[-0.285027138308873,44.65589873841291],[-0.284772861629887,44.65570770124505],[-0.284656839384129,44.6556209528487],[-0.284645592671588,44.65561209624165],[-0.284326593716777,44.65531773810467],[-0.284127032760477,44.65516003505746],[-0.284040405226984,44.65509025377148],[-0.283891979734224,44.65497599391946],[-0.283770458675757,44.65487499121034],[-0.283424646903562,44.6545904376823],[-0.283366441217857,44.65454477097268],[-0.283367313412514,44.65453807729551],[-0.283364180924779,44.654512490375865],[-0.283366839822434,44.65448880388517],[-0.28337596774379,44.65446348360094],[-0.283384386184697,44.65444548289643],[-0.283543540179025,44.654260906590245]],[[-0.287233182918374,44.65598121438782],[-0.287419586827733,44.656099296663946],[-0.287559784368218,44.656163247695495],[-0.287461292303945,44.6562666436849],[-0.287585616899556,44.656326831705556],[-0.287741641308312,44.65640238604649],[-0.287781133182679,44.65642148541799],[-0.287838950636681,44.65645607858782],[-0.287920334164549,44.6565051086381],[-0.287701541561335,44.65684004875839],[-0.287804884885899,44.65690194173642],[-0.288031158254928,44.65703685865582],[-0.288166386146597,44.657119428424195],[-0.288242740483944,44.657164463002964],[-0.288334201781375,44.65711795168259],[-0.288682589803189,44.65737024707147],[-0.288385977575315,44.6575031442206],[-0.288473937457189,44.657573964076505],[-0.288444936194106,44.65758753148882],[-0.288584687269412,44.657689158750216],[-0.288660165880979,44.65774512188768],[-0.288757095247592,44.65781603518451],[-0.289331658168135,44.65757007582482],[-0.289325130487191,44.65753612005155],[-0.289374862170272,44.6575078792204],[-0.289462568591045,44.657459766653936],[-0.289624890393134,44.65736852617133],[-0.289648425019394,44.657356472667985],[-0.289266589366059,44.65710436429555],[-0.289226105165608,44.656856427135416],[-0.289190878313101,44.65665527851924],[-0.289232527762532,44.656607545089614],[-0.289368512886132,44.656454465174725],[-0.289267867642477,44.65639339442837],[-0.288624099308776,44.656009503082345],[-0.288476113798534,44.65592028519663],[-0.288513667653595,44.6558737551315],[-0.28793461599204,44.655530014457945],[-0.28787093500865,44.65536899777183],[-0.287831764557395,44.65528618444712],[-0.287772688692351,44.65517594028889],[-0.287735644766099,44.6551317188824],[-0.287674988396061,44.655061438333384],[-0.287637198967018,44.65502174433323],[-0.287203094845333,44.65572089367974],[-0.286959269372635,44.65561388916674],[-0.286935693393871,44.65560359721454],[-0.2867899686135,44.65554873020208],[-0.286522588865296,44.655464230463295],[-0.286476440196945,44.65561229359235],[-0.286657292644427,44.655676388801545],[-0.286802045989787,44.65574056571951],[-0.287136820284368,44.655919924373904],[-0.287233182918374,44.65598121438782]]],[[[-0.282726987742841,44.65945421489691],[-0.28278349697343,44.65933206651863],[-0.282796044022209,44.65931124012025],[-0.282821614960448,44.65927993526073],[-0.282878464721208,44.659217786789974],[-0.282990935044027,44.659094066882005],[-0.283072908270276,44.65900594288921],[-0.283125588859219,44.65893508776274],[-0.283185180814179,44.658852854341546],[-0.28330132363579,44.65869036990808],[-0.283309432438527,44.65867787481227],[-0.283330253474284,44.658612741207016],[-0.283348795680566,44.65854533253237],[-0.283390369904454,44.6584074083764],[-0.283400708771385,44.65829023490728],[-0.283405814393657,44.65827170183128],[-0.283440391744739,44.658158854472894],[-0.283521698334903,44.657916399707894],[-0.283557613962441,44.65780702667465],[-0.28357428445769,44.65776165921878],[-0.283627117097183,44.65760682127895],[-0.283637957487858,44.657578386521166],[-0.284009171902842,44.657443016353994],[-0.284021626358922,44.657455261165616],[-0.284092980598795,44.65754883353797],[-0.28430739576371,44.657461009603715],[-0.284620191095279,44.65731755113343],[-0.284685596016397,44.65725496730251],[-0.284724883013972,44.65726839721499],[-0.284848357104052,44.65731401653165],[-0.285010236120093,44.65737741679164],[-0.285096350917597,44.657403691915206],[-0.285315072393605,44.657469818024225],[-0.285460706581413,44.6575165803417],[-0.285547294112768,44.657548788029565],[-0.285683140381464,44.65760521186862],[-0.285953011581262,44.65771928457147],[-0.286177405394728,44.65781335333318],[-0.286405685673081,44.6579091082548],[-0.286710153310762,44.658038369861195],[-0.28686580331005,44.658109611664685],[-0.286992851268555,44.65817530607111],[-0.287176483994356,44.65829986892036],[-0.287256719335801,44.65836596360901],[-0.287343297909382,44.65844989073424],[-0.286906562337669,44.658782117903876],[-0.28731007213301,44.658916723503395],[-0.287357347914809,44.6589285634494],[-0.287716803059405,44.65902212786226],[-0.287899132992962,44.65907455395746],[-0.288308476682806,44.65954471558328],[-0.2882583120779,44.65958071783335],[-0.288161464220708,44.65965613284623],[-0.288087621688554,44.659714734775605],[-0.28805799956568,44.65973715086116],[-0.287982444919724,44.65979670468358],[-0.287868881544414,44.65989505274203],[-0.287793967089067,44.65996125519562],[-0.287880722433176,44.66000489964391],[-0.287958577065523,44.66004745711804],[-0.287937367208857,44.66006908238769],[-0.288064037561157,44.66010658399208],[-0.288234876337971,44.66015457578818],[-0.288469071883695,44.660223840203685],[-0.288354983582447,44.660399695126664],[-0.288295066724422,44.660493564829515],[-0.288273000895415,44.6605351289396],[-0.288250504431225,44.66058012986079],[-0.288221459576594,44.66064704094206],[-0.288202696700543,44.66069544493851],[-0.288178598455489,44.66077356220164],[-0.288135731873243,44.6609151312289],[-0.288111880260793,44.66098882597386],[-0.288091048132783,44.66104720309165],[-0.288066933824037,44.661127213025445],[-0.287970223953574,44.66141914729946],[-0.287929830166709,44.66147549299714],[-0.287881480413139,44.66154045505967],[-0.287664160854805,44.66172577618496],[-0.287562414056106,44.66181467187575],[-0.287494790957915,44.66187606192432],[-0.287348505453942,44.6620238589932],[-0.287178944591096,44.662183881287376],[-0.28709750896975,44.66226388300436],[-0.28702364091593,44.66232212448368],[-0.28693992617923,44.6623825508243],[-0.286904089731804,44.66240452055343],[-0.286843387273471,44.6624395738603],[-0.286810759481399,44.662458114277655],[-0.286792379118745,44.66246767117025],[-0.286748896566607,44.66248410136754],[-0.286727286565453,44.662492402663084],[-0.286698324516248,44.66250020163729],[-0.286675916472648,44.66250131820262],[-0.286657956467175,44.662500770761355],[-0.28663980230983,44.662494732652355],[-0.286272356653686,44.6623554476911],[-0.286095191025832,44.662283492431264],[-0.285798215329086,44.662185632672625],[-0.285726139608849,44.662179394592094],[-0.285657083489188,44.66217297663528],[-0.285597842546318,44.66216167161589],[-0.285386490046428,44.66212046586802],[-0.285289901347735,44.66210306190792],[-0.285057612316126,44.662053557147885],[-0.284987606353842,44.66203950803928],[-0.284976468356469,44.66203470291826],[-0.284808700775151,44.66195282521186],[-0.284641249927511,44.661852556361076],[-0.28451744225204,44.661779734529375],[-0.2844874423718,44.6617589102431],[-0.284465760456073,44.66174216393555],[-0.284434038972934,44.6617091364435],[-0.284407589812862,44.66167775444785],[-0.284377633310167,44.66163818693111],[-0.284356934695429,44.661603660642214],[-0.284321161983961,44.66153146751899],[-0.284304243991767,44.661503316516416],[-0.284288181572795,44.6614811771586],[-0.284277585196164,44.661468336509586],[-0.284259941609105,44.66145372285648],[-0.284233633216182,44.66143990719103],[-0.284184303356196,44.66141884601333],[-0.284082455576425,44.66138483765704],[-0.284031187804312,44.66136734807909],[-0.283867407437308,44.66131049003331],[-0.283708741439413,44.661263391460814],[-0.283537703708645,44.66121413710386],[-0.283470629925953,44.66119405305985],[-0.283367302425201,44.66115630359029],[-0.28332441633829,44.66113748355114],[-0.283137729559296,44.661038504628195],[-0.282957218605903,44.660943667105265],[-0.28291524771639,44.6609123852182],[-0.282889051228443,44.6608874829827],[-0.282872726787025,44.660867333541496],[-0.282865155613992,44.660854402956474],[-0.282842867601623,44.660814246987314],[-0.282828645445302,44.66077601407368],[-0.282819006106451,44.660699440470154],[-0.28279985270956,44.66055493965434],[-0.282793043592729,44.660481435714495],[-0.282796641744748,44.66036121859376],[-0.282799240817906,44.660200033255045],[-0.282799680661966,44.660103607591],[-0.282797892306204,44.66007942237717],[-0.282788133637256,44.66004412053588],[-0.282773188653937,44.659989149520094],[-0.282740269866393,44.659868394678114],[-0.282706430447591,44.659712345922074],[-0.282690747509493,44.65963387935443],[-0.282694306381979,44.65954114553651],[-0.282726987742841,44.65945421489691]]],[[[-0.281094891761489,44.65330406261672],[-0.281104356716588,44.65315231535028],[-0.28111695735147,44.65299155464439],[-0.281124366388372,44.65290420331138],[-0.281126899429307,44.65280248979896],[-0.28122651363563,44.65279845216329],[-0.281300693961117,44.65279552972216],[-0.281330680049835,44.652794549644355],[-0.281410872096764,44.65279298048665],[-0.281454462451002,44.652791506489514],[-0.281595860591847,44.652787489800986],[-0.281752123115962,44.6527829416005],[-0.281724033871853,44.652543465532816],[-0.281696123281379,44.65225938225027],[-0.281699793371876,44.65225954362478],[-0.281677713764333,44.65204304618197],[-0.281753231797985,44.65204143527422],[-0.281809138831665,44.652043379919114],[-0.281842211445994,44.65204555184609],[-0.28188908180165,44.65205272047179],[-0.281933741833711,44.65205878332864],[-0.281959064585658,44.652062266538415],[-0.282034676732237,44.652064437052104],[-0.282108251724693,44.6520663075717],[-0.282156839599975,44.65206828911632],[-0.282202917714417,44.65207052535918],[-0.282229437948888,44.652070729179314],[-0.282271909563044,44.65206739585296],[-0.28279688078202,44.65200855858277],[-0.282935432217491,44.65199255058481],[-0.282983800287718,44.651986428845056],[-0.283010945701796,44.65198219876853],[-0.283083582440025,44.65196580518964],[-0.283137359279294,44.65195069247547],[-0.2831858960131,44.65193663639918],[-0.283243306932836,44.65191240521327],[-0.28347259866065,44.65181161609774],[-0.283734996090646,44.65168109969327],[-0.284012690630751,44.65157049197385],[-0.284192854345192,44.65149963379752],[-0.284442954278405,44.65141588503268],[-0.284860136067159,44.65136168163828],[-0.285170102601709,44.651321835648105],[-0.285251342948197,44.651312303246804],[-0.285475810472763,44.6512847283827],[-0.285574172477467,44.651272254082066],[-0.286012600439865,44.65122092896357],[-0.28629239614495,44.6511918881045],[-0.286592436507768,44.65118531160348],[-0.286692362171053,44.651193153568016],[-0.286966286362181,44.651212762104144],[-0.287147546240812,44.65122566416819],[-0.287351918476919,44.65124310479309],[-0.287552326831684,44.65125534671307],[-0.287823736714348,44.651268630444434],[-0.287962552572829,44.6512766662771],[-0.288170553285701,44.65130003453787],[-0.288531651496331,44.6513468712572],[-0.288924694082537,44.65140465039327],[-0.289074463066859,44.651427316468386],[-0.289343165460023,44.651467708632396],[-0.289695865206053,44.65152199991515],[-0.289900990115508,44.651539323386054],[-0.289971540360716,44.651539116146004],[-0.290023078625404,44.65153541990267],[-0.290135327267036,44.65151649121987],[-0.290404652516109,44.651476758690706],[-0.290574970771952,44.65145790334758],[-0.290870112387165,44.65143010611538],[-0.29090328462345,44.65142965931263],[-0.290931500629007,44.65143296424673],[-0.29097008647938,44.65144091628131],[-0.290997651745194,44.651450367732245],[-0.291022749362594,44.65146079368721],[-0.291050577505694,44.65147690509488],[-0.291067269342132,44.651490374531825],[-0.291081126117212,44.65150717215455],[-0.291089632654226,44.6515231378869],[-0.291095577611372,44.65155143419979],[-0.29109735404736,44.65158616197826],[-0.291095339654104,44.65162082239463],[-0.29108398480553,44.651657653075944],[-0.291066287467986,44.65169611424747],[-0.291035606482965,44.651750009507275],[-0.291000042105436,44.65179594064478],[-0.290964561536039,44.65183898590426],[-0.290881555893213,44.6519306610207],[-0.290838509708906,44.651984653974424],[-0.290792571323438,44.65205828585753],[-0.290741777129822,44.65215467869509],[-0.290729560003586,44.65217243267073],[-0.290720513897928,44.65218396509627],[-0.290705907688394,44.65219971775727],[-0.290687048491929,44.65221397510898],[-0.290674389771268,44.65221984831692],[-0.290521742825815,44.65224736854223],[-0.290296958785431,44.652271719243146],[-0.290079152147886,44.65228586015047],[-0.289955418603408,44.65228972249628],[-0.289933481959758,44.65229019507464],[-0.289685111033702,44.652271635448066],[-0.289522937988889,44.65225492571887],[-0.289276567957151,44.652244685439605],[-0.289247086348198,44.6522456526748],[-0.289239814443933,44.65224866228907],[-0.289207046241411,44.652262522243454],[-0.288926363022471,44.65216617025625],[-0.288402330896357,44.65210480845467],[-0.288350261680202,44.65209941908959],[-0.288139968717312,44.652084408924885],[-0.288072169054401,44.652079847700065],[-0.287748502376295,44.65205370165779],[-0.287695162651585,44.65204816955991],[-0.287621608718071,44.65202503730049],[-0.28756007846027,44.652002448504874],[-0.287552212935625,44.652027731639144],[-0.287469267937985,44.65225681263579],[-0.287432407888527,44.65236279112365],[-0.287412218413889,44.6524494419172],[-0.287645810457679,44.652865810116346],[-0.287328874592106,44.652926954710665],[-0.286871131530656,44.653058511940934],[-0.286566663037168,44.65314946888166],[-0.28648792966417,44.65317172259558],[-0.286374951409875,44.65320634744228],[-0.286149640221855,44.65327801043694],[-0.285813454573086,44.6533944165675],[-0.28555174955428,44.65347193549365],[-0.285434412474262,44.653498939840425],[-0.285349067661485,44.653520398030835],[-0.285245250866689,44.65354546861938],[-0.285128732410491,44.65357569209307],[-0.285094308725282,44.65358500461237],[-0.285062546971154,44.65359667086488],[-0.284981512132028,44.65362710131842],[-0.284800203351944,44.65369574205696],[-0.284712588911935,44.6537302423096],[-0.284652230929141,44.653758075892874],[-0.284594219847913,44.65378719129493],[-0.284523748287379,44.6538255972476],[-0.284455544921793,44.65386393577093],[-0.284401781615518,44.65389013161851],[-0.284311215660455,44.653925980691234],[-0.284279505996213,44.653938546213496],[-0.284199284335518,44.653965618026305],[-0.284163137982366,44.6539757022582],[-0.284114074850639,44.65398725142303],[-0.284067857637344,44.65399781498003],[-0.283897366641714,44.65401819694702],[-0.28377224725272,44.65403083360872],[-0.283740679498884,44.65403934002849],[-0.28370970511406,44.65404719808007],[-0.283672224698632,44.65406038534255],[-0.283645697405491,44.654070904553194],[-0.283618807606634,44.65408386736044],[-0.283599547139993,44.65409561241773],[-0.283459186297151,44.654214935252924],[-0.283245902516632,44.65439994752533],[-0.283205904926509,44.65443276217019],[-0.283124627095976,44.65451320673191],[-0.283067698471337,44.654573916027765],[-0.282912025800665,44.654731627025605],[-0.282895353276149,44.65474662899565],[-0.282239751127842,44.65444234638141],[-0.281962895003593,44.65431414610188],[-0.2819049351658,44.65429000646766],[-0.281934775636766,44.65418901402685],[-0.281305420877565,44.65415741568789],[-0.281042772384644,44.654145207150094],[-0.280660696604347,44.6542152034172],[-0.280672679436233,44.653777208221996],[-0.280671962031435,44.65376272261772],[-0.280668335489094,44.65375030564512],[-0.28065935951391,44.65373056869875],[-0.280647547748594,44.65371415967539],[-0.280623865451654,44.65368900228725],[-0.280608614603858,44.653672064573364],[-0.280587976510102,44.65365582734036],[-0.280574152887105,44.65364605566598],[-0.280549760234354,44.65363254287558],[-0.280530734186371,44.65361580727564],[-0.280512684846155,44.65359850206272],[-0.280493281364719,44.65357745262099],[-0.280461778711285,44.65353072186002],[-0.280442895942462,44.65350343972293],[-0.280415043779037,44.65344786046275],[-0.280416765929414,44.65341023562345],[-0.280747539201969,44.65341096300521],[-0.280750248682105,44.65329059255125],[-0.281094891761489,44.65330406261672]]],[[[-0.276988939546253,44.659219670388175],[-0.276918325538186,44.6592015796519],[-0.276938159464764,44.65914755962184],[-0.2767857836451,44.65911071726265],[-0.276813129218875,44.65904476101041],[-0.276600106810463,44.658989712397165],[-0.276545622980001,44.658903835078924],[-0.276509860495511,44.65878820898944],[-0.276498594555461,44.6587486263642],[-0.276487488750011,44.65869660451882],[-0.276485114420205,44.658675320018034],[-0.276490595201317,44.65865668610505],[-0.276528039674331,44.65858637595877],[-0.276544075458011,44.65854084832228],[-0.276559090684726,44.65842786236734],[-0.276516509279835,44.658277477685736],[-0.276539266109751,44.658258512034536],[-0.276610190517969,44.65819081392385],[-0.276744958235543,44.6580660795739],[-0.276848418202175,44.65796957468128],[-0.276882661883346,44.657935401219305],[-0.276903024830092,44.65791218140051],[-0.276916250528367,44.65789430908332],[-0.276935402449001,44.65786112350741],[-0.276941695855083,44.65784778167514],[-0.276954525106217,44.6578165855801],[-0.276988211125647,44.6577077316643],[-0.277015215543407,44.657609888354415],[-0.277050599677492,44.6574629598349],[-0.277082973576158,44.6573489186999],[-0.277103382408004,44.657224509711554],[-0.277110286040736,44.657178261506374],[-0.277116879067809,44.657109316081254],[-0.277144113523007,44.65698722772085],[-0.277180771435423,44.65682097897883],[-0.277256216427577,44.656499050732734],[-0.277293987375794,44.65633024603771],[-0.277322424555759,44.65620280581091],[-0.277357703889525,44.65612787409679],[-0.277443207025295,44.655946301257806],[-0.277527997722604,44.65578069802472],[-0.277600522818323,44.65563861527295],[-0.277684280264617,44.65548998225146],[-0.277713468240048,44.65544055045554],[-0.277947972171489,44.65548315587569],[-0.277958240532212,44.655466542464836],[-0.278703630924892,44.65561762239005],[-0.278748997295698,44.65549697819406],[-0.2787963292373,44.65536456205444],[-0.278794246104655,44.65519865063807],[-0.278799439084113,44.65519894716218],[-0.278823180879706,44.65508633282567],[-0.278730355062508,44.65507043389968],[-0.278730932867855,44.655006622516545],[-0.278731228244655,44.65499868452865],[-0.278731536701031,44.6549128955473],[-0.278757256384945,44.65474751123848],[-0.278564711958073,44.65471438585198],[-0.278522938509238,44.65470589325458],[-0.27860059270153,44.654669350684],[-0.27865383956029,44.654612537415105],[-0.278692486965986,44.65456949258258],[-0.27870156769339,44.65455633830057],[-0.278713727754017,44.65452885613329],[-0.278762011853646,44.654412810881915],[-0.278788744051256,44.65434507021613],[-0.27879641054393,44.65434231992376],[-0.279013968320897,44.65427820072427],[-0.279103752435537,44.65426355393108],[-0.279145375877454,44.65425646260829],[-0.279240496685766,44.6542619310156],[-0.279557766486116,44.65428648988458],[-0.280073569177078,44.65432344935289],[-0.280433642543258,44.65435466508275],[-0.280532333746824,44.65436290980966],[-0.280558770944458,44.65436383736565],[-0.280642131399919,44.65436244513332],[-0.280725943246762,44.65436230091298],[-0.280764625102797,44.65436322549856],[-0.280839321212327,44.654366955887745],[-0.280939272672178,44.65437516285671],[-0.281042217421367,44.65438057775799],[-0.281031035796059,44.654444343476484],[-0.281017926927523,44.65450969817174],[-0.280978062414095,44.65472253773893],[-0.281141866430143,44.65474984413107],[-0.28130514006795,44.65477887802112],[-0.281365301939722,44.654788806144396],[-0.281508628202908,44.654817801021395],[-0.281558388785702,44.65451267028217],[-0.281687707243464,44.65457208563165],[-0.281822428783919,44.65463323266398],[-0.281851484600549,44.65464876930238],[-0.28200148353527,44.65473379099719],[-0.282199821080722,44.65487062958353],[-0.282294034007367,44.654934150000436],[-0.282369161540584,44.654988595712965],[-0.282435492995235,44.65505456565354],[-0.282540159129857,44.65518697622441],[-0.282220208974576,44.65517502988242],[-0.282202058822978,44.655355328255986],[-0.282189600883873,44.6555314930342],[-0.282461838851169,44.65554350446326],[-0.282465999336176,44.655731880747524],[-0.282461354418706,44.65581464499942],[-0.282461532152188,44.65587401896735],[-0.282460985827464,44.655979458128016],[-0.282457938279425,44.65610263214603],[-0.282458239213675,44.65613812461513],[-0.282628005941501,44.65613119221758],[-0.282635076087208,44.65615936541144],[-0.282692896669841,44.65639552618484],[-0.282696535579844,44.656395147829706],[-0.28295415886944,44.65635560143708],[-0.282984894548935,44.65644542466771],[-0.28302661225334,44.656567720072],[-0.283054004213557,44.65664782112334],[-0.282922979319127,44.65668919533664],[-0.282913203370035,44.65673156469838],[-0.282905708129716,44.656754583843664],[-0.282891388869707,44.65680997313645],[-0.2829719352582,44.65689885804657],[-0.282876856137851,44.65695700568473],[-0.28282701642506,44.65698776965782],[-0.283189317994359,44.65732544858102],[-0.283401686682018,44.657536025421415],[-0.283424343398984,44.65755220227438],[-0.283619361489211,44.657475948555536],[-0.283555333731817,44.657631479373215],[-0.283509276200825,44.65776827524688],[-0.283438474759203,44.65797653847942],[-0.283375025724712,44.65816800397871],[-0.283338637054809,44.65827576910375],[-0.283329282102644,44.658308034244925],[-0.283314748258312,44.658416051436426],[-0.28326308286136,44.6585952730775],[-0.28324048069558,44.65867100186576],[-0.283193776781938,44.658736093060455],[-0.283117437106218,44.65884071933927],[-0.283047388635531,44.65893849097718],[-0.28301408151133,44.65898651484731],[-0.282974536454345,44.6590293176068],[-0.282904247759791,44.659107813764734],[-0.282809328053265,44.65921641546342],[-0.282758327948201,44.65927929127674],[-0.28273685279518,44.65931155578323],[-0.282705986488674,44.65936464308435],[-0.28268327592817,44.659410369933234],[-0.282646179337811,44.65948652890688],[-0.282641157232722,44.65950650114959],[-0.282623974292384,44.65962324699791],[-0.28262540693816,44.65963266551305],[-0.282642696712613,44.659710543752205],[-0.282644627812513,44.65972418241464],[-0.282664955529189,44.65982819108359],[-0.282716953666462,44.660092187452086],[-0.282726700343753,44.66014244712422],[-0.282728893184637,44.66016490833086],[-0.282728511306725,44.66025799837849],[-0.282724636821337,44.66046445441094],[-0.282741546176594,44.660624610058804],[-0.282749648269811,44.66068564109274],[-0.282756418756435,44.6607238249262],[-0.282761461924209,44.66075836572606],[-0.282773797963458,44.660805394852964],[-0.282782145230918,44.66082947545435],[-0.282791527389296,44.66084965080464],[-0.282801676231437,44.6608699836031],[-0.282808780170001,44.66088139627436],[-0.282833111735177,44.660913292001034],[-0.282855480062566,44.66093749695758],[-0.282864637643532,44.66094515433896],[-0.282882264981044,44.66095949836289],[-0.282909475609001,44.6609779730177],[-0.282964260090052,44.66100599110267],[-0.283154102704706,44.66110280418056],[-0.283284099213557,44.66116706386509],[-0.283369361874471,44.661206791511255],[-0.283541150209631,44.66125809625601],[-0.283760262918809,44.66132421430797],[-0.28388105679732,44.66136486871148],[-0.284057838928755,44.66143251365531],[-0.284143959011657,44.661465277159564],[-0.284175366417372,44.66147993255965],[-0.284211956631356,44.66149902938848],[-0.284231748031062,44.661513669361774],[-0.284268902342998,44.6615770812541],[-0.284284391258825,44.66161536650946],[-0.284302311849357,44.66164988521844],[-0.284328975397103,44.66169360530388],[-0.284348335307127,44.66172249472432],[-0.28438836871008,44.66177032295011],[-0.284402168469056,44.661783969496625],[-0.284426780344651,44.66180549447822],[-0.284449901244855,44.661820936576454],[-0.2844988215549,44.66184795677239],[-0.284563852592875,44.66188495061663],[-0.284642127386087,44.66192821882014],[-0.284808712217677,44.66202445866248],[-0.284880250749644,44.66205179795377],[-0.284963720410204,44.66208238697086],[-0.285004245075832,44.66209316708545],[-0.285061558343451,44.66210822400728],[-0.285366511011509,44.66217187893668],[-0.28547551400975,44.66219432030342],[-0.285537118037246,44.66220717707257],[-0.28561696020555,44.662223186211946],[-0.285742773544859,44.662239451181314],[-0.286612183608254,44.662538533875946],[-0.286637337962204,44.66254553529705],[-0.28666444071126,44.66254914489699],[-0.286686491605906,44.662550561904276],[-0.286756504374539,44.66254523708544],[-0.286777599697013,44.66253893340397],[-0.286787272982487,44.66253594270994],[-0.287023208598325,44.662403412509335],[-0.286869446630991,44.66259405105174],[-0.286862063131,44.66259084651468],[-0.286862262605913,44.66259426459493],[-0.286847274097478,44.662627328319175],[-0.286702455498638,44.66277003495575],[-0.286622037383044,44.6628415361336],[-0.286560992345854,44.66289669298328],[-0.286435116654006,44.66297242846465],[-0.286390610821187,44.662949693027244],[-0.285963460104863,44.66303573308781],[-0.285795398273848,44.66310037696863],[-0.285651781085159,44.66318366693021],[-0.285459099483918,44.66302756257632],[-0.285408118485449,44.66301285831717],[-0.2853519543842,44.66299587518236],[-0.285162325123914,44.66294185925274],[-0.285031538226733,44.662907449927545],[-0.284886704007873,44.66286814153249],[-0.284819764174478,44.66285039698295],[-0.284724136009477,44.66282350288921],[-0.284669736673655,44.66280862952831],[-0.284593706779931,44.66278872201786],[-0.284560223837054,44.66277962478577],[-0.284523889426915,44.66276926066115],[-0.284497684982546,44.66276156911159],[-0.284400177072747,44.66273491079302],[-0.284315026023816,44.662707975479435],[-0.284184750500074,44.66266066492837],[-0.284002933424549,44.6625933497796],[-0.283900721423476,44.66255745978519],[-0.283595935309945,44.66244252590034],[-0.283474575523462,44.662361881136526],[-0.283402618881048,44.66231436976034],[-0.283343412872736,44.66226684015929],[-0.283288696652264,44.662222691325255],[-0.283198199988864,44.6621473471498],[-0.283030209000982,44.66206376144225],[-0.282863350977867,44.66199960460649],[-0.282828304559858,44.66198316465807],[-0.282779426459445,44.661961188386044],[-0.282638684541269,44.661894543890675],[-0.28244053740385,44.6618004092096],[-0.28237301271752,44.66177042629157],[-0.28226289068739,44.661722245043194],[-0.282198842257451,44.661695582837744],[-0.282149450033339,44.6616734413547],[-0.282110218938129,44.66165451235223],[-0.282091714116538,44.6616446094039],[-0.282039801778525,44.66161821762476],[-0.281917971138332,44.661557588637514],[-0.281830992161226,44.6615143967176],[-0.281754277784666,44.66158019774246],[-0.281478570875353,44.661526477805886],[-0.281304124300688,44.661492368758495],[-0.280880218015156,44.66140862488647],[-0.280571656550785,44.661343533162324],[-0.280551867922744,44.661315917338236],[-0.280509927532921,44.66126129642219],[-0.280435887134086,44.66115843039829],[-0.280408612868015,44.66114968840049],[-0.280309057093232,44.66111813160346],[-0.280088710174116,44.661050241374696],[-0.280101003162807,44.66101635760042],[-0.280115870099092,44.660976810951404],[-0.280124270840214,44.660949800521294],[-0.280182840385503,44.66079137023041],[-0.280009317332961,44.66074704996595],[-0.279895014043889,44.660770083470304],[-0.27968625441229,44.66069518101651],[-0.279560842065812,44.66066619261092],[-0.279482311715322,44.66071600714788],[-0.27933870086252,44.66067151953092],[-0.279350786573971,44.66065575312662],[-0.279242047929545,44.660590047618555],[-0.279114827255726,44.66051047329806],[-0.279004309680722,44.66066575796948],[-0.27888399840592,44.660626796086646],[-0.278741129459585,44.66057769035805],[-0.278553707608993,44.66047458097932],[-0.278428307557344,44.66044144612778],[-0.278067059020302,44.66042755768225],[-0.277787294102636,44.66041674902599],[-0.277712535011528,44.66039905192671],[-0.277297490212834,44.66031764512735],[-0.27719976362217,44.66029360024009],[-0.27717422192885,44.66034499624938],[-0.277075634913526,44.66031701213497],[-0.276761054862175,44.66022857109883],[-0.276515452430796,44.66015826876461],[-0.276421697095819,44.66013086175448],[-0.276571559048936,44.6596383225996],[-0.276690882841975,44.65966037640837],[-0.27678891949134,44.65967675359211],[-0.276988939546253,44.659219670388175]]],[[[-0.276192130258233,44.65558727902963],[-0.276273378717729,44.65540195878777],[-0.276366184268633,44.65516358472074],[-0.276355977134782,44.65516172467893],[-0.276372991810482,44.655126530141466],[-0.276391346044569,44.65508832244797],[-0.276424702882187,44.655019394964235],[-0.276458947454643,44.65494836875284],[-0.276505925240249,44.654851015012824],[-0.2765275909833,44.654515994206434],[-0.276554272570152,44.65447771991137],[-0.27669741521743,44.654258397667476],[-0.276747045768825,44.65417628300829],[-0.276420969378315,44.65401546844987],[-0.276046158076391,44.65392827095088],[-0.276030810174672,44.65392917625047],[-0.275787591424465,44.65386898450816],[-0.275759029377251,44.65386190155422],[-0.275730850618149,44.653854897341624],[-0.27578423039978,44.65372870098718],[-0.275931438714932,44.65338608626545],[-0.275958192403211,44.65332951874018],[-0.275981769497084,44.65327259481033],[-0.276071853803406,44.65305475551125],[-0.276112077734998,44.652960665670484],[-0.276420813126504,44.652200584318756],[-0.276432070773623,44.65217276876973],[-0.276461057624616,44.65217848736303],[-0.276478042311206,44.652181858506175],[-0.276467488895267,44.652206589631426],[-0.276400322761326,44.652364821631586],[-0.276274058380579,44.65266158381248],[-0.27627677745882,44.652664927212996],[-0.276295128629606,44.652687450190065],[-0.276302477472533,44.65269660329954],[-0.276536001768126,44.65274428619143],[-0.276513869611911,44.652799996067905],[-0.276502427865797,44.652828988446316],[-0.276615505401206,44.65284807330024],[-0.276731659242612,44.652870130425384],[-0.276800826775354,44.65288736282478],[-0.276916290925426,44.652578575723055],[-0.276976369870812,44.65240920023696],[-0.277104164133331,44.65242739783361],[-0.277134143592476,44.65243281652043],[-0.277139108183808,44.65241834271251],[-0.277278653169105,44.65243673242382],[-0.277296488677843,44.652439537596045],[-0.277334031988728,44.652292905570874],[-0.277453410625286,44.65230531521302],[-0.277567838166091,44.65231724077438],[-0.277608922471395,44.652322600433116],[-0.277632207929063,44.652325784608436],[-0.277643396528566,44.652327164895816],[-0.277662727669293,44.65233398038082],[-0.277725534585859,44.652361222174044],[-0.277664842703456,44.65261981999167],[-0.277641144338137,44.65271801589],[-0.277661230888311,44.652729134012695],[-0.277660589518198,44.652761500629076],[-0.277639803091635,44.65287069308547],[-0.277775139744713,44.65288181838302],[-0.277816975732191,44.65288490307416],[-0.277817342565659,44.65291723980497],[-0.277855419480104,44.65291863383543],[-0.277855631298375,44.65293745944955],[-0.277915398429326,44.652938480697806],[-0.277936626446399,44.65293884246584],[-0.277970046993116,44.65305111326857],[-0.278032536699877,44.65327028749536],[-0.27806162270741,44.6533709731913],[-0.278095206222554,44.65345566709308],[-0.278107035030503,44.65348973639672],[-0.278125441688726,44.653530548734004],[-0.278156513552597,44.653567741767915],[-0.278272865441947,44.65369944901322],[-0.278405759298635,44.65385075902064],[-0.278716425301736,44.654193496003074],[-0.278729094513492,44.65422898202061],[-0.278298915804728,44.65404729208772],[-0.278154592588536,44.654211507443634],[-0.278690287289004,44.65444278028924],[-0.278660225371733,44.65451404365466],[-0.278572794501764,44.65461250790396],[-0.278546136644906,44.65464249237688],[-0.278415093331987,44.65461628317416],[-0.278391824813259,44.654630759177856],[-0.278371186962078,44.654644886857604],[-0.278317502704961,44.65467900653183],[-0.278208670803183,44.654737287550915],[-0.278052041435586,44.654677056086086],[-0.278034084950829,44.65470038499736],[-0.277972715925794,44.65477816286694],[-0.278128636489125,44.6548392264115],[-0.278146849699472,44.65484850782248],[-0.278075867177859,44.65489341221138],[-0.27802232946229,44.654927887807766],[-0.277980233242627,44.65496157363338],[-0.27792665245591,44.655030019979165],[-0.277848034835479,44.65513245724803],[-0.277805923902065,44.65518758838842],[-0.277698168685567,44.655349006982746],[-0.277672126819243,44.65539393037017],[-0.277651347972475,44.65542950703606],[-0.277637422916986,44.655457041397895],[-0.277531175586033,44.65566391805697],[-0.27743819646299,44.65584282922051],[-0.277346603402196,44.65601953669894],[-0.277237984852425,44.656231258901435],[-0.277174046190056,44.656492746128436],[-0.277127423895109,44.656650459918744],[-0.277122601075695,44.65666303733444],[-0.277113172801566,44.656730985526906],[-0.277098854608853,44.65683205703005],[-0.277071655481842,44.65696126260809],[-0.276912804820793,44.65768969291929],[-0.276873872710969,44.65782555353801],[-0.276862335936885,44.65785292691288],[-0.276049728036589,44.65770562744893],[-0.2760018583506,44.65742087285133],[-0.275946926986031,44.65730338183069],[-0.275923871483584,44.65722387164599],[-0.275835486986966,44.6569848292188],[-0.275819544727578,44.6568908717228],[-0.275664415550493,44.656869517547406],[-0.275778599610876,44.65657320397533],[-0.276016198913536,44.655987421229696],[-0.276125532806437,44.65574017789214],[-0.276192130258233,44.65558727902963]]],[[[-0.275147537510261,44.65107172707877],[-0.275155764679862,44.65095921306694],[-0.275156469947208,44.65095180359962],[-0.275166407154448,44.650868703122015],[-0.275181995152877,44.650711279192],[-0.275220902760371,44.65033619266697],[-0.275235979205945,44.65018734383873],[-0.27525947538441,44.64993147170029],[-0.275269555445001,44.64984214979138],[-0.275270186972178,44.64983564355558],[-0.275270813269556,44.64982904737021],[-0.275301793466401,44.64946960364118],[-0.275334426836985,44.64913425896983],[-0.275336400310747,44.64911392698733],[-0.275336710836724,44.64911058392056],[-0.275339774059103,44.64910031135643],[-0.275349838560097,44.649078027672495],[-0.275437058124483,44.649064991424765],[-0.275530567002442,44.64905375106014],[-0.275572995383315,44.64904753819045],[-0.275621850059312,44.64904113489397],[-0.275655005319358,44.649040422815624],[-0.275711355177581,44.649043528683436],[-0.275746158498312,44.64904511046215],[-0.275785944525413,44.649045553435826],[-0.275814522678036,44.649039931082136],[-0.27583969343409,44.649034319583976],[-0.275933317671897,44.64899901754712],[-0.275960494969141,44.64898884133476],[-0.276136900381654,44.64892279321045],[-0.276143962392726,44.64892051152584],[-0.276170582819948,44.64891161322613],[-0.276187022016655,44.64890779218248],[-0.276204373716373,44.648908809739225],[-0.276220920924328,44.64891552772077],[-0.276238621734875,44.64892905945753],[-0.276255717764564,44.64894738465571],[-0.276268064035888,44.64895783131011],[-0.276281476358232,44.64896707501089],[-0.276310754494526,44.64897783080941],[-0.27633207426187,44.64898413702137],[-0.276365622736704,44.64898584589819],[-0.276427722215178,44.64898580755058],[-0.276435928285971,44.64898583465879],[-0.276439026116372,44.64898484180189],[-0.276450440779392,44.64898143994638],[-0.276454867577383,44.648977254042435],[-0.276457503686176,44.64897483319638],[-0.276458177819271,44.64896472150671],[-0.276456316143309,44.64895441465847],[-0.276455938576735,44.64895226333931],[-0.276460409025453,44.648940146940724],[-0.276469834644778,44.64893292953753],[-0.276487638963648,44.64892870757152],[-0.276512314698266,44.648929778325495],[-0.276518441443435,44.648930948309086],[-0.276582276107801,44.64894338297903],[-0.276635011390466,44.64895812888979],[-0.276664400342511,44.648966448488835],[-0.276688335758108,44.64896781146044],[-0.276727250161711,44.64896846013785],[-0.276787547603007,44.648974331796964],[-0.276795543516878,44.64897508594416],[-0.276832263072285,44.64897706110533],[-0.276866929043796,44.64898279141263],[-0.276944598318255,44.64899436527958],[-0.276986131842377,44.648998810727754],[-0.276999314928925,44.648999771519016],[-0.277033409315561,44.64900218484869],[-0.277033778244766,44.64902154639794],[-0.277034260573304,44.64905153692676],[-0.277034702328314,44.64907432029185],[-0.277035730817871,44.64918313614561],[-0.27911152838926,44.64902355061223],[-0.27925088647647,44.6490128393109],[-0.279424171779275,44.64899949952433],[-0.279575594865646,44.648987889281145],[-0.280264970520444,44.64893490848536],[-0.280432600814826,44.64892200521472],[-0.280915071189225,44.64889894740069],[-0.281051148594114,44.64883625062029],[-0.281207494511185,44.648833322283124],[-0.281400759910862,44.64882929787406],[-0.281460853869024,44.64882733391883],[-0.281670927798535,44.6488453363087],[-0.281995423590364,44.64887309674285],[-0.28218557878925,44.648889346779775],[-0.282271208773341,44.648896715973294],[-0.282415315014688,44.64890901662725],[-0.282673522921653,44.64893207550113],[-0.282754816649075,44.64893650951914],[-0.282759359958879,44.6489170020645],[-0.282973220209557,44.64887650162085],[-0.283066050856121,44.64885581396342],[-0.283381070245303,44.64888988880597],[-0.283691621988229,44.64892526682955],[-0.283500456381123,44.649749277571715],[-0.283530660830607,44.649754237288406],[-0.283534078749163,44.64975440608699],[-0.283681242351792,44.64971083941438],[-0.28392918168757,44.64963778821242],[-0.283978514220862,44.64962442893612],[-0.284110666151686,44.64958752484001],[-0.28437385219639,44.64949888205298],[-0.284551125725029,44.64943919191276],[-0.284610916867661,44.649419034057374],[-0.284667368736258,44.6494000566434],[-0.284738673821074,44.64937604252463],[-0.284824464555591,44.64934718280283],[-0.284913872030003,44.64932839740611],[-0.28501263023297,44.649307622086376],[-0.28526585160233,44.64926243348995],[-0.285267112335878,44.649249420907196],[-0.285442393108681,44.649214026753775],[-0.285704392613018,44.64915704281667],[-0.2859673446795,44.64916184196836],[-0.286218961538566,44.64916706754999],[-0.286392234616002,44.649170837131294],[-0.286513541021264,44.64917308777207],[-0.286675741158752,44.64918610649094],[-0.286789277084947,44.6491957962503],[-0.286979398391012,44.64919410822216],[-0.287162578883727,44.649192446037425],[-0.287306534664372,44.64920645684509],[-0.287856732055115,44.64927109949562],[-0.288299915015249,44.64932315419975],[-0.288648121818609,44.64936992305253],[-0.288761626818135,44.64936609595646],[-0.288967505028576,44.64939430121703],[-0.289060507993795,44.64940036459268],[-0.289288384746274,44.64941403857744],[-0.289512187250454,44.64942062491229],[-0.289704000009106,44.64942627051742],[-0.289845615119344,44.6494304361377],[-0.289833094121629,44.649097149190844],[-0.289832736867032,44.64908887014446],[-0.289892631067098,44.64907915850546],[-0.289917018143425,44.64907311655838],[-0.289937299576841,44.649068097839816],[-0.289963093576197,44.64905804938423],[-0.28999080895423,44.64904199679901],[-0.290009793339919,44.64902989835609],[-0.29003136589672,44.64901240667793],[-0.290052738464619,44.64898068432549],[-0.290075801027419,44.648932512526606],[-0.290080977296485,44.64891956353803],[-0.290090626694074,44.64890540016215],[-0.290100596533941,44.6488967236658],[-0.290103263572297,44.64889484218781],[-0.290110167417009,44.64888986114589],[-0.290128563876749,44.64888282606957],[-0.290143432351141,44.64888022103786],[-0.290157198377386,44.648880351970796],[-0.290182357431293,44.64888320740201],[-0.290232029918985,44.648892992196906],[-0.290293373818748,44.64890810622449],[-0.290388949594911,44.64893661819176],[-0.290427497054442,44.648948265811406],[-0.290434049388619,44.64895023331257],[-0.290437262553486,44.648951218938244],[-0.290479359357825,44.64896744636875],[-0.290498879861267,44.64897317271473],[-0.290567217234932,44.64898915969981],[-0.290709210865113,44.64902791332536],[-0.290782310480044,44.64904763295133],[-0.290842578246625,44.6490594448242],[-0.290927863446615,44.64907384583064],[-0.291031094063501,44.64909077612802],[-0.291099772739595,44.6491017968442],[-0.291150091029979,44.649105344749856],[-0.291192108641147,44.649107247541124],[-0.291219078983726,44.64910653471259],[-0.291239559889265,44.64910277128724],[-0.291266414499034,44.649097917050575],[-0.291326345008312,44.64908450923135],[-0.291352637532305,44.649074355497135],[-0.291373285855899,44.64906049527229],[-0.291407621040062,44.64903892902076],[-0.291432327522342,44.64902107343475],[-0.291452860562309,44.6490117218899],[-0.29146808074691,44.649008655681264],[-0.291477940531687,44.64900674022652],[-0.291498416254721,44.64900504932728],[-0.291526972307369,44.64900771320997],[-0.291571489320874,44.64901566859672],[-0.29165283748497,44.64903829574512],[-0.291695275794475,44.649051719293745],[-0.291786689928272,44.649093239053784],[-0.291851810618662,44.6491276124158],[-0.291913287466329,44.649157949402884],[-0.291955080421476,44.649175446812286],[-0.291984797345578,44.649185014120036],[-0.2919932556086,44.649187195092594],[-0.292011668284089,44.64918907964002],[-0.292070307865094,44.649185981860946],[-0.292101935170099,44.64918504003386],[-0.292169673093581,44.649177796733106],[-0.292270083912045,44.64918102375148],[-0.292352292011632,44.649181639095765],[-0.292485301880409,44.64918975191721],[-0.292542230268355,44.64919193095975],[-0.292561083898254,44.649192721019425],[-0.292589534783189,44.64919142313013],[-0.292630123881959,44.64918615949825],[-0.292646031905932,44.64918406379898],[-0.292760748118794,44.6491685729173],[-0.292808614112316,44.64916471437221],[-0.292850148477128,44.649162666295474],[-0.292891929771366,44.6491626832708],[-0.292924229318332,44.64916460455522],[-0.292945787069296,44.64916846768983],[-0.292998106763705,44.64918249747048],[-0.293015989530626,44.649188272166114],[-0.293070472193975,44.64920043537755],[-0.293114874277008,44.649210736317485],[-0.293136715617709,44.64921513160039],[-0.293191759428188,44.64921961908268],[-0.293220814624733,44.649224340088224],[-0.293264586145102,44.64922817216748],[-0.293301632069303,44.649231393636406],[-0.293325289500072,44.64923014824901],[-0.293344961694252,44.64922550746877],[-0.293356165244929,44.64922066844276],[-0.293381884688096,44.649205034861666],[-0.293407520180168,44.649190124618165],[-0.293428347032766,44.64918148478806],[-0.29344752023843,44.64917478643085],[-0.293456786769895,44.649173519209775],[-0.293465675285709,44.64917226324954],[-0.293484287226431,44.64917107803417],[-0.293510302116976,44.64917129416518],[-0.293540622624849,44.649176067496114],[-0.293580110162885,44.6491821896077],[-0.293616799718438,44.64919226959637],[-0.293663780055522,44.649205647193625],[-0.293699975927704,44.64921375954571],[-0.293736302862172,44.64921979555763],[-0.293752447513536,44.649221747390484],[-0.293804393626849,44.6492250653869],[-0.293873182147984,44.64922499816694],[-0.293926592779482,44.64922529899287],[-0.293958046735596,44.64922355085128],[-0.293977740134806,44.64922143227613],[-0.294027291492496,44.649218333933845],[-0.294066063583656,44.649210060328464],[-0.294172913859219,44.64918741370888],[-0.294224027755592,44.64916570700358],[-0.294262630534695,44.64914590488077],[-0.294287714407756,44.649130199914715],[-0.294317323219008,44.649107692303225],[-0.294352298085705,44.649088448783175],[-0.294394413120495,44.64906827163227],[-0.294427382858668,44.649053593110395],[-0.294458179898596,44.649047088812786],[-0.294488578599968,44.64904672354529],[-0.294535253437808,44.64905055870425],[-0.294574105711833,44.6490566092875],[-0.294629565306065,44.64907036452018],[-0.294653003431135,44.649080478664956],[-0.294674577298412,44.649086773831215],[-0.29470610679901,44.64910358494022],[-0.294786078081631,44.6491479662699],[-0.29484857034159,44.649182686577156],[-0.294892948484982,44.64920983724293],[-0.294922057459956,44.64922410737948],[-0.29496696469921,44.649240880122605],[-0.295059498497355,44.649271280920146],[-0.295159367273735,44.64930407607057],[-0.295194083466044,44.64931709774133],[-0.295239641932825,44.64933421138967],[-0.295314330075177,44.64936162980197],[-0.295367706211724,44.64937860047564],[-0.295398174592991,44.649388054382264],[-0.295417454808133,44.64939829231659],[-0.295427115965447,44.64940377107699],[-0.295434960707587,44.649410565459],[-0.295438121645819,44.649412813976376],[-0.295441688020972,44.649424151060536],[-0.295442536005189,44.6494451203578],[-0.295435722581381,44.64949695389624],[-0.295480798012267,44.64951227974226],[-0.295519084382238,44.64952375320521],[-0.29551109592632,44.64954255306812],[-0.295462939376151,44.64965580949169],[-0.295366572803065,44.649879260280855],[-0.29530231275653,44.65003228263872],[-0.295324407146505,44.65004099502618],[-0.295204515498808,44.65028740295266],[-0.295102011874562,44.650490131952],[-0.295094069701339,44.650503253757996],[-0.294913341290271,44.65045196395844],[-0.294552227141816,44.65035306761793],[-0.294493736773154,44.65047960671667],[-0.294406900244821,44.6506610537579],[-0.294337700380283,44.65080521215225],[-0.294384565992061,44.65085977111525],[-0.294345949911295,44.65086425572649],[-0.29432234991376,44.65086865329315],[-0.294286700639688,44.65087638337981],[-0.294251587183641,44.650886800652565],[-0.294223503912095,44.65089655790554],[-0.294188979086015,44.650912724367785],[-0.294158822703085,44.65093020234065],[-0.294132200040937,44.65094982764882],[-0.29410656484656,44.65097338816758],[-0.294099325829973,44.650985587889565],[-0.29408930567152,44.651012827984985],[-0.294087933252573,44.651043324524046],[-0.294088596890474,44.65106330816308],[-0.294104544197067,44.651130952726604],[-0.294141919304597,44.65130599528112],[-0.294165025528467,44.651396763854784],[-0.294165631109516,44.65141359553512],[-0.2941645818648,44.65142155608124],[-0.294161096120056,44.65142670585134],[-0.294156071953976,44.65143145093352],[-0.294143738973607,44.651434251260504],[-0.294132413845211,44.65143485902434],[-0.294115281505583,44.6514332970772],[-0.294072363085412,44.65142033920685],[-0.29388310649821,44.651374347655526],[-0.293823155580035,44.65135937420491],[-0.293775013237988,44.65134774323317],[-0.293696564796954,44.651329446278375],[-0.293277950322312,44.65123595302385],[-0.293039088721644,44.65118567097932],[-0.292775886504907,44.65113359044887],[-0.292649643609671,44.651107435423604],[-0.292535923411457,44.65108604331483],[-0.292430215652714,44.65106783647779],[-0.292325720901171,44.6510509449991],[-0.292242301930227,44.651042616550185],[-0.292157554705183,44.651035318751774],[-0.292067966730617,44.65102942651124],[-0.291956626470512,44.651024992862595],[-0.291844362252789,44.65102202829965],[-0.291778480262861,44.651022187860846],[-0.291700055558011,44.651030199580234],[-0.29163493014126,44.651038986642256],[-0.291577575370005,44.651048983992986],[-0.291476390948351,44.651071459299466],[-0.291298945361837,44.65111305459114],[-0.291011573833651,44.65119819901878],[-0.29075011190887,44.651275272931045],[-0.290539777324971,44.65133730867851],[-0.290329988268108,44.65139788609307],[-0.290226083187728,44.651425667304245],[-0.290154845844434,44.65144220421644],[-0.290082605557269,44.65145669850727],[-0.29003570362801,44.65146413133428],[-0.289978043450452,44.6514689108182],[-0.289944850170841,44.651468997547695],[-0.289903550197106,44.651468604664096],[-0.289821333411394,44.651463572500965],[-0.289709325532591,44.65145420064605],[-0.289536076268472,44.65143151322893],[-0.289355581437867,44.65140363480768],[-0.289006374285022,44.65134860783329],[-0.288845306581422,44.651322673584964],[-0.288703618389951,44.651302199671676],[-0.288486187637975,44.651268660701916],[-0.288349487614221,44.65124929944168],[-0.288194962515877,44.651229477024415],[-0.288040978317317,44.651210269043894],[-0.287922628728399,44.65120252569754],[-0.287783781543708,44.65119611264522],[-0.287662008752416,44.65118811040365],[-0.287590025630268,44.651183222799204],[-0.287437012982112,44.65117200445542],[-0.287268978967928,44.65116078202666],[-0.287068009280079,44.651145402615775],[-0.286962381712913,44.6511371898873],[-0.286778076931357,44.65112401763409],[-0.28663332346988,44.65111372401016],[-0.286499453942487,44.65111040516196],[-0.286455355800176,44.6511096436561],[-0.286421327885707,44.651110565091436],[-0.286387961504627,44.65111200748192],[-0.286277923163363,44.6511212253988],[-0.285932560539871,44.651153656723274],[-0.285851835070719,44.651163354541765],[-0.285757579278395,44.65117264348489],[-0.285507028135573,44.65120315662232],[-0.284824842041711,44.651284609238715],[-0.284671864486824,44.651304292058185],[-0.284631882193094,44.65130917425823],[-0.284562092685909,44.65132242072727],[-0.284480667937468,44.65133961702326],[-0.284347792491657,44.6513814987409],[-0.284130555643604,44.65145733298842],[-0.283983355395221,44.65151333574106],[-0.283736807847835,44.65161040356715],[-0.283585626346278,44.65167391263031],[-0.283476821966829,44.65172598103811],[-0.283421017846564,44.65175178652122],[-0.283392653663456,44.6517654238161],[-0.283426956024545,44.65150499284269],[-0.28345487923377,44.651301877882155],[-0.282954320204829,44.65123799146322],[-0.282905116050138,44.65154382707597],[-0.282897866445555,44.651586211465634],[-0.282647127480645,44.651570229458976],[-0.282633300085197,44.65175968018761],[-0.282631670494772,44.65177937145102],[-0.282373195973147,44.651771457611616],[-0.282262007227286,44.651767460209236],[-0.28226263842454,44.65175662887881],[-0.282158674998898,44.651746650148645],[-0.282164952615984,44.651715738002814],[-0.282188261249434,44.65160016224807],[-0.282192424861709,44.65160012874341],[-0.282280576069121,44.651137255773776],[-0.282218553296453,44.65113432159794],[-0.282214996509715,44.65115560184571],[-0.282210292203293,44.65115502067026],[-0.282141727827804,44.6511481358355],[-0.281921060547666,44.65112828602065],[-0.281883575346222,44.65157253466032],[-0.281872940854561,44.65168683304942],[-0.28186849377062,44.651686334327316],[-0.281432098630135,44.65166865223794],[-0.281432069789118,44.65164648729291],[-0.281367535964742,44.65165029491598],[-0.280901475268033,44.65168025565453],[-0.280726817473767,44.65168967364982],[-0.280727719075192,44.65170081989646],[-0.280631634807184,44.65170691490713],[-0.280562085670291,44.6517568243508],[-0.280552644974837,44.65175944721235],[-0.280295000702996,44.651824308597405],[-0.280170034803727,44.651856849907915],[-0.280174528719832,44.6518971736438],[-0.280070488024485,44.65191404648465],[-0.2800081003021,44.65192436728329],[-0.279925871673731,44.651929960491266],[-0.279547264961851,44.65196173600769],[-0.27961210307971,44.65220381646195],[-0.279649260758437,44.652343367817856],[-0.279733411662656,44.652652634191476],[-0.279590757786646,44.65269795376763],[-0.279506650821268,44.652721172791146],[-0.279407333085924,44.65274331115387],[-0.279369412328985,44.65275110371998],[-0.279311938099355,44.652761278354276],[-0.279266908509383,44.6527662181784],[-0.279193199719408,44.652775072185584],[-0.279147860829892,44.652776867466116],[-0.279067342710067,44.65278150821669],[-0.27902687788219,44.65277378798669],[-0.278976138567272,44.65276087607409],[-0.278871400065747,44.65273109414485],[-0.27878616170041,44.65270451821399],[-0.278770725895945,44.65269956969988],[-0.278652873900588,44.6526570211725],[-0.278555219821229,44.65262099184333],[-0.278426695133686,44.65257074025559],[-0.278455027267836,44.65211406010041],[-0.278464826317277,44.65198311762423],[-0.278525087882771,44.65197313107084],[-0.278653072216706,44.65195122460524],[-0.278649383412777,44.65193772818099],[-0.27863956069381,44.65190125673967],[-0.278619254558126,44.65182346779374],[-0.278584968913977,44.651700680622135],[-0.278372731107501,44.65172157137444],[-0.278232567444042,44.65173590945339],[-0.278238778166665,44.65176888383413],[-0.278130568689323,44.65184210380516],[-0.278130618715214,44.65185597845065],[-0.277938020217819,44.651945396342335],[-0.277914727298097,44.651955097433],[-0.277897961237875,44.65196199196684],[-0.277880172560487,44.65196215896311],[-0.277751635923481,44.65195939220648],[-0.277630686208443,44.65195685089835],[-0.277495649697929,44.651953015078],[-0.277495909115442,44.65191408215479],[-0.277481197080198,44.65191505892605],[-0.277398733133171,44.651914440000205],[-0.27726240270112,44.65192307670406],[-0.277020134194423,44.65192683409076],[-0.276919245839307,44.65192847291368],[-0.276921482745469,44.65197994648766],[-0.276534602751093,44.65196933734935],[-0.276542283464732,44.65212526110116],[-0.276389436266095,44.652099515707945],[-0.276190510866043,44.652073693900924],[-0.276171226151221,44.652072012756385],[-0.276058266911894,44.652072296497124],[-0.275907475340429,44.652084063168935],[-0.275627019837283,44.65210841158901],[-0.275471843291533,44.65212292061499],[-0.275360111217418,44.652129114186835],[-0.275236987150629,44.65212825655382],[-0.275086475947522,44.652129651762586],[-0.275102346491569,44.651820753598045],[-0.275111987231021,44.65165873027134],[-0.275139332947834,44.651199828514436],[-0.275147537510261,44.65107172707877]]]]}}]}
