{"type": "FeatureCollection","name": "aoc_geojson","features": [{"type":"Feature","properties":{"dt":"Dijon","type_prod":"Vins","categorie":"Vin primeur, Vin tranquille","type_denom":"appellation","signe":"AOC","id_app":1027,"app":"Coteaux Bourguignons ou Bourgogne grand ordinaire ou Bourgogne ordinaire","id_denom":2338,"denom":"Coteaux Bourguignons ou Bourgogne grand ordinaire ou Bourgogne ordinaire","insee":"71250","cvi":"1B320, 1B320 02, 1R320, 1S320","nomcom":"LAIZE","insee2011":"71250","nomcom2011":"LAIZE","id_aire":1685,"crinao":null,"grp_name1":null,"grp_name2":null},"geometry":{"type":"MultiPolygon","coordinates":[[[[4.792030702055578,46.37686898810869],[4.791581577356062,46.37637993838562],[4.791518288614033,46.37619205593935],[4.791419632787797,46.37591772143684],[4.791344580725942,46.375609149904804],[4.791343037863728,46.37560575148049],[4.791184832972553,46.375265430068545],[4.791019902924599,46.374715891713166],[4.791010693473738,46.37469297843728],[4.791005305541445,46.374679462490285],[4.790918285394901,46.37437882462071],[4.790879175269714,46.374281352619356],[4.790848848988414,46.3742057197383],[4.790412230195117,46.373974249303025],[4.789494864563281,46.37399927366517],[4.788733282805124,46.37401698394324],[4.788680765868693,46.37406239206319],[4.788812670124074,46.37431540118564],[4.788875156011509,46.37443538496029],[4.789020753190218,46.374728980728364],[4.79051616842396,46.377630893887066],[4.790643200469828,46.377881635704725],[4.790656276760745,46.377907370539155],[4.790765419116579,46.378116510599845],[4.790864143058913,46.37830554842243],[4.791054894003576,46.37863806358679],[4.791210135791763,46.37884008446882],[4.791436346622787,46.37913466325078],[4.791499776782477,46.379219593701926],[4.791606350426385,46.37936212169281],[4.791625245637364,46.379382721123115],[4.793237877636883,46.37879345433669],[4.793189125504304,46.37871964287885],[4.793124625464658,46.37852682645163],[4.793010965363431,46.37818031290478],[4.792910341286897,46.37791375653596],[4.792671784609535,46.37755632570347],[4.792603793996194,46.377447418901795],[4.792376102203334,46.37717114983169],[4.792030702055578,46.37686898810869]]],[[[4.792849960431139,46.36979490303168],[4.79280442382947,46.36971968986035],[4.792919701411321,46.369168180738754],[4.793008132888293,46.368893067887846],[4.793053706512058,46.36875130182567],[4.793115916686159,46.36849794768068],[4.792675781533927,46.368455688527895],[4.792639060818017,46.3684508615136],[4.792630012586343,46.368484419692486],[4.792598077072976,46.36866911473238],[4.792518182989403,46.368938778938386],[4.792450114743493,46.36918024545389],[4.792400821917611,46.36937926410698],[4.792376082607928,46.369553307765536],[4.79232993882917,46.369701567500215],[4.792238933027557,46.37000545248675],[4.792164913206288,46.370224224587304],[4.792070286140551,46.37035027817703],[4.791989509201536,46.37047809560864],[4.792023056453698,46.37070355396861],[4.792312316842419,46.37117178581834],[4.792022128781642,46.37119111704615],[4.792082526711041,46.37142588105294],[4.7921055541805,46.37152891950472],[4.792229954256163,46.3718662581963],[4.792267690390622,46.37196942577166],[4.792300987454011,46.37206023344242],[4.792290312779118,46.37209183558565],[4.792282369578907,46.372115468652844],[4.7923758277262,46.372354396639054],[4.792375830678894,46.372354486662566],[4.792368757100649,46.372360992784984],[4.79238255080624,46.37239671391922],[4.792431708925763,46.37250294446765],[4.792488871256122,46.37262310011332],[4.792607462762415,46.372838755177725],[4.792687158738793,46.37295162119512],[4.792740688065425,46.37311569787411],[4.79279911578726,46.37327438341126],[4.792863838079558,46.37339090732758],[4.793036207624264,46.37369875887594],[4.793365799531333,46.37436027478073],[4.793411653822414,46.37445295632447],[4.793433947555132,46.37446215320746],[4.793579353490045,46.37475709759805],[4.793763235482937,46.375129977719496],[4.793977300468485,46.37507446065071],[4.794026242235737,46.37521356948706],[4.794086589105564,46.37520460409644],[4.794112932826981,46.37526183449256],[4.794097730036505,46.375274413196315],[4.79407137418149,46.37529608424363],[4.794095072376461,46.37533218982136],[4.794215343341776,46.375515391739874],[4.79424791271569,46.37559576221972],[4.794316649170614,46.375588646283106],[4.794673038144932,46.375412987433904],[4.794783107976208,46.37537270562033],[4.794884563863429,46.375335621623165],[4.794970973396657,46.375288146057585],[4.794976468578628,46.375285087274065],[4.794979782237536,46.37528296351955],[4.795109735971939,46.375198324267906],[4.795264182588718,46.37510663418961],[4.795304581305295,46.37505691021259],[4.795307336232777,46.37505362433272],[4.795357406906307,46.375005189222115],[4.795365979199709,46.37500073093574],[4.795400271317146,46.374982987807115],[4.795484140691858,46.37493744328719],[4.795530806328649,46.37491211960669],[4.795583910012738,46.37488471301939],[4.795641323775381,46.37486966821112],[4.795806080376171,46.374826452848346],[4.796199778406825,46.37472513988802],[4.796272048455704,46.37470679842725],[4.796489115477286,46.37465167964952],[4.796503649633,46.374642533805634],[4.796755426403323,46.374483467457765],[4.796755296340945,46.374483469506565],[4.795980265505601,46.37418322268359],[4.795934070037298,46.37408820565625],[4.795866522720547,46.37394930042868],[4.795710186403544,46.37361508018934],[4.795728001116783,46.373254339616956],[4.795728326005256,46.3732444268027],[4.795735851237748,46.37300220017991],[4.795743089333585,46.37285815436762],[4.795752286080772,46.372674717123985],[4.79576520318699,46.372454022388354],[4.79576800400442,46.37240461992905],[4.795779718468801,46.37220276874837],[4.79577902961832,46.37219764560356],[4.795776824135861,46.37218200814649],[4.795708987990967,46.371741192711426],[4.795669137071081,46.37148277876567],[4.79560502776457,46.371076131186975],[4.795547145135283,46.37070847592804],[4.795433841695513,46.36998861859586],[4.795470427374418,46.369565524153806],[4.795489630877174,46.369310413718736],[4.795503217120518,46.36912987962206],[4.795517449647519,46.369040306082056],[4.795599307898184,46.36858533454442],[4.795715585668697,46.368005794500604],[4.795171621861946,46.367967521580034],[4.795070217664904,46.36796218228491],[4.79466597233074,46.367919185818025],[4.79460446899929,46.367912497664456],[4.794152816467691,46.36786412059316],[4.793677245064574,46.367812425058375],[4.79355648487683,46.36781990857109],[4.793450541648613,46.3681758199097],[4.793237098070239,46.36834067165059],[4.793171410144361,46.36857921901106],[4.793126734650697,46.36876024152076],[4.793122483880313,46.36878534780636],[4.793088890320875,46.36889963434674],[4.793001168560197,46.36917653750821],[4.792971989251912,46.36933416832889],[4.79289950295916,46.36972251861737],[4.793133826366304,46.370102622943925],[4.793468545813728,46.37062760193027],[4.793649647448942,46.3709241465948],[4.794114316187327,46.37165361056951],[4.794028118743498,46.371663793284846],[4.793759285803658,46.37123964877516],[4.793483587997658,46.370804442947126],[4.793256852133002,46.370441603493184],[4.793228330197053,46.370389270939135],[4.792940218258201,46.369944261301924],[4.792849960431139,46.36979490303168]]],[[[4.793930297648721,46.38748457359376],[4.793975225959521,46.38769535097163],[4.793997391090599,46.38789865019891],[4.794006517957218,46.387982361642564],[4.794009506766346,46.38806148597425],[4.79401790264765,46.388289410610355],[4.794022934704389,46.38834355348451],[4.794189544788389,46.38877164715249],[4.794198746132507,46.38878627389577],[4.794405550455648,46.38933235705741],[4.794489762308378,46.38936787112012],[4.795541998906584,46.38918910075555],[4.797000657026904,46.38893681799494],[4.796890988376581,46.38868932202575],[4.796809868905028,46.388336264843375],[4.79678542458564,46.388246039551944],[4.796775354045431,46.388181257794045],[4.796629615839313,46.38799260481652],[4.796607532775354,46.387934587308884],[4.796508917787359,46.387560008527075],[4.796374623643989,46.387117628438666],[4.796267143443503,46.386869196754276],[4.796148685697125,46.38651645678234],[4.796113098678221,46.38639209016935],[4.795993746266151,46.386107096655344],[4.795956032166566,46.386016990023144],[4.795841625606651,46.385656710180676],[4.795787465449971,46.38548597965189],[4.795667167902566,46.38509291687737],[4.795616889220098,46.38485808551409],[4.79515721517067,46.38490657157126],[4.794816221280414,46.384942560466314],[4.794817087568935,46.3849451588626],[4.794984479459235,46.38556751982043],[4.795076789052724,46.38616656294001],[4.795052567464463,46.38629691479741],[4.795032215682441,46.38640639963098],[4.794962568608241,46.386552597896674],[4.794956862487461,46.38656511730624],[4.79491472876343,46.38665738119235],[4.794610126285655,46.386783226828626],[4.794146786556863,46.38687121676254],[4.794096955237892,46.38692334017443],[4.794072039542757,46.38694940187205],[4.794047085374967,46.38697825633211],[4.793943495732495,46.387097696509386],[4.793900186067662,46.38719385147189],[4.793878599180487,46.38724201794705],[4.793930297648721,46.38748457359376]]],[[[4.794404127596034,46.375969977282125],[4.794440215282472,46.376074250963605],[4.794596411490395,46.37632894328205],[4.794657227418056,46.37644913050664],[4.794683218097213,46.37657481947983],[4.794758394114389,46.37657354659393],[4.794777175566247,46.37674123149611],[4.794806072401275,46.376856336535006],[4.79485522823069,46.37704146740529],[4.794903649753929,46.377354779311666],[4.794985359134618,46.37776232093883],[4.795079673851891,46.37830792146279],[4.795134087024284,46.378621319108646],[4.795739286427216,46.37860305670514],[4.795812655169202,46.378677380291634],[4.795945808508026,46.37879282525538],[4.796180274561789,46.37891018756569],[4.79643527854548,46.379030738700784],[4.796703880605341,46.379180888257615],[4.796842941629212,46.37925426656907],[4.796915593060214,46.37923943152325],[4.796931142691582,46.37923738517868],[4.797172386444505,46.37920458218847],[4.797363962934682,46.379232547867225],[4.797595972859824,46.379227631019205],[4.79811191888835,46.37922175111832],[4.798798533570805,46.37911076815198],[4.798926667117173,46.37899841178584],[4.798810625846848,46.37894836139001],[4.798808720222501,46.37889047642618],[4.798737051144267,46.378867918151506],[4.798713147794203,46.378837581197715],[4.798759413241274,46.37877632461643],[4.79877214853375,46.378740185863535],[4.798747276088986,46.37871598895893],[4.798725974245782,46.3786856109859],[4.79871737537368,46.37865764473453],[4.798731094293272,46.378611852984584],[4.798774209829521,46.37853398310985],[4.798776509021319,46.37848918205902],[4.798759820700504,46.37844477049032],[4.79873889506001,46.37838628474464],[4.798744634376847,46.378366919260806],[4.798794538726754,46.378345055939214],[4.798868926767548,46.378331633355685],[4.798995586722048,46.37832873518031],[4.799129965690544,46.37833102925046],[4.799194789293069,46.37827218187197],[4.799208220538642,46.37822162088056],[4.799245191480108,46.37810340628376],[4.79929006475096,46.37796038783442],[4.799326128541207,46.37785020374366],[4.799431094826596,46.377718126548444],[4.7993849244472,46.37767156810486],[4.798209759774064,46.37776179544985],[4.797644817213045,46.37780879952608],[4.797446799335914,46.37723673302603],[4.797004439209069,46.376555297849244],[4.797004436248526,46.376555207825895],[4.796739148571877,46.37614929822345],[4.796664367973014,46.37571138494458],[4.796607955845172,46.37538090600219],[4.796573131391672,46.37517663535123],[4.796517970040451,46.374828753148726],[4.796501045661185,46.37472165627557],[4.796080912704477,46.374818432693374],[4.795804355696773,46.37488484534639],[4.795754061115321,46.37494229118442],[4.795504542710233,46.37519400167823],[4.795360555643398,46.37533866872723],[4.795066115459965,46.37549462032956],[4.794962963128392,46.37557118181711],[4.794850354025344,46.375633210611525],[4.794735823222102,46.37569220714905],[4.794603396376431,46.37575706946593],[4.794433117217274,46.37584621550058],[4.794431860914321,46.37585154939009],[4.794404127596034,46.375969977282125]]],[[[4.79457502101863,46.36652831439845],[4.794581987729498,46.36662557048847],[4.793901237882348,46.36666095966277],[4.793896783714723,46.36668381744101],[4.793834309141253,46.3670716508561],[4.793811671217366,46.36721440761882],[4.793625343286785,46.36768200932816],[4.793684661293578,46.367756915367636],[4.79437395494684,46.367826775210965],[4.795079559375078,46.36789403237089],[4.795275209193127,46.36791256956041],[4.795720472658569,46.36794465005652],[4.796581517444127,46.367903528016285],[4.797252319227491,46.367842159508925],[4.797323486263939,46.36777078331029],[4.797232340279383,46.367365192895114],[4.797319470490491,46.36735985672244],[4.797270280883174,46.36709060173874],[4.797189766635635,46.366612607502546],[4.797164749779266,46.36642160274451],[4.797153975520807,46.366339268306575],[4.797144617584705,46.3662683504528],[4.797144443138626,46.36626700215008],[4.797140566844326,46.3662361691849],[4.797069951884834,46.36567929757058],[4.797069177556453,46.36567948991245],[4.796982707950543,46.36560195102176],[4.796590978812832,46.36559488250929],[4.796347281224458,46.365590795180005],[4.795748712625539,46.36558076676616],[4.794965302331063,46.36556409721445],[4.794889919767837,46.36556258155573],[4.79483785597644,46.365561959835595],[4.794850586043141,46.36564057078978],[4.794858942240292,46.365740507113685],[4.794841937344187,46.365840752505065],[4.794827246458972,46.36593222467839],[4.79483035657952,46.36602692942976],[4.794855473221795,46.366098410046],[4.794865779972677,46.36618246333713],[4.794873370299989,46.36623530507023],[4.794778554650618,46.36627597773908],[4.794607758146339,46.36629694973123],[4.794566611436439,46.366311828273126],[4.794563135981966,46.366360520785356],[4.794563771909194,46.366459137476426],[4.79457502101863,46.36652831439845]]],[[[4.795647250675387,46.37082065836854],[4.795653142828503,46.37087325656546],[4.795711053071269,46.371245685052806],[4.795754280280352,46.37153160725891],[4.795778557400302,46.37168038096926],[4.795829796557093,46.37200022346072],[4.795838642192827,46.37206349347335],[4.795859673929481,46.37220060916079],[4.795856303817632,46.37228812020232],[4.795836339119132,46.37267447459099],[4.795803136713242,46.373240096526814],[4.795787584143542,46.37361422193256],[4.795862565354986,46.37376552988721],[4.795930612087029,46.37390775984295],[4.796014799492784,46.37407783744784],[4.796111277994542,46.3741507160684],[4.796450212153556,46.374283725939925],[4.796783215060158,46.37441043329083],[4.796879437030338,46.37440027077644],[4.797204299547469,46.37422401955009],[4.797608575718378,46.37397373924208],[4.797480488331238,46.37350568232852],[4.797471462006111,46.373472588731175],[4.797643131511652,46.373457723810574],[4.797669211361062,46.3734554213056],[4.797667261491648,46.37337637054015],[4.797612738666031,46.37316277307576],[4.797577809075294,46.37301867108175],[4.797555699786077,46.37293201186023],[4.798027971506935,46.37291357939238],[4.798692598829508,46.37288418554],[4.798713257388579,46.372883229265064],[4.798642086822792,46.372673947910876],[4.798581562642892,46.37248764664244],[4.798597801896164,46.37237219093511],[4.798618323445901,46.372248471316226],[4.798631516836972,46.37215513079967],[4.79863521557051,46.37183262157218],[4.798631727973243,46.37168712331059],[4.798345111120186,46.37160148265341],[4.798191291398157,46.37107114332992],[4.798154635092946,46.370922024768795],[4.798060883719685,46.370876576274554],[4.797875395789263,46.3708983249685],[4.797606738609922,46.37063460110396],[4.797574042778692,46.37059791747794],[4.797521560464237,46.37054911601502],[4.797206171386891,46.37024514586956],[4.79704540990294,46.37008888544646],[4.79702378141676,46.37006031373693],[4.79681671367246,46.36977391080053],[4.796737193991397,46.36965861289102],[4.796654614089091,46.369442304527865],[4.796584830869713,46.36924714113586],[4.796676509798669,46.36923759062742],[4.796824528076684,46.36963562021197],[4.797101435333647,46.37002387279594],[4.797495503245387,46.37040964785881],[4.797524799304872,46.370437918500315],[4.79774487114747,46.37065268968224],[4.797799878336162,46.37070703559257],[4.797802033228314,46.37070925337764],[4.797920481484265,46.37082907093191],[4.798457306604925,46.370772059546134],[4.798499174632503,46.37076716605185],[4.798872179768583,46.37072606619577],[4.79921488822196,46.37068958627275],[4.799240482038257,46.37068837189444],[4.79928358944399,46.370630227119705],[4.799223468472945,46.37055497623622],[4.799177708236058,46.37049697238837],[4.798987569989555,46.370246964678984],[4.798869900943851,46.37009155822248],[4.798734005649353,46.36991212017112],[4.798683392454419,46.36984500552195],[4.798552140156088,46.36964450770862],[4.798427324098615,46.36945372590614],[4.798302907949,46.36926320788086],[4.797755075658052,46.369412353849086],[4.797513230238782,46.36897851516017],[4.797446062394993,46.36887085915173],[4.797596844717344,46.36885830478831],[4.797602555027158,46.36885785450522],[4.797489154128777,46.36838497241967],[4.797454978593614,46.36823995776602],[4.797394196266846,46.367982234381586],[4.79739351189074,46.367953512805734],[4.797274507358229,46.36790359793734],[4.796604301810603,46.36796333590932],[4.796502058495782,46.367968098952055],[4.796041157993075,46.367990760139044],[4.796049709312852,46.36801341319843],[4.796058934017885,46.36811198471569],[4.796065388648377,46.36846279602328],[4.796169412449374,46.368464670531054],[4.796218509604061,46.368493710479505],[4.796219810784147,46.368513505400315],[4.796189299757786,46.368515517118816],[4.796115550725593,46.368520281383404],[4.796117985826071,46.36859833377515],[4.795868612260628,46.368608025250445],[4.795864835846091,46.368536659163745],[4.795742398520335,46.368544621728404],[4.795765151876543,46.3684649117547],[4.795744216565187,46.36844551604796],[4.795711317160978,46.36843819795948],[4.795702238586614,46.368482655365476],[4.795689941835314,46.36854796962087],[4.795594445037446,46.36904720021153],[4.795543194299579,46.36959022869201],[4.795509806605209,46.36998390999102],[4.795515352569108,46.37002993853539],[4.795572344230905,46.37038238602111],[4.79560349330507,46.370566088827246],[4.795647250675387,46.37082065836854]]],[[[4.798621624718244,46.39344088851429],[4.799320007065296,46.39302573419747],[4.79897855368078,46.39250375931289],[4.798955607991741,46.39247106545452],[4.798927330315832,46.39243061958081],[4.798909021703123,46.392404337633145],[4.798819980198718,46.39230540362916],[4.798667920596028,46.39212694055773],[4.798571631752554,46.392017402306585],[4.79853092920697,46.39197120758651],[4.798250291774918,46.391196526804634],[4.798238513956675,46.391147174016936],[4.798180846341614,46.3906923294667],[4.798166231333211,46.39057654983819],[4.7981602516663,46.39052143126142],[4.79815077187864,46.3904351136085],[4.798000721808107,46.39021860857283],[4.797885394784022,46.39004857265873],[4.797823166091127,46.3899612847796],[4.797817707339387,46.389953624787736],[4.797757827269471,46.389830902417884],[4.79764156034021,46.3895926982098],[4.797582112826274,46.38947122991676],[4.79750215200443,46.38930784201873],[4.797231188132611,46.38909143952801],[4.79708038118138,46.389021849189014],[4.797012708447836,46.38899058001283],[4.795851929535813,46.38918935678129],[4.794525530576623,46.389418558241275],[4.79446316652515,46.38948547018654],[4.794673255737925,46.39010364711051],[4.794760738203537,46.390369417930245],[4.79497199405547,46.39081293071842],[4.795142518169174,46.39117349925974],[4.795215756532724,46.39133050945003],[4.795465124092814,46.391852142704295],[4.795628744169805,46.3922044427235],[4.795746349190062,46.39262204675077],[4.795875549666494,46.392814203689476],[4.795922841850675,46.392866870699194],[4.796000774729504,46.39303191280831],[4.796097199113032,46.39322881869577],[4.796256677883518,46.39355785499758],[4.796362492851287,46.39360482682954],[4.797480720073224,46.39409998395093],[4.798621624718244,46.39344088851429]]],[[[4.798879041808953,46.37765063456974],[4.798930717725445,46.37764702745251],[4.79921259537053,46.37762726982963],[4.799518506060429,46.37760623167041],[4.799583519948865,46.37754134635046],[4.799650295355353,46.37747463179826],[4.799643495003851,46.377461769000185],[4.799607704553718,46.377394510912126],[4.799556291757545,46.377303360503106],[4.799502362978076,46.3772069356313],[4.799425349246033,46.37706944268435],[4.799351865526964,46.37693243442528],[4.799324026208574,46.37688135350733],[4.799181799959092,46.376620862617344],[4.799149792525915,46.37656570418172],[4.799088687098337,46.376460745599466],[4.799020846358798,46.376336978505556],[4.798964355999387,46.37623383854451],[4.79895147739282,46.37621026316465],[4.798943253766589,46.376142299908544],[4.798938648975252,46.376081485182105],[4.798926811709386,46.37592747195292],[4.798926808745709,46.37592738192962],[4.798914677245501,46.3758237224932],[4.798860242354757,46.375794857855546],[4.798838520440716,46.37578331117269],[4.798423377457734,46.37581831947442],[4.798362114001695,46.375625454666995],[4.798315563918141,46.375484238201146],[4.798263922349701,46.375322746158965],[4.798228796991684,46.375212333636014],[4.79815755303038,46.374985039175],[4.798086671053643,46.37476872751021],[4.798007629629606,46.374529846775275],[4.797818539715706,46.37394016647566],[4.797521071003285,46.37412229271577],[4.797271810536822,46.37427861907231],[4.796996175611302,46.3744362610789],[4.79695098891801,46.37445904011772],[4.796846714465913,46.374525082878456],[4.796824152045774,46.37453543607711],[4.796654981727025,46.374666000292315],[4.796642079380738,46.37467728213257],[4.796584148835071,46.37476367103071],[4.796610005545628,46.37492079618905],[4.796686934258422,46.375372636538216],[4.796708308220183,46.37548443700471],[4.796732554880142,46.37564798246164],[4.796758065746753,46.3757866486811],[4.796813460123615,46.37613362639223],[4.797176194987788,46.376701027226815],[4.79751927935354,46.37722072933814],[4.797634984237093,46.37755342592334],[4.797680839794493,46.37769726560347],[4.797781670765767,46.377743954021064],[4.798879041808953,46.37765063456974]]],[[[4.798226465955699,46.382334564976034],[4.798377353111728,46.38192470995654],[4.79839934076035,46.3818612242892],[4.798483268188168,46.38161950443657],[4.799076695984637,46.38151152058611],[4.799531797022158,46.38143183606176],[4.799841323390363,46.38137768465409],[4.799853708241633,46.381326959979695],[4.799848613613964,46.38131848371011],[4.799707599747566,46.38108337402024],[4.798831986721674,46.38111123557387],[4.798580628890006,46.38123237991511],[4.798334655916984,46.38134713389735],[4.797887505214373,46.38136390957489],[4.797818534130716,46.38136805893963],[4.797218435418645,46.381467134336994],[4.796901130236488,46.38151041257803],[4.796847818349137,46.381571238884376],[4.796792445392933,46.383821246735366],[4.796834229691094,46.38414988415542],[4.798306976473103,46.3842547578939],[4.79830710655868,46.384254755843344],[4.798390470240719,46.383655737651836],[4.79833658522517,46.383208849418175],[4.798226465955699,46.382334564976034]]],[[[4.798825031035632,46.38931608542215],[4.798915453266749,46.389611259885136],[4.798940223153323,46.38969148187879],[4.798975679763798,46.38981557953616],[4.79910930624876,46.39005107685694],[4.799366854076112,46.39050790300675],[4.799682758978288,46.39107648556892],[4.800023402685932,46.39168061492074],[4.800106869517615,46.391843405440106],[4.800127836531955,46.391867393515305],[4.800683372265172,46.39233230509172],[4.800859540275502,46.39247976131735],[4.801120283702828,46.39274450431368],[4.801405392318383,46.39303354122769],[4.801608350727351,46.39323929896447],[4.802563266733364,46.393869117980714],[4.802695053571801,46.39391792548391],[4.802795869993689,46.393955242865744],[4.80298703449898,46.39402427830708],[4.80300995865904,46.394032562785185],[4.803042333218031,46.39403925680656],[4.803145873873396,46.39406049838965],[4.803532156690142,46.394152659715054],[4.803594564124777,46.39416608447069],[4.804296880785734,46.394221632807614],[4.804394050676295,46.39423126491486],[4.805166554597241,46.39443710563056],[4.805238840373101,46.39442641460301],[4.805243058021896,46.394416169967315],[4.805218324376026,46.39416013202771],[4.80515467004035,46.393975054485715],[4.805084416480613,46.393806924396806],[4.804954640373363,46.393464459657885],[4.804930808914923,46.393322345917234],[4.804926347821342,46.39328188498992],[4.80491198751913,46.39313881079323],[4.804925365456732,46.39292909636902],[4.804929142377897,46.392842479357604],[4.804935042959036,46.392804376479326],[4.803876174549824,46.392669263617634],[4.803844318149321,46.392662471581104],[4.80387658354347,46.39253973653288],[4.803877050454624,46.39253810789171],[4.803931613641986,46.392329814104414],[4.80267226129707,46.39216615513664],[4.802276017432706,46.391791328857366],[4.801924423787417,46.391471639484934],[4.801519781849008,46.391082622215755],[4.801448024639455,46.39101449141924],[4.801423365099025,46.390996956844305],[4.801342214633701,46.39081764786032],[4.80126080967402,46.39053980633911],[4.801143045309839,46.39014220532218],[4.801144985412744,46.390122089100544],[4.801026368980453,46.38973017582496],[4.801015062811414,46.389710989261616],[4.800908596890869,46.38941120575085],[4.800721086639073,46.388903558907096],[4.800648394661044,46.38834095844952],[4.800607396287266,46.38802906280588],[4.800611595085345,46.38790370924818],[4.800631208752211,46.38738513721784],[4.800635101006114,46.38734526486927],[4.800779882693867,46.38592500829036],[4.80078831048119,46.3858134587055],[4.801752705633751,46.38568906731331],[4.80200842429661,46.385660259217566],[4.802080161909211,46.38559382532637],[4.802074413741285,46.385423503661976],[4.802120099770204,46.38522624923009],[4.802130226651191,46.385189971185525],[4.802155234908439,46.38509977633389],[4.80220454319996,46.38478744521158],[4.802205894649448,46.384769229717676],[4.802268448246788,46.38438103047876],[4.802289313516777,46.38424811776364],[4.80248837740683,46.38383569449818],[4.802546712118456,46.383722095171294],[4.802582349692282,46.38364641365511],[4.80264153815839,46.38353108944957],[4.802662951343092,46.383489769216254],[4.802696546493146,46.38341925392371],[4.80272092382098,46.38329421175767],[4.802735047305265,46.38322130204019],[4.802748702660798,46.38314209481319],[4.802750073681663,46.38304164503269],[4.8027489858209,46.382985008156346],[4.802739520272112,46.38289535788555],[4.802734996917327,46.382856879379574],[4.802694454488197,46.382657654575205],[4.80268373304246,46.38262855122601],[4.802566039814541,46.38242225904699],[4.802505421406111,46.38232062706642],[4.802426469042492,46.38216821500731],[4.802351862773524,46.3819542163804],[4.802051222962605,46.380991433305056],[4.802037639516544,46.380934723599964],[4.802025884241984,46.38088609132004],[4.801920188260011,46.38089343533934],[4.801685714734981,46.38091857547646],[4.801600240028411,46.3809274012268],[4.801521508549584,46.380935489931225],[4.801351596143847,46.380949071592326],[4.801037615480366,46.38097852822622],[4.800247107608291,46.38108107609587],[4.79982295190207,46.38113604647662],[4.799879304853775,46.381246664029284],[4.799934792988949,46.38131126942823],[4.799993018011842,46.381368085596314],[4.79995217792538,46.38138467238748],[4.799852009506786,46.38142552336553],[4.799477308534343,46.3814924119953],[4.79907917757992,46.38155921853977],[4.798666022285235,46.38163616826676],[4.798567980026369,46.38170211409103],[4.798299834315172,46.38232953543727],[4.798387558503525,46.383029527247544],[4.798418866515259,46.38325709079713],[4.798471081529286,46.383661132036245],[4.798372927775546,46.38434459883228],[4.798310614344656,46.384796291011064],[4.798288388812428,46.384939582315134],[4.798535985133933,46.38568416028225],[4.798648755613707,46.38602978210029],[4.798666209551761,46.38608156733771],[4.798650253223108,46.38619782895077],[4.798319943787416,46.387626230440404],[4.798320815001373,46.387652697255064],[4.798336613487907,46.38770558946715],[4.798420298968235,46.38797420980405],[4.798474431594404,46.38814773179449],[4.798611978486746,46.38860924326455],[4.7987987069014,46.38924399419833],[4.798825031035632,46.38931608542215]]],[[[4.798358259757603,46.36919361161493],[4.798450949269007,46.36934130615321],[4.798561236770613,46.36951763561341],[4.798578048526505,46.369514488252506],[4.798675038248494,46.369496295728474],[4.798749768870783,46.36948178677339],[4.798857599737349,46.36946090114884],[4.798936781270007,46.36944325948432],[4.799000974715372,46.369428826494676],[4.799212682539061,46.3694013481159],[4.799524729482066,46.36933887019536],[4.799475156246033,46.369271739476844],[4.799945930385722,46.369260167510696],[4.8003147097056,46.369249122804874],[4.800675898994713,46.36924071870323],[4.801041051477807,46.36923017925728],[4.801516485943012,46.369217896713366],[4.802264146110941,46.36919833841294],[4.802605141450121,46.36918916645815],[4.802946077276244,46.36917819301839],[4.802732718331743,46.36867825322315],[4.802193215093012,46.36806934826255],[4.801473581411171,46.368093957933986],[4.800439735953435,46.36812694647986],[4.800388255705268,46.367895288039826],[4.801710762175432,46.367753979164576],[4.801958505698346,46.36772655675976],[4.802030833955508,46.36771820833236],[4.801940012733481,46.36751689526178],[4.801544158090825,46.36693120758294],[4.80153027529494,46.366904766098365],[4.801346467733648,46.36684678199876],[4.79941499492146,46.367144240992204],[4.799391271189044,46.36715083014058],[4.79834068804882,46.367315206119386],[4.798081099426705,46.36735433639645],[4.797787462464276,46.367398686449285],[4.797361933251477,46.36746411919785],[4.797539519497238,46.36800948700379],[4.797587974859272,46.36817328135794],[4.797625028616513,46.36825547175143],[4.797649964925055,46.368250124851],[4.79771912255475,46.368232371794086],[4.79774329682706,46.36823550347451],[4.797787825512807,46.368315504379886],[4.797811593700205,46.368345843619494],[4.797843195299134,46.368345345464924],[4.797859160520565,46.368328340752576],[4.797876097738174,46.36830528601806],[4.797887870495826,46.36826763126649],[4.797974268166533,46.36816088721872],[4.797981512847433,46.368167528265],[4.798141103331465,46.36831596972348],[4.798210415116701,46.368429446095384],[4.798375668379093,46.3686352626926],[4.798532193567945,46.3688249140119],[4.798982875526773,46.36865369825372],[4.799013401803871,46.368691676685984],[4.798677384051033,46.36882037256608],[4.798453227663748,46.368908393263446],[4.798271716672452,46.368979618563685],[4.798260357008425,46.36900609814631],[4.79824112442529,46.369046392516715],[4.798358259757603,46.36919361161493]]],[[[4.801161430700984,46.38992998053231],[4.801174221509219,46.38997445329594],[4.801274887544999,46.390311436953695],[4.801290163323205,46.3903641569073],[4.801300011989275,46.39040624421846],[4.801339611942465,46.39053739133219],[4.801415482709926,46.39079739626442],[4.801501990772461,46.390973378090436],[4.801550533837271,46.39102043875555],[4.801616285189502,46.391084070757046],[4.801856171100829,46.39130851987578],[4.801923058443755,46.39137105293008],[4.801952163693468,46.39139707383401],[4.802008224334303,46.391447077965964],[4.802343829871579,46.391763506914195],[4.802402600244783,46.39181671057547],[4.802516123569395,46.39192759470547],[4.802524729429743,46.39193592532586],[4.802709812506962,46.392116743942374],[4.803821263586491,46.39225995307153],[4.804472879111163,46.39234188136538],[4.804859927187113,46.3923905221494],[4.804887826006536,46.39237602991515],[4.804936962268538,46.39235030325166],[4.804911749243721,46.392095443703816],[4.804904063767133,46.39203224606519],[4.80489649605199,46.3920120099556],[4.804841932489478,46.39183012102664],[4.804832717247895,46.3917915366928],[4.804809559319039,46.39173281708313],[4.804687690582744,46.391452195133304],[4.804680552710889,46.39142132395067],[4.80464287414799,46.39133284066873],[4.80463178569682,46.39131635309925],[4.804559468176456,46.39115257871058],[4.804545881834125,46.39113928309016],[4.804149605508348,46.39059810439774],[4.80406865111202,46.390421045860535],[4.804020591183119,46.390290123424926],[4.803980181135908,46.39017799471768],[4.803916432805854,46.3900134539709],[4.803875083454504,46.389904402460054],[4.803872055704021,46.38988760723895],[4.803828666575221,46.38977984894199],[4.803813155546752,46.38974766896829],[4.803399750151958,46.38901040604869],[4.803026539579844,46.38902531156856],[4.802832199400568,46.389033066232386],[4.802484267081248,46.38807040127254],[4.802458311181391,46.38799776457645],[4.802299155035998,46.38755290125282],[4.802920959662607,46.38745111529476],[4.80256388421542,46.386794923098805],[4.802467729442788,46.38662233695698],[4.802443937066511,46.386579749455784],[4.801707048251638,46.386676595219676],[4.801693312021599,46.38667843340502],[4.801632597050737,46.38647529361914],[4.802313788544166,46.38637095168443],[4.802192736581929,46.38616957595981],[4.80214681273206,46.3859295442674],[4.800835045475365,46.38613751333275],[4.800806460775664,46.38640754395014],[4.800798430357222,46.38647981674908],[4.800784380782978,46.386606406673096],[4.800764229823743,46.386792719211414],[4.80076313708817,46.38680300443475],[4.800713724559408,46.38734546507047],[4.800702491751468,46.387518036250114],[4.800697140977753,46.3876005347072],[4.800696219203031,46.38763180352829],[4.800691024012156,46.38780590066496],[4.800685170805655,46.387991627205054],[4.800683883399044,46.388031548509595],[4.800790299226174,46.38886301587239],[4.800797694287081,46.38888992013253],[4.800876943395628,46.389106458372865],[4.801065339767929,46.389613280362795],[4.801069655259817,46.389625731960194],[4.80109486808031,46.389699551578566],[4.801161430700984,46.38992998053231]]],[[[4.800573622090107,46.36657877801014],[4.800483657109626,46.366592808186105],[4.800352813827185,46.366151908569904],[4.800481985220148,46.36613131488713],[4.800708482656387,46.36609504334513],[4.801010181271936,46.36604686542785],[4.800908098024668,46.36582735512342],[4.800844517739775,46.36569046162561],[4.800576472581953,46.365125089947504],[4.80056882098443,46.36512584124704],[4.799334173456291,46.36530195992201],[4.799333396177452,46.36530206225585],[4.799333788537738,46.3655827147421],[4.79934669837667,46.36574562814458],[4.799365739147294,46.36592087449502],[4.799386098625576,46.36606898891184],[4.799432207582816,46.36657238414628],[4.799460379037604,46.366752260124436],[4.7995046711171,46.36700285702316],[4.799538452355986,46.367025111746386],[4.799570340708236,46.36703334538241],[4.799672773914523,46.36702650494666],[4.799785406894046,46.36702121478812],[4.799879000395281,46.367018566824605],[4.799879260484277,46.36701856271989],[4.801312132459361,46.36679589422323],[4.801313503600175,46.3667940711623],[4.801386969030657,46.366697886701445],[4.801245833998117,46.36647394957256],[4.801088688453076,46.36649849864119],[4.800803130113792,46.36654299920005],[4.800677696500582,46.366562543443614],[4.800601453891513,46.366574465574445],[4.800573622090107,46.36657877801014]]],[[[4.801728142123132,46.39548591227851],[4.801843846539534,46.39541410095938],[4.80194338986154,46.39536145940808],[4.802089974471793,46.39532996183088],[4.802292625695828,46.39532090661277],[4.802711055427536,46.39527061288504],[4.802856705557125,46.39526209690281],[4.802898873604763,46.395261790925424],[4.802959813380085,46.39526226916534],[4.803052647694279,46.39525882073631],[4.80309313872742,46.39527475377178],[4.803151004430606,46.395264922445364],[4.803186489767091,46.39521203106104],[4.803204482231212,46.395185266171964],[4.803204803693474,46.39514373885783],[4.803186473033577,46.39492759050932],[4.803181590472287,46.39487038319542],[4.803049423220823,46.39449462840312],[4.803103213991789,46.39419573700376],[4.803058897950829,46.39420193155768],[4.802998392546868,46.39421063365832],[4.802908347033825,46.39422358541921],[4.80270182055315,46.39425314889433],[4.802649620689643,46.394083561288745],[4.80238388199535,46.39410577320472],[4.802503206016707,46.393903122446176],[4.802188413161212,46.39369318803225],[4.801547997762854,46.39327627985292],[4.801041056743964,46.392757824278995],[4.800801154058812,46.39251716112792],[4.800711144507157,46.39259036738251],[4.800649460001583,46.39261854196599],[4.800684945577407,46.3928144243759],[4.800691113419805,46.392887013435185],[4.800645146765867,46.39313534095769],[4.800599325095664,46.39338807958262],[4.800783691320302,46.3934958659042],[4.800965566353725,46.39363467529796],[4.801111123838282,46.39374586581769],[4.801157337940564,46.3937617091779],[4.801230035264665,46.39377929613519],[4.801545141972852,46.39410541834618],[4.801587880985767,46.39415797485143],[4.801759219394478,46.39462840660404],[4.80146100862385,46.394668692691965],[4.801434254070047,46.39469820765617],[4.801439990565052,46.39474189105328],[4.801554521691226,46.39508451005489],[4.801614333660056,46.39523236114121],[4.801668068596465,46.395507757029385],[4.801728142123132,46.39548591227851]]],[[[4.80308574863637,46.37493381250714],[4.803096002444975,46.37500399521522],[4.803128756167157,46.37523153509892],[4.803135139322834,46.375275118222035],[4.803212449620546,46.37563039376607],[4.803230693107355,46.375713960677636],[4.803286706445995,46.376106051259654],[4.803293527854732,46.37617079393062],[4.803314868955749,46.376375816494864],[4.803351556479955,46.3765884325349],[4.803369907776696,46.37669496560621],[4.803470932369038,46.37733097497863],[4.803503632292535,46.377572566524485],[4.803661727864751,46.378340706965865],[4.803700025783805,46.378550775453554],[4.803739254620612,46.37875749661207],[4.803757045506233,46.37886277749343],[4.803769959519986,46.37893859248366],[4.803788070106716,46.37904566970689],[4.803789990577032,46.37905653782518],[4.803812138345206,46.37919129280619],[4.803830776028168,46.37930250491286],[4.803837289600728,46.37934212284143],[4.803850220284738,46.3794105518069],[4.804022254056087,46.37937072237823],[4.804048663553843,46.379362558684825],[4.804315679104048,46.37929843888985],[4.804358796661232,46.379287849162075],[4.80452743587429,46.37924771237249],[4.804820549660019,46.379177864381695],[4.804929791686655,46.37915190705369],[4.806165746712502,46.37886069245251],[4.806258622154134,46.37883571353439],[4.805771251351596,46.37887918761944],[4.805738570568089,46.37885115270852],[4.805712159882674,46.378780505406795],[4.805700873805649,46.37862801509275],[4.805871499679473,46.37861657720875],[4.80613882447167,46.37857379479108],[4.806268353243343,46.37853562567104],[4.806467267964877,46.37851779430791],[4.806467629243737,46.37830828527454],[4.805441252323797,46.37839587042227],[4.805435974729278,46.3781888825952],[4.806470083554563,46.37809910336977],[4.806473711358499,46.37792935363],[4.806522163607577,46.377312596048185],[4.806540095833628,46.377063808290664],[4.806558857085768,46.376847973094904],[4.806591421732777,46.37641593084052],[4.806598999243528,46.37630268260608],[4.806616376899345,46.37608831040893],[4.806619189527757,46.376055300152224],[4.806616935528866,46.375943828889675],[4.806615539026365,46.37588584577022],[4.806497253641768,46.37590177012609],[4.806269961580576,46.375946621789105],[4.806112827214599,46.37598802030962],[4.805859670168681,46.37601022271027],[4.805814487375848,46.375970046145014],[4.805787791797462,46.375930117310816],[4.805766975621699,46.37587514373684],[4.805828248395516,46.37584697250116],[4.80589258821527,46.375840729809056],[4.806000684355134,46.37581181715478],[4.806071251510829,46.37580106232133],[4.806097250970256,46.37581992568003],[4.806104352799884,46.375881241128496],[4.806122562404899,46.375896715087094],[4.806216196714663,46.37589090905829],[4.80653803203353,46.37584807292046],[4.806614408314055,46.37583983778335],[4.806613590118395,46.37580328222233],[4.806583329967727,46.375596509854816],[4.806565707628997,46.37548465150163],[4.806503575218899,46.37549860566272],[4.806362049887104,46.3755121958472],[4.806207104516171,46.37554104009192],[4.806113228577749,46.375574951862724],[4.806143960523523,46.375634632162225],[4.805784780157509,46.375665718808264],[4.805692853709396,46.375510541960296],[4.80574731862274,46.3754693282792],[4.805972080964523,46.3754070440575],[4.806015507114607,46.375417705334144],[4.806040297558316,46.37547874071661],[4.806092439359007,46.37548142785445],[4.806310901520425,46.37545689207843],[4.806557475224658,46.37543245107264],[4.80654313581907,46.375341166806976],[4.806479967588261,46.37493802203176],[4.806448031057299,46.37471200113565],[4.806339177069879,46.37397388795333],[4.806296177352026,46.373692648995956],[4.806294548049008,46.37366304168142],[4.80629060829462,46.373638334750005],[4.806179959517658,46.37335366352594],[4.806120478311424,46.37319184845203],[4.805951936448573,46.372750020426366],[4.805943548576636,46.37274033557707],[4.805878137506841,46.372584108562194],[4.805846207506169,46.37259443176316],[4.805777148139735,46.37261525052478],[4.805703333598882,46.3726260566558],[4.805668183196496,46.37255861008498],[4.805658107129806,46.37256084121604],[4.805658820707523,46.372566684486266],[4.805588409861762,46.37257023103893],[4.805532158648302,46.372435205487456],[4.805440779273865,46.37245394547313],[4.804997818424522,46.37254805423932],[4.804591888299917,46.3726326584255],[4.804307260246847,46.372670757554786],[4.803986453336681,46.3727166338074],[4.803835023434998,46.372729566987665],[4.803838539808353,46.37287551518606],[4.803773168033744,46.372877990144765],[4.803460476517413,46.3728898701556],[4.803238627341524,46.372898241536625],[4.802803766818483,46.37291466317124],[4.802836819622589,46.37302907028865],[4.802869464033534,46.37340324624808],[4.802878445135225,46.37346642362395],[4.802903811119035,46.37364364106419],[4.802954650284407,46.373906653003026],[4.802961883539712,46.37394445821024],[4.802988481864486,46.37413534681486],[4.803000760133408,46.37422351156782],[4.803028403462828,46.3744223998869],[4.80308574863637,46.37493381250714]]],[[[4.804118430152045,46.389488574562336],[4.804113655864152,46.38959232064371],[4.804141415055095,46.38969582249417],[4.804184666227343,46.38983880023901],[4.804223949889245,46.389869523401394],[4.80427365483962,46.38990836819203],[4.804691805971062,46.390252847801236],[4.804743760444214,46.39028490156253],[4.80504833071527,46.39046544762776],[4.805137716739608,46.39051546345087],[4.806356568502243,46.39120304299886],[4.806418995520692,46.39123682169535],[4.806445246001788,46.39124730456443],[4.806711684082028,46.391443491759645],[4.806792545241849,46.391530840253246],[4.806940064657816,46.39168540617155],[4.807868871438339,46.39160782423021],[4.807794837156928,46.39128627614492],[4.807590636359291,46.39036683338015],[4.807538488646296,46.390069347374734],[4.807461495753354,46.38966218927559],[4.807418200187472,46.38944337431302],[4.807341630091779,46.38904107321433],[4.807341624135275,46.389040893168485],[4.80731512879703,46.38890494673787],[4.807301464852213,46.3888145526575],[4.807239037803372,46.38850921309342],[4.807189234030679,46.38824312425164],[4.807069401042789,46.38758345735565],[4.806988958984359,46.38735514272712],[4.806741756611967,46.38681512433065],[4.806690859541007,46.38675594364757],[4.806638243126688,46.38671561482395],[4.806589354475253,46.38668567508101],[4.806426450083215,46.38660466950687],[4.806211106477517,46.386531969745924],[4.80594537549567,46.3864390808719],[4.805882130619342,46.386467012949566],[4.805946262447754,46.38734003799689],[4.805750748543385,46.38759956219622],[4.805601360817596,46.38780548490066],[4.805206783815436,46.38833161322823],[4.805169131955709,46.388385710581986],[4.804751326140352,46.3886896416134],[4.804302090892087,46.38902343089835],[4.804256617066367,46.38906143901867],[4.804141496535537,46.38922925851811],[4.804139765560614,46.3892714386589],[4.804134029983522,46.389290894408695],[4.804129508208447,46.38933528035958],[4.804122164945969,46.38940853333073],[4.804118430152045,46.389488574562336]]],[[[4.801132206215782,46.36584101934615],[4.801088178934552,46.36589476603307],[4.80115266689784,46.36602759190962],[4.801179609403616,46.366075263889165],[4.801211249317553,46.36613123820285],[4.80130282885955,46.366292548656034],[4.801307547019443,46.366301481156164],[4.801351849443577,46.36638634811339],[4.801400250433804,46.366441607283534],[4.801447672452463,46.366490847193205],[4.801462085586238,46.366505751321384],[4.801559157507945,46.36648629395695],[4.802057316120934,46.36638655188286],[4.802271603809323,46.36634695742772],[4.80252080675923,46.366300866085794],[4.803176923972805,46.36617376296525],[4.803538658388787,46.36610364270651],[4.804061346224275,46.366002242862095],[4.804022793572212,46.36593007591997],[4.803941794846128,46.365778147610484],[4.80370457043738,46.365339474501546],[4.803382951867803,46.36540283624561],[4.801132206215782,46.36584101934615]]],[[[4.803730431869563,46.36900888867496],[4.803808484723744,46.369091149353586],[4.803886043913189,46.36908749076722],[4.803905135660258,46.36904305437559],[4.803993822328112,46.36883647156076],[4.803991342647355,46.368820478276824],[4.8040726983524,46.36852979564336],[4.804074622864968,46.36846590538186],[4.80406152100499,46.36843557881049],[4.804033581988421,46.3683893643552],[4.804017441681244,46.36834188242037],[4.803781621842612,46.368229962131466],[4.803506141243088,46.36809903323373],[4.803475944591118,46.36808690090776],[4.803224086330879,46.36808034509727],[4.80302932509211,46.368057303930044],[4.802958457666652,46.36803500600923],[4.802883118223523,46.36801124754501],[4.802667679749338,46.367929356485746],[4.802571622782632,46.367892865098625],[4.802562787930255,46.36788931185646],[4.802475742298963,46.36792878730967],[4.802408103211437,46.36794913131939],[4.802376502469332,46.36795359381945],[4.802361806571476,46.36796958835656],[4.802368425236653,46.367996684967345],[4.802365693042342,46.368008527345445],[4.802316797787049,46.36802515241057],[4.802335164021224,46.36804548824832],[4.802444530407126,46.368102845925655],[4.802548053282059,46.368215779120334],[4.802647656012644,46.36828085682435],[4.802796485984349,46.36837091639889],[4.802826791159357,46.36835872822534],[4.802904355146759,46.368410463410804],[4.803104325508954,46.36854402871039],[4.803133266403709,46.36855753204393],[4.803133399421951,46.368557620011146],[4.803333312126841,46.368693347521535],[4.803581740712091,46.368867938388775],[4.803594077244846,46.36888296517149],[4.803730431869563,46.36900888867496]]],[[[4.804017264542888,46.38005524421916],[4.803959245739959,46.37977613371265],[4.803911437932769,46.3796289045146],[4.803831504947251,46.379549285544364],[4.803756207088277,46.379535164281826],[4.803591464602915,46.379551459783954],[4.80340171607605,46.379590848044764],[4.802768185378939,46.379728941582826],[4.802717484223433,46.37973847963228],[4.802713635862195,46.37983878846664],[4.802711588721308,46.37988718845945],[4.802711099953997,46.37989998613709],[4.802710826174234,46.37990746628159],[4.802787026506953,46.37992526684874],[4.80279386635078,46.380014238079575],[4.802983928428059,46.380019790887],[4.802982076048047,46.380101693886324],[4.803282682706135,46.380164044519006],[4.803392711847676,46.38016185477535],[4.803440573740723,46.380160917978344],[4.803514450090035,46.38015560678995],[4.803548925401548,46.380151278784254],[4.803616796772277,46.38014146889382],[4.803718182352173,46.380125814909775],[4.803993520741098,46.38007714647266],[4.804017264542888,46.38005524421916]]],[[[4.803586456391598,46.36531261011094],[4.803682671604277,46.36529487577531],[4.803432600248055,46.36483343740102],[4.803237393370484,46.36447318064402],[4.802893623559078,46.36382938924804],[4.802792592135352,46.36383909276923],[4.802724654748551,46.36384629151325],[4.802482724448121,46.3638719126625],[4.802169167858862,46.36390334887926],[4.801724145024636,46.36394875061993],[4.801658600910932,46.36395356908636],[4.801146735618819,46.364003897569134],[4.800893532159772,46.36403095435488],[4.800641259012796,46.364054663286865],[4.800505430118641,46.364066535462854],[4.800681807745883,46.364894468303994],[4.800745001096833,46.36509468735973],[4.800793627700389,46.36524766939445],[4.800947440576276,46.36557615849946],[4.801037996823889,46.365769640377756],[4.801106399628032,46.365800174753566],[4.801538966621909,46.365715881963474],[4.801782513215903,46.365667990072915],[4.802025314755245,46.36562119027103],[4.802509006944377,46.36552491719089],[4.802993415938237,46.36543070231528],[4.803283081469728,46.365372890871086],[4.803522472628826,46.36532533113283],[4.803586456391598,46.36531261011094]]],[[[4.804854815675678,46.38636933099514],[4.804769923629172,46.386482721120835],[4.804717961164911,46.38654488082958],[4.804621748713271,46.38686723231171],[4.804531355087325,46.38718057470966],[4.804522942194821,46.387205657180345],[4.804404147460583,46.387336966735674],[4.804293904424622,46.387396174946915],[4.804258134037437,46.38740871995714],[4.803892968293156,46.387560497788584],[4.803573014050519,46.38772948364105],[4.803523245186287,46.387822682235075],[4.803501690308565,46.38787157071058],[4.803496028947555,46.387893277008025],[4.803474668875968,46.3879756684444],[4.803490717286975,46.388517005758985],[4.803484295417661,46.38853539148404],[4.803583062020857,46.38881448836321],[4.80369231539837,46.3890484744425],[4.803758988310152,46.38919126219899],[4.803879467265447,46.38942615148003],[4.803916364447031,46.389491049008235],[4.804027872781361,46.38968680945137],[4.804043871513275,46.38940265580013],[4.804069030975319,46.38922247822287],[4.80412679544341,46.38904818003252],[4.804139672282805,46.389016361835054],[4.80440297134486,46.38882647359909],[4.804437422352584,46.388805482843715],[4.804673960564302,46.38862907733785],[4.805067700635782,46.38836497802375],[4.805116071102574,46.38832800456949],[4.805602482429657,46.38768189100555],[4.805712893029128,46.387537202360186],[4.80586580102894,46.387331493973434],[4.805828763342695,46.38682921890756],[4.805809320311327,46.38657570913212],[4.805756588140331,46.3858387795999],[4.805731777923719,46.38554887634748],[4.805653276864574,46.38567045248549],[4.805578796014245,46.385775842388476],[4.805453041606107,46.38590906469916],[4.805409190936549,46.38594488597929],[4.8051987610282,46.386103496658095],[4.805053522442504,46.386214329132706],[4.804944682312164,46.38629621349155],[4.804854815675678,46.38636933099514]]],[[[4.804835437827205,46.368301288938454],[4.805257980265957,46.36824001878969],[4.804596677403482,46.36667785719628],[4.804595000953465,46.366674370981734],[4.804200709236722,46.366763383945866],[4.803780325627388,46.36685821242094],[4.803489492599364,46.36692423985757],[4.802868307006896,46.36706529374334],[4.802836411708121,46.36707264328443],[4.802010313783981,46.36726160631358],[4.801995462498476,46.36726499342968],[4.802080631907968,46.36742118051072],[4.80208358195861,46.367423836003255],[4.802240230192098,46.367561690086426],[4.802413061972199,46.36766551186363],[4.802557581688259,46.36772357483963],[4.803038160734951,46.367899181033714],[4.803064237278759,46.367912639593676],[4.80321213308559,46.36793101747482],[4.803421063088527,46.36795365413743],[4.803932783059067,46.36793727481594],[4.804108291624832,46.36802745113857],[4.804216350920415,46.3680057461208],[4.804342278633597,46.36836367473673],[4.804557822363359,46.3683382873261],[4.804835437827205,46.368301288938454]]],[[[4.806070784429551,46.402123057660035],[4.80597100499813,46.40196800515899],[4.804545620108831,46.402397398855655],[4.802710065483772,46.40295223652397],[4.802864441523545,46.403254774233304],[4.802989411092896,46.40340006409186],[4.803130693902188,46.40362931135216],[4.803463475831729,46.403589646298556],[4.803503694692104,46.40358531786],[4.804267401072857,46.40352884193652],[4.804517460545118,46.403479943412016],[4.804584727172373,46.40346672034048],[4.805153527282572,46.40347339686126],[4.805239278509425,46.403475823385016],[4.805360475988589,46.403479220298934],[4.805980460867826,46.40336826232955],[4.805994827989943,46.4033656931535],[4.806010747749689,46.40336282919521],[4.806969499292128,46.40325163824837],[4.806840822146826,46.403155949736984],[4.806770861022305,46.40309950269795],[4.806750530303501,46.40308316163544],[4.806635929079757,46.40293672083429],[4.806552864413921,46.40283049230434],[4.806315796251273,46.402476847459276],[4.806084505713669,46.40214427714427],[4.806070784429551,46.402123057660035]]],[[[4.806300666089941,46.38135548182538],[4.806294824102651,46.38136773380108],[4.80628078168549,46.38165158711225],[4.806266179000996,46.38196967594189],[4.806337680694049,46.38201844265957],[4.807620187307256,46.38196813454672],[4.809498006672002,46.38188693397198],[4.810928840084347,46.38182766058311],[4.811015307950171,46.38177026419092],[4.811002275195043,46.38117681778657],[4.810982537359978,46.38047530334887],[4.810982061955497,46.38037064920125],[4.810980762156603,46.38031572694929],[4.810975837410504,46.38008468472169],[4.810964527114629,46.37985338357981],[4.810963598559542,46.379668303828105],[4.810962998037192,46.37959913936025],[4.810951096837899,46.37927147234539],[4.810785108510229,46.378460772392735],[4.81069531041807,46.37841752295816],[4.809453488130323,46.37865240618717],[4.808799551926804,46.37869619347641],[4.807872711469429,46.37876754061703],[4.806683699868463,46.37886050643198],[4.806641187337389,46.378889371721854],[4.806664658132894,46.37917019918666],[4.80655493282462,46.379291730328184],[4.806541890339275,46.3793066183236],[4.806512571145041,46.37964007217216],[4.806497233407291,46.37978235576702],[4.806490879617587,46.379818484465524],[4.806486438248946,46.37985341196543],[4.806462490299437,46.38004230812085],[4.806434631741741,46.38027431974098],[4.806431951501586,46.38031921713778],[4.806406864332634,46.38050515898759],[4.806397340259552,46.380563495142695],[4.806384009823165,46.38066809757392],[4.806326225831231,46.38116412833856],[4.806300666089941,46.38135548182538]]],[[[4.806806788673531,46.38675464816062],[4.807086973536459,46.38722145742511],[4.807096120727067,46.3872815694507],[4.807103742750126,46.387330987288834],[4.80718098468489,46.387753723849656],[4.807283979862144,46.38830962638415],[4.807318598349399,46.38852587675877],[4.807360312820894,46.38874021330967],[4.807369711956544,46.38878825192394],[4.807442193730534,46.38914567279865],[4.807442196708958,46.389145762821585],[4.807462281246211,46.38925316849138],[4.807509872731297,46.3895074030071],[4.807649345818828,46.390252865270256],[4.807654719450018,46.390281512495356],[4.807668637686037,46.39035596009424],[4.80771211397787,46.390328430380656],[4.809681553919329,46.39048950959272],[4.810901392232012,46.39058859739043],[4.812288275431906,46.390704384114265],[4.811645012710467,46.389936032978305],[4.811319365294922,46.389556153185474],[4.811266761198769,46.389508530532524],[4.811090368633905,46.389335243437486],[4.811028228208396,46.38923553134143],[4.810977216795273,46.38902782853572],[4.810960572681708,46.38899692843508],[4.810878247616658,46.38886943474454],[4.81085736891798,46.38883644015656],[4.810784213723135,46.38874996294038],[4.810586588840511,46.38868212401277],[4.810480109942534,46.388638778639304],[4.810271076889168,46.3885644550144],[4.810224542862748,46.38855069205184],[4.81010882659867,46.3884524600205],[4.809925912938803,46.388290353305486],[4.809692042897558,46.388090954900356],[4.808899188628863,46.3873941357068],[4.80857585061667,46.38711049688361],[4.808531230657451,46.38707193361749],[4.807876747520778,46.386382461557744],[4.807595071883094,46.38602015913448],[4.807491430601257,46.38588138183065],[4.807429387039252,46.385784278394155],[4.807350786029425,46.38565879492462],[4.807339377228027,46.38563654819641],[4.807086632421991,46.38465338308664],[4.806996382385212,46.38449043458948],[4.806897749183705,46.38445966164366],[4.806071237480764,46.38462397704778],[4.805988056269542,46.38469446772633],[4.805964706861201,46.38489371218249],[4.805798908026375,46.385484944863556],[4.805845824104467,46.38612072768226],[4.805858961394588,46.38629372454007],[4.805859153973591,46.38629561296387],[4.805873683634879,46.38631384734653],[4.805910648736092,46.38634929026342],[4.805912532490733,46.386351151917125],[4.805912934664583,46.38635150583143],[4.805941019248444,46.38637817237058],[4.806006787564931,46.38639901830762],[4.806021518389099,46.38640364890239],[4.806283813397464,46.38649497073688],[4.806543092490844,46.386581656091394],[4.806753282803052,46.38665200495261],[4.806787250137855,46.38671091330185],[4.806802163375595,46.38673679745744],[4.806806788673531,46.38675464816062]]],[[[4.806746576463407,46.376011579944674],[4.806747666521768,46.376060290682354],[4.806710494430357,46.37649069466797],[4.806635900366316,46.377548670187046],[4.806604120879504,46.377937556313334],[4.80660195192852,46.3782301387359],[4.807016116399363,46.378176922206464],[4.807492097436625,46.37811587932414],[4.807493265313188,46.37842264005608],[4.80749426739549,46.37872832255997],[4.808862942454235,46.37862187108702],[4.809442216593546,46.378579267768465],[4.810190327797502,46.37843985886437],[4.810689524117022,46.378345018127185],[4.810752477302528,46.3782811497371],[4.810705500997812,46.37806527629966],[4.810626338453046,46.37771066501481],[4.810561518349574,46.37740005055555],[4.810486055643971,46.37705492790086],[4.810281344471687,46.37611198805918],[4.810246396510846,46.37594483172655],[4.81020381091421,46.37575924210205],[4.810179037656252,46.375651730982064],[4.810055104492339,46.37509246940991],[4.809976835211813,46.374740995957204],[4.809923530616524,46.37449495897587],[4.809840536041214,46.374110774802176],[4.809759204365969,46.3737492619115],[4.809623176964973,46.37314281475567],[4.80962489198087,46.37312387277088],[4.809385760786013,46.37204439031217],[4.809294747491466,46.372011247081765],[4.808650045451738,46.37215864936365],[4.808023448556126,46.37223982946721],[4.8075653989945,46.37225132279895],[4.807073360713514,46.37226596483393],[4.806496102170488,46.3723203244746],[4.80647172080893,46.3723267453443],[4.806077387542649,46.372411711628466],[4.80617040834993,46.37264343056676],[4.806123749450197,46.37281836532721],[4.806368869740141,46.373466772478736],[4.806401063487406,46.37355101874376],[4.806425981478823,46.37361592505234],[4.806430982268806,46.37365304487285],[4.806435997945205,46.373690614808616],[4.806440012167379,46.37371757231323],[4.807078185636523,46.37364747660479],[4.807079251591214,46.37366790567115],[4.807089970604823,46.373759877747624],[4.807096409758352,46.37384047870377],[4.807114466937155,46.373926119666706],[4.807134242124842,46.37398894562612],[4.807137306470613,46.374022583361175],[4.806494859605237,46.374089504481056],[4.806604079922224,46.37484256340112],[4.806689794946252,46.37544350556074],[4.806725598859297,46.37568018349251],[4.806743571917766,46.37579870146753],[4.806744304515499,46.37584840864127],[4.806746576463407,46.376011579944674]]],[[[4.807532415277379,46.39311957675198],[4.807654362411835,46.39299289782498],[4.807681095801708,46.392978603505746],[4.807673794104198,46.39278155580838],[4.807632472025321,46.39265395068224],[4.807629958474384,46.39262913116413],[4.807551343029004,46.392523193219915],[4.807539898889151,46.392507792393545],[4.806886816262789,46.39250372526756],[4.805043107174241,46.39247012853727],[4.805041909602613,46.39248509910318],[4.805035603237845,46.392609405401714],[4.805031090488703,46.39269738511293],[4.805031090132925,46.392740708788544],[4.80503108566779,46.39282330304847],[4.805020242096017,46.39297181987519],[4.805020741195786,46.392998742908624],[4.805023337200738,46.39314821803353],[4.805048931264081,46.39333578922359],[4.80506768212055,46.39347384009869],[4.805554489672945,46.393492078039614],[4.80580668771829,46.39350141733349],[4.806192481002403,46.393515756919975],[4.806370066994454,46.393532310719365],[4.806587516268228,46.39356156345752],[4.806936742211719,46.39361953298349],[4.807405091179684,46.39318212076065],[4.807532415277379,46.39311957675198]]],[[[4.807140429573697,46.372181046754136],[4.808010662265258,46.37216013977441],[4.808178639486282,46.37213613024206],[4.808213328789359,46.37213449945382],[4.808469079865684,46.37210081145575],[4.808621471853527,46.37208164196847],[4.809261650912378,46.37193521228438],[4.809335591831169,46.37184180729539],[4.808863869407158,46.37075610554916],[4.808796607790264,46.370599188858776],[4.808566187380017,46.3700612498081],[4.808537422501626,46.36999415316341],[4.808394091538008,46.36965388828602],[4.808357805879273,46.369567906000626],[4.808247214262741,46.36930863552702],[4.808115034443416,46.36899854723947],[4.80806390618601,46.36887686209962],[4.808053997652215,46.36886053630437],[4.808046543770949,46.36849758081814],[4.808046095032661,46.36847615118396],[4.808045746559433,46.3684538192565],[4.808045560908338,46.368444274740355],[4.808045283927495,46.36843590258691],[4.808043855219745,46.3682786623675],[4.808042038324071,46.36808215761568],[4.80804155285498,46.3680556846217],[4.808041013777698,46.36802759121075],[4.808044043541138,46.36800511565552],[4.807942025548163,46.367949808455606],[4.806598321807315,46.36813448908241],[4.806319735570874,46.368169615691905],[4.805276124687942,46.36831268852725],[4.804997516656931,46.36835114482468],[4.804568396371276,46.36841026631196],[4.804527603024797,46.36842793504813],[4.804315434689706,46.368520101137776],[4.804144214703835,46.36888309084901],[4.804092121985151,46.36920096220048],[4.804151775071128,46.36934070832042],[4.804207483191383,46.36946736656005],[4.804552020291924,46.36986489009715],[4.804578319614413,46.369892936186105],[4.804900824181949,46.37022991983384],[4.804965048866644,46.37030312135652],[4.805024460232262,46.37036847283767],[4.805185062140398,46.370554628239354],[4.805282859558748,46.37071844933183],[4.805387181299505,46.37089855986152],[4.805447829680769,46.37105252070288],[4.805447832654921,46.37105261072608],[4.806569747702683,46.37095432284337],[4.806671208553953,46.370945420013555],[4.806717598058565,46.371069432549575],[4.806751198619049,46.371156898974434],[4.807140429573697,46.372181046754136]]],[[[4.807842528398125,46.40409086409592],[4.80785023300315,46.404103351837456],[4.807883388871421,46.40415704870758],[4.807885312047044,46.404160080619576],[4.807918642888839,46.404156129951915],[4.808236770247075,46.404118214321315],[4.808971469893144,46.40402316626791],[4.808970069960663,46.40395338423768],[4.808970042060066,46.40394861097193],[4.80785030654636,46.404089840182785],[4.807843953895341,46.40409066137475],[4.807842528398125,46.40409086409592]]],[[[4.807605315129072,46.39403623576377],[4.807534550028518,46.39403384405987],[4.807538125803549,46.39400028135678],[4.807542267747025,46.39396022464091],[4.807467227045004,46.393958441048206],[4.807485330946903,46.3938525021011],[4.806936424784698,46.39385786332849],[4.806836611012619,46.39385881344905],[4.80674113358813,46.39394364008717],[4.806665082212384,46.394009694701495],[4.806619009823606,46.39405329751655],[4.806583410968443,46.39408295377233],[4.806545187815764,46.394159217766955],[4.806527844264227,46.39420948121933],[4.806722841554869,46.39447687406918],[4.806832988288041,46.39473318057229],[4.806896700469382,46.39498670956278],[4.807139627742001,46.3949516982342],[4.807659421356663,46.39487663284808],[4.807684922952626,46.394707077305135],[4.807667863278289,46.39459674155409],[4.807671973912726,46.39446526423456],[4.807671457265639,46.39432377237377],[4.807690368485391,46.39419503288236],[4.807732112155454,46.394071786206524],[4.807644410242955,46.3940375078893],[4.807605315129072,46.39403623576377]]],[[[4.809582031362177,46.387874099517454],[4.810208151052302,46.38840954193579],[4.81027222589761,46.3884695028045],[4.810299312876992,46.38850131814394],[4.810542698611486,46.388591038994704],[4.810578080344659,46.38860605965346],[4.811826280489076,46.388050506769915],[4.812636682337288,46.387689872948506],[4.812035693829233,46.38678241454129],[4.811396335128966,46.38585943982762],[4.811238551143216,46.385611099289996],[4.811059892990629,46.3853455262228],[4.810841247102511,46.384945482250465],[4.810643576540108,46.3847187604191],[4.810445277513852,46.384700831056286],[4.810201434706212,46.38468713675795],[4.810334430114109,46.384262236692265],[4.810381863593657,46.3842404075409],[4.810465335280932,46.38423385881917],[4.810888269218427,46.384220120681654],[4.811022051441665,46.384203946049986],[4.811183918234422,46.38419083813041],[4.811200189092527,46.383841467453756],[4.811209900502447,46.38375358482803],[4.811247433126251,46.38373542523358],[4.81143631089264,46.383700901706575],[4.811640711426227,46.38367135543482],[4.811867061352137,46.38361687100044],[4.812041194976934,46.383593028782585],[4.812273722278143,46.383571771420485],[4.812350170465603,46.38358109517655],[4.812525468497888,46.38359236113599],[4.812788944243352,46.38358988605358],[4.812961304803104,46.383587147053],[4.81307002494102,46.383576682414045],[4.813136942093678,46.38356156792147],[4.813132005063731,46.38351084672483],[4.813125905658677,46.38343294276364],[4.81312070003534,46.383366283387176],[4.81311602644831,46.38330781195397],[4.813104727479046,46.38316342865649],[4.813097876428315,46.38307463812773],[4.81194093937721,46.383183720493584],[4.810276432040525,46.383340657566755],[4.807252266745722,46.38362486015486],[4.806496409981639,46.383693756109786],[4.806203409577548,46.38372046262178],[4.806119390290827,46.38377736610719],[4.806106661613661,46.38378603421748],[4.806070511688453,46.38408230677862],[4.806005554187132,46.384534766605285],[4.806071240400924,46.38456894415417],[4.806943636905335,46.3843949850369],[4.807002820102722,46.384382068296574],[4.807077061456707,46.38448600420574],[4.807176468555544,46.384638539590135],[4.807418480351419,46.38560016766137],[4.807418236847076,46.38562034723263],[4.807562618434665,46.38584179400894],[4.807912129207729,46.386299216476715],[4.807921856146099,46.38632176001431],[4.808610188130483,46.387038977258804],[4.809567843727887,46.38785838212482],[4.809582031362177,46.387874099517454]]],[[[4.811211740805938,46.403246988121346],[4.811252053791697,46.403186631885376],[4.810333212928953,46.40113536524638],[4.810281110419844,46.40111889832617],[4.810228881956694,46.401106486532015],[4.80963174577086,46.401273399593784],[4.809267692090875,46.401374646196224],[4.80913683087343,46.4014134693906],[4.808334048804358,46.40163749732754],[4.807771284398269,46.401792957335694],[4.807572357549802,46.40185231202015],[4.807422396023586,46.40189629951952],[4.807070162858954,46.40199302840335],[4.806318569981185,46.402206413676446],[4.806277975017771,46.40227019522313],[4.806620763707653,46.40276952094087],[4.806639284975906,46.402802013184825],[4.806837909971041,46.403044309146374],[4.807060831768124,46.4032063280397],[4.807124244171283,46.40325765455031],[4.807140167568674,46.4032706426819],[4.807285856587675,46.40338857894402],[4.80767733431333,46.40380462655328],[4.807706762706393,46.403855860555026],[4.807721823111343,46.403882102558825],[4.807786071134315,46.403994032546635],[4.807798198249824,46.403998524082546],[4.807806897231359,46.40400171887234],[4.80789072816735,46.40403263593662],[4.807981871448508,46.404020924087696],[4.808516837616886,46.40394930873976],[4.808674328000727,46.40392807833947],[4.808730726741101,46.40392087960281],[4.808952363924839,46.403890525849654],[4.810116952754226,46.40358644831055],[4.810358943418086,46.40352208277954],[4.810615153586736,46.40345857196764],[4.811211740805938,46.403246988121346]]],[[[4.813056450546417,46.3827205094813],[4.812990137449472,46.382381187587235],[4.812946105058061,46.38215635124455],[4.81325714340458,46.38213231283855],[4.813558053174573,46.38210897502214],[4.813835717249857,46.382087176930966],[4.814180879103373,46.382059981385154],[4.814192542780233,46.38195657525257],[4.814263952121067,46.38143402219062],[4.814104229633757,46.38142521342506],[4.814047283817605,46.38142305660022],[4.813954503726432,46.381419578083175],[4.813958179351106,46.38121668115727],[4.813972613886292,46.3804087905398],[4.813933115662854,46.38041076967623],[4.813888680531636,46.38041300744124],[4.813579161345412,46.38041585704474],[4.811065821870449,46.380475061985116],[4.811093057726018,46.38177182203982],[4.811095906390966,46.38187346617345],[4.80964862825815,46.381931381245096],[4.808854241161024,46.38196784869049],[4.807420478484264,46.38202921399296],[4.806335433942596,46.38207252033381],[4.806252296886381,46.382136345404966],[4.806231465821241,46.38258099131991],[4.806228756506246,46.3828730416542],[4.806225387735365,46.38292074210204],[4.806199596507307,46.383140561334386],[4.806190461051061,46.38316736673657],[4.806132962927657,46.3836249326918],[4.806196885225477,46.38366877558785],[4.806722202487935,46.383622267532],[4.811137910675804,46.383207370702486],[4.813098899355437,46.38302310164186],[4.813091090541442,46.382960356658835],[4.813077830210628,46.38285491490956],[4.813056450546417,46.3827205094813]]]]}}]}
