{"type": "FeatureCollection","name": "aoc_geojson","features": [{"type":"Feature","properties":{"dt":"Bordeaux","type_prod":"Vins","categorie":"Vin tranquille","type_denom":"appellation","signe":"AOC","id_app":685,"app":"Côtes de Bordeaux","id_denom":1849,"denom":"Côtes de Bordeaux","insee":"33549","cvi":"1R120S","nomcom":"VILLENAVE-DE-RIONS","insee2011":"33549","nomcom2011":"VILLENAVE-DE-RIONS","id_aire":1451,"crinao":null,"grp_name1":null,"grp_name2":null},"geometry":{"type":"MultiPolygon","coordinates":[[[[-0.355427098434116,44.6902398385161],[-0.355276311145066,44.69044184236601],[-0.354898501429799,44.6906328891655],[-0.354810744591387,44.69065258117684],[-0.35469926853005,44.69067488468792],[-0.354597303021149,44.69069780079169],[-0.354366265512887,44.69076572050218],[-0.354206863365976,44.69081687001342],[-0.354147782977185,44.6908365931202],[-0.354124007000157,44.690844612867856],[-0.354099441995609,44.69085635103001],[-0.353997570231318,44.69091053178706],[-0.35365383145633,44.69109261154058],[-0.353180332555001,44.691346385753725],[-0.353158949914148,44.691347934956404],[-0.353078472367839,44.69137109940956],[-0.353082957851412,44.69137429751624],[-0.353078984222436,44.69137757179161],[-0.352996132216123,44.691401168589145],[-0.352931568423032,44.69140519791215],[-0.352761773742956,44.69141340760054],[-0.35270431701071,44.691415869757236],[-0.352513306058616,44.69142418137577],[-0.352426780135768,44.69142851550064],[-0.352288565690794,44.69143459604891],[-0.352140403716904,44.69143485038548],[-0.351954163751332,44.69143418572911],[-0.351709654860686,44.69140536974104],[-0.351582976451828,44.69139091535465],[-0.351475136977353,44.691378863726065],[-0.351021040042194,44.6913263889283],[-0.350857373952203,44.69132720129156],[-0.350714846121637,44.69132872482851],[-0.350483443115734,44.69136727159069],[-0.350253687361819,44.69140378556592],[-0.349948674653696,44.69145357127659],[-0.349952635320321,44.69146705788174],[-0.349459088715156,44.691528588340425],[-0.349396327331504,44.69153319178586],[-0.34934508415373,44.6915339322099],[-0.349266154675733,44.691527941605386],[-0.348920212291376,44.69151615725372],[-0.347543982428809,44.69147256553271],[-0.347396972047945,44.69146881385745],[-0.347058976504173,44.69147381393176],[-0.347018368208036,44.69147495240041],[-0.346817585737703,44.69148039596042],[-0.346277142870588,44.69149683441611],[-0.345971222713137,44.69150590708003],[-0.345778244172885,44.69151300501653],[-0.345194952715691,44.691539654847894],[-0.345214864746385,44.69129440604223],[-0.345506044815495,44.69129452178987],[-0.346416497644402,44.69128680946098],[-0.346455829203474,44.6912705714604],[-0.346478275981447,44.69126142218305],[-0.346556632474909,44.691232289442745],[-0.346606218233028,44.69121429944577],[-0.346649195761878,44.691197770862225],[-0.346687767516785,44.69118362827571],[-0.346697276550794,44.69115234299816],[-0.346726149789495,44.69105793603352],[-0.346759569400799,44.69095501135537],[-0.346672930449955,44.69082994739896],[-0.346442420471568,44.69050315548285],[-0.346435060069311,44.69045796303684],[-0.346053075326931,44.69046023593968],[-0.345800306967526,44.69046022158634],[-0.345375966259852,44.6904597182267],[-0.345388684563787,44.69041653172716],[-0.345360771625729,44.69040809455672],[-0.345301290285868,44.690397728491114],[-0.344794966147292,44.690371678030374],[-0.344792585574231,44.690386888356876],[-0.344186314152022,44.69034547466727],[-0.344162886324021,44.69034023566073],[-0.34396991139411,44.690262267372425],[-0.343923530296719,44.690242764003756],[-0.343907465114717,44.69023387824682],[-0.34342226030508,44.68996785328848],[-0.343441160587728,44.68993727572719],[-0.343152086637147,44.689821481093446],[-0.342927632562209,44.689732387775344],[-0.342638204270866,44.68964462651019],[-0.34239577040656,44.68956968190513],[-0.342112063372138,44.689463364210724],[-0.342080720552294,44.689443946449366],[-0.341878737145007,44.689273704873365],[-0.341842223082689,44.68924164778336],[-0.341831093321388,44.68922864785695],[-0.341830903923427,44.68920630653427],[-0.341836303130796,44.6891546911663],[-0.341849019734566,44.689107179984624],[-0.341926015227087,44.6889572554096],[-0.342004157759832,44.688716015665214],[-0.341986553453666,44.68861310231882],[-0.341955263538174,44.68846689953765],[-0.341895184202347,44.68839960089142],[-0.341859007468826,44.68836257764749],[-0.34173559618328,44.688298723963705],[-0.341693593226282,44.68825079326271],[-0.341645763102107,44.68824088435451],[-0.341488513541752,44.688200669929145],[-0.341285307216226,44.68813102610355],[-0.341275350667445,44.68808032514578],[-0.341267948642366,44.68799179136885],[-0.341185307601557,44.68771458917583],[-0.341099088766792,44.687330265380425],[-0.341048314753217,44.68710472434614],[-0.341036714560619,44.68708804411012],[-0.34102577352674,44.68707395712432],[-0.340990092429292,44.687026105616056],[-0.340948736213865,44.68698266061657],[-0.340748161160579,44.68687851491348],[-0.340689446743515,44.686840550032684],[-0.340637267532265,44.68680202733233],[-0.340533793812798,44.6866930565983],[-0.340426141652196,44.686581779020784],[-0.34027887645817,44.686441511035476],[-0.340239848774275,44.686409619543326],[-0.340197121970987,44.68637711886354],[-0.340149495957929,44.68633016846231],[-0.340136040278117,44.686312012324684],[-0.340102465935433,44.68624003790129],[-0.340451821596118,44.68619074196699],[-0.340614452774386,44.68616636726846],[-0.341236803665382,44.686139010786036],[-0.341723481305594,44.686098628734285],[-0.341706246297626,44.68592956436996],[-0.341717184806346,44.6859244581544],[-0.341751508817843,44.68591540155587],[-0.341857748290368,44.685887952766095],[-0.342003854646088,44.6858299239148],[-0.342096724150567,44.68581981929975],[-0.342258375726694,44.685800247506286],[-0.342647054183231,44.685798505355955],[-0.342826523538393,44.68579821828918],[-0.342843974231983,44.685687938201994],[-0.34323286579498,44.685668526167085],[-0.343227535769789,44.68569788257149],[-0.343746473624018,44.68571373569979],[-0.343737412599229,44.68576320911978],[-0.344249225434595,44.68579306196981],[-0.344693410903835,44.68581991117072],[-0.345108035528823,44.68599335893116],[-0.345177899666445,44.68602548769285],[-0.345322067428279,44.68586686111712],[-0.345586352386731,44.68595474445802],[-0.345789496651263,44.68600212517591],[-0.345916956012829,44.68606395953791],[-0.346015538912184,44.68597996953103],[-0.346125639895825,44.686026018956184],[-0.346300367869956,44.686098948228135],[-0.346456896023712,44.68616530919579],[-0.346520375355297,44.68618988090504],[-0.346612001051285,44.68622684711336],[-0.34674923759807,44.68628739357187],[-0.346902241781237,44.68635395067111],[-0.346956168911129,44.68637718918799],[-0.347059319678422,44.68644228084997],[-0.347164576693827,44.68650667792899],[-0.347215422107659,44.686541813883174],[-0.347347377159784,44.686634598345485],[-0.347464732796304,44.68671764211269],[-0.347478978856437,44.68672568128417],[-0.34782281046774,44.68689576495739],[-0.34755728777645,44.68721629927221],[-0.347780711203455,44.68736668853437],[-0.34785327986841,44.68741450299761],[-0.347592909135886,44.68761566690145],[-0.347069953875427,44.68795110854875],[-0.347204037625239,44.6880668968894],[-0.347459806592931,44.688287494556135],[-0.34738496830629,44.688320486392776],[-0.347315551763573,44.6883533141228],[-0.347186120203776,44.68841138612998],[-0.347783585520837,44.688872147732226],[-0.347885524556124,44.688770212824856],[-0.347947605948508,44.68881582162758],[-0.34848112388343,44.68814611087501],[-0.348150478557063,44.68802374815133],[-0.348631261560818,44.68752729091781],[-0.348738453906799,44.68741393246777],[-0.348842237804417,44.68735582399602],[-0.349119962201286,44.687257487018684],[-0.349396959126215,44.68731253745634],[-0.349629632929619,44.68736992053301],[-0.349951216793962,44.68744614686421],[-0.350350391554493,44.687552641971514],[-0.351062944241312,44.687769308384475],[-0.351497678160995,44.68789166289286],[-0.352011812105989,44.68803431746422],[-0.352109042940953,44.68807408311884],[-0.352300926367077,44.68808061349686],[-0.352478497176526,44.688090731127154],[-0.352711200778771,44.688127291728634],[-0.352885574933812,44.68818553398457],[-0.353200387853595,44.688332422076265],[-0.353508535087155,44.68848825202765],[-0.353609779835043,44.688544474912504],[-0.35365488307523,44.68856581520069],[-0.353819261277504,44.688655537025255],[-0.353822682085838,44.688651468492964],[-0.353969741655564,44.688658273656344],[-0.354022347398018,44.68866136441311],[-0.354126416205935,44.68866532775752],[-0.35434773119153,44.68867817105949],[-0.354491649110148,44.68868948616718],[-0.354618021511281,44.688707370495095],[-0.354858149066348,44.688705224757456],[-0.354958124422795,44.688704085103836],[-0.354869871518242,44.6887726317223],[-0.355029889930477,44.68886545766982],[-0.355189015518818,44.68895813026468],[-0.355193650818693,44.688968081963466],[-0.355164294939018,44.68904142049685],[-0.355138461580038,44.68911239944575],[-0.355142066276268,44.68913049227658],[-0.355152691938219,44.6891455787683],[-0.355222336476551,44.689201407030026],[-0.35527137882877,44.6892294755646],[-0.355297511106937,44.689241929094294],[-0.355316545211586,44.68924549682926],[-0.355354926136535,44.689276952425075],[-0.355006011743629,44.68953515615629],[-0.355065240189423,44.689575170791635],[-0.355019545275412,44.68960539172159],[-0.35556196137093,44.68999533511958],[-0.355547709602708,44.69001054540446],[-0.355517537065579,44.69004687372523],[-0.355488789231399,44.690079554434064],[-0.355391160624301,44.690213354957166],[-0.355387267631529,44.690217978520884],[-0.355427098434116,44.6902398385161]]],[[[-0.354372150412448,44.691763327043255],[-0.354221531057922,44.691788078386516],[-0.354014187714227,44.69180427674572],[-0.353892487365566,44.691824636604515],[-0.353878597843306,44.691826859875604],[-0.353862436062967,44.6918269893973],[-0.353675242576667,44.69178914119374],[-0.353670885829905,44.69181991056602],[-0.353676045262611,44.69185138266991],[-0.353258323099705,44.691917660071034],[-0.353286260771585,44.692004940546674],[-0.353071546525072,44.692050105515655],[-0.35295446229118,44.69207374857828],[-0.352882669814606,44.692079438688836],[-0.352793666310871,44.69208673166931],[-0.352714032738021,44.69210923948204],[-0.352733612081354,44.692143158125695],[-0.352683756720796,44.69215872611728],[-0.35258161792529,44.69218939495356],[-0.352561016694238,44.69215316440068],[-0.352472774911306,44.692188097701795],[-0.352402119912171,44.6922192540597],[-0.352419324930809,44.692304517102244],[-0.352279600644209,44.692361645395046],[-0.352264326036722,44.69234273465827],[-0.352203059752937,44.692359729505],[-0.351993228049912,44.69241267402586],[-0.351990856063935,44.692415268964055],[-0.351988725561267,44.69241767636628],[-0.351745784522953,44.69260408473916],[-0.351559076111502,44.69274625726447],[-0.351546538299101,44.692749971148324],[-0.351423745821876,44.69279234804685],[-0.351418944359864,44.69278384297445],[-0.351403071481359,44.69278882929692],[-0.351396489996182,44.69279074075374],[-0.351286947007439,44.69282226340968],[-0.351277559209632,44.692823719210516],[-0.351196774069148,44.692837520137836],[-0.35096009072518,44.69293813299267],[-0.351003565025205,44.693046659812715],[-0.350904362551907,44.693069398558904],[-0.35080730128588,44.69308990973123],[-0.350790376763166,44.69305176531028],[-0.350462118605448,44.693180201054844],[-0.350428115930467,44.69323079108056],[-0.350422587226288,44.69324402440412],[-0.350405029357793,44.693326826190415],[-0.350372104361917,44.69338279013723],[-0.350340839378402,44.693424196157174],[-0.350324632553865,44.69343631108925],[-0.350148973043061,44.69349254237795],[-0.350124739751141,44.69349715090691],[-0.349937011824098,44.69351617159715],[-0.34991027018409,44.69351896372865],[-0.349859747838345,44.69353184730414],[-0.349802472554212,44.69354376389901],[-0.349758542497388,44.693554915960874],[-0.349731247626419,44.693561148962885],[-0.3496370502923,44.69358310422392],[-0.349510073116578,44.6936167748756],[-0.349379666655364,44.69365226127876],[-0.349183141336311,44.6936996611844],[-0.348977108294265,44.693740139774235],[-0.348973090889752,44.693712958191796],[-0.348845888475608,44.69370887898381],[-0.348691220495721,44.69370391888423],[-0.348420319466016,44.69378159266154],[-0.348421813857611,44.693813085764944],[-0.348328981195274,44.69381977007573],[-0.34826370353489,44.693822466548106],[-0.3481265580785,44.693831753303876],[-0.347947319181466,44.693840601619804],[-0.347871066078334,44.693839304734645],[-0.347731540686869,44.693834065279106],[-0.347607510445086,44.69383871938362],[-0.347024525937632,44.69386455790308],[-0.347031199010305,44.693985282914305],[-0.346769298183517,44.69390417774978],[-0.34659787853314,44.69385331510305],[-0.346664504537057,44.694121898358134],[-0.34641071284887,44.6941644475099],[-0.346295983052795,44.694185308832566],[-0.34593329156913,44.6942830536468],[-0.345678205250558,44.694350600541775],[-0.345565532392728,44.69438482518708],[-0.345358560543721,44.69443721972691],[-0.344974629367237,44.69449009830959],[-0.344321920076163,44.69465229333318],[-0.34362592561356,44.694819577156785],[-0.343528126257287,44.69472566526314],[-0.343419044573579,44.69458217369294],[-0.343404178465354,44.69455946485432],[-0.343277802280959,44.69419284455631],[-0.342996891455172,44.69423188005703],[-0.343103109223905,44.69447394795858],[-0.342877371502363,44.69449969183008],[-0.343062191325103,44.69504422456011],[-0.343083265062241,44.695090624840425],[-0.343101385265973,44.69519577552483],[-0.343107671628932,44.69532714516659],[-0.34256835708577,44.69532704029652],[-0.342396179782483,44.69533575622424],[-0.34236663262664,44.69534025322041],[-0.341700188806374,44.69543310267088],[-0.341658961436252,44.69536640552143],[-0.341635034359427,44.69531873953965],[-0.341602102565591,44.69524494351901],[-0.341523927274044,44.695141065847736],[-0.341407081982835,44.694990147600066],[-0.341351441077719,44.69494452068844],[-0.341233524796796,44.69481598172307],[-0.341091015064304,44.694656196586884],[-0.341038267866284,44.69456353526663],[-0.340991546560225,44.69448087429731],[-0.340986975354335,44.69446983880001],[-0.341053565755428,44.694459447727304],[-0.341040954364569,44.694374675394364],[-0.341014980626012,44.69422227415673],[-0.340987000413971,44.69404245022114],[-0.340964073297741,44.693877521931924],[-0.340946283163987,44.69377785777341],[-0.340663156141871,44.69378379411907],[-0.340660176027075,44.69383362435318],[-0.340654396792999,44.69385118992452],[-0.34064426935737,44.69386573297049],[-0.340624561494961,44.69387849278698],[-0.340578246805194,44.69389845373536],[-0.340572039801772,44.69390242573737],[-0.340570951897853,44.69397562721223],[-0.340557738202403,44.69406162988262],[-0.340567479914045,44.69417469304977],[-0.340585735621998,44.69421622280372],[-0.340612263554782,44.694282192688135],[-0.340647417598148,44.694408365353375],[-0.340657984469359,44.69444805475606],[-0.340688213329318,44.69457212340873],[-0.340705174398854,44.69464505024044],[-0.340715353672975,44.69468033599766],[-0.340729980880017,44.69475225199227],[-0.340775435150365,44.6949412801753],[-0.340836225766538,44.69520139196614],[-0.340516512540935,44.69522744552218],[-0.340068043060625,44.69526585554291],[-0.340018360444764,44.69500766081933],[-0.340144789872366,44.695002942880734],[-0.340016662776067,44.6945787925301],[-0.339947222689717,44.69434741608466],[-0.339745846280152,44.69440476727734],[-0.339699786178234,44.69432469903362],[-0.339689832338574,44.69429958873373],[-0.339568751356671,44.69431351610122],[-0.339572941760811,44.694339431145494],[-0.339564219885677,44.69434573172787],[-0.339519379005663,44.6944097110811],[-0.339510219931486,44.694472523268246],[-0.339556135954582,44.69502287546132],[-0.339561841160884,44.69518291729353],[-0.339570548575041,44.6954659576083],[-0.33957716640656,44.69554343193784],[-0.339653246867856,44.696037907259566],[-0.339645202714563,44.69603860061891],[-0.339619927980923,44.696038462443546],[-0.339571918633108,44.69604054235109],[-0.339449259361218,44.69604496555157],[-0.339251187827878,44.69606869532498],[-0.339204979331722,44.69606918886429],[-0.339171060832654,44.69605750716524],[-0.339128291566754,44.696043569519986],[-0.339056303791615,44.696020511554764],[-0.339023904488693,44.696015271821736],[-0.338988551378103,44.69600922013142],[-0.338938581488081,44.69599315688645],[-0.338916173271638,44.69599022876932],[-0.338876477759286,44.69598764212899],[-0.338835553195668,44.69598563321934],[-0.338732059791024,44.69598091687564],[-0.338720392005668,44.69597802504325],[-0.338681478868159,44.695963069774365],[-0.338644004815003,44.69595320728644],[-0.338539297043235,44.69593014515045],[-0.338428507636954,44.695904653262176],[-0.338413335571845,44.695902317682474],[-0.338355516652787,44.69590514360341],[-0.338319654799213,44.695911812437934],[-0.338267230289006,44.69591826012823],[-0.338206301355198,44.69592190068065],[-0.338153478663452,44.695923764766555],[-0.338059901763073,44.69592010023871],[-0.338033428116399,44.69591891656592],[-0.338033467658189,44.695898280391674],[-0.338038569953371,44.69583306769156],[-0.338042244307459,44.69576933981974],[-0.338050869363725,44.6956591465145],[-0.337832663889861,44.695647978251316],[-0.337422334269438,44.69562872838752],[-0.337446614510337,44.69550130264522],[-0.337375719509594,44.69549452040615],[-0.337155844132026,44.69542320837251],[-0.337114166820676,44.69560666593181],[-0.337089482378349,44.69572941810374],[-0.336619566894335,44.69568105508044],[-0.336642671985855,44.695614758916655],[-0.336660558942267,44.69555420687688],[-0.336671825128699,44.69551196641753],[-0.336680499615154,44.69546223496235],[-0.336684303885701,44.695321820508525],[-0.336686406052616,44.695212364781504],[-0.336685216016198,44.69516671540875],[-0.336687113104099,44.69508150519247],[-0.336688880623714,44.69486410899652],[-0.336685497770329,44.694566220610675],[-0.336641170759202,44.69441302057155],[-0.336627178503081,44.69436451338853],[-0.336594400288332,44.694265480977215],[-0.33656898977073,44.69422254446753],[-0.336514994488733,44.6941236112567],[-0.336466201817357,44.694031459521256],[-0.336463451910169,44.694017034910175],[-0.33646330913014,44.693997575682964],[-0.336471776325336,44.69396352947879],[-0.336815444237233,44.69403480352699],[-0.33708784465781,44.69409083516179],[-0.337069288908032,44.69414861405988],[-0.337180756823241,44.694185620653464],[-0.337217596419208,44.69421676844707],[-0.337286931089287,44.694237744914425],[-0.337295414787832,44.69422316167572],[-0.337570450881387,44.69431722877667],[-0.337577214241185,44.69425232647405],[-0.337738919374914,44.69425240414787],[-0.338080367697865,44.69425210465619],[-0.33818122912748,44.69425509874172],[-0.338179185689006,44.69421425089379],[-0.338179018706646,44.69407936270396],[-0.338177585332401,44.69399767705981],[-0.338178432892437,44.693922500555004],[-0.338176594123701,44.69383397886167],[-0.33817403026007,44.693550032585286],[-0.33817490387508,44.6934390820283],[-0.337969027630988,44.6934567376069],[-0.337930957944022,44.69323441589453],[-0.337805701199257,44.69255579966212],[-0.337803483609545,44.69253757444732],[-0.337743094732568,44.692207254762394],[-0.337696803078808,44.691942109107075],[-0.338069066797288,44.69190357442783],[-0.338076274607275,44.691914350239415],[-0.338086701876191,44.69191763997504],[-0.338167524749327,44.691908713422464],[-0.338237792732257,44.69190073606184],[-0.338282265018239,44.69219693394952],[-0.338292548653931,44.692280875538145],[-0.338282734370433,44.69233478652507],[-0.338287741662386,44.69237022847958],[-0.338307033887788,44.69248678802236],[-0.338336713131758,44.69263790632176],[-0.338363671546992,44.692736753399146],[-0.338670404248776,44.69270506011085],[-0.338825081175964,44.6926889483193],[-0.339192646035343,44.69264992102206],[-0.339234954737565,44.692645490205166],[-0.339455992941505,44.69262368004036],[-0.339671369162339,44.69260438318368],[-0.339851901177281,44.69258757955674],[-0.3399669742826,44.692581041876664],[-0.340012019061516,44.69256949965019],[-0.339970859720354,44.69252091193533],[-0.339942970120927,44.692480934507145],[-0.340010560458167,44.692474658833795],[-0.340585365306241,44.69242828871569],[-0.340589195768503,44.69260352535948],[-0.34061573861742,44.692601642575106],[-0.340683349068881,44.692599961449844],[-0.34075951823727,44.69259775150906],[-0.340765507718305,44.692698673068335],[-0.34083785869151,44.69269811023026],[-0.340915157541447,44.69269577596335],[-0.340913983079193,44.69267598742366],[-0.340909321490892,44.69261872868697],[-0.340934678084313,44.692618143176546],[-0.340895369034034,44.692402798044874],[-0.340891480093321,44.692345786309154],[-0.340888478230834,44.692327134265845],[-0.340872105971839,44.69224283601059],[-0.340831163218315,44.692072324456376],[-0.340911009858926,44.69207036377459],[-0.341057832495711,44.69206881333128],[-0.341057775050575,44.692063588737945],[-0.34126647481245,44.69204890567567],[-0.341398978925491,44.69204661580392],[-0.341396445648378,44.692012450850285],[-0.341669846776496,44.6920045534093],[-0.341760390233214,44.692001908571385],[-0.34177148682635,44.69200157338363],[-0.341799990234294,44.692000802503294],[-0.341801457849724,44.69201914043618],[-0.341991292733322,44.692007999442644],[-0.342036511659174,44.692003659839905],[-0.342032647263879,44.69191303666453],[-0.342006645431584,44.69178784956131],[-0.342002121449606,44.69177122592411],[-0.342002903875999,44.69176525508469],[-0.342004418249908,44.69176097420784],[-0.342009111751315,44.69175704783942],[-0.342090072618864,44.691750457066846],[-0.342132444501353,44.69174710451783],[-0.342363419254955,44.691731025546154],[-0.342586884481325,44.69172463444406],[-0.342817540427228,44.69171595310341],[-0.343027548460135,44.69170843587447],[-0.344156857740724,44.69166556410008],[-0.344620374202108,44.691647046404015],[-0.344652276657072,44.69164608191213],[-0.344980828860704,44.69163308469573],[-0.345777633900952,44.69160475475847],[-0.345975495310638,44.6915990410102],[-0.34615185077827,44.69159280596234],[-0.346314582447375,44.69158689261308],[-0.346478400824602,44.69158013516733],[-0.346599531317217,44.69157566001191],[-0.346881576763037,44.691566587026415],[-0.347016601439116,44.69156421413521],[-0.347325817755204,44.69156170695012],[-0.347530019525721,44.691564899623685],[-0.347727181324938,44.69156866539252],[-0.347921536935251,44.69157197507623],[-0.348090123081049,44.69157741594634],[-0.348192209115247,44.69157982306109],[-0.348424974546122,44.691589628695716],[-0.348946183677905,44.69160872447354],[-0.349251816293188,44.69162028736792],[-0.34937929362612,44.69162057304233],[-0.349627426218138,44.691599904445496],[-0.349827267406668,44.69157438987319],[-0.349953856685699,44.69155550844497],[-0.349990551257065,44.69155016215403],[-0.350264731624549,44.691508699039424],[-0.350540781611361,44.691466818172565],[-0.350784397261583,44.69142970359207],[-0.350879259287899,44.69142322596096],[-0.350961972198186,44.69142486566659],[-0.351063243962557,44.69143693651691],[-0.351308643617106,44.691463744532534],[-0.351336588182081,44.69146632216822],[-0.351758574393163,44.6915013862227],[-0.351952837574385,44.691515865221106],[-0.352056227016986,44.69152318531134],[-0.352178462124706,44.69152029253782],[-0.352302181126304,44.69151474148469],[-0.352445761428975,44.69150966974751],[-0.352540794820285,44.69150606900632],[-0.352727481289033,44.69149725763797],[-0.352798628968601,44.691493479451566],[-0.352914221274509,44.69148934542769],[-0.353011350010011,44.69148486978887],[-0.353113629463122,44.691454466584034],[-0.35325275623059,44.691414926661636],[-0.353292360971304,44.69138209771346],[-0.353458998282146,44.69130180505829],[-0.353613116704181,44.69122342350312],[-0.353797144756271,44.69112548228909],[-0.353977990172746,44.69102925921708],[-0.354110066796268,44.690960466042554],[-0.354347616042821,44.69086189237241],[-0.354426410244986,44.69100340845492],[-0.354427684452989,44.69100571267174],[-0.354701051178515,44.69145941608206],[-0.354702819069589,44.691461525106945],[-0.354702824429956,44.69146161505416],[-0.354704592321165,44.691463724079014],[-0.355023788628704,44.69174735168252],[-0.354811607974848,44.69172477082805],[-0.354744613396067,44.691726171621454],[-0.354534942004131,44.691737215197385],[-0.354497711197082,44.69174203860558],[-0.354372150412448,44.691763327043255]]],[[[-0.350046035083543,44.68536733620132],[-0.350025985997749,44.68545706149728],[-0.350022620312758,44.68573163642603],[-0.350018647306558,44.68580708814551],[-0.350015709822304,44.685844752696305],[-0.350004208153851,44.685891327102674],[-0.349957922035974,44.68600500505656],[-0.349462311540227,44.685912151999],[-0.349420523119401,44.68600803208427],[-0.349320594504255,44.68598015026583],[-0.349295952993293,44.685973597502944],[-0.349220997755611,44.68595784508895],[-0.349138830384984,44.68593339016239],[-0.349093198523765,44.68592008390182],[-0.34898952050979,44.6858886208307],[-0.34865645378446,44.68578480579573],[-0.348588970519298,44.68587767876465],[-0.348283016278822,44.685766734247686],[-0.347882418463317,44.68562540305691],[-0.347862054891449,44.68565467409224],[-0.3477203102399,44.6856032763911],[-0.347513006751245,44.685532686800876],[-0.347547970201753,44.685483420316544],[-0.347594684603548,44.68541298298154],[-0.347504708559654,44.685380383047544],[-0.347372272819708,44.68533257792684],[-0.347274746041473,44.68528344599675],[-0.347192042010265,44.68524143463651],[-0.346947074264356,44.685117287474725],[-0.346870715061467,44.68508851018072],[-0.346620569704599,44.68505147431954],[-0.3463720240804,44.68501159612589],[-0.346316144926751,44.6850043657492],[-0.346049125108138,44.684925668028775],[-0.345970581779876,44.684902633078416],[-0.345826585476194,44.68486004176664],[-0.345655615204422,44.68480988596999],[-0.345319967979777,44.68471343819816],[-0.345312242216494,44.68477260317321],[-0.344928624084552,44.68484664955743],[-0.344972274651346,44.68472034835494],[-0.34461597264215,44.68466101724359],[-0.344523870057625,44.68490511400411],[-0.344209153196111,44.684722967158315],[-0.343992425981815,44.684714741231325],[-0.343977977804232,44.68465011930522],[-0.343850969402899,44.68432145656154],[-0.343768908641478,44.684075416616494],[-0.343693937841463,44.68384240835583],[-0.343648247727953,44.68363879160318],[-0.343637926809953,44.683528810229646],[-0.343773305126791,44.683600769920076],[-0.343877728218611,44.68364915559597],[-0.34398744466251,44.68369521854209],[-0.344097160191225,44.683734883676124],[-0.344225207576018,44.683776968078625],[-0.34428821521112,44.68379578822104],[-0.344375711114974,44.68381648110713],[-0.34460089117024,44.68385436678446],[-0.344901710783204,44.68390258003682],[-0.34523383285723,44.683952549115126],[-0.345391203127779,44.68397581372716],[-0.345568949357683,44.684001885994896],[-0.34627022376368,44.68408727278291],[-0.346272953404139,44.684080071589506],[-0.34651223308833,44.68411500386445],[-0.346724691873922,44.68414281750884],[-0.346951903875375,44.68416171410088],[-0.34709531597112,44.684168998805795],[-0.347201754646709,44.684176861481035],[-0.347246370025095,44.68417947622742],[-0.347397053379613,44.684207085401034],[-0.347487746642241,44.684224164870336],[-0.347524088141294,44.68423207600495],[-0.347775083872078,44.68431107485814],[-0.347915224486573,44.68432918051881],[-0.348114388966195,44.68433306442727],[-0.348266399533758,44.684338375300676],[-0.348478961524394,44.68435302656346],[-0.348635598273006,44.684366036394366],[-0.348727221258824,44.68437749995142],[-0.349093207227537,44.68443607415493],[-0.34935909949909,44.6844809176369],[-0.349612279481539,44.68452650587624],[-0.350084117214564,44.684610616350135],[-0.350152316670555,44.68462323868751],[-0.350286108419302,44.68464712045438],[-0.35023842455314,44.68479246922182],[-0.350197067682512,44.68490617819838],[-0.350137574513225,44.68507170863109],[-0.350080221440435,44.68522014355785],[-0.350067082693776,44.68525406213118],[-0.350046035083543,44.68536733620132]]],[[[-0.345129304467945,44.6912979843785],[-0.345114709557589,44.691449899385326],[-0.34510545732539,44.69153866646036],[-0.34456112795,44.69155773708126],[-0.343314000907357,44.69160552527541],[-0.342295250025956,44.69165306811939],[-0.341507295944434,44.69170921962547],[-0.341520692084095,44.691479487312286],[-0.341542920028806,44.6914602534512],[-0.341577746055905,44.69146172459349],[-0.341586207022331,44.69136379075461],[-0.341585806566477,44.69135704466727],[-0.341547994961286,44.69135422196243],[-0.341526787031345,44.691335308864446],[-0.341346800674635,44.69131866839625],[-0.341169897423714,44.69130076310672],[-0.340846493054997,44.691406856476505],[-0.340395653589498,44.69133243362302],[-0.340477097360481,44.69117859124764],[-0.340541297812407,44.6910769019691],[-0.340608399624375,44.69098792052439],[-0.34061097622514,44.69098450868541],[-0.34080713311582,44.69095011080755],[-0.340887691923678,44.690868652398535],[-0.341072163597645,44.69069484775889],[-0.341119535352391,44.69065656247829],[-0.341102721296381,44.69064995166618],[-0.340866651992266,44.69051200539289],[-0.340808821127229,44.690563492004586],[-0.340753403270857,44.69061094091811],[-0.340644305916321,44.690705335617764],[-0.340629149250027,44.69071813823955],[-0.340540599135452,44.69067557739381],[-0.340611446641562,44.69059224981924],[-0.340474498317696,44.690489786136304],[-0.340366383379364,44.690436822636606],[-0.340210268207329,44.69035620311661],[-0.340275343471974,44.690303326679064],[-0.340323989056,44.69025031552039],[-0.33994920306405,44.69012052058121],[-0.339659781029493,44.69045653393133],[-0.339648534931084,44.69043092204181],[-0.339580662573222,44.69045369601919],[-0.33950818336425,44.69047760021814],[-0.339499621587207,44.69048020150332],[-0.339492668418187,44.690477978453615],[-0.339484395610155,44.690474804040036],[-0.339257149098701,44.690361998882054],[-0.33902613594777,44.69056901354199],[-0.338951857905208,44.69055620720539],[-0.33881521783889,44.69051852059286],[-0.338757335590122,44.69050314679016],[-0.338668553936992,44.69047581990148],[-0.338617955176149,44.69046184817983],[-0.338873610934047,44.69020813511424],[-0.338932693724671,44.69022671653387],[-0.339026707554227,44.69025920170813],[-0.339119726791417,44.690289824538276],[-0.339266054803628,44.69016502220795],[-0.339272415673057,44.69015726105443],[-0.339262402330528,44.6901524270939],[-0.339202509934041,44.69011593860563],[-0.339279236767031,44.690048654088095],[-0.339321396683994,44.69000980605365],[-0.339414929565179,44.68990642110128],[-0.339426665203931,44.68988705385687],[-0.339397143699835,44.689870644079],[-0.339460109834267,44.689803504479],[-0.339473900582661,44.689808134283076],[-0.339608235702652,44.68984318634671],[-0.339727466507354,44.689879144783355],[-0.33978157632244,44.68982029205065],[-0.339841304240154,44.689751808236366],[-0.339906576116146,44.68967883178045],[-0.340147477196291,44.6893937525521],[-0.340294720639498,44.68921846009838],[-0.340499533601192,44.68932365038765],[-0.340608378402954,44.689378303705716],[-0.340817730211208,44.68913850923276],[-0.340897912014907,44.68904435680884],[-0.34094277190837,44.688995694803516],[-0.341068706505231,44.68887006407337],[-0.341083095353666,44.68885710435363],[-0.341207932650878,44.68873853509545],[-0.341215291137432,44.68873056347237],[-0.341272682753171,44.68867809868315],[-0.341343963966265,44.68861277929427],[-0.341244911744373,44.68856774295865],[-0.341297134743478,44.68851119914119],[-0.34132255169009,44.68848186689291],[-0.3413880743967,44.688411044535236],[-0.34153493350623,44.68825279251165],[-0.341664739298507,44.68830095449725],[-0.341725414997811,44.68832723563806],[-0.34182808929625,44.68838009171366],[-0.341865559332142,44.68840698368747],[-0.341887637004162,44.68842992530195],[-0.341903637752304,44.68845476256511],[-0.341911347782245,44.68847399319884],[-0.341921435074667,44.68850135193778],[-0.34195761852238,44.68862785323479],[-0.341972525834127,44.688695975862984],[-0.341970460827575,44.68871225787367],[-0.341951025098011,44.68876573902992],[-0.341917831619971,44.688849191562205],[-0.341910371393857,44.68886608710338],[-0.341871954676875,44.68894879632114],[-0.341837110273655,44.68902572074059],[-0.341817392535064,44.68907019948725],[-0.341778859341771,44.689174358141756],[-0.341767612610939,44.689204073430666],[-0.341759604813383,44.68923089749708],[-0.341780767255945,44.68924692839871],[-0.342056194138867,44.689492535318415],[-0.342089562194618,44.68950351176044],[-0.342741286384958,44.68971918583596],[-0.342953832058423,44.68979494278628],[-0.343217185994725,44.68988817693047],[-0.343317554348973,44.68993191033756],[-0.343396789344443,44.6899898888391],[-0.343732517916496,44.69018293805568],[-0.343881468480058,44.69026620224944],[-0.343966682184718,44.69030147236984],[-0.344095300105257,44.690352911584284],[-0.344107540840008,44.69035695691749],[-0.34413382927652,44.69035931607838],[-0.345144799331669,44.6904512096458],[-0.34519001166942,44.690457411693984],[-0.345221122872774,44.69046440055828],[-0.345239771194282,44.690476361847],[-0.345257228070946,44.69048953058103],[-0.345264993939888,44.69050542530765],[-0.345264111808931,44.69052671776718],[-0.345254870308473,44.69055826513138],[-0.345175776568121,44.69085558440377],[-0.34515250416567,44.691071919585816],[-0.345129304467945,44.6912979843785]]],[[[-0.342881252896697,44.685096868219084],[-0.342791773866906,44.68511299848142],[-0.342703807772293,44.68512908295141],[-0.342670306131457,44.68513496119786],[-0.342614685525394,44.68514484185048],[-0.342540886523352,44.68515914645696],[-0.342348035520736,44.6851893030752],[-0.342254631617262,44.68520528115879],[-0.342169053380051,44.6852190403245],[-0.342146792256254,44.68522277661402],[-0.342058650462846,44.685242290008865],[-0.342000485426237,44.68525612190426],[-0.341915512717658,44.68524391120669],[-0.341817730965495,44.68523082588719],[-0.341784563874026,44.68522957515012],[-0.341572244661865,44.685223283773],[-0.341479369113437,44.68522050258272],[-0.341453538790899,44.68518325689069],[-0.341330284654435,44.68521130937443],[-0.341273978678682,44.68522454407535],[-0.341225031472803,44.68523620484204],[-0.341148116027762,44.68525546851794],[-0.341039836699448,44.68528045520755],[-0.34090597389105,44.68531279241404],[-0.340831593880421,44.68533008700238],[-0.340791580338906,44.685339044823266],[-0.340679852447182,44.68536764954768],[-0.340609925883088,44.685383367747114],[-0.340476394805478,44.685417046035255],[-0.340350861503923,44.68544714862187],[-0.340250267188078,44.685471812345725],[-0.340339808209694,44.68535665267782],[-0.340404616698413,44.685271705390186],[-0.340444957035282,44.68521290764801],[-0.340514636385907,44.685129164832944],[-0.340538271050607,44.685099616263805],[-0.340623864376234,44.68499457764481],[-0.340716302451055,44.684883565272386],[-0.340777600310053,44.684809717050676],[-0.340857036270471,44.68472225520413],[-0.340941360438212,44.68463203250195],[-0.34095890688778,44.68461483241137],[-0.341031803799532,44.684557664284654],[-0.341104811385037,44.68450662016604],[-0.341138997630335,44.684480357108555],[-0.341278693205813,44.68435692354191],[-0.341487504709515,44.6842573533123],[-0.341527246345598,44.68423957276164],[-0.34165580800888,44.684198834530875],[-0.341724806712909,44.68417602505401],[-0.341801908967975,44.68414504113684],[-0.341889026066299,44.68411042057098],[-0.341964464469802,44.68408119887232],[-0.342155364440378,44.68400334406303],[-0.3423185901721,44.683938039264596],[-0.342336170708282,44.683940571759194],[-0.342761877363317,44.684409520307995],[-0.342776883787114,44.68442826002524],[-0.3428974955521,44.68457059161947],[-0.342959512252076,44.68464503970554],[-0.343041558571191,44.68474411294383],[-0.343233338399222,44.68497458258124],[-0.343276621295888,44.68502706947872],[-0.343200400351809,44.685040997189176],[-0.343099648898138,44.685058729916946],[-0.343026121555921,44.685071224464146],[-0.342912511719702,44.685091508231146],[-0.342881252896697,44.685096868219084]]],[[[-0.340556700781579,44.68485675702011],[-0.34052559067287,44.684875267739066],[-0.340482746266961,44.68489611520186],[-0.340410752910257,44.68492595268114],[-0.340347904087393,44.68494812504798],[-0.340305950143536,44.68496056542833],[-0.34012140994708,44.685013715265704],[-0.340057422191396,44.685031596628676],[-0.339725082663231,44.685124891513574],[-0.339408753130826,44.68530285486786],[-0.339304750427642,44.6853637542482],[-0.339058984573001,44.68552399755523],[-0.338975531663703,44.68557148085721],[-0.338612100516305,44.68577528301923],[-0.338585321720162,44.68578591308594],[-0.33842716803426,44.68584105698673],[-0.338227387040605,44.68587583076791],[-0.337847979135878,44.68592954072018],[-0.337682179336709,44.68595373661557],[-0.337638042930875,44.685959213317894],[-0.33761056540617,44.68592823398763],[-0.337586021740755,44.6858998693942],[-0.337567509165324,44.685877360113956],[-0.337523614116887,44.6858464255635],[-0.337483208704465,44.68581682745179],[-0.337412517053046,44.68576426426294],[-0.337393205763711,44.68574745590477],[-0.337347561980573,44.68568701839301],[-0.337326930595079,44.68565646321905],[-0.337289240245471,44.68558317051871],[-0.337268578183318,44.685541442783155],[-0.33723742957537,44.68545704956147],[-0.337216559028487,44.68539901843605],[-0.337182241888448,44.68530165503795],[-0.337167845257645,44.68526334262279],[-0.337157293844789,44.68523662833324],[-0.337114446779273,44.68519565996975],[-0.33709983124611,44.68518348567187],[-0.337044130161943,44.68512596462831],[-0.336919216952877,44.684987541359234],[-0.336854482033506,44.68491398308373],[-0.336864003762228,44.68491054205108],[-0.336855678335268,44.684900070262245],[-0.336800742271079,44.684821350506006],[-0.336754204775443,44.68475859694621],[-0.336706939155397,44.68469208077158],[-0.336601415749135,44.684550459184564],[-0.336594243006022,44.68454238554477],[-0.336593205601513,44.68453340597258],[-0.336620624264047,44.68449734644906],[-0.336606336939004,44.68446939318626],[-0.33659431214147,44.68444551667382],[-0.336532738656073,44.6844061041763],[-0.336416720654937,44.684296246915295],[-0.336356661627118,44.68423975812276],[-0.336295199843204,44.684183041285095],[-0.336194617200138,44.6841098430264],[-0.336170272447038,44.684091203913624],[-0.336074612403038,44.68401154949121],[-0.335976837580363,44.68392817421385],[-0.335994426304353,44.68391592965142],[-0.336012015020698,44.68390368508625],[-0.336014078432066,44.68390227122791],[-0.336119403261198,44.68384448892473],[-0.336121970986776,44.68384305985437],[-0.336371371428491,44.68369298595429],[-0.336545925498219,44.68358643885965],[-0.336604286411992,44.68355034709328],[-0.336812016987275,44.683421803505425],[-0.336812674036356,44.68342223422793],[-0.336852221210754,44.683445911216914],[-0.336795591278704,44.68350907359694],[-0.336759346072288,44.68354963453063],[-0.336849880753089,44.6836131333059],[-0.33694967041422,44.6837049172539],[-0.337008388700482,44.683760094531635],[-0.337068872216758,44.68381521852913],[-0.337126203857372,44.683870437586116],[-0.337273807384921,44.68375244759367],[-0.337484032256601,44.68385774952749],[-0.337700721885911,44.68396555928399],[-0.337796282839161,44.6840136773186],[-0.337867380479682,44.68393890435315],[-0.337871798607716,44.68393886114335],[-0.337885557311224,44.68393871629479],[-0.33836246678808,44.68393838125032],[-0.338620552637285,44.68393698968939],[-0.338836490483031,44.683936238972194],[-0.339480342160175,44.68393320281252],[-0.339627191648522,44.68393246380056],[-0.340350907043885,44.68393007505837],[-0.340665039735054,44.684524137406974],[-0.340676571919051,44.68454181089786],[-0.340702926286542,44.684555973048774],[-0.340777264901925,44.684574182656064],[-0.340859995124876,44.68453798335503],[-0.340908099178449,44.6845185087324],[-0.34101066791787,44.68447819589374],[-0.341018012634796,44.68447851471058],[-0.341027554851103,44.68448606597147],[-0.341028535526884,44.684489820923254],[-0.341013654133451,44.684502975742454],[-0.340883981185273,44.6846037592528],[-0.34067113917855,44.68477806012997],[-0.340633775820601,44.68480613105037],[-0.340556700781579,44.68485675702011]]],[[[-0.340084512648426,44.68560531256564],[-0.340062752776912,44.68563453409528],[-0.340047397818892,44.68565887656976],[-0.340022729932425,44.685696566018265],[-0.339324837102969,44.6858408146627],[-0.339249520085624,44.68571243049695],[-0.339139319036285,44.685519770432855],[-0.339368636288295,44.68537182774738],[-0.33941483375665,44.685345743309654],[-0.339489560142099,44.6853044702881],[-0.339718048170878,44.685176646134906],[-0.339741390221282,44.685165578889496],[-0.339774520650634,44.685155567741475],[-0.339946259939783,44.68510379620574],[-0.340126087526838,44.685049977991206],[-0.340198462087214,44.68502868953308],[-0.340368140592733,44.6849762586782],[-0.340428521169303,44.68495506192475],[-0.340512005338094,44.68492091263805],[-0.340530820862798,44.68491232474447],[-0.340642613800422,44.684852900960735],[-0.3406591958634,44.68484924637237],[-0.340673264347622,44.684854318141426],[-0.340596210169004,44.68494999793144],[-0.340529020781226,44.68503312495561],[-0.340160357136685,44.68550624555268],[-0.340122467941674,44.68555740002749],[-0.340084512648426,44.68560531256564]]],[[[-0.340234532960584,44.687684640760594],[-0.340250705523443,44.6877315497255],[-0.340273740875775,44.6878196114645],[-0.340364720817194,44.68811395344473],[-0.340383589533844,44.688178622563285],[-0.340420413071315,44.68827978429416],[-0.340427602201317,44.688298760416274],[-0.340244369338229,44.68842521940214],[-0.34026848582123,44.68843782733917],[-0.340201247829376,44.688490408666716],[-0.340181940110192,44.68847369072588],[-0.340182613163905,44.68850845245648],[-0.340268240841247,44.68855930159985],[-0.340255829964955,44.68856940810751],[-0.340234939682156,44.68858562772561],[-0.340268227449912,44.68860165321163],[-0.340302170372719,44.688615946835824],[-0.340319836337062,44.68862415398118],[-0.340245923350542,44.68870261793768],[-0.340186166360993,44.68876632709529],[-0.340130343442628,44.68881757250917],[-0.340059277378392,44.68888441642747],[-0.340030354649091,44.688867448102634],[-0.339952656849286,44.68895026124121],[-0.340003829583367,44.688978181872116],[-0.340071117968565,44.68901372571508],[-0.339877279768997,44.68912329342409],[-0.339784731584726,44.689175106755066],[-0.339725364864973,44.689207085512564],[-0.33970305457283,44.68921640950266],[-0.339679412011032,44.689222439676925],[-0.339660558948686,44.68922616264237],[-0.339645193759417,44.68922905943891],[-0.339614702913328,44.68923250296188],[-0.339502586134745,44.68923552708977],[-0.339498819646196,44.68921888052779],[-0.33949111764295,44.68920190222358],[-0.339477141115857,44.68918349136833],[-0.33943561710761,44.68913509483013],[-0.339359736829696,44.68905691811499],[-0.339325778730788,44.689031721477214],[-0.339280777451793,44.68900136153004],[-0.339257591605333,44.68898953626333],[-0.339228085751476,44.688984029167855],[-0.339176847601901,44.68897629456057],[-0.339138430557034,44.68897601241145],[-0.338992941890157,44.688991397057116],[-0.33911720218262,44.68883959752229],[-0.338956917763823,44.68877802518277],[-0.33858739936111,44.68881350700031],[-0.33861642180431,44.688936530833075],[-0.338467639052788,44.68888145895037],[-0.338281337608767,44.688973315213026],[-0.33819886359101,44.68889894109172],[-0.338073517564796,44.689026082453815],[-0.338062935062964,44.68903081710929],[-0.338055959289864,44.689032469340695],[-0.337999942467992,44.6890570472475],[-0.337964805340923,44.68908225663725],[-0.337861997919963,44.68919754417271],[-0.33770676784419,44.68931495391651],[-0.337769229009928,44.68936497208195],[-0.337717589524638,44.68939094961452],[-0.337684520967286,44.68941483497336],[-0.337630312997954,44.68946566989104],[-0.337542901376089,44.68954237656433],[-0.337502001161951,44.68957478815571],[-0.337317777972299,44.68968045676696],[-0.337222589232454,44.689732527743885],[-0.336996333335559,44.68983874289093],[-0.336863044682499,44.68990016269926],[-0.33656238068569,44.69003186935026],[-0.3365287053595,44.690047662849814],[-0.336545867085505,44.69006228353295],[-0.336738261768894,44.69024787187786],[-0.336129304002228,44.6905787348166],[-0.335607895452729,44.69081179965387],[-0.335532224878799,44.690766954290126],[-0.33551751049141,44.69075099813595],[-0.335492775493014,44.6907087620107],[-0.335435784024674,44.690608206829666],[-0.335399374660907,44.69050964424491],[-0.335374069298671,44.690438590489926],[-0.335363839238161,44.69041303770003],[-0.335340439157327,44.69031444332402],[-0.335423785955492,44.69022236233969],[-0.33547923966448,44.690162660350886],[-0.335737022650816,44.689955296826874],[-0.335795496978598,44.68990820892517],[-0.335853251167979,44.68982978484964],[-0.335917772414962,44.68971421208357],[-0.335935372948159,44.68967655652703],[-0.33593896133962,44.68964545089966],[-0.335941700179231,44.68945505857629],[-0.335937371471613,44.68902176594904],[-0.335950881626348,44.68877653306182],[-0.335965576843283,44.68862164352574],[-0.335968164105954,44.6886120139781],[-0.335986863076864,44.68855666397923],[-0.336064010606629,44.68811064206178],[-0.336074267044126,44.687944803021004],[-0.336082114854315,44.687578454614844],[-0.336104628775914,44.68724644592097],[-0.336051683720683,44.687094767704444],[-0.336076890655244,44.68679115220696],[-0.336084417049029,44.6867391127323],[-0.336482077946911,44.686703420884506],[-0.336617392922893,44.68669122973836],[-0.336747060623206,44.686679659311736],[-0.337173865987243,44.68664128366873],[-0.337096279785301,44.686666331633496],[-0.337175231605119,44.686640882036315],[-0.337324449285602,44.686624576145846],[-0.337501975649573,44.68660426215884],[-0.33776990086265,44.68653427364603],[-0.337811980719255,44.68654949386357],[-0.337820300471272,44.68654708021733],[-0.337871917876969,44.68652290542577],[-0.337933759957298,44.68648796946704],[-0.337994388703439,44.68644748334066],[-0.338004941948323,44.686493390694515],[-0.338346337622514,44.686463174434856],[-0.338642379528107,44.68643495670538],[-0.338654734851774,44.686492073224876],[-0.338959533895083,44.68646881665763],[-0.338965794663106,44.68650196794625],[-0.339195009066839,44.68651406208436],[-0.339232930761207,44.68651453933339],[-0.339280960640113,44.68651507187196],[-0.339343232294953,44.68650868663323],[-0.339370830423019,44.68650334807421],[-0.33941262088518,44.686494517370924],[-0.339509165257654,44.68647394151754],[-0.339662623672139,44.686431192634664],[-0.339677227236744,44.68645805473054],[-0.340048080407509,44.68629205087768],[-0.340133715731576,44.68640056942476],[-0.340226015971767,44.68647239257452],[-0.340374273117416,44.686605962618714],[-0.340466441334554,44.6867159957525],[-0.340584510325343,44.68683678060657],[-0.340624327042437,44.68686918882278],[-0.340642578926392,44.68688089244975],[-0.340688970824904,44.68690490217053],[-0.340810964230671,44.686968349135995],[-0.340843413324693,44.68698728322939],[-0.340877521623559,44.68701076275989],[-0.340916618187752,44.687048058513476],[-0.340941806428322,44.687072348077045],[-0.340115935592419,44.68729949188707],[-0.340142168894826,44.68735204426932],[-0.340213307863535,44.68749722433732],[-0.340178163419012,44.68750098877429],[-0.340234532960584,44.687684640760594]]],[[[-0.338309123333927,44.68589949567859],[-0.338410703643934,44.68588291379665],[-0.338470844884103,44.685868303319076],[-0.338618541373106,44.6858221254097],[-0.33889293660845,44.685667506836],[-0.339100929751322,44.685547601447894],[-0.339214643984829,44.68572708972216],[-0.339385038374532,44.68600822168467],[-0.339084241984243,44.68606271654515],[-0.338764075017789,44.686129239038934],[-0.338385169365549,44.686170140195614],[-0.33835817331066,44.686072736334225],[-0.338309123333927,44.68589949567859]]],[[[-0.338349561648528,44.69112918457427],[-0.338471526478196,44.691123882146535],[-0.338553400059864,44.691122042178755],[-0.338645286621422,44.6911186384477],[-0.338743543924017,44.69111828629726],[-0.338882347354165,44.691117881771724],[-0.338854349416082,44.691423204988205],[-0.338869478315091,44.691705960929184],[-0.33875866993001,44.69172047861875],[-0.338644274018918,44.69173627587781],[-0.338568044317537,44.69174596526676],[-0.338381746590906,44.69176987924048],[-0.338349561648528,44.69112918457427]]],[[[-0.337411811412846,44.68605704879882],[-0.337216769748087,44.68611213241057],[-0.3371627333117,44.686127459109336],[-0.33702912939,44.686166361635564],[-0.336943264821952,44.6861923801055],[-0.33690099492185,44.68620590998591],[-0.336815309632481,44.68623282403244],[-0.336764648748487,44.686245435556145],[-0.336701654685129,44.68626094211282],[-0.336371874096141,44.68636352070272],[-0.336242322247241,44.68642392612116],[-0.336205592795199,44.68644143363015],[-0.336160596813409,44.686462254128415],[-0.336046843084034,44.68654200676726],[-0.3359509644225,44.68660581164884],[-0.335846135416418,44.68667844666967],[-0.335778582321315,44.68670868776631],[-0.335735663654096,44.68672620152921],[-0.335718970621758,44.68673012902844],[-0.33555955350126,44.68675124570966],[-0.3354102746498,44.68677079495217],[-0.335286177390185,44.68678471888958],[-0.335111839046483,44.68679916621451],[-0.334984427839073,44.686808323854926],[-0.334895416156607,44.68681749513953],[-0.334776427818041,44.68682811067851],[-0.334735145961815,44.686817821242165],[-0.334680159721871,44.68679794285275],[-0.334610117703393,44.686766984381784],[-0.334553442705136,44.686744183254866],[-0.334516645004698,44.68673069487776],[-0.334454889335998,44.68670741609192],[-0.334389653031867,44.68668081806112],[-0.33435218234956,44.68667302675936],[-0.334328257931426,44.68667428853973],[-0.334311655381332,44.68667974494305],[-0.334299719807184,44.68668082556963],[-0.334287651049728,44.686679657494246],[-0.334191960598035,44.68665496847427],[-0.334175707930546,44.68665140345192],[-0.33413884991077,44.686653956101566],[-0.333952766164179,44.68666416007317],[-0.333806014186384,44.686670925676275],[-0.333794826294678,44.68666756839495],[-0.333773757566461,44.68665946280997],[-0.333764398803794,44.68665713170443],[-0.333752972895312,44.68665828702077],[-0.333712276914464,44.686683482333834],[-0.333699213624478,44.68668684959472],[-0.333679680900996,44.68668761845117],[-0.333663872176548,44.686687283884154],[-0.333637438501022,44.68668456624749],[-0.333608877339782,44.686682183042805],[-0.333599767169405,44.68668191692904],[-0.333585688114116,44.686683062072525],[-0.333533221870495,44.68669293312455],[-0.333510632853863,44.68669541600541],[-0.333495349777745,44.68669542600841],[-0.333470951203699,44.68669507993688],[-0.333452650970436,44.686693198464894],[-0.333428318162274,44.68668969660266],[-0.333368304911019,44.686676637095616],[-0.333348754475872,44.686674973496366],[-0.333339656692386,44.68667704981043],[-0.333294630706647,44.686714449985665],[-0.333280137694641,44.68672353711602],[-0.333268812950892,44.68672640139587],[-0.333257719076137,44.68672889828374],[-0.333236316338254,44.68673008384305],[-0.333195379126616,44.68672987561609],[-0.333162250348898,44.6867314144843],[-0.333122067930632,44.68672902088223],[-0.333108994097237,44.68672581046607],[-0.333095099841867,44.686721543465744],[-0.333057366806364,44.68670078400502],[-0.333037155709548,44.68670076221042],[-0.333021542300424,44.68670159307781],[-0.333004932570395,44.686704796783985],[-0.332969361952607,44.686707760795066],[-0.332968385720551,44.68668913774135],[-0.333097152334982,44.686297520957716],[-0.333115475102575,44.68624218288873],[-0.333116130431985,44.686240451080884],[-0.333131462368838,44.68619646669235],[-0.333305802512143,44.68568074865703],[-0.333312799702618,44.68566026339291],[-0.333269688021193,44.68565318238484],[-0.333288674380854,44.68560692525317],[-0.333490805869353,44.68511478889939],[-0.333502677650623,44.685087038154876],[-0.333541812687595,44.68499710192426],[-0.33343662836536,44.684974140201994],[-0.333433428371239,44.68497342565619],[-0.333440432258635,44.68496798830326],[-0.333480029772265,44.68493705923077],[-0.333937825503729,44.684588239098225],[-0.333938098973128,44.684588591290066],[-0.33393823038127,44.68458867743802],[-0.334033243609954,44.68468943855139],[-0.334069626398576,44.68465968745023],[-0.335627113227896,44.68386447125617],[-0.335671902690931,44.68390628262384],[-0.335730355436508,44.68396552344583],[-0.335829326379795,44.684103198339706],[-0.335847629982415,44.68412859763412],[-0.335889514106764,44.6842194255115],[-0.335883796172878,44.68422311218375],[-0.335888942816902,44.684239627065274],[-0.335924183777738,44.684327050932794],[-0.335943633558133,44.68437818671123],[-0.335979327033268,44.68444766531136],[-0.335999353663262,44.68448508717992],[-0.336013621983124,44.68447861959649],[-0.336495915777255,44.685042210449524],[-0.336781943585171,44.6853374292512],[-0.337009916501846,44.68557799073108],[-0.337082575110096,44.68559129753327],[-0.337184775289164,44.68558091557312],[-0.337195569853192,44.685603207203826],[-0.337314903859874,44.68574549303283],[-0.337353020836383,44.68578975785465],[-0.337521772083495,44.68590270898662],[-0.337581461486606,44.685965696251706],[-0.33758833628689,44.68597513046201],[-0.337592300837682,44.685990869982135],[-0.337588842046593,44.68600070608336],[-0.337581488735963,44.686008767405106],[-0.337559971295357,44.68601653520956],[-0.337499469296682,44.686033589001305],[-0.337411811412846,44.68605704879882]]],[[[-0.334939302276958,44.69108723471191],[-0.334890906287417,44.69109337925792],[-0.334754640830004,44.69110037032537],[-0.334722894795425,44.69109970529597],[-0.334702931794604,44.691338464524094],[-0.334878000273237,44.69135742659497],[-0.3349602402057,44.69135963315047],[-0.334959632946664,44.69137496995046],[-0.335014110316688,44.69137765293333],[-0.335027916190982,44.691646932375626],[-0.334842676340091,44.691750554749945],[-0.3346392688711,44.691863104524074],[-0.334194021937171,44.692036557411654],[-0.333732028089913,44.69204885797546],[-0.333553755299018,44.69205260788134],[-0.333129512527888,44.692064579378815],[-0.332785839241607,44.69207826711449],[-0.3325199936914,44.69208149964577],[-0.332385462607567,44.69208582232255],[-0.332191830527384,44.692088320606636],[-0.332126278921504,44.69208849280682],[-0.332060999125329,44.69208685460818],[-0.331994179810135,44.69207841447934],[-0.331804180553943,44.692063321592464],[-0.3315015282484,44.692038014406606],[-0.331030393954656,44.69199831592662],[-0.330914186923065,44.69199208303728],[-0.330883788603332,44.691960829495954],[-0.330874023348719,44.69194310178459],[-0.331061731593841,44.6915928747966],[-0.331061605496385,44.69159287859335],[-0.331293009977208,44.69118060228959],[-0.331332401537223,44.691120485094366],[-0.331520544294023,44.691185374549114],[-0.331520670390537,44.69118537075184],[-0.331733771740582,44.69125149064163],[-0.331810801809816,44.69111445837634],[-0.331895620065244,44.69095962030967],[-0.331472745648826,44.690936942773526],[-0.331498809595714,44.690914171386495],[-0.331659295909167,44.69069533043082],[-0.331785159637052,44.69052114451667],[-0.331831749940877,44.69046315314883],[-0.331941267142229,44.6902753123022],[-0.332503623574794,44.69050761410782],[-0.332670764372202,44.69013241283707],[-0.332619453025373,44.69013197619129],[-0.332621637727823,44.69012407092683],[-0.332794451972599,44.68994928037193],[-0.332284090464568,44.68973316545277],[-0.332307731622885,44.689697220872425],[-0.332355338166082,44.68964361397569],[-0.332425373639559,44.68957626568218],[-0.332516051315328,44.68949486933531],[-0.332618938365738,44.68935940037121],[-0.332670058243271,44.68927126600041],[-0.33268306613371,44.68924348111368],[-0.332703781486007,44.68916239006227],[-0.332741414415107,44.68902140777581],[-0.332760422923451,44.688881617328654],[-0.332764627690709,44.688843825259106],[-0.332766793905147,44.68873959446022],[-0.332777477621543,44.688510396771484],[-0.332793979662502,44.68838374759407],[-0.332810578632157,44.68828007318607],[-0.332829736055307,44.68819614558553],[-0.332859853832578,44.68806692359122],[-0.332923617220588,44.68782540381584],[-0.332991158773212,44.68759863808933],[-0.333046438300133,44.68754452935657],[-0.333060907743255,44.68756490847398],[-0.333088721092695,44.68751838541134],[-0.333119276228957,44.68747763678685],[-0.333269918653683,44.687346675423825],[-0.333290187100407,44.687332728625904],[-0.333431507869577,44.68725980750556],[-0.33386150424936,44.687034193120645],[-0.333988628926492,44.68696899788186],[-0.334006776597224,44.68696403561344],[-0.334196809103262,44.68695010821774],[-0.334421355560409,44.686932436901365],[-0.334500861272005,44.686926976674435],[-0.334616447293152,44.68691222889448],[-0.334745313194662,44.6868956389261],[-0.334851748088789,44.68688846556113],[-0.334992398596248,44.68687890894496],[-0.335071710548513,44.686868047626945],[-0.335125744812795,44.686861192261574],[-0.335226793367438,44.686852649078034],[-0.335273910631914,44.68684843511959],[-0.3353176770376,44.68685801868728],[-0.335338557737261,44.68686081324642],[-0.335364616836227,44.68686146927676],[-0.335380789598701,44.68685728719352],[-0.335413236261468,44.68684423432002],[-0.33542590705147,44.686842770971055],[-0.335640417116584,44.686817740534764],[-0.335657966137928,44.68681333669354],[-0.335831404544099,44.68674746358865],[-0.335904240951418,44.686721118026526],[-0.33604600031776,44.68663223097312],[-0.335990401916552,44.68709868827657],[-0.336038869071671,44.68722382938195],[-0.336004842028301,44.68808629484939],[-0.335947464520116,44.68836501936763],[-0.335912969983012,44.688535373883845],[-0.335911075295273,44.68854390124013],[-0.335896576706453,44.68861471337359],[-0.335888703921936,44.68868009939837],[-0.335873810016669,44.68892330148702],[-0.335868502131836,44.68915134658543],[-0.33587311904173,44.68934223794046],[-0.335866675890308,44.68962573420184],[-0.335864035422223,44.689640861988444],[-0.335859679454248,44.68965901509404],[-0.335780727489088,44.689808182987406],[-0.335768791726583,44.689828456929526],[-0.335744836722053,44.68986972819695],[-0.335738926472916,44.689876574457955],[-0.335727271053669,44.689886657650305],[-0.335616077812627,44.689964980883325],[-0.335149517462235,44.68982955710586],[-0.335086219725778,44.68992743117796],[-0.335053723657,44.689978060751386],[-0.335008172589949,44.690049268233686],[-0.334962195167588,44.69011967756974],[-0.334955789227372,44.69011815861541],[-0.334937445964044,44.690205125873725],[-0.334717645994573,44.690170932378734],[-0.334713960068873,44.690390187943],[-0.334931212893161,44.69048798493214],[-0.334841519272591,44.69049422393899],[-0.334850184042605,44.690538185182064],[-0.335007546639722,44.69106003711006],[-0.334939302276958,44.69108723471191]],[[-0.334841515165717,44.6904942031025],[-0.334812330455743,44.69049625427065],[-0.334841519272591,44.69049422393899],[-0.334841515165717,44.6904942031025]],[[-0.332211382624633,44.69182749784556],[-0.332217735949394,44.69181532202995],[-0.332211256526728,44.69182750164363],[-0.332422118670333,44.69187494516015],[-0.33242224476833,44.69187494136183],[-0.332211382624633,44.69182749784556]]],[[[-0.333551194499735,44.692148020096],[-0.333756310594331,44.692143190989306],[-0.333991660082968,44.69213907235174],[-0.334034432344722,44.69213607129459],[-0.334132368194778,44.69213879667716],[-0.334225531829741,44.69214626134648],[-0.334196002787097,44.69229393849376],[-0.334299901088828,44.69229495219259],[-0.334452681328098,44.69229800674487],[-0.334456775101032,44.69224769275965],[-0.334460730335088,44.69217584694927],[-0.334460179763909,44.69217081745124],[-0.334460639756601,44.692155124657276],[-0.334616927269324,44.692149152490614],[-0.334831898479169,44.692142222162765],[-0.334819965911561,44.692237196101985],[-0.334837852394787,44.69223845911768],[-0.334948158637232,44.69224955145228],[-0.334962919305188,44.69225135921827],[-0.334921338604358,44.692455717927004],[-0.335225026693837,44.692489905430136],[-0.335396442049893,44.69250897693265],[-0.335554167696665,44.69252512688954],[-0.335629310625985,44.692533313941695],[-0.335622267671356,44.69257434560421],[-0.335594544384675,44.692703406381234],[-0.335748173452893,44.69272715862972],[-0.335975960290507,44.69276165025145],[-0.335878165463364,44.69283380269171],[-0.335863254967603,44.69288489347342],[-0.335842551626572,44.692964002566065],[-0.335839940991875,44.692971109775556],[-0.335822615335502,44.69303687101414],[-0.335820601540984,44.69304765469159],[-0.33580745451566,44.69309652968107],[-0.335803845726926,44.69310384720372],[-0.335804675279992,44.69310931883333],[-0.335819013608129,44.6931892636351],[-0.335817171899052,44.69319229275956],[-0.335830609428207,44.6932570363211],[-0.335818009409653,44.693306615692244],[-0.335810052266532,44.69336632748565],[-0.335803828388896,44.69341904863328],[-0.335799660499744,44.69344251250663],[-0.335630965179873,44.693437416509646],[-0.335350867247324,44.69342621739757],[-0.335069583022304,44.693416314865075],[-0.335056966142224,44.69361700720789],[-0.335053066928402,44.69371750603008],[-0.33538486261355,44.693720659541874],[-0.335387585494161,44.69362163789606],[-0.33561496127634,44.6936256859599],[-0.335775275812556,44.693630043492455],[-0.335918927291218,44.693638868021374],[-0.33595371163676,44.69383146323756],[-0.336415709329199,44.693880788220035],[-0.336383470484053,44.69400611078287],[-0.33638335940005,44.69402981278555],[-0.336387285011389,44.6940427601997],[-0.33650580430102,44.69425202334905],[-0.336524440210891,44.69428083685475],[-0.336540813470457,44.69431197131901],[-0.336609857246604,44.69453263845876],[-0.336621621824646,44.69456913822837],[-0.33662677359537,44.69459637598758],[-0.336627964065157,44.694654820811465],[-0.336611882094217,44.69546403401747],[-0.336611372339365,44.695463959281604],[-0.33655892462805,44.695461486077],[-0.336081421793525,44.695577077687695],[-0.336081295687487,44.69557708149018],[-0.335547910624929,44.695645066145524],[-0.335271812934065,44.69568024211025],[-0.335271434615094,44.69568025351492],[-0.335152795204595,44.695684280459616],[-0.335017509737747,44.695688809046004],[-0.334975269435424,44.69569017241155],[-0.334972873414467,44.69569024463472],[-0.333848360801638,44.69557446419208],[-0.333846575827454,44.69556992242579],[-0.333320670222084,44.69541438116722],[-0.333319179990514,44.69541694911278],[-0.333235847925406,44.695626800171524],[-0.332321459848606,44.6955456731835],[-0.332308328810118,44.69559274503592],[-0.332292249652817,44.69558575029074],[-0.332249773876702,44.695568196861124],[-0.33202586059146,44.695452032155536],[-0.331987398534875,44.69540624381317],[-0.331726587628029,44.69517251651364],[-0.331500125230388,44.69514770776545],[-0.331450260707569,44.6951419104571],[-0.331454919691527,44.69533802702384],[-0.331427993116988,44.69560880364617],[-0.331392277548079,44.69595094074045],[-0.33136068686746,44.69595081063933],[-0.330616324211543,44.69575840177576],[-0.330615683032862,44.695758240860044],[-0.330615167960998,44.69575807614804],[-0.330753260780744,44.69544872072719],[-0.330751989074648,44.695448578794334],[-0.330751479327713,44.695448504031475],[-0.329855755536255,44.69535174684054],[-0.32983718975709,44.69534969245847],[-0.329819007618116,44.69534771663578],[-0.32972515961039,44.69554445495554],[-0.329723816601301,44.695547378851735],[-0.329722567773307,44.695549759261446],[-0.329424954411979,44.695483925500405],[-0.328503351559542,44.69525926109565],[-0.32832427773114,44.69521544902706],[-0.328049002890472,44.695147047383614],[-0.327809875417689,44.69508746976886],[-0.327719427409163,44.69506189617895],[-0.327716967594282,44.69506088886161],[-0.327696369117339,44.695052227231095],[-0.327706004806224,44.695035717872635],[-0.327489911461875,44.694957605288664],[-0.327429519376491,44.69493184838698],[-0.327429261848996,44.6949317660236],[-0.327343335091004,44.69490146062791],[-0.32718723666551,44.69483596052693],[-0.32701541311429,44.694741647827755],[-0.327008227478232,44.69473762880961],[-0.327001178580837,44.69473378589618],[-0.326869073750904,44.6948455281655],[-0.326858239972387,44.69485459446334],[-0.326847416822793,44.694863840657455],[-0.326647754708611,44.69474522422876],[-0.326503039513117,44.69465000556271],[-0.325793046430388,44.694226214793964],[-0.32566221015286,44.69414562602807],[-0.325525574509704,44.694058813742366],[-0.325240599054833,44.6938153460441],[-0.325204313264165,44.693784898698965],[-0.325184013422115,44.693693598254974],[-0.325181122270336,44.69369170276502],[-0.325828990461995,44.69328016719581],[-0.325739026610445,44.693226373633266],[-0.325289803240072,44.69295675614832],[-0.325283447525809,44.692951811002914],[-0.325437835748096,44.692770377851694],[-0.325515628820675,44.69268018383481],[-0.32568536341825,44.692514778846856],[-0.32583354989771,44.692373809973375],[-0.326035608451727,44.69251605392476],[-0.326199505843838,44.69261105665736],[-0.326225249007123,44.6925913599157],[-0.326286157449576,44.692623769857846],[-0.326379742574255,44.69268754621358],[-0.326389094702158,44.692679065158735],[-0.326571996798345,44.692787823206025],[-0.326775954890528,44.6926222884842],[-0.32692699560844,44.69250186707215],[-0.327069493189381,44.69259598024458],[-0.327207507127353,44.69268689408047],[-0.327348604093704,44.69278294132845],[-0.327829918044788,44.69237937608758],[-0.328061214559354,44.69218490267299],[-0.328097979854563,44.69215721468115],[-0.327882035985078,44.692060085877536],[-0.32835160297813,44.69202631632802],[-0.328482101299752,44.69201788478963],[-0.328560435109221,44.69201597854225],[-0.330793583986922,44.69207167566289],[-0.33086367512479,44.69207136757683],[-0.331172959342116,44.69209134062208],[-0.331404119547077,44.6921124939373],[-0.33190771003927,44.69215842207759],[-0.332000301484428,44.69216689703989],[-0.332080812419832,44.69217402370979],[-0.332123145994087,44.69217428052007],[-0.332739313221877,44.69217148947624],[-0.332663205868867,44.692471321113075],[-0.332739444645876,44.692171575625856],[-0.333221283399993,44.692157329705374],[-0.333221278073864,44.692157239757115],[-0.333340325773231,44.69215383312737],[-0.333551194499735,44.692148020096]],[[-0.332638347138961,44.69256353029429],[-0.332638352464197,44.692563620242595],[-0.332663205868867,44.692471321113075],[-0.332638347138961,44.69256353029429]],[[-0.332698916967085,44.692920879084966],[-0.332699043067405,44.69292087528634],[-0.332703295308101,44.69290948360102],[-0.33270317453318,44.692909577347955],[-0.332698916967085,44.692920879084966]],[[-0.332551398742663,44.69256930325225],[-0.332551524842205,44.69256929945379],[-0.332554754233974,44.69255343315109],[-0.332554628134468,44.692553436949545],[-0.332551398742663,44.69256930325225]]],[[[-0.332618596394168,44.68917225509878],[-0.33258665317976,44.68925999196995],[-0.332549853624423,44.68931904037243],[-0.332479813421457,44.68943324536892],[-0.332380315378833,44.689542750937896],[-0.332267738355146,44.6896639139466],[-0.332254236939764,44.68967909844115],[-0.332247233791931,44.68969309600237],[-0.332205930742819,44.68977210382477],[-0.332079546606933,44.689975861555006],[-0.331999899632963,44.69010279056233],[-0.331904861787797,44.69022793033654],[-0.331862590613827,44.69029273001879],[-0.331777944847016,44.6904248554863],[-0.331720180720766,44.69050535006062],[-0.331604090376267,44.6906739251613],[-0.331290603372104,44.69058280422406],[-0.331324400439879,44.69051780941483],[-0.331151351492026,44.69046886498695],[-0.331030884004831,44.69068731116928],[-0.330905634355306,44.690656300444886],[-0.330829203704618,44.690809893939345],[-0.330793883314525,44.69088331454279],[-0.330807121331918,44.69088715107923],[-0.330879431601618,44.690905158275406],[-0.3308992745194,44.6909096069151],[-0.330982682935518,44.69092944250163],[-0.33111590022344,44.690962736292526],[-0.33107895315193,44.69103854880297],[-0.331248621207408,44.69107516022267],[-0.331270419533579,44.69108063122136],[-0.33088847336762,44.69177100982487],[-0.330766922466197,44.69198615431161],[-0.330253988048156,44.6919765457649],[-0.328785852582834,44.69194431808149],[-0.32873307404978,44.69192977669545],[-0.328726833609598,44.69192464805859],[-0.328592276682232,44.69192211865927],[-0.328535445974864,44.69193518219161],[-0.328404530785077,44.691940832977046],[-0.327818778412089,44.69197512412897],[-0.327804568776592,44.69197194721761],[-0.327520255233379,44.69182515204727],[-0.327302256095048,44.691693212047355],[-0.32709152295855,44.691566639861094],[-0.327033811008621,44.69152845743621],[-0.327028839394212,44.69151914556563],[-0.326986248184067,44.69151024416324],[-0.326970376691937,44.691504594091626],[-0.326828061543919,44.691396418521464],[-0.326731296692193,44.69133652279343],[-0.326635290691187,44.691287327067656],[-0.326425845021446,44.69119531662457],[-0.326198650312314,44.69109365720772],[-0.325889625187065,44.690947511024284],[-0.32549773138303,44.690749970307195],[-0.325382726243129,44.69068918005605],[-0.325270179505767,44.69062723450055],[-0.325225607115529,44.690608299873176],[-0.325131905627457,44.690568134603026],[-0.324902622794816,44.69047167162962],[-0.324712365980592,44.6903964723282],[-0.324677926873201,44.69038227902083],[-0.324651730378702,44.69036648636996],[-0.324626128305625,44.69034364740573],[-0.32460933025971,44.69031802082714],[-0.324592384608875,44.69028347796539],[-0.324589597946112,44.690264098327056],[-0.324599618443132,44.69024127012912],[-0.324612767257494,44.69017302346733],[-0.324624723880459,44.69013806257689],[-0.324625258733825,44.69013642455486],[-0.324647742992058,44.69012358423678],[-0.32465942980438,44.69011827706522],[-0.32467800791724,44.69010987932625],[-0.324714270544906,44.69008437019339],[-0.324753415971436,44.69005634148711],[-0.324784380550466,44.69001170838781],[-0.324817658371769,44.68996132893684],[-0.324818702907232,44.689959765703996],[-0.324836433438603,44.68993274100139],[-0.324915470073363,44.689812323772806],[-0.324945808153122,44.689774197248184],[-0.324979038880957,44.68974868903806],[-0.324980372784657,44.68974774786419],[-0.324981202313378,44.689746821849624],[-0.325001069905185,44.68972604046544],[-0.325010089869844,44.689716217887494],[-0.325012699233934,44.68971334610471],[-0.325016731404025,44.68970889971771],[-0.325023171049874,44.68969816350179],[-0.325031557710175,44.68968403476034],[-0.325056261107535,44.6896424732294],[-0.325082586679013,44.689606990296696],[-0.325150829001548,44.68952411203496],[-0.325219556713651,44.68943662361686],[-0.325297226833127,44.68933372816857],[-0.325335078898584,44.68928167921239],[-0.325347524488402,44.68927211406645],[-0.325385576869515,44.68927691738043],[-0.325389080897082,44.68927636150959],[-0.325399356734168,44.689274971322625],[-0.325404116374579,44.689274287599716],[-0.325731462271842,44.68944421320101],[-0.325874939911889,44.68926644135079],[-0.325686550245202,44.689182176879804],[-0.325779199845489,44.6891211816344],[-0.325975461682991,44.688996608598515],[-0.326037183407143,44.6889551953808],[-0.326112106529457,44.68891915213993],[-0.326264260800101,44.68884978945864],[-0.326355372615153,44.68887822736449],[-0.326593608708782,44.688965947740876],[-0.326689377597268,44.6887739305304],[-0.326814115251484,44.68882631687493],[-0.326832735023241,44.68878016212051],[-0.326826482625707,44.68874917267278],[-0.326834034510625,44.688744440150195],[-0.326848327333595,44.68871697782905],[-0.326972959959508,44.68857094864506],[-0.327179109573193,44.688635123249156],[-0.327388946122868,44.688334247857185],[-0.327472620555202,44.68823044929384],[-0.327322039769916,44.68817037084638],[-0.327445410358358,44.68780000935043],[-0.327525606236772,44.68759890829279],[-0.327610526113958,44.68737730059767],[-0.327676076102868,44.68734514250807],[-0.327822926978502,44.68727377447262],[-0.328031596665689,44.68713278500449],[-0.328032488315577,44.687115817816654],[-0.328150536821413,44.687014498783235],[-0.328198135356128,44.68698423207353],[-0.328424575980959,44.68684261704803],[-0.328651171910902,44.68669937490936],[-0.328802298551583,44.68667473317789],[-0.328792515524901,44.68663745239127],[-0.328904835767056,44.68663154938629],[-0.329008544873165,44.686625274649735],[-0.329222777002638,44.686612609922214],[-0.329479617633546,44.68661560272737],[-0.329591381252622,44.686617374987065],[-0.329627828727364,44.6866206932586],[-0.329706560905584,44.68662778482401],[-0.329775064141288,44.68663491390726],[-0.329797748496281,44.68655502582438],[-0.331004835296645,44.68663717740939],[-0.331203094049868,44.68667049458998],[-0.331316945349816,44.6866883316585],[-0.331301480453158,44.68673222965258],[-0.332554272155836,44.68690354720579],[-0.332404807038488,44.687511056102515],[-0.332234468644377,44.68792816347007],[-0.33218263589387,44.688091739936525],[-0.332113472886737,44.68831251666224],[-0.332182331814021,44.68832134567977],[-0.332540855362704,44.68836686366437],[-0.332722758115148,44.688390488804984],[-0.33271158636231,44.68848769209569],[-0.332671025139294,44.68879897769623],[-0.332657672389413,44.68889561593493],[-0.332648758537668,44.68896481754538],[-0.332640636988472,44.689026065731134],[-0.332630352727842,44.68912973011183],[-0.332618596394168,44.68917225509878]]],[[[-0.331379350498894,44.6910493272765],[-0.33133680994213,44.69111386452697],[-0.331379224402675,44.691049331073614],[-0.331472624876086,44.690937036519045],[-0.331472750972046,44.69093703272182],[-0.331379350498894,44.6910493272765]]],[[[-0.325709283122349,44.69176075383884],[-0.325684834464149,44.6917831147971],[-0.325623990063479,44.691837296774494],[-0.325320794617334,44.69165943572488],[-0.325097941905877,44.69152862864529],[-0.32484381634309,44.691388038130775],[-0.32468204329837,44.69152995458559],[-0.324065109394627,44.69126717495689],[-0.324076765611534,44.69124637015176],[-0.324124359171128,44.691100406463015],[-0.324162280657351,44.690972484703686],[-0.324192116524061,44.69087021641614],[-0.324210237353535,44.69077064295136],[-0.324217314953828,44.690730061785985],[-0.324236101698845,44.69066957528973],[-0.324240443011761,44.69065538795316],[-0.324247201389024,44.69064148842022],[-0.324297964403492,44.690572742299686],[-0.32433925467443,44.69052113104751],[-0.324355923971399,44.69050179751916],[-0.324392485113086,44.690457807338476],[-0.324478491313237,44.69036340251421],[-0.3247213633122,44.69045684479417],[-0.325005172853266,44.690569690977],[-0.325158344671697,44.69063293876866],[-0.325176455000127,44.69064014374214],[-0.325526588432535,44.69082362244307],[-0.325935179286236,44.69101939959265],[-0.326139898515213,44.691116959518205],[-0.326339594372173,44.69121286796131],[-0.326559664016419,44.69130509976316],[-0.326607914594217,44.69133068141585],[-0.326659843888365,44.69136507316064],[-0.326142660307609,44.69175376241809],[-0.325876717545188,44.691609925105375],[-0.325834383860383,44.69164814219219],[-0.325769875162153,44.69170657939755],[-0.325737454808672,44.691735127162765],[-0.325709283122349,44.69176075383884]]],[[[-0.323792055577562,44.69228855627924],[-0.32431512623194,44.69259173345199],[-0.324354758194552,44.69261469160803],[-0.324356329829069,44.69261563557431],[-0.324410121344979,44.69265375697777],[-0.324921644596087,44.69294096889972],[-0.325137351553449,44.69306406178961],[-0.325126135997448,44.693083772176266],[-0.325101947944784,44.69313622135642],[-0.325064880101962,44.69325078186499],[-0.323662833387135,44.69241489564739],[-0.323583668899468,44.692300043039154],[-0.323762464682041,44.69229016615725],[-0.323792055577562,44.69228855627924]]]]}}]}
