{"type": "FeatureCollection","name": "aoc_geojson","features": [{"type":"Feature","properties":{"dt":"Colmar","type_prod":"Vins","categorie":"Vin mousseux \"Crémant\"","type_denom":"appellation","signe":"AOC","id_app":2,"app":"Crémant d'Alsace","id_denom":3,"denom":"Crémant d’Alsace","insee":"68280","cvi":"1B001M 1, 1B001M 3, 1B001M 4, 1B001M 5, 1B001M 6, 1B001M 7, 1B001M00, 1S001M00","nomcom":"RODERN","insee2011":"68280","nomcom2011":"RODERN","id_aire":16,"crinao":null,"grp_name1":null,"grp_name2":null},"geometry":{"type":"MultiPolygon","coordinates":[[[[7.340488007511854,48.223798679183055],[7.340465512518059,48.22383338905767],[7.340435517538961,48.22387855753859],[7.340431273658815,48.223899079286106],[7.340418660692903,48.22395225958259],[7.340380295388395,48.22413488891908],[7.340531213895598,48.22416124026446],[7.340879219695037,48.22422269791621],[7.340975703471082,48.224238164058306],[7.341036144618439,48.22424828708762],[7.341522016354348,48.224285659119374],[7.341537215507376,48.22428681230731],[7.341604885198153,48.224289730445655],[7.341824409046421,48.22438600854686],[7.341957504764509,48.22444482380298],[7.342388782270153,48.22463469044442],[7.342389014167527,48.22463423134519],[7.342826030368711,48.22480532193603],[7.342497762673457,48.22465122764565],[7.342828203816608,48.22480551232229],[7.343078028340585,48.22490121422129],[7.343363089376084,48.22495317557647],[7.343576968883761,48.22497270100152],[7.343820749812823,48.22498031213911],[7.344227897726254,48.224993445718695],[7.344360622641678,48.224992075933955],[7.344362646840262,48.22499209155698],[7.344380938676005,48.22499313057692],[7.344381147177372,48.224994024043404],[7.344816306958856,48.22502631028232],[7.344854412285541,48.22504193938582],[7.344919212754534,48.22506893158263],[7.345117610769459,48.22505442028099],[7.345207751292932,48.224969999891265],[7.345250132404447,48.22497042245286],[7.34567977687454,48.224975063298615],[7.346139549562667,48.22500652876478],[7.346341366271202,48.225038388382146],[7.346456615071859,48.225055682475215],[7.346638514186429,48.225083138418455],[7.346707925659882,48.22508589943532],[7.346829315291026,48.22509098189325],[7.346829427516882,48.22509070741872],[7.346947289583791,48.22509880329597],[7.3473269217539,48.225123302566395],[7.347391327842996,48.22512750910729],[7.347570475204602,48.225137943292424],[7.347948045554593,48.22511781989865],[7.348075762029975,48.22511131367722],[7.348314643411314,48.225097108189466],[7.348335571492282,48.22509904075477],[7.348522856079147,48.22511656313773],[7.348523244613849,48.22511636859748],[7.348523924289989,48.2251164336755],[7.348607622896045,48.225122361990046],[7.348607645132222,48.22512263151354],[7.34863595228193,48.22512573403683],[7.348665237665794,48.225129251089605],[7.349008971681211,48.225143622848755],[7.349314762547814,48.225155786957664],[7.34941033864999,48.225160195745325],[7.34942198314492,48.22516075798406],[7.349422931728484,48.22516081314961],[7.349423066181357,48.225160808195945],[7.349423745859178,48.22516087326879],[7.349714777762466,48.22517231851424],[7.349890332022456,48.22519639873529],[7.349890287536931,48.22519585968882],[7.349908855872249,48.225196977785664],[7.34999199073379,48.22520914378739],[7.349993073771765,48.22520919399405],[7.350038566799425,48.22521463669333],[7.350064356549192,48.22521828221229],[7.350251384583281,48.225229413229826],[7.350272918318334,48.225230512109356],[7.350332843334836,48.225234341502805],[7.350377292418461,48.225236938886106],[7.350414062856256,48.22523963899334],[7.350414018365345,48.22523909994708],[7.350414152818324,48.225239094992304],[7.350413705395386,48.225225504220624],[7.350412599432199,48.22518922891201],[7.350411694785019,48.225178268304155],[7.350410412394025,48.225149659212256],[7.350409869003973,48.22512183391537],[7.350407138030801,48.22504299441785],[7.350406238718435,48.22501085674802],[7.350406449159784,48.22498399492621],[7.350419169245083,48.224984517428574],[7.350567933416845,48.224991200567025],[7.350798708704766,48.2250029713324],[7.350847878280155,48.22500557478846],[7.350847863448441,48.22500539510639],[7.350848132353127,48.22500538519585],[7.350848973564981,48.224997604359054],[7.350856280721487,48.224943987357676],[7.350857634909387,48.224927716865544],[7.350858840779187,48.224909649552465],[7.350863511436218,48.22486820503948],[7.350863496604487,48.22486802535739],[7.350864075357402,48.22486196636539],[7.350872973314429,48.22478350927782],[7.350874535137411,48.22476975433293],[7.350877760671173,48.22474674640563],[7.350882268149689,48.22470332538408],[7.350888325886213,48.22470319223579],[7.351070064423827,48.224700909578246],[7.35107012471344,48.224700006212345],[7.351070796971161,48.2246999814347],[7.351073691923465,48.224604353489745],[7.351073543599752,48.22460255666888],[7.351073606072593,48.22458534251867],[7.351074218302768,48.22457315451127],[7.351074308256893,48.22457261050946],[7.351074286008346,48.22457234098632],[7.351076221987078,48.224532078613876],[7.351089439893867,48.22448635400906],[7.351094979688062,48.22446524328552],[7.351095218925138,48.22446487401021],[7.351120193602159,48.224406370396835],[7.351138177253481,48.22437263556843],[7.351152271858824,48.22434733460477],[7.351130778920364,48.22431568561022],[7.350842203458197,48.22425062552602],[7.350843654683886,48.22424696746429],[7.350847453792907,48.22423907760734],[7.35066824379648,48.224200084520774],[7.350574695835831,48.22417938147528],[7.350428250113227,48.22414684027527],[7.350157286433574,48.224085995715285],[7.350157203885376,48.224086629557696],[7.350157069435309,48.2240866345122],[7.35014104961082,48.22408371038248],[7.350141146988257,48.224083256222336],[7.350103557820579,48.22407716188251],[7.350072227507265,48.22407173804007],[7.349903327256491,48.2240432677589],[7.34973905038219,48.2240152576874],[7.349738639618587,48.22401518270828],[7.349704496351285,48.22400508635866],[7.349644439947869,48.22398657290112],[7.349644215530137,48.22398712185597],[7.349643662903361,48.22398696198926],[7.349634890375436,48.2240048575143],[7.34944214342029,48.22398483483818],[7.349459236033936,48.22393211899645],[7.349458563785242,48.22393214376494],[7.349457182221157,48.223931744095985],[7.349406195780817,48.22392181766447],[7.349382461533849,48.22391692480529],[7.349337397307889,48.22390849232123],[7.349221055283468,48.223886104842286],[7.349220510071961,48.2238860348148],[7.349154473794113,48.22387513080333],[7.349127789112787,48.223870436707756],[7.349088990167363,48.22386438662419],[7.349016672899598,48.22385254245036],[7.348935333744918,48.223839228312784],[7.348706447288975,48.22382576246392],[7.348598446046513,48.223819467928536],[7.348597631937457,48.223819407803596],[7.348454268413686,48.223817659886514],[7.348449547856506,48.223817653543335],[7.348357296360826,48.223815915147426],[7.348322191250178,48.22381540595271],[7.348122464786226,48.223813751217186],[7.3477100328244,48.22378388447937],[7.347566875905734,48.22377482862959],[7.347511128092456,48.22377093417505],[7.347509760297836,48.22377233626113],[7.347452850657,48.22383120405547],[7.347447379465658,48.223836812396776],[7.347432938078099,48.22386446860741],[7.347411766676312,48.22390372704994],[7.347426290666387,48.22387543700205],[7.347267788094396,48.22388307635723],[7.347266003198733,48.22388269151624],[7.347266511359602,48.22388231234611],[7.346961616435234,48.223815501034466],[7.346896919976774,48.22380121222059],[7.346821932384851,48.223784779115846],[7.346145030531459,48.22363533117696],[7.346153747142581,48.223613472984276],[7.346182588134559,48.22354455521004],[7.346181490318968,48.22354432528557],[7.346181482911262,48.223544235444145],[7.346058519104163,48.22352001609167],[7.346037951749906,48.223515907127485],[7.346007085909717,48.223509563991634],[7.34541140790674,48.223416146464196],[7.345408718930655,48.22341624544606],[7.345015100334691,48.22335278529916],[7.34490842456125,48.22333310177121],[7.34483156963238,48.22331853845609],[7.344667269243656,48.22328853985792],[7.344654946722033,48.22328628995383],[7.344651795164986,48.22328568503095],[7.344651249965751,48.22328561498235],[7.34464104159686,48.22328283669744],[7.344512836341608,48.2232473642005],[7.344274892920393,48.223182858213576],[7.344178597184126,48.2231565741843],[7.344023202877252,48.2231135408964],[7.343608986020637,48.22343012401652],[7.343509239008407,48.22350597545861],[7.343509388263922,48.223506150194844],[7.343508633390705,48.22350680876753],[7.34351028379703,48.22350719861228],[7.343574457549678,48.22358062323963],[7.343574188650886,48.22358063313363],[7.34350213549342,48.223607975502844],[7.343488395858399,48.22361307684944],[7.343366625220426,48.22388645722794],[7.343328693581873,48.22397111810467],[7.343351782140508,48.22391908390574],[7.343299802690464,48.22391018267074],[7.343027052876482,48.22387335811813],[7.342970979593688,48.22386550849184],[7.342916080578819,48.223855543019546],[7.342786447727208,48.223801107139025],[7.342663780949962,48.223780477923015],[7.342729027604303,48.223677059998664],[7.342553407793547,48.22367171552387],[7.34211656574166,48.223658136834246],[7.341673202477949,48.223645607402204],[7.341643005684866,48.22363428227517],[7.341642990884884,48.22363410259179],[7.341086006209434,48.223296473762616],[7.341012335418493,48.22325178300395],[7.340985273772388,48.22327197238658],[7.340945179002617,48.22330093149477],[7.340816090184878,48.22342336697964],[7.340748488929682,48.223486769676725],[7.340629479088634,48.2236137004432],[7.340544859519082,48.22369971651387],[7.3405036242978,48.22377215221477],[7.340488007511854,48.223798679183055]]],[[[7.345211689656749,48.22513719660519],[7.345210770703125,48.22513750077135],[7.345212074208388,48.22515331285363],[7.34521252427667,48.225171859767855],[7.345212508323943,48.22517330217872],[7.345216924747025,48.2252448703486],[7.345216932153328,48.22524496018997],[7.345216969184847,48.22524540939683],[7.345355182905433,48.225289344051006],[7.345612724228249,48.22537223092409],[7.346178715243029,48.225645076712254],[7.34620908336898,48.225594666335084],[7.346667847657768,48.22566779975442],[7.346682982063968,48.22569923299966],[7.346686822813374,48.22570819310347],[7.346590070973103,48.22574023144457],[7.346590526197932,48.22574084548206],[7.34659026469741,48.22574094522417],[7.346731448059337,48.225948416087014],[7.346878311397952,48.22593039257661],[7.346976919017649,48.22591594802989],[7.346996124943319,48.22591334843788],[7.347014590822152,48.22591158711913],[7.347314869316012,48.22587322530087],[7.347358204060955,48.22586721391727],[7.34737194176123,48.22586535631448],[7.347385664640369,48.22586331902772],[7.347553781990849,48.225839735926904],[7.347574706130761,48.22583671250612],[7.347662771912726,48.225825268903925],[7.347779978332037,48.22581067940423],[7.34778793122002,48.225848234432256],[7.347788596083145,48.22584811983213],[7.347788603493912,48.22584820967329],[7.347964749787363,48.22582550176686],[7.348007419556772,48.2258196047461],[7.348072163167489,48.225811542995864],[7.348200836190472,48.22579535926126],[7.348384248340566,48.22581005080843],[7.348424701233644,48.22581324670481],[7.348492505638785,48.22581940012915],[7.348520230864911,48.22582198344225],[7.348797176695551,48.22581304344145],[7.34880086647298,48.22582507293237],[7.348799925290612,48.225825107602965],[7.348900956198712,48.22600512863922],[7.348987713808115,48.226160894008665],[7.349000101077245,48.226180262792205],[7.349039916778226,48.22617573214481],[7.349093432105144,48.22617051656865],[7.349093349540904,48.226171150409385],[7.349091827339995,48.22618048824507],[7.349095237337698,48.226221815135695],[7.349097246273627,48.22624616206414],[7.349101618205714,48.22631385696278],[7.349103017234887,48.22633408110747],[7.349103074767402,48.22634948850781],[7.349103816075085,48.226358472613434],[7.349104929866023,48.22640466014013],[7.348892206528965,48.2264106942741],[7.348787368849993,48.22641338471563],[7.34877661235993,48.22641378094919],[7.348603153254652,48.22641350202893],[7.348541372211328,48.2264133446474],[7.348540147281744,48.226413209539025],[7.348430329372303,48.226412748886],[7.348164106067197,48.22641111008761],[7.348161268714032,48.22640941230968],[7.348159282566925,48.22640822386508],[7.348156385922298,48.22640580735812],[7.348015560533407,48.226407119163326],[7.347907601737417,48.226407941264725],[7.347824269596117,48.22640974870085],[7.347666068628239,48.22641296160202],[7.34747648647466,48.226406876697155],[7.347472833925486,48.22640674086236],[7.347413668988628,48.22640396335887],[7.347381147547625,48.22640209708199],[7.347253869489973,48.22639597032014],[7.347221041019284,48.22639528678794],[7.347193015924455,48.226393975800846],[7.347183709885201,48.22639233597025],[7.347175143895648,48.2263898578618],[7.347141421937351,48.226384881735434],[7.347125281945415,48.226382141835],[7.347028048238784,48.226362562895446],[7.347026270670531,48.226362267892696],[7.347024426416459,48.22636116431925],[7.346589638999308,48.22622397938454],[7.346367797861787,48.226215926454366],[7.346204207694881,48.22624700081805],[7.346197539696617,48.226221744044885],[7.346190190160084,48.22618822187599],[7.346002967197072,48.22622872682259],[7.345667264226305,48.22630037962951],[7.345662231122555,48.226427445317405],[7.345654489227837,48.22659363003068],[7.345651288054406,48.22668566405913],[7.345637046880359,48.22697094820545],[7.345637853627405,48.22697091850941],[7.345641408789414,48.22697150855638],[7.345642230351009,48.226971658542794],[7.345632816367284,48.22701778292458],[7.34557972818739,48.227008562941535],[7.34557904108334,48.22700840800542],[7.345379729828447,48.2269726698677],[7.345322133421246,48.226969292882096],[7.345320908487,48.226969157740406],[7.345180091212917,48.226967311824296],[7.345159288416071,48.226966906004215],[7.345135131579023,48.226966713740985],[7.345117577990962,48.226966458666865],[7.344841102915618,48.22697627360466],[7.344840430625971,48.226976298346834],[7.344747922409905,48.22698132492396],[7.344662455515762,48.22698996719301],[7.344657771703194,48.226990409904865],[7.344594857857102,48.226996149523046],[7.344581859863468,48.226997168541004],[7.344474737766866,48.22700651748123],[7.344466670284363,48.22700681436195],[7.344390017541195,48.22702585561637],[7.344250009611478,48.22706164637361],[7.34423830940746,48.22706532101111],[7.344210919676588,48.227073357762066],[7.344117730722081,48.22708976322408],[7.344115071175086,48.227090221541545],[7.344092763558973,48.22709446670769],[7.344019162199227,48.22710798860385],[7.344019214030901,48.22710861749313],[7.344018683602052,48.22710872712445],[7.344075625585614,48.227572159631144],[7.344073496447341,48.22757250831598],[7.343886416759525,48.22759191774163],[7.343648919589049,48.22761651605767],[7.343648232482755,48.22761636111039],[7.343467959048281,48.22757271018355],[7.343443320705387,48.22756667788793],[7.343439175864391,48.22756547867307],[7.34303781838808,48.227473909975785],[7.343033546507121,48.22747280553438],[7.342958139135714,48.22745296099453],[7.342891558082695,48.227437117181275],[7.342851048697583,48.22742833439036],[7.342798381202324,48.227416033822735],[7.342798313365488,48.22741684734131],[7.342797491805049,48.22741669733516],[7.342774244624385,48.227587957452464],[7.342774252026858,48.227588047293835],[7.342691462991048,48.22758009877968],[7.342598874450032,48.22757106884907],[7.342386216042766,48.227592678339654],[7.342290446181376,48.22760232859303],[7.342239499500451,48.22760600471129],[7.342176830138922,48.227613085715326],[7.342224959849251,48.22815145655057],[7.342224921609096,48.22815262943388],[7.342224800737354,48.22817408091707],[7.342224253053745,48.22820672218448],[7.342230495064063,48.22824974713254],[7.342426562600374,48.22837049697341],[7.342442901486174,48.228357640556034],[7.342328640145863,48.22844898304811],[7.34232865494953,48.228449162730804],[7.342327899990851,48.228449821293665],[7.342365796293477,48.22851691377455],[7.34206355342773,48.228716637784245],[7.342072831023207,48.2288832769868],[7.342073729054551,48.228900725987266],[7.342073847421082,48.228931630580284],[7.342074537703791,48.22921176817732],[7.342075082960846,48.229211838237525],[7.342075134771415,48.22921246712675],[7.342679729135187,48.22924970490527],[7.34297791868819,48.22926757261097],[7.343052774465112,48.22926923455544],[7.343254274456047,48.229274167566274],[7.343741716703556,48.229282547850545],[7.343974852850271,48.229286766248485],[7.344332799601647,48.22930964094182],[7.34469612522134,48.22933231662035],[7.344701503779225,48.22933211868981],[7.344755733721358,48.2293355298394],[7.344780085354669,48.22933643596061],[7.345128779876672,48.22934523056119],[7.345238901277334,48.22934766583684],[7.345341910913928,48.22935054298908],[7.345342583233596,48.2293505182441],[7.34547850866145,48.229360023689594],[7.345505108037429,48.2293620184092],[7.345531558136631,48.22936383838984],[7.345744585121236,48.22937933677908],[7.34574507112263,48.22937868809374],[7.345760270711787,48.2293814628232],[7.345996734455698,48.229435838247866],[7.346266359138058,48.22949980611518],[7.346312494847798,48.229509732384145],[7.34637313458438,48.22952381060175],[7.346463918676609,48.229577961033996],[7.346777147569861,48.22977486238432],[7.346781926844695,48.22977720961054],[7.346914396828351,48.22983964735472],[7.346942908450968,48.229853376262035],[7.347092088884624,48.229961426939695],[7.347092783441735,48.229961671707635],[7.34709228263122,48.22996214071636],[7.347109653971366,48.22996834975455],[7.347117181867095,48.229971316674394],[7.347475663249685,48.23009869439801],[7.34771122135866,48.23017472721358],[7.347716748216159,48.230176325963974],[7.347774854353663,48.230194011236435],[7.347971873426903,48.23026064910679],[7.347975253115309,48.23027872763676],[7.347981051111193,48.23031140566152],[7.347981267106269,48.23031238895915],[7.347985499150371,48.230340799188866],[7.347988094286269,48.23035917695206],[7.3479883907559,48.230362770587],[7.34799440048869,48.23038003134807],[7.34799797075967,48.23039224545923],[7.347794859796945,48.23044469207505],[7.34778230782214,48.2304478577201],[7.347782442288643,48.23044785276833],[7.347782449700045,48.2304479426092],[7.348011509755948,48.23047951771933],[7.34890915798286,48.23059622566597],[7.349202786692905,48.230540713070454],[7.349269869376788,48.23052823926531],[7.349299193545562,48.2305223829855],[7.349393187348502,48.230504231827275],[7.349479268800643,48.23048826447245],[7.349506254086031,48.23048348555614],[7.34956885374142,48.23047225809675],[7.349610855762958,48.230464763197666],[7.349621293242918,48.230462125824054],[7.349625790953882,48.230461058985085],[7.349997847563203,48.23039328311623],[7.35046807313762,48.23030566821404],[7.350493483114654,48.23028670910207],[7.350515028691319,48.2302715870552],[7.350516545872425,48.23027035966729],[7.350604199162861,48.23019828263612],[7.350693331333286,48.23012615103038],[7.350719371264701,48.23009031732655],[7.350755016895163,48.230043406068994],[7.350753889258794,48.230042816825176],[7.350663975080458,48.229999270912096],[7.35060681659107,48.22989504265229],[7.350631504176026,48.22983465766459],[7.350667374387956,48.22981170847787],[7.350667240895894,48.22981009134455],[7.35080473589297,48.22988432489278],[7.350805102204962,48.22988386082352],[7.350805527848716,48.22988411548007],[7.350951636581347,48.22974410069698],[7.350985024297266,48.22971232160016],[7.351298212750117,48.22942331797862],[7.35129807086931,48.22942323309367],[7.351298825729941,48.22942257447396],[7.351316612209077,48.229409302962914],[7.351317112976787,48.22940883393611],[7.351317680499981,48.22940917347584],[7.351426951492304,48.22930818334969],[7.351462056997242,48.2292759803185],[7.351676661095986,48.22916353798791],[7.351757798349563,48.22908935712768],[7.351892650099896,48.228966607210026],[7.351876592606592,48.228948545477074],[7.351818006403644,48.228882578711755],[7.351731710305212,48.22878483175497],[7.351694570420826,48.22874501855436],[7.351649696809955,48.22869647898742],[7.351649248918484,48.22869595481145],[7.351601590674272,48.22864472432854],[7.351592557744471,48.228634964486886],[7.351553888962492,48.22859133269021],[7.351445687092481,48.22847655035249],[7.351420402286278,48.22844963701613],[7.351419790268851,48.228448758431995],[7.351305268785531,48.22830969784927],[7.351304977612787,48.22830943823843],[7.351199325873798,48.22820429403381],[7.351192860763211,48.228197863863],[7.351171645201192,48.228174495182955],[7.351091351908001,48.228085718203545],[7.351082245961169,48.22807343782048],[7.351081334406934,48.228073831872486],[7.351081185113419,48.22807365714636],[7.351011691871349,48.228100999693936],[7.350985563729815,48.228111244386206],[7.350985175182133,48.22811143893412],[7.350984786634451,48.22811163348204],[7.350951101638631,48.22812999659888],[7.350711928691863,48.228260104427584],[7.350779030071581,48.228223388234106],[7.350769221575887,48.228199328768426],[7.350911328464081,48.228123622456074],[7.350935986908302,48.22811027794953],[7.350964239646674,48.228094728347585],[7.350965510083804,48.22809378038531],[7.351044468006879,48.22804058673904],[7.351069440758769,48.22802614924746],[7.351101728171252,48.228008828855735],[7.351102370804266,48.22800844471465],[7.351102169593878,48.22800764110277],[7.351178205505446,48.227994205284006],[7.351205781822068,48.22809952365804],[7.351236382337518,48.228143452926325],[7.351257267750263,48.22816935696076],[7.351259999551054,48.228173041071464],[7.351321240203247,48.228231971465604],[7.351371804967011,48.22828084207189],[7.351380911017038,48.228293122430856],[7.351383600230468,48.228293023313434],[7.351392259349979,48.228303157404206],[7.351391340376844,48.22830346161775],[7.35145719543496,48.22837907322169],[7.351503036655125,48.22843280381345],[7.351703632871299,48.22866529393516],[7.351931783409974,48.228930921318536],[7.351932418629919,48.22893044733248],[7.351932567928675,48.22893062205742],[7.351966600610455,48.22898343605234],[7.351970666019954,48.22898040254042],[7.351907198616881,48.229036630319186],[7.351788126282849,48.2291414065809],[7.351782248710497,48.229164962792126],[7.351772937166538,48.22919756687865],[7.351774109304372,48.22919869515738],[7.351785677459513,48.229242424681146],[7.35178553557841,48.229242339796784],[7.351647732461509,48.229326088788866],[7.351562281282287,48.2292647166861],[7.351546481537865,48.22925304351531],[7.351546354492408,48.22925313831207],[7.351545361327191,48.229252544119404],[7.351485633342614,48.22928709653133],[7.351485252205663,48.22928738092143],[7.35148460955986,48.229287765064235],[7.351421881292085,48.22934315426786],[7.351317784888336,48.22943494225976],[7.351264554137678,48.22948448436112],[7.35107308918276,48.22966158600016],[7.350906809081668,48.2298186549665],[7.350784627073492,48.229933186820716],[7.350792495026032,48.22995497481456],[7.350806804718502,48.229997612103865],[7.350794377144137,48.230043127087534],[7.350794762800856,48.23004779880484],[7.350792172483926,48.23005726611929],[7.350791745870115,48.23005863355081],[7.350743833904325,48.23011870291928],[7.350726789649871,48.23013933632109],[7.350682642322108,48.23017475591733],[7.350625394012577,48.23021975977474],[7.350527399723676,48.23029564220475],[7.350527526773475,48.230295547409135],[7.350526644840921,48.23029630081912],[7.350617488321415,48.23028574420091],[7.350729697963131,48.23027259788106],[7.350787573067327,48.23026622978583],[7.350852948572227,48.23025922480498],[7.350891945564807,48.23025454359675],[7.350967563647651,48.23024580938289],[7.351194671842795,48.23021941685806],[7.351221372114138,48.230216089867085],[7.351278328089998,48.23021002574308],[7.351405261855525,48.230195525082],[7.351483337235925,48.23018715053507],[7.351691768124569,48.230163247702926],[7.351959660305249,48.23014075727368],[7.351986404999646,48.23013796915351],[7.351987211791545,48.23013793941419],[7.352237899586538,48.23011617263206],[7.352782984032792,48.230069494057965],[7.353007046205424,48.23005032930527],[7.354071781399932,48.22994627564278],[7.354103620695556,48.22994311892279],[7.354134578978227,48.22993909354307],[7.354192147265129,48.22993228449454],[7.354400259881549,48.22991271402131],[7.354474957054842,48.22990590388611],[7.354475472644636,48.2299056145271],[7.354475876038109,48.22990559964894],[7.354548486859299,48.22990292155844],[7.354550369361974,48.22990285212587],[7.354549472647736,48.229903425885105],[7.354586203718037,48.22990234146575],[7.35486209422393,48.229893426953325],[7.354931993450066,48.22989057830224],[7.355013882270673,48.229887557691995],[7.355054490516492,48.22988605976571],[7.355103061853466,48.229884628541704],[7.355163869445355,48.22988274592305],[7.355367283479583,48.22987650373974],[7.355392846550875,48.22987574094188],[7.355434575037521,48.229874742244185],[7.356528184212895,48.22984106166347],[7.356571899907373,48.22983962877687],[7.356671372859405,48.22983721975173],[7.356779750923688,48.22983322042375],[7.356815675114754,48.22983216508348],[7.356903263215583,48.22982956364029],[7.356985211244484,48.229827260386756],[7.356996924471177,48.22982700835191],[7.357015749438371,48.22982631363484],[7.35701615283052,48.22982629874801],[7.357073464221873,48.22982454416588],[7.357086398151775,48.22981784894778],[7.357098225882844,48.22981245615427],[7.357175308692754,48.229767618072465],[7.357237902569428,48.22973187553724],[7.357260311418431,48.229719063290844],[7.357265601608828,48.22971616461604],[7.357290700487539,48.22970163102397],[7.357346076203901,48.22966993962853],[7.357570478107907,48.22952441305724],[7.357632191885918,48.22948455750364],[7.357746226144534,48.22939564086164],[7.357893288906371,48.22928207517403],[7.358010494356967,48.22921520935142],[7.358045164142793,48.229195726445106],[7.358301906522974,48.22905152769675],[7.358394826916884,48.22899925535432],[7.358394819487613,48.228999165514026],[7.358395850606471,48.228998586761406],[7.358522438236686,48.228945702231854],[7.358534459646092,48.22895733378415],[7.358546384476984,48.228967797411265],[7.358550043201129,48.228971266922635],[7.358567674735031,48.22896593004657],[7.358619492893982,48.22895158120472],[7.358726289336975,48.22892195574843],[7.35886091464202,48.2288847243738],[7.358996578296636,48.2288470039272],[7.3589982965733,48.22884658002714],[7.359038197306834,48.22883816799406],[7.35905769563012,48.22883420394925],[7.359058562555647,48.22883327079428],[7.359091082045226,48.22882693356633],[7.35911200141668,48.22881895200016],[7.359272236087673,48.22877500722905],[7.359422325059795,48.228733960073335],[7.359422579119908,48.22873377046279],[7.359423236563131,48.22873356595718],[7.359495279075712,48.22865881401602],[7.359495002722934,48.22865873410597],[7.359495623009458,48.22865808039866],[7.359473545216171,48.228650424863375],[7.359460654940772,48.22862666000365],[7.359535882520425,48.228544761469514],[7.359601431269038,48.228474664849195],[7.359590228566107,48.228469671650636],[7.359331972521862,48.22834764056281],[7.359336234895123,48.22833721010302],[7.359336376785939,48.22833729497839],[7.359351242778883,48.22835233589027],[7.359493232051492,48.22821011853284],[7.359413420237197,48.22818440919208],[7.359302009403931,48.228076690738476],[7.359301613456491,48.22807679547343],[7.359301464135746,48.2280766207577],[7.359259328807909,48.22808899034932],[7.359159220172875,48.22811791886724],[7.359109016493925,48.2281322083782],[7.359088999443503,48.22811032868659],[7.359122700322549,48.22810034322291],[7.359324001267557,48.228040914193464],[7.359378127116508,48.228025128036634],[7.359491384130832,48.227992109210255],[7.359580884243115,48.22796537443088],[7.359584598475582,48.22796136234204],[7.359598386460943,48.227947065638034],[7.359794533694841,48.227743822732144],[7.359845956080416,48.22769046821626],[7.359933764087534,48.22760089553077],[7.35998246662056,48.22754890299198],[7.359992652381783,48.22753834385384],[7.360064916779649,48.22746304252954],[7.36018949184041,48.2273337228354],[7.360196964715903,48.227326237657564],[7.360211910460525,48.22731126730037],[7.360345414357621,48.22715620525557],[7.360349352794796,48.227151644166476],[7.360349345362457,48.22715155432618],[7.360349719003859,48.227151180066734],[7.360042091243296,48.22685615138104],[7.359852635909069,48.226913612467136],[7.359730301427136,48.22686946826815],[7.359646237218215,48.22676623722363],[7.359820300684687,48.226718356356834],[7.360148413779759,48.22660891461475],[7.360177937945974,48.22659899294058],[7.3601992069327,48.22659198948153],[7.360409095224957,48.22652232848854],[7.360432434013385,48.226351239492914],[7.360440607254239,48.22629353443894],[7.360461814853788,48.22612766066797],[7.360664637040302,48.226161712009834],[7.360664905949035,48.22616170207695],[7.361108749982938,48.226156841353166],[7.361309278869817,48.226155020468035],[7.361290845385334,48.22617020996247],[7.361842987515101,48.22619306603592],[7.361916968727025,48.22610922910245],[7.361990993007874,48.22604873029812],[7.361970756254339,48.226014423297975],[7.361852553845822,48.22581323841885],[7.361798502972066,48.22572070486049],[7.361731015849827,48.22560595873251],[7.361685616706327,48.22552833490103],[7.361669834339013,48.225526665134055],[7.361590183346226,48.22551753254211],[7.361306660800707,48.22550728079725],[7.361195987213632,48.22550298874076],[7.361166221795162,48.22550183547853],[7.361132908575315,48.225500182467734],[7.360732252865109,48.225482541506814],[7.360702524631832,48.22548183732968],[7.360615335095234,48.2254777586431],[7.36016381408649,48.225456587715186],[7.360022740913315,48.22544999297537],[7.359435278845474,48.225422305185326],[7.359245009693427,48.225352463292666],[7.359243815190678,48.22535106556356],[7.359179657730414,48.22532216478875],[7.359139540027641,48.22530346043182],[7.358935066970437,48.22521188418376],[7.358732984315432,48.22512148095126],[7.358673875697492,48.2250949167191],[7.358603874648843,48.225106242388144],[7.3586033888449,48.225106891128306],[7.35860272401461,48.225107005789326],[7.358527119670145,48.22520387702446],[7.358510281359805,48.22522531522071],[7.358496253138529,48.225243225302435],[7.35838829530547,48.22537940946847],[7.358366598644828,48.22537471348257],[7.358366105406784,48.22537527238109],[7.358365970954205,48.225375277344924],[7.358347353451991,48.2253996648699],[7.358314580572709,48.225442057253495],[7.358272312622701,48.22543812070532],[7.358308418610053,48.225392000690235],[7.358327820557001,48.225367313866954],[7.358327678675793,48.225367228990194],[7.358327925294982,48.22536694954101],[7.35824535057727,48.22535017279143],[7.358237269308391,48.225348668837974],[7.358221218939151,48.22534538644407],[7.358210157431063,48.225343722167636],[7.358192777396771,48.22534066908745],[7.358146903089557,48.225333891846695],[7.358206499548611,48.22520814433121],[7.358203231048024,48.22516861448557],[7.35819946486945,48.22513937609921],[7.358196565574631,48.225109204561036],[7.358192283898955,48.22509656632809],[7.358166908112569,48.22503595472652],[7.358144606943969,48.224981537649285],[7.35808145191683,48.2249027658149],[7.358080899254904,48.22490260598775],[7.358080742519027,48.22490234142951],[7.358034909477458,48.22488790287597],[7.357712151383121,48.224771674250846],[7.357712061497092,48.22477221825762],[7.357711927045991,48.224772223220704],[7.357695198714604,48.2247656315405],[7.357693809638829,48.22476514212745],[7.357632085679812,48.224742819223415],[7.357497655979651,48.224702363503404],[7.357089073329759,48.224578937972716],[7.357048988606461,48.22468134596489],[7.357045436239389,48.22469057866636],[7.357008440185926,48.22478467219183],[7.35693491059858,48.2247712554379],[7.356891196373819,48.22476286605823],[7.356861766015463,48.224842442168324],[7.356858004110568,48.22485240351267],[7.356746891419693,48.22483298428306],[7.356546539962336,48.22480262010625],[7.356533524521582,48.22484094860459],[7.356243422481785,48.22482281736189],[7.356146809541449,48.22481565880551],[7.356147477589305,48.22480905578184],[7.356156959870758,48.22472634105086],[7.356165625581845,48.22464843252444],[7.356180260888062,48.224522002224745],[7.356179991986841,48.22452201214744],[7.356180067038501,48.22452128846028],[7.356040625927923,48.224513187013244],[7.356025738628297,48.22471000615718],[7.356017757535392,48.22480762451582],[7.355896257117202,48.224799581790485],[7.355863396604102,48.225028604158986],[7.355856814798787,48.225105624700504],[7.355862076905866,48.22503874569477],[7.355851023773958,48.22503554894403],[7.355729224255755,48.22502715660732],[7.355680241658389,48.225023557012825],[7.355667768143273,48.22502275563308],[7.355620376705388,48.22501882696246],[7.355556184514558,48.22498947501004],[7.355548463012392,48.2249857948521],[7.355542556199896,48.22498285877229],[7.355519265497665,48.22497029100158],[7.355518671593195,48.2249631037423],[7.35535617478659,48.22488979805985],[7.355381930913119,48.22490119352614],[7.355616432194019,48.225005365186696],[7.355616499830119,48.225004551659396],[7.355616657374242,48.225003194127],[7.355618084335472,48.22498782198837],[7.355646026585141,48.22479718980158],[7.355657131307422,48.22471288332771],[7.355390155039166,48.22469551883206],[7.355308597653663,48.22469429239603],[7.355294316140054,48.2246944588293],[7.355219696589749,48.22469558969737],[7.355168528419639,48.224701442456194],[7.355129655515794,48.224705940452104],[7.355133803645247,48.22471533957118],[7.355090625779865,48.22472486256161],[7.35508760658342,48.224756874522775],[7.355075229639621,48.2247572410105],[7.355075116620428,48.22475913758709],[7.355074741284644,48.22476275601879],[7.355076106793337,48.22482335278593],[7.355076235168156,48.22486407985902],[7.355077452546657,48.22487881374608],[7.3550774368637,48.224880256158556],[7.354841098197113,48.22487951271417],[7.354808038781425,48.22487929041248],[7.354752127466609,48.22488486737854],[7.354746495341432,48.224885255368115],[7.354735470304337,48.2248856620639],[7.354727403203914,48.224885959645526],[7.354688093054925,48.22488353479463],[7.354662048241052,48.22488170197875],[7.354653779888263,48.22488119594776],[7.354651606394602,48.22488100577902],[7.354651650928502,48.22488154482383],[7.354651516476833,48.224881549783426],[7.354652080572985,48.22488837768429],[7.354652229019366,48.22489017450029],[7.354654968480333,48.224936392347686],[7.354655967095845,48.22495500923102],[7.35465580442813,48.22496609932574],[7.354585592555634,48.22496508466893],[7.354548836684085,48.22497725422686],[7.354595207390179,48.22514676145359],[7.35443759267656,48.22516519131334],[7.354436222454709,48.225213903716906],[7.354435985232634,48.225238784084766],[7.354435099719984,48.22530315853911],[7.354431349840032,48.22551569683843],[7.354430521411988,48.22557096760628],[7.354414521451504,48.22557155776773],[7.354277082047314,48.22557302257434],[7.353867304437723,48.22557552004487],[7.353867102320408,48.22557633852953],[7.353866288178242,48.225576278440975],[7.353866323535393,48.22557997183144],[7.353865357475053,48.22558460329962],[7.353867679776411,48.22571067794471],[7.353563813995375,48.22572188423444],[7.353563044374799,48.22572236318868],[7.353562641013051,48.22572237806377],[7.353562924762046,48.22572254782868],[7.353474720767857,48.22578455519268],[7.353474713347417,48.22578446535186],[7.353407054926347,48.225701712092],[7.353400575901191,48.22569348025594],[7.353399656985091,48.22569378448566],[7.353399649564794,48.225693694644825],[7.353385753628991,48.2256985325704],[7.353312426688593,48.22572349484352],[7.35330782468268,48.22572492614777],[7.353213034283115,48.225756176813036],[7.353159901139397,48.22577417644489],[7.353137700478745,48.225776436908056],[7.35311800250528,48.22577797428194],[7.353008046921574,48.22578563330548],[7.352847461995201,48.225768124697204],[7.352784871180591,48.22576142106651],[7.352731691258187,48.22575599247691],[7.352697258905074,48.225752215609496],[7.352680244411474,48.225750319735994],[7.352667053985415,48.22574900378148],[7.352667225534782,48.225749448028495],[7.35264609581192,48.22574671262068],[7.352632502025431,48.22574541153426],[7.352563939592421,48.22573171880848],[7.35256340177629,48.22573173863737],[7.352562849122396,48.22573157878451],[7.352446856047198,48.22572981764371],[7.352446316395486,48.22573308165814],[7.352445471659999,48.22573428428929],[7.352442467474063,48.225763231655975],[7.352313094764317,48.22576439675276],[7.352264542904803,48.22576438442306],[7.352189100215031,48.22576536343609],[7.352179957332507,48.225765700498016],[7.352173615732495,48.225765663944166],[7.352128171153827,48.225765717234246],[7.352046133717329,48.225765227101654],[7.351946340913399,48.22576530133342],[7.351905243375184,48.22576573497448],[7.351877329764167,48.22576577271146],[7.351817192590315,48.225765916928765],[7.351760566060269,48.225766111933325],[7.35169460285056,48.22576593016388],[7.351649651584027,48.22576542439944],[7.351649554216469,48.22576587856028],[7.351648613037026,48.22576591325357],[7.351648603735094,48.22576906759862],[7.351647555886021,48.22577271079777],[7.351640044315112,48.225845079160564],[7.351632208872808,48.2258449174137],[7.351607059424198,48.225844132279896],[7.351575516446912,48.2258426816683],[7.351510078018687,48.22583905610381],[7.351475240440355,48.22583853793444],[7.351473754024831,48.22583850260934],[7.351472670972533,48.22583845241627],[7.351304520612564,48.22583221453343],[7.351283441890684,48.22583172986171],[7.351275987564575,48.22583128370107],[7.351243077810062,48.22582961303543],[7.35118262165034,48.22582589376874],[7.35117724347421,48.225826091994726],[7.351176840111002,48.22582610686167],[7.351143644159681,48.22595493223487],[7.351139326527955,48.22596797771539],[7.351140416999086,48.225968117752466],[7.351092374096237,48.22610496979032],[7.351418014121844,48.22616145425349],[7.351530195873835,48.226180748986216],[7.351636999495336,48.22620024185904],[7.351642377707877,48.226200043612174],[7.351757545434084,48.22622283264124],[7.351894077768394,48.22624303170815],[7.351926940492915,48.22624902942404],[7.35194053439176,48.22625033059116],[7.352165195469139,48.22629251259011],[7.35235669733073,48.226325102939775],[7.352497561497561,48.2263471241401],[7.352618159042272,48.22635889844094],[7.352721786461713,48.22636931579687],[7.352803498556004,48.226378919043285],[7.352914939319702,48.22638922837637],[7.352904830651454,48.22629948671064],[7.352900082149683,48.22624198858383],[7.352899933759171,48.226240191767324],[7.352891902604752,48.2261756055235],[7.353133921803838,48.22616668160225],[7.353137314901381,48.22617673941472],[7.353137649694369,48.226179160158836],[7.353155547177387,48.22623256885739],[7.353169568390309,48.22627170218058],[7.353423266247726,48.2262294552753],[7.353528596277398,48.22621313526204],[7.353528470127336,48.22621160796867],[7.353528739037666,48.226211598052025],[7.353528212175691,48.22620521935608],[7.353527185136653,48.22618462102388],[7.35352648317883,48.22618428645232],[7.353523413911289,48.226114470831604],[7.353521336152851,48.22608931540905],[7.35352074250795,48.226082128145364],[7.353520697984586,48.22608158910059],[7.353519852040896,48.22607134724977],[7.353595146729777,48.226068570571535],[7.353632801477352,48.22632851383221],[7.35365819079117,48.22634199583422],[7.353711806987234,48.22637065746629],[7.353712755597032,48.22637071259735],[7.353712897473513,48.22637079747958],[7.353869141785741,48.22637981407708],[7.353992730030366,48.22638697096943],[7.354069589742796,48.22639170590034],[7.354161595961341,48.22642796289322],[7.354168903832876,48.226451123122075],[7.354181127348276,48.22650113638774],[7.354246190901376,48.22663571064573],[7.354448193439885,48.226633757012486],[7.354527236248285,48.22663552747383],[7.354567235673421,48.22663648516714],[7.354568729535917,48.22663661029401],[7.354605247096291,48.22663949869487],[7.354776617020518,48.22667976661636],[7.354780605324972,48.22668070087203],[7.354786819157488,48.226682454178345],[7.354841208643113,48.22669108138519],[7.354861031409931,48.226694315200426],[7.354908017402989,48.22671943608652],[7.354940486356159,48.22673698216678],[7.355003974999012,48.2267724882225],[7.35509772951924,48.2268249907557],[7.355162487871526,48.22686117080832],[7.355165885571363,48.22686311809883],[7.355177624507355,48.22686971397339],[7.355247617696505,48.226908854873315],[7.355240108723762,48.22691264635377],[7.355336180811812,48.226976868212766],[7.355329778015614,48.226979357286595],[7.355301058636761,48.226990870076484],[7.354994999662101,48.22711273114861],[7.35499114409939,48.22711503612344],[7.354981154621327,48.22711982023289],[7.354905532360351,48.227074578811425],[7.354851138749764,48.2271018173311],[7.354645838888446,48.2271634588632],[7.354457895275704,48.22717399576386],[7.354393504102172,48.227178173059485],[7.354331802069714,48.227182251135424],[7.354221695297442,48.22718811446713],[7.354009418101706,48.22716530464932],[7.35394144718037,48.22715879999221],[7.353729668188306,48.22704405462378],[7.353558322613136,48.22702694368021],[7.353471036050259,48.2270053810408],[7.353265871636689,48.22695437217609],[7.353168674384236,48.226930381225685],[7.353065801246193,48.22690461696754],[7.353096154486742,48.226816537391166],[7.352991184940453,48.226786615001146],[7.352990507039419,48.22678330576522],[7.352973884205576,48.22670777204184],[7.352979726093479,48.226706655495526],[7.352984678723956,48.22670620253836],[7.352970774031951,48.22664561768846],[7.352945782905489,48.226534076418076],[7.35293994845561,48.22653528280366],[7.352936467437678,48.22653559138411],[7.352934166845632,48.226535495982446],[7.352912029537228,48.226517298089924],[7.352893354087734,48.22651978897112],[7.35269944063771,48.22652333411908],[7.352556787131942,48.22649435019228],[7.352493008473968,48.22647327187734],[7.352490616109823,48.22647696465357],[7.352333478653538,48.22643589845191],[7.352128215544878,48.22643265195116],[7.351950010654837,48.22639776876455],[7.351944484064882,48.22639617020788],[7.351942240024187,48.226401659790724],[7.351932818782466,48.22641822766897],[7.35192085677484,48.22643669149364],[7.351906799069243,48.22646244171625],[7.351878535260385,48.226512145337615],[7.351833969564777,48.2265930887425],[7.351827552674483,48.226606842430655],[7.351741887565537,48.226573864386644],[7.351690426244488,48.22655332286666],[7.351580339379544,48.22652674189786],[7.351527462121082,48.22651355175995],[7.351467646987749,48.22649800401113],[7.351363201037908,48.22646950275487],[7.351238284630321,48.22643481710255],[7.351117293438725,48.22640683533844],[7.350996302375469,48.226378853449894],[7.35095566897614,48.22637674643715],[7.35100700671911,48.22621445095742],[7.351082158643302,48.225948547422135],[7.351063186654451,48.225947444376786],[7.351062917745003,48.22594745428783],[7.351063134739955,48.225946815490076],[7.350866679262389,48.22593260876623],[7.350854198189499,48.22593171703793],[7.350770094683044,48.225925805183515],[7.35059367213467,48.225912481774444],[7.350452504498882,48.22590146349345],[7.350452377459528,48.22590155828928],[7.35045183222556,48.22590148826755],[7.35041746037106,48.2259213184457],[7.350346849047264,48.225961227819],[7.350261816353812,48.226009418392046],[7.350206029444336,48.22604103157204],[7.350070672159831,48.22611675895086],[7.350047397046082,48.22612888086443],[7.350031100752783,48.22613732128065],[7.349980419434482,48.22616216787511],[7.34978898795802,48.226261137890305],[7.349703657707988,48.22630573441095],[7.349545700992256,48.226385447782405],[7.349546021801064,48.22638606676202],[7.349545760302932,48.22638616651062],[7.349563920381538,48.226419921049086],[7.3496479153531,48.22657813073859],[7.349699232208331,48.22669825459873],[7.349704617290534,48.22671121285736],[7.349750610886776,48.22691227511038],[7.349753976242005,48.22705110713672],[7.349754379614981,48.22705109227465],[7.349754438929248,48.22705181100242],[7.349800891551776,48.22705415460692],[7.349857980165367,48.2270579085899],[7.34991234256089,48.22706131242457],[7.349919811878385,48.227061938352776],[7.349984944731834,48.22706674759003],[7.350055455904479,48.22707135861686],[7.350245327961893,48.22708418736117],[7.35017212760166,48.227079675537674],[7.350190170688921,48.22713488147034],[7.350118329671169,48.22713049975036],[7.349971085036212,48.22712105642182],[7.349970270874649,48.22712099630648],[7.349789174580999,48.2271099164031],[7.34976489903269,48.22710828763083],[7.349740063411876,48.22710640914671],[7.349727567424268,48.22702035997353],[7.349724048654936,48.226912352639474],[7.349703718159413,48.226824519486506],[7.3496781218868,48.2267120989451],[7.349657371504355,48.22666330068202],[7.349624158028909,48.22658441289939],[7.349548624790123,48.22644048993505],[7.349533718292394,48.226411842145],[7.349524899759452,48.22639486512524],[7.349517734506387,48.22639792265392],[7.349509239519784,48.22640120940171],[7.349426213749698,48.22634299064557],[7.349428754594817,48.22634109475175],[7.349329378870171,48.226150109324244],[7.34932388913571,48.22613751536117],[7.349320638636399,48.22612754232646],[7.349256153823729,48.225960593481524],[7.349199514874672,48.2258135411289],[7.349197023614052,48.2258078656004],[7.349195592146168,48.22580359285547],[7.349197258220838,48.22579109571779],[7.349204235028491,48.225790658458926],[7.349207999754446,48.22579051976361],[7.349224649872394,48.225789636016806],[7.349311411096812,48.22578526813818],[7.349340289154737,48.2257838437627],[7.34939070957868,48.22578198616814],[7.349486830691958,48.22577664251981],[7.349572155028801,48.225897045457614],[7.349639273648721,48.22599784341924],[7.349646766445131,48.226008561285575],[7.349652720927432,48.22601861491602],[7.349586581230466,48.22603754267179],[7.349602614184452,48.226068401811816],[7.349644278760811,48.22614184173283],[7.349688621139542,48.2262215810852],[7.349689271175129,48.226221286792345],[7.349689733854234,48.226221990658715],[7.349690518345374,48.226221691411915],[7.349852338480177,48.22613814077758],[7.349909020412851,48.22610919822633],[7.350017385024755,48.22605447101295],[7.350017071627025,48.2260539418755],[7.350017206082118,48.22605393692118],[7.34996606355743,48.22595390219101],[7.349965735331831,48.22595319337132],[7.349959342348915,48.22593946122827],[7.349956356673934,48.22593596667229],[7.3499649024651,48.22593493087128],[7.349978415668692,48.22593362192028],[7.350052137928722,48.225924867784556],[7.350116664349875,48.22591744371071],[7.350127010938808,48.22591535028458],[7.350138702074155,48.2259132073129],[7.350126167649037,48.22585284207304],[7.350125567054541,48.22584556495009],[7.350120648115767,48.22579086662852],[7.350267203815972,48.225747888531444],[7.35031979911991,48.2257315321116],[7.350292259125336,48.22552204002704],[7.350286550188125,48.225488818004926],[7.350274726482619,48.225414188513504],[7.350273381948227,48.22541423805971],[7.350273188175295,48.225413524286],[7.350251864682164,48.225287519256284],[7.350250781642337,48.22528746905199],[7.350250751982815,48.225287109687784],[7.350207430391717,48.225285101507986],[7.350196674142339,48.2252854978711],[7.350193432437928,48.22528543709774],[7.35007797922575,48.22528203171957],[7.350068815160643,48.225280477001554],[7.350058493911092,48.22527797366614],[7.349908964327007,48.22526365835059],[7.349677725033236,48.22523973748686],[7.349608514379112,48.22523778183067],[7.349568195302341,48.225236203478005],[7.349429775027121,48.2252306699032],[7.349363866413478,48.22522787153332],[7.349296195090698,48.22522495784005],[7.34922583471444,48.22522214317663],[7.348884937440157,48.22520946981113],[7.348867496634113,48.22520894081723],[7.348861678090506,48.22520870459128],[7.348753037763808,48.225204506267694],[7.348661180814443,48.22520104131726],[7.348430827484665,48.22518294282949],[7.348316655570832,48.2251738113536],[7.348316453368951,48.22517462982899],[7.348315639239306,48.22517456970218],[7.348311298737525,48.225187345562965],[7.348308609676617,48.22518744461069],[7.348257369288007,48.22518752968232],[7.348141904803389,48.22519052094569],[7.348097057817973,48.225191271606334],[7.347932175976342,48.225193559585875],[7.347824764885322,48.225194451645685],[7.34782368926045,48.22519449126035],[7.347761692615005,48.22519497226321],[7.347685742485479,48.22519632757356],[7.347571787642652,48.225198001082695],[7.346892298362347,48.225156428566564],[7.346844839686573,48.22515330989923],[7.346808622122005,48.22515076856108],[7.346621298745982,48.22513603844264],[7.346529701643256,48.22512427178337],[7.346480885872807,48.22511777860344],[7.346190098302281,48.22507820085231],[7.34611671069355,48.2250681064487],[7.345687987571414,48.22503702983923],[7.345470352814614,48.22506684867321],[7.345418599817744,48.225073800050914],[7.34521166743791,48.22513692708107],[7.345211689656749,48.22513719660519]]],[[[7.348650081530957,48.2215111790249],[7.348583288535928,48.22152048829756],[7.348569992397981,48.221522780395716],[7.348539934228242,48.22152785272233],[7.3484732301286,48.2215382400294],[7.348403194553416,48.221549110477056],[7.34837294261959,48.221553468982364],[7.348261047371194,48.221570206801445],[7.348114641283973,48.22159362257047],[7.347987604519703,48.22161317071274],[7.347976422383667,48.221614934304284],[7.347976287939693,48.22161493925631],[7.347976153495719,48.221614944208326],[7.347964299139027,48.22161673255882],[7.347697945356406,48.22165736203717],[7.347641332713123,48.2216658452394],[7.347613874337032,48.22166974019984],[7.347589650026558,48.22167360615746],[7.34752679256901,48.221683220443246],[7.347505325956502,48.2216845517312],[7.347483008219734,48.22168537367532],[7.347364845503636,48.221691527728176],[7.347278949379977,48.221696493373095],[7.347195742125499,48.221701359932965],[7.347053379366781,48.221708404875386],[7.347053438638249,48.2217091236072],[7.347052639381381,48.22170924315449],[7.347086009999392,48.221934020951124],[7.347109734528119,48.222097425646844],[7.347110443799966,48.222097850098926],[7.347110473436308,48.222098209464725],[7.347111153071826,48.22209827455101],[7.347112571615582,48.222099123455166],[7.347336653640183,48.22210348727861],[7.347336788085461,48.22210348232731],[7.347425273063151,48.22211518258509],[7.347528351203772,48.22212886852586],[7.347529852331762,48.22212908358353],[7.34762244485523,48.2221415335623],[7.347664050898159,48.22214730046698],[7.347658673083761,48.22214749853335],[7.347662251194806,48.222158180469556],[7.347658439691172,48.22227546946501],[7.347659261185382,48.22227561943788],[7.347659320465742,48.22227633816911],[7.348390512620541,48.22242035290725],[7.348390608967576,48.22242152084479],[7.34859210896704,48.22244473704923],[7.348772711342707,48.22244349075033],[7.348805399635402,48.22243760057803],[7.348874406239692,48.222425686474224],[7.348973322177939,48.222408525174444],[7.348982764064491,48.222406915721955],[7.34898869553261,48.22240525536852],[7.349039986894578,48.222391110156316],[7.349179226432489,48.2223527280228],[7.349218002467592,48.222333997423775],[7.349381303130031,48.2222538165955],[7.349398292794111,48.222245621001626],[7.349398927956334,48.222245147026975],[7.349399062401781,48.222245142073334],[7.349406721412614,48.222239903583606],[7.349543850808868,48.222146538816084],[7.349551190655135,48.22212599261995],[7.34958024100934,48.222048234820704],[7.349578642496773,48.222048473949414],[7.349578866906941,48.222047924993944],[7.349582910312105,48.22203155540653],[7.349620345919146,48.22201783034273],[7.349653358651282,48.22200607052641],[7.349737120955665,48.221973606767314],[7.349758173469543,48.22196562186456],[7.349810468614757,48.22194567197632],[7.349983190592308,48.22188163400459],[7.350014735712352,48.22183901889116],[7.34977348061325,48.221366697619494],[7.349735457001682,48.22129321358101],[7.349710153468303,48.221243141163036],[7.349709496080768,48.22124334561569],[7.34970932457095,48.22124290136297],[7.349622369445019,48.22127097708359],[7.349438008408027,48.221329586023735],[7.349437746934748,48.22132968577246],[7.349269028429553,48.22138339257253],[7.349144265905077,48.221422322926855],[7.349047344241301,48.221442384754674],[7.348951961704432,48.221461488651435],[7.348908315347007,48.22147021569165],[7.348857722382672,48.22147973932135],[7.348770648657816,48.22149331032459],[7.348705102757836,48.22150302429682],[7.348650081530957,48.2215111790249]]],[[[7.350263390031614,48.22355293408443],[7.350266116078866,48.2235532841979],[7.350397534824659,48.22356880702058],[7.35042478048603,48.2235721284392],[7.350496473436458,48.22359111379785],[7.35062499147086,48.223623774899025],[7.350694982192005,48.223641741503286],[7.350696080029289,48.22364197138581],[7.350990480389309,48.2237155581351],[7.351059054842078,48.223628142834265],[7.350931744271344,48.223574170683634],[7.350847402689666,48.22352285011093],[7.350744529978085,48.22345941620755],[7.350636565257184,48.22339310599436],[7.350616951018756,48.22338094250423],[7.350544041651013,48.22333577875512],[7.350474816211052,48.223263354755595],[7.350469508942193,48.22325787313689],[7.35028024968549,48.22305785497703],[7.350174344116515,48.22300994194902],[7.350145334633749,48.222996682779325],[7.350142497400442,48.22299498504487],[7.350128212872125,48.222988572628275],[7.350119499010192,48.22298429790323],[7.350046133821701,48.22297771964101],[7.349959668950616,48.222969281072345],[7.349800399012236,48.22295451373244],[7.34973664637958,48.22294839210817],[7.349727209601207,48.22348609192091],[7.349869815914153,48.2235031856086],[7.349887128135411,48.22350543134612],[7.350009919694937,48.22352100214448],[7.350263390031614,48.22355293408443]]],[[[7.350047141459653,48.22172022529904],[7.350216415650199,48.221895477900375],[7.35063944152994,48.22192314270179],[7.350822349883795,48.22188450079438],[7.350893814316078,48.221869701323364],[7.350763215779255,48.221775839418015],[7.350609668176389,48.22166534096306],[7.350579739872158,48.22164094157147],[7.350410346354778,48.22150182977323],[7.35035990991255,48.22141357401234],[7.350331409734778,48.22136235791235],[7.350304421623012,48.221318024900924],[7.350300653739271,48.221311585398155],[7.350293759547856,48.22129994435173],[7.350265601539961,48.221251238833624],[7.350214681272991,48.22122247644385],[7.350106979778336,48.22119850996944],[7.350096397854041,48.22119610638037],[7.349885312168387,48.22114819426505],[7.349885177725782,48.221148199219236],[7.349884901426895,48.22114811928629],[7.34987177153023,48.22114752174621],[7.349732287409123,48.22114040604509],[7.349780751546484,48.22120314219686],[7.349877410475749,48.22139071327092],[7.349899738227643,48.22143413672498],[7.349925908003606,48.22148489810072],[7.349948250662941,48.221528501225386],[7.350047141459653,48.22172022529904]]],[[[7.351148998904208,48.22483046837307],[7.351146974884515,48.224969319105064],[7.351147930882805,48.224969464097775],[7.351147938299168,48.2249695539388],[7.351157737521299,48.22497063459026],[7.351215090970304,48.224977622199646],[7.351353745249715,48.22499089487786],[7.351458878375325,48.22500161820088],[7.351457109024715,48.225012857603446],[7.351458192060052,48.22501290779669],[7.351458124359827,48.225013721321595],[7.351601533848246,48.22501924882653],[7.351623979023075,48.22501995340317],[7.351630738724382,48.225020154799985],[7.351625400673821,48.22500286937809],[7.351609954281561,48.2249252194642],[7.351745976098933,48.22493110922275],[7.351742315479912,48.22490637258751],[7.351737118532393,48.22486466096196],[7.351734294202675,48.22485332054482],[7.351733482893124,48.22484839415943],[7.35173260482765,48.22484265920515],[7.351732500984877,48.22484140143135],[7.351730231178871,48.22482697668265],[7.351715916083074,48.224730361038844],[7.351714183152213,48.22471753855785],[7.351713307911898,48.22470693732032],[7.35171182434911,48.22470203571559],[7.351711355179428,48.22469961992119],[7.351694837843457,48.22461389918046],[7.351352293213123,48.22461390979257],[7.351333972146177,48.22452266841085],[7.35132429247484,48.22447075884425],[7.351306564830076,48.22438670473241],[7.351295427550572,48.22433674129004],[7.351294362221817,48.224332004493526],[7.351284142915651,48.224283358929185],[7.351281886182117,48.22427235803771],[7.351281175893911,48.224273555706],[7.351280937612582,48.22427230288705],[7.35124534899732,48.224331287884056],[7.351200784172377,48.224412231173986],[7.351182535235738,48.224452554141266],[7.351179907224654,48.22446319439064],[7.351177849551974,48.22446930789807],[7.351164755173094,48.224508359497946],[7.351163833393192,48.22451352999378],[7.3511611331266,48.224520027643045],[7.351150635389009,48.22458890150939],[7.351150429606951,48.2246844303449],[7.351148998904208,48.22483046837307]]],[[[7.351718840539346,48.22392454000166],[7.351568869324492,48.2239048363101],[7.351498936658679,48.22393985536255],[7.351460511181747,48.22399714273737],[7.351338057229322,48.22418008304976],[7.351831924950473,48.22418350551307],[7.352099174712897,48.22418626928737],[7.352140024372833,48.22418611501489],[7.352210190653324,48.2241865920793],[7.352213447128682,48.22418683247938],[7.352215246906854,48.22418739692754],[7.35221521723457,48.22418703756355],[7.352216300253682,48.224187087749876],[7.352217666969516,48.22416117450564],[7.352219456514042,48.22414038219794],[7.352221885777161,48.22407180562576],[7.352221616877491,48.22407181553943],[7.352221587205228,48.22407145617541],[7.352208972099858,48.22407056954589],[7.352182196180264,48.22406804223849],[7.352186532814824,48.2239947995064],[7.35215036956749,48.22398964450038],[7.35208073208628,48.223979235321536],[7.351890917191576,48.22395063775288],[7.351844462599871,48.22394333883861],[7.351718840539346,48.22392454000166]]],[[[7.351548427986612,48.221863594723715],[7.351076040889004,48.222149548956736],[7.350918142342773,48.22210562565228],[7.350917291179674,48.22210511633721],[7.350917178981431,48.222105390816196],[7.350915931899077,48.222104986208414],[7.350837612083744,48.22243048286062],[7.350798627184278,48.22262476474856],[7.350789750791039,48.22266753582655],[7.350768978535191,48.22276877906673],[7.350681801072239,48.22318958248422],[7.350665925057316,48.22325865457529],[7.350716246888512,48.22328013959655],[7.35073641567577,48.223289218741144],[7.350760646602335,48.22330013068726],[7.350800334220725,48.223318583257104],[7.350849587994636,48.22334019770362],[7.350939253673476,48.2233808687629],[7.350984071733004,48.223401024584334],[7.351024498490268,48.223420260870526],[7.351091883347332,48.22344913701906],[7.351125904029215,48.2234642838964],[7.35114800714818,48.22347392247898],[7.351150396597395,48.223475096008926],[7.35115810273938,48.22347859677593],[7.351209140764911,48.22350221794801],[7.351316452079117,48.2235507992027],[7.351433710897401,48.22360225780956],[7.351527859729396,48.22364168181952],[7.351543183110921,48.223647605210076],[7.351584097082184,48.22366457049432],[7.35169820203742,48.22370722377906],[7.351719365159939,48.223715274851536],[7.351775909596943,48.22373698063134],[7.351758746221389,48.22377410970653],[7.351725758353538,48.22384498425242],[7.351873328749558,48.22388297937247],[7.351921991021173,48.22389578398535],[7.351975451787263,48.22390300481046],[7.352156088755163,48.22392824590952],[7.352156283474774,48.22392733758581],[7.352156694241128,48.223927412556534],[7.352157976607477,48.223918443944235],[7.352159834787342,48.22390828261477],[7.352166035208984,48.22388047898604],[7.352184715254953,48.22380292263159],[7.352315999771797,48.22380700376725],[7.352332626035869,48.22380747215349],[7.352482986600864,48.22381229162576],[7.352671469578228,48.22381822848688],[7.352736697850584,48.22381933786571],[7.352835694210552,48.22382109448885],[7.35291338084076,48.223822825767556],[7.352999836253947,48.22393237111458],[7.353030766800111,48.223972142573786],[7.353039783235859,48.2239702781493],[7.353123516487864,48.22396520796864],[7.353157264202172,48.22396234144399],[7.353353491538574,48.223944471758436],[7.353371030210302,48.22394292383279],[7.35361737820232,48.22392122284959],[7.353652186615182,48.223918136834236],[7.354120052732786,48.22393332233724],[7.35420207163366,48.22393525344403],[7.354299700641394,48.223938411003935],[7.354464522052579,48.22394359572732],[7.354544598462634,48.22394649939598],[7.354644536266396,48.2239482197872],[7.354827801251181,48.2239497498699],[7.354963210569368,48.22395151316985],[7.355126026661595,48.223992816824456],[7.35528819303132,48.224034414577616],[7.355519828674407,48.223919533114746],[7.355546784470441,48.223906282958275],[7.355656413927636,48.22385555860159],[7.355716159459492,48.223827851694246],[7.355724832178075,48.22390016416084],[7.35572404775568,48.22390046344819],[7.355723655988514,48.22390714639281],[7.355722967261047,48.223910235705624],[7.355726010503346,48.2239927586151],[7.355729284789828,48.22409113318427],[7.355729266747108,48.22411213057735],[7.355728676308502,48.22414252101957],[7.355730101725985,48.22415977044918],[7.355731401825438,48.2241885591847],[7.355734017024685,48.2242756937222],[7.355737429135149,48.224382263624555],[7.355736784205002,48.22440220276757],[7.355736761116114,48.22440355533985],[7.355887587248414,48.224407452227055],[7.356023743466412,48.22441171000823],[7.356067804441766,48.22441287772304],[7.356069290820201,48.22441291299042],[7.356673245998262,48.22444289204624],[7.356778859860982,48.22444800578356],[7.357065973961504,48.22446264133661],[7.357079156749281,48.224463866960626],[7.357080934309767,48.22446416181254],[7.357063912303678,48.22425986906514],[7.357199329918974,48.22426171964306],[7.357199419809418,48.22426117563647],[7.357200368384935,48.22426123073962],[7.357215032470823,48.22421022520639],[7.357458066429889,48.22424631200813],[7.357447357425548,48.22428969206061],[7.357433110217319,48.224344106602125],[7.357433924344531,48.224344166666164],[7.357433819602407,48.22434453099159],[7.357670139395815,48.22436464454592],[7.357710920062666,48.224368546065755],[7.357774578777786,48.2243734954534],[7.357868165626722,48.22438157540199],[7.357864715157709,48.22439693218262],[7.357857890744948,48.22442367786571],[7.357858570423669,48.22442374289007],[7.357858487967459,48.22442437673772],[7.357966939470077,48.22443118696073],[7.357967141519409,48.22443036846839],[7.357967410419828,48.224430358541646],[7.357974951596088,48.22440412707916],[7.357992030634202,48.224346453894455],[7.358966762500374,48.224580810965065],[7.358990116155458,48.224587608406566],[7.359016307421292,48.22459610336295],[7.35923584877009,48.22465954784833],[7.359264183892138,48.224667873471695],[7.359286297846992,48.22467435617581],[7.359367322482053,48.22469848872729],[7.359475843848695,48.224735483506066],[7.35970517944404,48.22481460592153],[7.36004432226975,48.2249315758533],[7.360080842282965,48.22494428496996],[7.360124609868385,48.22495167995782],[7.360116840053593,48.22495557152544],[7.360116951528094,48.22495691913223],[7.359884759659055,48.22518077918908],[7.359709738492407,48.225349089247345],[7.359962350691069,48.22536066660766],[7.360472646779757,48.22538480388308],[7.360653396828638,48.2253933568637],[7.360695389247071,48.22539559055944],[7.360857025485937,48.22540295685217],[7.361198455960698,48.22541873015773],[7.361376883382939,48.225426917269594],[7.361508590237007,48.22543277506009],[7.361586181606148,48.22543657689767],[7.361586151869337,48.22543621753634],[7.361586689679062,48.225436197666376],[7.361584197519627,48.2253914124739],[7.361579962363507,48.22529622727617],[7.361578886746903,48.22529626701603],[7.36157884957605,48.22529581781434],[7.361547664128245,48.22529706010664],[7.361437629926509,48.2247724205961],[7.361370404923828,48.224453824362456],[7.361291725391702,48.224091314622754],[7.361291388946209,48.224092138088146],[7.361248556914244,48.22408137472782],[7.361248766344765,48.2240806460701],[7.361170084947939,48.22406201536735],[7.361039868987996,48.224035015323224],[7.360862974288746,48.2239980245526],[7.360744327345983,48.22397393107779],[7.360720039364275,48.223968880681184],[7.360530996119827,48.22394152992516],[7.359999116531258,48.2238910659403],[7.359965163219842,48.223886552598636],[7.359622695546032,48.22384017530692],[7.359603575524803,48.22383727681996],[7.359576239982252,48.22383287943161],[7.359526200304244,48.223823012450055],[7.359500261974437,48.22381757218123],[7.359406531493325,48.22379796413896],[7.359318275610089,48.22377932535304],[7.359304533564303,48.223776228220785],[7.359293480488314,48.22377303178921],[7.359099903280795,48.22371529725608],[7.35903201905585,48.2236902287724],[7.358913980215042,48.22364574508037],[7.358818061730932,48.22360945600173],[7.358815970718087,48.22360863206075],[7.358774150474904,48.223592153233014],[7.35876327499398,48.22352586974185],[7.358832546567315,48.22350411748903],[7.358983624324872,48.22345726633045],[7.359358078367996,48.22330015603126],[7.358887455791196,48.22321083846435],[7.358838262823612,48.22319652431593],[7.358697562433556,48.22315522019027],[7.358485548116377,48.22309465100728],[7.358446586707661,48.2230833833059],[7.358432240984595,48.22307787526423],[7.358345816103985,48.2230438486573],[7.358039485917836,48.22292719487102],[7.358027253536371,48.22292278025684],[7.357968467127239,48.222900078781585],[7.357967473261289,48.222901106736536],[7.357967196940982,48.2229010268226],[7.357947008752602,48.22281832568912],[7.357947352669806,48.22281759207324],[7.357936749340506,48.222795364669324],[7.357904089665506,48.22272492899227],[7.357855183102152,48.22262598595991],[7.357849631528278,48.22261429573254],[7.357849183626847,48.22261377157783],[7.357849019471487,48.222613417178096],[7.357743023932859,48.22247314620932],[7.357703760407298,48.22242232897551],[7.357670617467412,48.222380297282065],[7.357667482941136,48.22237500609682],[7.357660931955251,48.22232838815674],[7.357652296857968,48.222266347379396],[7.357641914912525,48.2221864382091],[7.357625795411438,48.222061593242664],[7.357618278995852,48.222003295986646],[7.357608539665215,48.221923002620564],[7.357604012705842,48.22189271087395],[7.35759723312057,48.221840063654604],[7.357590103725652,48.22178481601236],[7.357585916315981,48.221747212415536],[7.357579804424448,48.22170427296099],[7.357573858213573,48.22165844370979],[7.357566610038566,48.221601758605914],[7.35755466282288,48.22149964877991],[7.357543625549897,48.22146401022145],[7.357534251306323,48.22143380728609],[7.35752235027701,48.22139261348065],[7.357492663447387,48.22135649185997],[7.357356867213456,48.221191727961795],[7.357352358663658,48.22118612702726],[7.357338519577864,48.22116879510265],[7.356685279871252,48.221194708704644],[7.356633735785693,48.221197602324345],[7.356591662833159,48.221199245223374],[7.356387610183797,48.22120551436007],[7.356371693871671,48.22109940566626],[7.35636761476944,48.22107126011405],[7.356365135967021,48.22105431987014],[7.3563618248038,48.22102893953959],[7.356361421478721,48.221028954424284],[7.356361362081231,48.221028235696785],[7.356358673247403,48.22102833492799],[7.356173868671071,48.2210341637147],[7.356023578463851,48.221038267990025],[7.356023764874388,48.221038891915555],[7.356022420456887,48.22103894152732],[7.355979250614733,48.22103873227661],[7.355938769608068,48.22103842378856],[7.355557571027298,48.221045280716496],[7.355367561842037,48.221048506715356],[7.355255064538779,48.22105139580806],[7.355222499918313,48.22105223683285],[7.355222238457346,48.22105233659438],[7.355222104015484,48.221052341554646],[7.355221573670792,48.221052451236716],[7.355203974966503,48.22105652490885],[7.355103877450271,48.2210854501341],[7.355099798820201,48.22108668199022],[7.355090311984893,48.221089374985226],[7.354951589575904,48.221067007911955],[7.354938475327695,48.221064968518526],[7.354929416604684,48.22106304984883],[7.35490158965449,48.221059210256456],[7.354887653914369,48.22105702093472],[7.354850648654604,48.221051447298635],[7.354842037795388,48.22105005278886],[7.35483739255018,48.22104932301279],[7.354822359014056,48.221046903838854],[7.35472851305235,48.22103234298507],[7.354573837753079,48.221009482618946],[7.354536138086075,48.22100366415868],[7.354458617394327,48.220992465916574],[7.354425854133807,48.22098763681642],[7.3543244351221,48.220972814318635],[7.354303680866581,48.22096970495603],[7.35429312106049,48.22096757126563],[7.354131808282614,48.22094108023642],[7.354072227007327,48.22093156301577],[7.354029979566348,48.2209245604229],[7.353951496616576,48.22091150493804],[7.353951511457712,48.22091168462023],[7.35395137701609,48.220911689579054],[7.353952423316199,48.22092435717335],[7.353955736828315,48.22097100453556],[7.353865419885716,48.22097794039259],[7.353717034201562,48.22095448647953],[7.353671127182054,48.22094725827493],[7.353608245181757,48.220936961413244],[7.35345798496347,48.22091366643334],[7.353423160700507,48.220908372382],[7.353419471418341,48.220907787524816],[7.353406977539736,48.22090509428222],[7.353299163059793,48.22088140519366],[7.353297214102289,48.22088066603651],[7.353296079213889,48.220879986972],[7.353240373539795,48.220858611492694],[7.353191066483733,48.220841235412905],[7.35318369624829,48.220838533426466],[7.353179656478987,48.22083697022504],[7.353159726519037,48.220829144300026],[7.353102074035707,48.22081685202822],[7.353070133393694,48.22081055038811],[7.352950750781362,48.220785575412016],[7.352904472171912,48.22077547694908],[7.3527864786419,48.22075099127714],[7.352786486060462,48.22075108111833],[7.352785664575417,48.22075093118094],[7.352734811958646,48.220879778001475],[7.352654543877531,48.22108026925075],[7.352650577504775,48.22109429316919],[7.352649748596397,48.22109405338972],[7.352509398990585,48.221455361705985],[7.352544550840472,48.22146298693725],[7.352598155767684,48.22147524851166],[7.352600992998286,48.221476946188936],[7.352780535206707,48.22149555796093],[7.352867617493736,48.22150496289626],[7.352930203269891,48.22151166650313],[7.353017285610181,48.22152107132807],[7.353112582962591,48.22153197543938],[7.353194139249735,48.2215397816261],[7.353350797727285,48.22155725391894],[7.353300719734703,48.22167751146782],[7.353302809693516,48.22167995760517],[7.353376726404413,48.22169976032311],[7.353581063831432,48.221750798933705],[7.353911743127655,48.22183592666894],[7.354010834073336,48.22186336138749],[7.354114789105447,48.221887642826665],[7.354217629847758,48.22191475883664],[7.354217771713071,48.22191484371854],[7.354217659532403,48.221915118200705],[7.354396711672924,48.221960419633504],[7.354625544552525,48.222020645776915],[7.354798675267333,48.222064452880595],[7.35479908602294,48.22206452784222],[7.35497533151843,48.222108490133635],[7.355341861715963,48.22220310515894],[7.355386830620697,48.222192434522526],[7.355523931327456,48.22225225866719],[7.355585104635423,48.22227775690708],[7.355646367086289,48.222304333205685],[7.355646845477136,48.2223035946355],[7.355689109145734,48.22232546503867],[7.355688982124398,48.222325559840364],[7.355688638179005,48.22232629344992],[7.355672513945873,48.222353111817156],[7.355672662419869,48.222354908635076],[7.355852149520641,48.22240217442662],[7.356013504094155,48.22244542309344],[7.356010221395303,48.22245302375915],[7.356007522639199,48.22245789943175],[7.356003035737746,48.222468878781996],[7.355993172780925,48.22249150109574],[7.355786686292708,48.22296122911398],[7.355717229272827,48.22312762062607],[7.355717684581329,48.22312823462953],[7.356065549059975,48.223225338672805],[7.35605222054232,48.22329251544503],[7.356302557857915,48.22335176480873],[7.356277434303695,48.223406760808174],[7.356531723876261,48.22345018388755],[7.356516640310817,48.22362502255332],[7.356516788817138,48.223626819368576],[7.356531695446851,48.22367664341476],[7.356529813168923,48.2236767128792],[7.35631040576099,48.223689856209575],[7.356265051272827,48.22369261127525],[7.356185419836288,48.22369672131407],[7.356067511377984,48.22366520658094],[7.356067645826421,48.223665201619724],[7.356057776848791,48.22360942429448],[7.356055803701187,48.22359697115267],[7.356055661828395,48.22359688627309],[7.356055467983918,48.22359617250794],[7.35575695991058,48.22347949462202],[7.355667907348575,48.223444661914314],[7.355514991331236,48.22338443012759],[7.355475537917584,48.22337209824059],[7.355408027852341,48.22334989761554],[7.355240036937987,48.223294907646384],[7.355090813710635,48.22324508251999],[7.354982084906837,48.22320223409815],[7.354965066251704,48.22319538242153],[7.354951177002481,48.22318886586807],[7.354923241799409,48.22317556819339],[7.35470484379735,48.22308990565354],[7.35424221992649,48.22290790730929],[7.354241988139838,48.22290836643233],[7.354184844691345,48.22288920712121],[7.353987850472414,48.22278509136513],[7.353891780671364,48.22273384499291],[7.353763120110719,48.222674969315804],[7.353728905371164,48.22265910941994],[7.353706787281292,48.2226492916326],[7.353704823411993,48.222648372801075],[7.353681264406102,48.22263743666119],[7.353680988093666,48.222637356737195],[7.353680428048448,48.2226371070482],[7.353491134074782,48.22259191185899],[7.353403645343135,48.22257107774747],[7.353225912394869,48.222528699919664],[7.353133704328787,48.22250623735808],[7.353086954064115,48.222495345283015],[7.352717570408354,48.2224314675456],[7.352670078436137,48.22241159119727],[7.352421418395588,48.22230721526549],[7.352318071500948,48.222264166081175],[7.352142838352935,48.22218997417802],[7.352226406510643,48.222129039553096],[7.351958542770702,48.22196517417342],[7.351927437958122,48.221946135235015],[7.351671978246012,48.221788750780675],[7.351671208665632,48.22178922972394],[7.351670917527068,48.221788970112826],[7.351548427986612,48.221863594723715]],[[7.355836434754833,48.22377213849921],[7.355856441983303,48.223762929475576],[7.355832669376689,48.223773899501175],[7.355836434754833,48.22377213849921]]]]}}]}
