{"type": "FeatureCollection","name": "aoc_geojson","features": [{"type":"Feature","properties":{"dt":"Colmar","type_prod":"Vins","categorie":"Vin mousseux \"Crémant\"","type_denom":"appellation","signe":"AOC","id_app":2,"app":"Crémant d'Alsace","id_denom":3,"denom":"Crémant d’Alsace","insee":"68385","cvi":"1B001M 1, 1B001M 3, 1B001M 4, 1B001M 5, 1B001M 6, 1B001M 7, 1B001M00, 1S001M00","nomcom":"ZIMMERBACH","insee2011":"68385","nomcom2011":"ZIMMERBACH","id_aire":16,"crinao":null,"grp_name1":null,"grp_name2":null},"geometry":{"type":"MultiPolygon","coordinates":[[[[7.230173155199338,48.07215112695967],[7.230157442565113,48.07215808989732],[7.230153803493342,48.072159662538745],[7.230129337881042,48.07216982375789],[7.229999432461596,48.0722267596305],[7.229989137789672,48.072232536560264],[7.229978911375992,48.07222236047405],[7.229858751849092,48.07210195779562],[7.229569511812985,48.072157229390044],[7.229546339558194,48.07213985858442],[7.229384045483132,48.072170111697325],[7.22931135105804,48.07218416846784],[7.229218358706918,48.07220165799022],[7.22910390733101,48.07222487483546],[7.229068301057166,48.07223192157394],[7.228865949503777,48.072319485153486],[7.22862806589692,48.07243184515499],[7.228401591776437,48.072700326345156],[7.228399047398993,48.0727710687247],[7.22840659185664,48.07277629478316],[7.228417076572708,48.07278465939527],[7.228510885550855,48.07284797531464],[7.228520491494122,48.07285375812197],[7.22853258516842,48.072862064924344],[7.228548066942418,48.072875747089434],[7.228556808697906,48.07288417430458],[7.228557605973766,48.07288405554696],[7.228619837258981,48.07293922383628],[7.228630408285436,48.07294866672274],[7.228657504526962,48.07296130081338],[7.228718575889129,48.07299019683945],[7.2288461922087,48.073050856100124],[7.228856020772264,48.073054377982665],[7.229428988612017,48.073105073548724],[7.229852441513267,48.0731239213477],[7.22997888884964,48.07308927859138],[7.230098779610363,48.07307352535686],[7.230225280703616,48.07305636292341],[7.230232523017177,48.07305276834915],[7.230334782349781,48.073006558443524],[7.230532210892031,48.072911239103824],[7.23053192116723,48.07291097916834],[7.23053282375504,48.07291049614755],[7.230544760836581,48.07290339851898],[7.230545050561405,48.072903658454415],[7.230642360328255,48.07285609417566],[7.230719317356705,48.0728180026135],[7.230735305014269,48.07280607333321],[7.230813677419385,48.072747023874435],[7.230813387694099,48.07274676393964],[7.230893823498096,48.07268493676695],[7.230894106032597,48.072685106843835],[7.230907019594767,48.0726750903566],[7.230919327488195,48.072665906684044],[7.230965550191309,48.07263694001017],[7.230983486716009,48.07262584180086],[7.231075867686425,48.07257214615407],[7.231177805408024,48.07251017666351],[7.231334689382295,48.07241568245948],[7.231425000962767,48.072361339966626],[7.231514565440142,48.07230774518428],[7.231557785454334,48.07228158968253],[7.231650797082657,48.07222570806743],[7.231726851405884,48.072179717993166],[7.231750598033015,48.07216561716406],[7.231837741309343,48.07211201903617],[7.231879833803416,48.07213393592299],[7.231880398872875,48.07213427607215],[7.231880264797951,48.07213428089256],[7.231916941398095,48.07215404946149],[7.23193605308361,48.072164356517455],[7.231936328426141,48.072164436734184],[7.231936752228751,48.07216469184585],[7.232060532727442,48.072207642603],[7.232273728719911,48.07228081136287],[7.232431681207116,48.07233406793027],[7.232517352609545,48.072268807094126],[7.232309423895472,48.07213714411393],[7.232156999342166,48.07199167988522],[7.232155962710311,48.07199216773949],[7.232126991963756,48.07196284019691],[7.232114899371216,48.07194615288936],[7.232103419615893,48.07192872261549],[7.231988011788007,48.0718173429515],[7.231855309685312,48.07166963728003],[7.231694937681524,48.0717373129628],[7.231684492256732,48.07174120303009],[7.231537149128497,48.07178687227536],[7.23152213797159,48.07179083635103],[7.231384295371963,48.07181913186996],[7.231242928176867,48.07184539113316],[7.231235593699425,48.07183439025825],[7.230781078464976,48.07191957702146],[7.230781593191257,48.0719192881715],[7.230650908252253,48.071944622042565],[7.230633433309913,48.07194804374229],[7.230456447178198,48.072006402010594],[7.230416419711061,48.07202036678726],[7.2303844532148,48.072030887767596],[7.230336175651607,48.072049294372526],[7.230284328360559,48.07206846006417],[7.230280008272393,48.07208672868176],[7.230274756845982,48.07210512088686],[7.230173155199338,48.07215112695967]]],[[[7.232580744994897,48.076240111721845],[7.232302131042095,48.07591102245989],[7.232151372076102,48.07597799204278],[7.231997241613881,48.076046524483125],[7.231895315376287,48.07609191256125],[7.23186795853576,48.0761046111364],[7.231795520483232,48.07614209018938],[7.231704146039927,48.076188270262406],[7.232013912147938,48.07658905460466],[7.232104339497032,48.076527678756854],[7.232196459397723,48.07646561116537],[7.232292541508658,48.07640096790206],[7.232432518679533,48.076306810332454],[7.232580744994897,48.076240111721845]]],[[[7.232507022875631,48.07640767489629],[7.23269299791037,48.076636100793635],[7.232765923507858,48.07672395513706],[7.232766720832123,48.07672383635125],[7.23282905973426,48.076802068444344],[7.232870070550856,48.076852410517375],[7.23299528287891,48.07700714314613],[7.233211314976702,48.07727332748743],[7.233299140597889,48.07737929973583],[7.233402894433001,48.077346641285686],[7.233432931374542,48.07733718028571],[7.233491827217718,48.07731866109191],[7.233523825074227,48.07730849873406],[7.233601217062155,48.07728417767848],[7.233658398431145,48.07726608052051],[7.233727522677067,48.07724430962563],[7.233795327578844,48.07722285648749],[7.233853447428323,48.077204725476115],[7.233914825870909,48.077185305723525],[7.233957722535725,48.07717186752854],[7.234031304753432,48.0771486744783],[7.234093346305746,48.07712914066053],[7.234156833984872,48.077109194327896],[7.23420077443658,48.077095358030796],[7.234238810487437,48.0770833561867],[7.234312786648042,48.07725479965181],[7.234392592778319,48.077267338841324],[7.234474170877029,48.07728017470213],[7.234571689202006,48.0772955911661],[7.234637475676612,48.07730602114493],[7.23469712745524,48.07731541014798],[7.234705577659419,48.07731681837175],[7.234760147889728,48.07730809656381],[7.234916040876823,48.077283383739186],[7.234979508530776,48.07727326034467],[7.235044712101139,48.077262984346774],[7.235108868300352,48.077232920431754],[7.23516200132444,48.07720793910722],[7.235237680835477,48.07717232391228],[7.235320102416709,48.077133582373705],[7.235430261045463,48.07708185734406],[7.235469528796407,48.07706341252413],[7.235484959615576,48.077056278835045],[7.235501680906244,48.077048467898386],[7.235505827706381,48.077046516369975],[7.235521843458595,48.07704332674331],[7.235567649922451,48.077036001265384],[7.235590080245431,48.07703231047731],[7.235597256148443,48.077031241233094],[7.235680620426883,48.07701769804822],[7.235723893594189,48.077010643893445],[7.235790669740449,48.07699986029786],[7.235879607968671,48.076985395470864],[7.235997623154711,48.07696627960088],[7.236056419333845,48.07692135859452],[7.236308521067213,48.07672457414425],[7.236371541680419,48.07667364336761],[7.236419623987835,48.07663766876945],[7.236438092596606,48.076628172711025],[7.236682431730946,48.07651745743453],[7.236896921999739,48.07648062996118],[7.237005324752603,48.07646239969764],[7.237104794124401,48.076445121699365],[7.237207263722718,48.07642836643469],[7.237318594530604,48.07640976012881],[7.2376552332984,48.07633663306345],[7.237684077629087,48.07637605694661],[7.237712950814463,48.076415840250036],[7.237770816994819,48.076495222291314],[7.237974858580033,48.07651761499355],[7.23823679599093,48.07654594323591],[7.238405134014003,48.0765641235735],[7.238524215533524,48.07657677780948],[7.23862138072182,48.07658778793433],[7.238788016320518,48.076604857519875],[7.239145853887133,48.07672399231326],[7.239145748622851,48.076724356569876],[7.239120892625885,48.07671624002809],[7.239156777796512,48.07673612511275],[7.239157668777128,48.07673717442452],[7.239158013391498,48.0767364410826],[7.239271212901248,48.07671262899974],[7.23927744101018,48.076723218684855],[7.239303651752446,48.07678679815377],[7.239329597208016,48.07685209938321],[7.23929651520378,48.07685878787187],[7.239358932180807,48.076922775642984],[7.239422736235284,48.0769889663414],[7.239520926050624,48.07708987509176],[7.239579755913033,48.077122541296916],[7.239647563759323,48.07715984053257],[7.239710179875178,48.07719444299112],[7.239767597034313,48.077226258824076],[7.239818974662138,48.07725486773123],[7.239874979012579,48.07728583323576],[7.239922089105577,48.077311531846654],[7.240015194247374,48.07739261750014],[7.240058138884944,48.07743009112067],[7.240097301811549,48.077464006165755],[7.240141101542216,48.07750207977402],[7.240191842063653,48.07754621151358],[7.240216692596994,48.077567665281165],[7.240242405337443,48.07758980891872],[7.24029728684401,48.07763694553321],[7.240315910391117,48.07765285612806],[7.240342669945288,48.077676313785425],[7.240409344194331,48.077722935445586],[7.240513079948228,48.07779570755256],[7.240829253086411,48.07801555668345],[7.241013510848225,48.07819690164332],[7.241077482884116,48.07826011162427],[7.241184882849229,48.078328245349695],[7.241263378760468,48.078378045312455],[7.241350664218898,48.07843347623482],[7.241458206187396,48.07850169472896],[7.241669881948673,48.07841296296052],[7.24191516035748,48.07833743858895],[7.241915131516182,48.07833707916207],[7.241916182603007,48.07833677093741],[7.241969299821629,48.07836189185353],[7.241969307032048,48.078361981710266],[7.241970352422909,48.07836663010022],[7.241982104100219,48.07842090737316],[7.241988643988369,48.078502407410014],[7.24198880261876,48.07850438425759],[7.241995701659955,48.078593711486576],[7.241998532353048,48.07861893222835],[7.242013999688862,48.0786709128031],[7.242041207098395,48.078761941360334],[7.242116077273065,48.07892406651548],[7.242120165049726,48.078933111095374],[7.242213338972912,48.07919595767922],[7.242373602011715,48.07913349902484],[7.242851791122652,48.079007584742946],[7.242953742702245,48.07897092753139],[7.243221831167681,48.078841139220906],[7.243250517444119,48.0788265877337],[7.243271823462656,48.078825639519295],[7.243572537369503,48.07881750329008],[7.243621189395517,48.07881881344026],[7.243974669643438,48.078828058990474],[7.244061655961135,48.07883114103304],[7.244210815870438,48.07883477507826],[7.244262410710824,48.07883588874981],[7.244433221205179,48.078837840760215],[7.244785830457302,48.078841257705996],[7.244853123572442,48.07883522654792],[7.244903622260601,48.07883106258018],[7.244902944006811,48.07882261606815],[7.244902998142571,48.078813241979695],[7.244902715530324,48.0788130719371],[7.245045181137135,48.078818748651855],[7.245591875023349,48.07889455708348],[7.245885841385052,48.078938024850544],[7.245936142540956,48.07894981823075],[7.24601172992732,48.07896835947851],[7.246261596804274,48.079042074061604],[7.246291571934735,48.07901846364305],[7.24623441006564,48.0789430250905],[7.245983393590418,48.07861891743371],[7.245956435442349,48.078584654114636],[7.245930524216075,48.078551704780914],[7.245913766815016,48.0785305910462],[7.245888483935133,48.07849374401942],[7.245855453171249,48.07844582172176],[7.245793644293259,48.078356041777376],[7.245699597115929,48.0782231771891],[7.245643637695909,48.078144270566256],[7.245596763865158,48.07810648996058],[7.245560378575764,48.078077072392716],[7.245447654249026,48.07798624481831],[7.245375271734864,48.0779071193173],[7.245364509110729,48.077895341694116],[7.24529859678545,48.07782310203546],[7.245239100401392,48.07774702629482],[7.245230102630413,48.07773545536502],[7.245163398148139,48.07764999703773],[7.245126389234573,48.07760275871383],[7.245089210221588,48.07755507592939],[7.245064480971885,48.07752343554825],[7.245051853895041,48.07750685882763],[7.24501997116247,48.07746484262229],[7.244949584485375,48.07737203727483],[7.244883261528964,48.07728629469301],[7.244846046881652,48.07723816253893],[7.244839447199338,48.07722965919433],[7.244811752131011,48.07719289893763],[7.244751566297325,48.07711324316004],[7.244706122794089,48.07705306169078],[7.244703667174555,48.077049275215636],[7.244660922380283,48.076982508009216],[7.244637766612025,48.07695036022418],[7.244621461227662,48.07692481429873],[7.244603953307845,48.076897689630044],[7.244588622629747,48.076872559138245],[7.244554295956533,48.07681684307086],[7.24453601368398,48.07678677245989],[7.244509163345426,48.0767404292983],[7.244481994382027,48.07669346680203],[7.244454514009994,48.07664597482746],[7.244439513587455,48.076619931241325],[7.244381134250109,48.07651921293754],[7.244333700804653,48.076462707757116],[7.244280623975094,48.07639955715837],[7.244229173694722,48.07633824034485],[7.244197167483223,48.07628126899664],[7.244168141771556,48.07622959718696],[7.244137008561612,48.076183498480496],[7.244092155907847,48.076117257662986],[7.244051381062105,48.0760582593867],[7.243998733930898,48.07598202624166],[7.243953091547479,48.0759159940811],[7.243951110419295,48.075913091652424],[7.243897554698981,48.07585401341671],[7.243849175295598,48.0758007863663],[7.2438025420358,48.075749208565],[7.243789998089285,48.075735332226685],[7.243735182443619,48.07570243322058],[7.243644887217884,48.075648013710335],[7.243639807787686,48.07564504273943],[7.243531347792785,48.07561560953606],[7.243520449370032,48.075610505297085],[7.243451631376193,48.075569009151],[7.243402707226748,48.07553914182119],[7.243343802320294,48.07548377074191],[7.24324584357036,48.075392499083755],[7.243145770934834,48.07532347228117],[7.24304854606868,48.075256415435476],[7.243032522195209,48.075246088898815],[7.242946305674136,48.07519053058579],[7.242889042927145,48.07515393451464],[7.242814455988818,48.07510588720412],[7.242759247913005,48.075069757716335],[7.242652251847646,48.074999898669255],[7.242557769079998,48.07493851008932],[7.242545574703376,48.07493065885492],[7.242455702969193,48.0748747813655],[7.242330874783262,48.07479718387676],[7.242219306675094,48.07472730900819],[7.242042382246695,48.0746372601683],[7.241931524555938,48.07459466482311],[7.241817707167754,48.074550373699395],[7.24179304494406,48.07453963736302],[7.241726330474857,48.07451761981276],[7.241639724582689,48.07448901954919],[7.241573695059279,48.074467157468185],[7.241478095920955,48.07444545967538],[7.241398968516362,48.07442794447776],[7.241274004581275,48.07439387721498],[7.241231669961659,48.074382425776996],[7.241201013272679,48.07437406811139],[7.241175940364663,48.07436659065166],[7.24116211283783,48.07438195812598],[7.241112086695298,48.07436681863973],[7.241032292036845,48.074342658607385],[7.241024864318831,48.07434058318906],[7.24093391375739,48.07431313024719],[7.24091204855542,48.074337258248086],[7.240804446223756,48.074311756895604],[7.240792174234389,48.074324725247095],[7.240711757132283,48.074282744321906],[7.240669228202302,48.07426048568445],[7.240521766804182,48.07425606549577],[7.240552762588958,48.0742267423364],[7.240250557557856,48.07415895715759],[7.239996268289639,48.074101791257526],[7.239980586324292,48.074122542267936],[7.239933184697743,48.07410658682937],[7.239844758150281,48.0740770595951],[7.239743452673814,48.07405628691312],[7.239483002469823,48.07400276628047],[7.239397962503761,48.07398528249805],[7.239306773758914,48.07396657823849],[7.239300320739998,48.073964918194626],[7.239284727826605,48.073988459514425],[7.239240897490175,48.07405393074],[7.239177113342159,48.074130483968766],[7.239134162756224,48.074181775147885],[7.2391143671945,48.07420321487309],[7.239005045849851,48.074320608639546],[7.238974660331027,48.074352522761494],[7.239033596465402,48.07438320278396],[7.239095909099196,48.074415743746385],[7.239135627442688,48.074441528579335],[7.23920013183513,48.074506432534214],[7.239237722870991,48.074555994613604],[7.239262251142205,48.07458854450766],[7.239292964077277,48.074631144952114],[7.239339288734612,48.074695712286434],[7.239389553557791,48.07476581504372],[7.23940754115915,48.07479058009597],[7.239495840421728,48.074862106597955],[7.239583744113706,48.074911929185795],[7.239627615465252,48.074930805543644],[7.239688768688486,48.07495726004679],[7.239748523509085,48.074983043954894],[7.239835440370846,48.075020555935154],[7.239923063796303,48.0750584929878],[7.239932755023863,48.07506364102744],[7.23996449878084,48.075080520948696],[7.240025460422671,48.075114642099805],[7.240055142566111,48.075130965441915],[7.240107781194986,48.0751635840205],[7.240179098847976,48.07520778559064],[7.240188235029417,48.0752143954702],[7.240232749622843,48.07524631535508],[7.24046160650665,48.07540713004156],[7.240716482739757,48.0755536696875],[7.240807501341047,48.07562050136556],[7.240839489322392,48.0756437705494],[7.240845589337543,48.075649408365805],[7.240914919912615,48.075724140532984],[7.240921760983983,48.075733987129134],[7.241019434924572,48.07590556475732],[7.24108785029692,48.07609459768555],[7.241099274515108,48.07624873608584],[7.241113452477019,48.076462342333244],[7.241114365102698,48.07647204204557],[7.241112029278558,48.076551879392355],[7.24111129247847,48.07657957173314],[7.24112058753407,48.07663006260444],[7.241130544379809,48.07668377382783],[7.241147009459509,48.07672977088903],[7.241162595082452,48.076773186252396],[7.241186658427774,48.076804941479736],[7.241239913640568,48.076875386353365],[7.241287091847048,48.07693712861637],[7.241297831741496,48.07694863704886],[7.241359562073237,48.07701409045248],[7.241406452140413,48.07706385754763],[7.241441740139373,48.07710142633847],[7.241465864328087,48.07712723162657],[7.241499681773289,48.07716323128878],[7.24154638334192,48.077230758091765],[7.241599691408585,48.07730687825612],[7.2416054716376,48.07731523105691],[7.241633095610306,48.07738632896519],[7.241653504731969,48.0774395734041],[7.241666329848044,48.07747371604727],[7.241669522154128,48.077491714451746],[7.241685785042973,48.07758043398011],[7.241694557402479,48.07762607733853],[7.24170304428171,48.07766983853425],[7.241717285606699,48.077731686041936],[7.241737493318057,48.07780755697646],[7.241752211901264,48.07786361982038],[7.24175178079571,48.077863274888216],[7.241753189472152,48.077865747392856],[7.241759797442024,48.077879387236955],[7.241773092702255,48.077907655348],[7.241727250293316,48.0779145339503],[7.241704503808083,48.07786903366023],[7.241652681951953,48.07767066193821],[7.241636594954786,48.07757743024534],[7.241619788524421,48.07748025934021],[7.241616045530606,48.07747048138559],[7.241609218461797,48.07745243371544],[7.241575883397113,48.07736378862082],[7.241561563197712,48.07732609517591],[7.241555529219241,48.077317931749434],[7.241522573786422,48.077274241133104],[7.241477589436301,48.07721638503949],[7.241456510260568,48.0771883072407],[7.241445503536304,48.077173474122155],[7.241423331534775,48.07715021187223],[7.241386213878508,48.07711162760092],[7.241349505745284,48.077073118680254],[7.241238131635627,48.076957096182156],[7.241236165035347,48.07695437342351],[7.241206999108184,48.07691433108896],[7.241177945684623,48.0768740143446],[7.24114705547291,48.07683259225511],[7.241112232134086,48.0767857246344],[7.241100203399501,48.07675479743915],[7.24107690580524,48.07668732843934],[7.241075242030465,48.07667161797939],[7.241069000713411,48.07661561009121],[7.241065207491129,48.07658006058392],[7.241065859239631,48.07655633643867],[7.24106871274952,48.07646954146613],[7.241061182714808,48.076343829750186],[7.241043213248728,48.07609972043992],[7.240978597041822,48.07591613784688],[7.240882137171605,48.07574460656718],[7.240803181531899,48.075662200760824],[7.240685561296764,48.075577222697355],[7.240628336566449,48.07559640639937],[7.240619723659098,48.07558626315193],[7.240619433870101,48.07558600324174],[7.240506834304592,48.07549823075995],[7.240425207784418,48.07543448496165],[7.240394970390955,48.07541124272796],[7.240338763200119,48.07536766847335],[7.240220244833895,48.07527650428613],[7.240153735402566,48.07522519056032],[7.240092793835943,48.07518629256678],[7.240036091014342,48.075149945361076],[7.24003003722842,48.07514655875625],[7.239903080858169,48.075077596550265],[7.239889421992587,48.07507160013682],[7.239739153056945,48.07500536991169],[7.239590982188346,48.0749401453392],[7.239566313028911,48.07492931868241],[7.239468680318948,48.07488561394221],[7.239374279733656,48.074811783895676],[7.239309261252719,48.074713645519616],[7.239232173571528,48.074597467867974],[7.239226940360396,48.07459089759177],[7.239168081939313,48.074517589709075],[7.23910769173485,48.074465424247286],[7.239107452394626,48.07446579333304],[7.239107169824222,48.07446562327605],[7.239098548612668,48.07445872442359],[7.239059132881954,48.07443671357776],[7.239098189602281,48.074459278052174],[7.239059719636979,48.074437323263346],[7.238879856562829,48.07433737277305],[7.238801521394505,48.074294504576216],[7.238776881515337,48.07428403717816],[7.238728631197647,48.07426252459789],[7.23868272471124,48.074250119490266],[7.238643546641217,48.07423945464551],[7.238433427194186,48.07420655835039],[7.238431802214755,48.074209770941685],[7.23832878839989,48.0741928434646],[7.238329822227725,48.07419064344245],[7.238298494085319,48.074185643530676],[7.238200148746288,48.074166565285104],[7.2381661434591,48.074160039632865],[7.238090466326846,48.074115092721144],[7.237966995461372,48.0740425786393],[7.237888493026362,48.07399593099661],[7.237859518066662,48.073988413104814],[7.237858837162626,48.0739950161272],[7.237858039359947,48.07400351580574],[7.237844549442733,48.074001297981724],[7.237847140695482,48.07399336455034],[7.237754729708605,48.07397785719182],[7.237720245902279,48.07397206957631],[7.237648239375734,48.073957810106826],[7.237524483418283,48.07393541064447],[7.237525050217189,48.07393241639425],[7.237503072907515,48.07393167559202],[7.237387148372531,48.073929810977106],[7.237241980224484,48.07392881871568],[7.237201083380064,48.07392857867849],[7.237173369486809,48.07392840478149],[7.237099882545309,48.073932582041444],[7.236977394681911,48.07393942422978],[7.236871108749648,48.073945412763756],[7.236850891616101,48.073946500929935],[7.236742961717188,48.073957144461005],[7.236729364859054,48.073958625136214],[7.236699087320863,48.07396169747742],[7.236609320117653,48.073970785990724],[7.236529565618333,48.073978973364966],[7.23644147832464,48.07398385592868],[7.236364258631343,48.0739884374182],[7.23622301481566,48.074001180592546],[7.236126327653658,48.07402124162919],[7.236110841969933,48.07402432218613],[7.236014865849788,48.07407004072206],[7.235981866248335,48.07408780969497],[7.235962571537055,48.074105445933455],[7.235718222223563,48.0742125559487],[7.235793987304191,48.07422505924238],[7.235971522818213,48.07425408625273],[7.236054559851137,48.074268400368624],[7.236149561566689,48.0742843565216],[7.236197269093226,48.07430246523061],[7.236264685638512,48.07432824544518],[7.236238617468318,48.074333509195334],[7.236139184443745,48.07429581429271],[7.236067920301083,48.07428242830735],[7.236049481111663,48.07427885640979],[7.235972090763056,48.07426956583806],[7.235973575629945,48.07438711432171],[7.235973455949082,48.0743872988614],[7.235973194988258,48.074387398368835],[7.23596390850366,48.074405755836935],[7.235952654435597,48.07447843418503],[7.235947249170074,48.074509989207165],[7.23594725010986,48.07451503569178],[7.235950766074725,48.074649543062286],[7.235897048242077,48.074655441260504],[7.235853151595428,48.07465972438791],[7.235834529669676,48.07466562124958],[7.235810482413586,48.074672614501395],[7.235749867197661,48.07472165622713],[7.235739716655102,48.07472923079615],[7.235739067847406,48.074729524492064],[7.235738778087071,48.07472926456971],[7.235546692893863,48.07480565614479],[7.235534576078868,48.074810507838265],[7.235420141594349,48.07485076205832],[7.235389023873455,48.0748584602045],[7.235331119512936,48.074872529124036],[7.235276248608084,48.074885858055566],[7.235254097225515,48.07489134111152],[7.235222491700498,48.074903021881575],[7.235171694441553,48.074921881522506],[7.235141979087408,48.07486987213506],[7.235124639376274,48.07486995530041],[7.235069808810251,48.07489553850284],[7.235015993259652,48.074920364228774],[7.234953898743299,48.074949272668206],[7.234869378173411,48.07498863033099],[7.234870120561889,48.07498950478547],[7.234859942892364,48.07499338547842],[7.234835455807813,48.074962996076835],[7.234812704252952,48.074959308775654],[7.234574616076507,48.0750305048342],[7.234497647088916,48.074920718453114],[7.234295530329032,48.07503306468474],[7.234257729501878,48.0750547005958],[7.234244293281039,48.07505986995902],[7.234193299326251,48.07507963739623],[7.234154324243462,48.075095007371644],[7.234103388558132,48.0751205401112],[7.234075858140503,48.07513441699896],[7.23401762927626,48.07517634283864],[7.233968648615264,48.07521117728159],[7.233934045820535,48.0752290933984],[7.233881877017338,48.07525602212817],[7.233864184139877,48.07526512942895],[7.233834603717817,48.07527691719875],[7.233744303751156,48.07531296733513],[7.233647345330096,48.075351509779715],[7.233548835337276,48.07539082887041],[7.233435598340275,48.07543599437119],[7.233328004409664,48.07547942483782],[7.23326196690507,48.075506131099516],[7.233206085643665,48.07552868720363],[7.233188784989938,48.07553597796532],[7.233140797578964,48.075556357718604],[7.233090925766555,48.07557671509956],[7.232989616191636,48.07561802680184],[7.232981286655431,48.07562148039791],[7.232979459847669,48.07562217690303],[7.232905262500036,48.07565278102308],[7.232874419950589,48.075665605196235],[7.232827186442297,48.07568532688885],[7.232749131871729,48.07571814227451],[7.23259689388611,48.075781741245905],[7.232583747069055,48.075787170347205],[7.232584529991346,48.07578687184767],[7.232527781495879,48.075810359948754],[7.232498384913502,48.075822771559864],[7.232416279234827,48.075860418405476],[7.232312878786269,48.07590585988144],[7.23259094204932,48.07623478868907],[7.232589931510542,48.07623392386334],[7.232631343915441,48.07628425157458],[7.232609061450832,48.0762911298063],[7.232565900319173,48.07630327616097],[7.232509744226424,48.07632971369586],[7.232461105927156,48.07635147133032],[7.232507022875631,48.07640767489629]],[[7.237417784044782,48.07576825564343],[7.237463050821993,48.07582970762747],[7.237531211642276,48.075908358728],[7.237516329249225,48.07595755733459],[7.237468889715895,48.07603676518119],[7.237430880367738,48.07609941258478],[7.237386211123645,48.07614607875718],[7.23728967021457,48.0761495539155],[7.237299477580474,48.0761041426919],[7.237408862706036,48.0759253793462],[7.237428820451074,48.07587239339806],[7.237391077716125,48.07583770548019],[7.237352093802468,48.07582108551204],[7.237354000079448,48.07577776101447],[7.237417784044782,48.07576825564343]],[[7.237697852758551,48.07500119524732],[7.237748659730841,48.07499756382449],[7.237875184156946,48.07503265999927],[7.23783784081997,48.075070051025676],[7.237805084950531,48.07506402097143],[7.237513595564322,48.0750510843781],[7.237507168684385,48.075004455177144],[7.237576492420772,48.07492986639349],[7.237554551931474,48.07489100499178],[7.237563837949427,48.07487264740415],[7.237623287884919,48.074976844662345],[7.237697852758551,48.07500119524732]]],[[[7.234983118260618,48.070012903323686],[7.234979079106156,48.07001115620778],[7.234838034583617,48.0699507162758],[7.234693204991707,48.069888339684134],[7.234550607202463,48.069826964028685],[7.234494207924755,48.069802679074456],[7.234185266859175,48.06969736282852],[7.234144840618851,48.06968448859789],[7.234078312695617,48.06966300097065],[7.23401273769676,48.06964165926104],[7.233947347188418,48.069620941695916],[7.233757154120683,48.06955956502398],[7.23375781007128,48.06955936119573],[7.233741290168437,48.06955454843699],[7.233688905210998,48.06953840944149],[7.233689752791062,48.06953891965307],[7.233613998039422,48.069514699703966],[7.23354348184209,48.06949209361311],[7.23353087873325,48.06948750040856],[7.233483260163914,48.0694687567364],[7.23335081947882,48.06941665683508],[7.233221034257522,48.069365813032896],[7.233114288681436,48.06932396316469],[7.233077226446584,48.06930943561468],[7.233012350743626,48.069283382163746],[7.232994012916209,48.06928944866937],[7.232792296537176,48.06935618004116],[7.232478014541735,48.06946120323643],[7.232206201238691,48.0694937768151],[7.232199117201644,48.069494301890266],[7.23219461642351,48.06949518465946],[7.232156263709864,48.069499807919016],[7.232156227747106,48.06949935862984],[7.232019666276574,48.06951670500442],[7.231921528485237,48.06954375401199],[7.231880461517864,48.069554782922246],[7.231819940774205,48.06957137755574],[7.231770145471283,48.06958758653496],[7.231633186655936,48.06963189154482],[7.231626619867268,48.069633839850894],[7.231619284624697,48.06963626636665],[7.231612859095248,48.0696382997097],[7.231605143220437,48.0696410102585],[7.2315790676556,48.069649517517156],[7.231579259256996,48.06965023155999],[7.231578864242612,48.069650335878094],[7.231608357060947,48.06976516525296],[7.231625259179719,48.06983187453965],[7.231650695520706,48.06989097756513],[7.231676005040893,48.06995017526087],[7.231735394453742,48.07032094168778],[7.231734695334233,48.07032060635779],[7.231723117413709,48.07041113900572],[7.231723146181469,48.07041149843697],[7.231723019302835,48.07041159311502],[7.231793279250807,48.070718256333784],[7.231828812761695,48.07086990625412],[7.231829617192051,48.07086987733199],[7.23182980160906,48.07087050151606],[7.231937202830381,48.07086844233684],[7.231978630988311,48.070866952801396],[7.232026164295422,48.07086614490305],[7.232074250860712,48.070867209536665],[7.232120115750525,48.07086907496443],[7.232281577205584,48.07087047864941],[7.23229718706482,48.0708706382893],[7.23235672727727,48.07087201189349],[7.232348233392385,48.07089691909219],[7.23232549614348,48.07089674539489],[7.232105447261064,48.0708941140394],[7.232065067494466,48.07089358336304],[7.232025166475596,48.0708923145284],[7.231998754337467,48.0708932641796],[7.231975375502153,48.07089347394852],[7.231900311718716,48.07089301875452],[7.231834063293161,48.07089350819834],[7.231814455281834,48.07087195443395],[7.231814857497033,48.070871939972925],[7.231708901316714,48.07041327221086],[7.231713059440859,48.07038626803212],[7.231719038408159,48.07032657625578],[7.231717874926439,48.07032715878477],[7.231663379429035,48.06995873966423],[7.231661111526966,48.06995224270397],[7.23161300650217,48.06983501854644],[7.231596911383748,48.06976999245693],[7.231568138749806,48.069650721483654],[7.231564594388487,48.06964003494097],[7.231598733070197,48.069629795933906],[7.231543276842088,48.06954167328878],[7.231488694059133,48.069565263580465],[7.231225354357106,48.069668451819005],[7.231017315923886,48.069757035206806],[7.2309058994422,48.06980970313053],[7.23069105912072,48.069880507127806],[7.230510357317458,48.06994107204045],[7.230376769841935,48.069985524681705],[7.230258551570783,48.070020413150225],[7.230161209174843,48.07004734191317],[7.230082348897213,48.07007000170744],[7.229922090516442,48.070117214659156],[7.229861424740732,48.070132011121686],[7.22986050062796,48.07013222456441],[7.229860033719202,48.07013143029729],[7.229776044742584,48.070150489303934],[7.229741859728938,48.070158476512674],[7.229713422832591,48.070164364704816],[7.229667133375552,48.07017567059703],[7.229653659493738,48.07017867804452],[7.229551307758276,48.07020182117675],[7.229547082204511,48.070202784066815],[7.229524776553775,48.070208001306284],[7.229483071656804,48.07021779063563],[7.229489417060767,48.070233242848175],[7.229494079238567,48.07024614217418],[7.229513974904831,48.07029147664609],[7.229146633277901,48.070380463970196],[7.229148340550966,48.0703849985536],[7.229122362068887,48.070388004659],[7.22907102762817,48.07039507587938],[7.228982593986185,48.07040564283369],[7.228965315713215,48.070408156075416],[7.228785282199278,48.07045526686042],[7.22879786237398,48.07048311136695],[7.228803304788744,48.070494000124164],[7.228618609328799,48.070538304296505],[7.228423092184997,48.070585159722064],[7.228431000368715,48.07059325642604],[7.228204180333921,48.0706606109922],[7.228006563159884,48.07071988704327],[7.227994336348712,48.07072167798556],[7.2278202546032,48.0707524426372],[7.227771842922311,48.07076076002851],[7.227667111719614,48.07077939099153],[7.227594488155882,48.07079263317754],[7.227490214082686,48.07081025628233],[7.227375041869625,48.07083115442171],[7.227302671936938,48.070844207080725],[7.226962004789534,48.07117779552034],[7.226818208674888,48.071323360206684],[7.226789381355439,48.07138828767147],[7.22673135537122,48.071515182070485],[7.22684223747776,48.07155833095038],[7.22690748368662,48.07156211578902],[7.226985282565867,48.071564818990815],[7.227049092143202,48.071560725133175],[7.227178581118173,48.07155238004532],[7.227304344722997,48.07154452907296],[7.227358218418286,48.071540611656594],[7.227535449357732,48.07152397303585],[7.227593498413999,48.07151846368873],[7.227787938487035,48.07150012518674],[7.228226202674617,48.07145887961867],[7.228257410601164,48.07145568587781],[7.228326582250109,48.071436259191984],[7.228414334810185,48.07141210973671],[7.228527580079341,48.071380556026114],[7.22852743163273,48.07138038112682],[7.228527960739361,48.071380272002465],[7.228619065602152,48.07141989429547],[7.228620033104288,48.07142526650515],[7.228620061851525,48.07142562593691],[7.228619927778099,48.071425630753616],[7.228619750583822,48.07142509642268],[7.228532280150949,48.07143932312391],[7.228270002643763,48.07148199802088],[7.228263236752211,48.071483142231806],[7.227804969111599,48.0715264581747],[7.227509911486837,48.07155435821672],[7.227362456779435,48.071568395410814],[7.22730839869005,48.07157168863818],[7.227156004595835,48.07158112681612],[7.226986216748535,48.07159164001793],[7.226982321418614,48.07159168979028],[7.226730099455188,48.0716003867997],[7.226697555207338,48.071586866538674],[7.226661740123514,48.07153579523131],[7.226590117346608,48.071433742436916],[7.226567729323448,48.07142111907157],[7.226427624258539,48.07134207170555],[7.226222842133735,48.07162463890361],[7.226200815713439,48.071648499456195],[7.226017749047746,48.07185287686314],[7.225810858526424,48.07208388237641],[7.225917955660569,48.07218060675575],[7.22594754315935,48.07221937573058],[7.226000646420265,48.07238075922649],[7.226031912404273,48.07244893582332],[7.226076866245906,48.072479763562086],[7.226108604034459,48.07250169373585],[7.226109013446292,48.07250176915237],[7.226110016625194,48.07250254417775],[7.226152669686821,48.0725129981829],[7.226174588848443,48.072553394168146],[7.226041038890038,48.072733013956956],[7.226048757880955,48.07274715536569],[7.226052813703818,48.07275584110729],[7.226086455064419,48.072771304715744],[7.226347766876708,48.07285438138239],[7.226416555779953,48.072867141050835],[7.226478255503029,48.07289718713701],[7.226593304026611,48.07295541629746],[7.226747850895808,48.07303340426294],[7.226803902950563,48.0730617605553],[7.226852101874787,48.073086073261436],[7.226895950458938,48.073108109039794],[7.226906183557476,48.07311332875639],[7.226988704439688,48.073154882666486],[7.226995420368642,48.07315815601354],[7.227068167502877,48.07316996213204],[7.227106312834047,48.073176162011485],[7.227113802075758,48.07317733491452],[7.227179988638762,48.073170992915266],[7.227246527126779,48.07316400742795],[7.227747814583057,48.073110317717806],[7.227841553880248,48.07310046247137],[7.227875721975769,48.073093918371455],[7.228585523854541,48.07295739834907],[7.228508303535295,48.072877896480676],[7.228412303686624,48.07281240636066],[7.228376997236994,48.07278790148622],[7.228362406449243,48.072780315184346],[7.228316555814201,48.07275510767591],[7.228315298817501,48.07275452201792],[7.228315798132328,48.07272882101069],[7.228315917836144,48.07272863647856],[7.228316885119311,48.07272896219563],[7.228561254940813,48.07242532384319],[7.228590535092596,48.07240138247745],[7.228647442026834,48.07237653871858],[7.228864800690485,48.07228158755042],[7.228975750581066,48.0722330840068],[7.229088084718885,48.072195164316625],[7.229200259252743,48.07217374149819],[7.229366115968386,48.072142639701916],[7.229591968077221,48.072100099862574],[7.229696066784602,48.07208194058336],[7.22975728838152,48.07207406327804],[7.229835944375805,48.07206393733215],[7.229846062180818,48.072062672578994],[7.229936227381251,48.07205690912852],[7.230014086429786,48.07205194832337],[7.230049841287481,48.07205012268829],[7.230090894432968,48.07204729558719],[7.230158614090932,48.07204332988725],[7.230238869142575,48.072031343876034],[7.230281975325183,48.07201384409843],[7.230309608301448,48.072002938195],[7.230345169900443,48.071980212454626],[7.230345071774837,48.071980666562304],[7.230545422009324,48.07191182627796],[7.230544193768557,48.0719116000746],[7.230544327843038,48.071911595255706],[7.230584118773923,48.0719047581139],[7.230774885002146,48.071869064196676],[7.230774073365498,48.071869003253795],[7.230931795366761,48.0718404444791],[7.230937573555725,48.07182527748281],[7.231009972697102,48.07181258203048],[7.231151991275095,48.071787741492166],[7.231312459033576,48.07175989453456],[7.231407765131841,48.07174277070523],[7.231546079609291,48.071718693651434],[7.231556615962698,48.07171425962984],[7.231603058913489,48.07169645914862],[7.231728736751985,48.0716505774437],[7.231815184827641,48.07161854207888],[7.232304577000033,48.071463522779986],[7.232290895202316,48.071524388456325],[7.232215488764046,48.07154989925983],[7.232182352213023,48.07156091340693],[7.232130412562777,48.07157891176678],[7.232102806365501,48.07158846541383],[7.23206430941215,48.07160138447126],[7.232021615588923,48.0716156259248],[7.231949847873697,48.07163956385713],[7.231868896318269,48.07166635519009],[7.232000657346608,48.07181238247335],[7.232118318272447,48.07192503285988],[7.232120595522395,48.071928285284464],[7.23213996783888,48.07195696666522],[7.232140446593815,48.07195622852083],[7.232320295158496,48.072130174726766],[7.232531302396517,48.07225830256879],[7.232531802729414,48.07225783399593],[7.23253250907313,48.072258259178426],[7.232596917249162,48.07229018733868],[7.232597862969621,48.072290243447746],[7.232706949605761,48.07234111146807],[7.232900262631907,48.07242959297478],[7.233111617026758,48.07252003873022],[7.233233636101149,48.0725728743377],[7.233316172181847,48.072607844938744],[7.233354394073997,48.07257637141964],[7.233363819784185,48.072556387054526],[7.233394550078294,48.072490127692696],[7.233417704842333,48.07244009137605],[7.23342890139995,48.07239688340482],[7.233456829273983,48.07228891080664],[7.233471098258765,48.07223369695799],[7.23349100729386,48.072156562200625],[7.23349882256777,48.072126542701206],[7.233524224418704,48.07208778018742],[7.233567988246073,48.07202141242843],[7.233567571632038,48.0720212471802],[7.233567684120649,48.072020972785076],[7.233577546642374,48.07200980408559],[7.233576249069651,48.072010391454626],[7.233652238324397,48.07194178318102],[7.233864158810535,48.07175050327886],[7.233976037834358,48.071612926333195],[7.233978739386366,48.07160300646163],[7.234000232084691,48.07152383202265],[7.233982971574534,48.071437580643206],[7.233983565433745,48.0714382802129],[7.234022300023481,48.07143337232294],[7.234032610381525,48.07148824283166],[7.234037002601329,48.07151286686186],[7.234039008018139,48.071522797650225],[7.234036778010153,48.07153188951379],[7.234036400029787,48.07153388567255],[7.234029808093993,48.07156070715171],[7.234021320943468,48.07159408518867],[7.234014736188529,48.07162099652352],[7.233955798300031,48.07169935511489],[7.233903291644621,48.07176567707825],[7.233869495102766,48.07179699164388],[7.233903187763714,48.071808035539675],[7.23461031493498,48.072036365629124],[7.234762970011132,48.07208557424541],[7.234787815967372,48.07209360187356],[7.234848314884565,48.0721069252683],[7.235006402800794,48.07214169971321],[7.235027905982395,48.07214660337132],[7.235056249660792,48.07215297311707],[7.235045513563675,48.07207937376755],[7.235046496125856,48.072084925637135],[7.235119760110269,48.072093103548],[7.23515832565893,48.07209598315107],[7.235169016710916,48.0720970085891],[7.235360086319122,48.072112121960025],[7.235381739801723,48.072113866068435],[7.23546509907047,48.072115462470066],[7.235609187820032,48.07211982989506],[7.235651919813481,48.072121175911086],[7.235799192170245,48.07212164364758],[7.235966887053094,48.07212191693716],[7.23610333794977,48.07211150916599],[7.236143275025548,48.07210817941314],[7.236252377390592,48.07210046793623],[7.236367969956386,48.0720781041152],[7.236481546839959,48.07205743482444],[7.236593692020675,48.072037357651936],[7.236713373060528,48.07201232305849],[7.236649505690187,48.07186971442025],[7.236650760022318,48.07186858787277],[7.236636822983439,48.071842324890454],[7.23662230646095,48.071815542064705],[7.236645213188511,48.07181111290048],[7.236691160705776,48.07180224973275],[7.236644547472588,48.07169038061042],[7.236604901494051,48.07169901694873],[7.236602220026226,48.07169911346447],[7.236496073657529,48.07151549146908],[7.23651970996946,48.07150842268252],[7.236601294293175,48.07148620122972],[7.236539682532642,48.07137676436221],[7.236594419874811,48.07136181737747],[7.236772408613178,48.07130936115213],[7.236939477829179,48.071259911094636],[7.236906921694673,48.07121796493033],[7.236898950614271,48.07120720982961],[7.236852680341023,48.071133177399346],[7.236779595846413,48.07106011014828],[7.236719541440309,48.071015411166336],[7.236615665510596,48.070927231161065],[7.23654402166475,48.07087213525124],[7.236449198576043,48.07079624559654],[7.23637104026115,48.0707269654006],[7.236322605018938,48.07069302249538],[7.23631988487764,48.070690957598956],[7.23630718219625,48.0706817723108],[7.236196962297627,48.07060166044486],[7.236151323884751,48.070569058680306],[7.236089359489732,48.07053407062446],[7.236150146047533,48.070569461537914],[7.236061721001742,48.07051803328684],[7.236061199118589,48.07051823230261],[7.235534401015435,48.070286666301854],[7.235533984408915,48.07028650106041],[7.235534357825071,48.07028612715634],[7.235486336176092,48.07026595566516],[7.235484264285597,48.07026504016563],[7.23547682380571,48.070261981958126],[7.235382863500414,48.070222819681476],[7.235379961657911,48.0702218427027],[7.235233830561315,48.07014491467935],[7.235108604725224,48.07007885931672],[7.234983118260618,48.070012903323686]],[[7.232304577960721,48.07146351850619],[7.232305233940509,48.07146331468629],[7.232304577000033,48.071463522779986],[7.232304577960721,48.07146351850619]],[[7.235120506973921,48.07209235574337],[7.235158853151034,48.072096022537636],[7.23515832565893,48.07209598315107],[7.235120506973921,48.07209235574337]],[[7.236908448482123,48.0712200249708],[7.236898244249501,48.07120678467298],[7.236906921694673,48.07121796493033],[7.236908448482123,48.0712200249708]],[[7.235099323890608,48.07167515758204],[7.235101930479254,48.07169930513731],[7.235099846647715,48.071680005064636],[7.235100254880919,48.071715316049655],[7.235103187737474,48.071785501401926],[7.235095790021023,48.071928151654696],[7.23509058817489,48.07203107162693],[7.235043384113421,48.072030967713864],[7.235043362520028,48.07203069814131],[7.23502709548201,48.07202569620759],[7.235005738136867,48.07201925532322],[7.234687360906838,48.071922209805635],[7.234625752849421,48.071903429133975],[7.234685945878731,48.07167119619249],[7.234780242533962,48.0716817716705],[7.23480224258396,48.07159383749302],[7.234809290240823,48.07157438911446],[7.234741965729284,48.07157320666589],[7.234724906338446,48.071494517904306],[7.234699514742291,48.071412524250945],[7.234643772713563,48.07142164890677],[7.234581279943895,48.0713464871267],[7.234509728254678,48.07125894479415],[7.234022292827499,48.07143328246532],[7.234761648870442,48.071167605014686],[7.234760631195752,48.07116665034714],[7.234785991342163,48.071115633139705],[7.234786135286893,48.07111743029136],[7.23487435170954,48.07121158221261],[7.234943078536729,48.07129742365317],[7.235016790294223,48.07141192298608],[7.235055445728026,48.07149163701835],[7.23509372311679,48.0716002019269],[7.235099726111008,48.07167514310981],[7.235099323890608,48.07167515758204]],[[7.234792321518834,48.07111576585501],[7.234805867319875,48.0711136563975],[7.234786135286893,48.07111743029136],[7.234792321518834,48.07111576585501]],[[7.234806523285696,48.0711134525636],[7.234819666869385,48.07111135757575],[7.234805867319875,48.0711136563975],[7.234806523285696,48.0711134525636]]],[[[7.235382722232523,48.070222734648276],[7.235381309553643,48.070221884316304],[7.235379961657911,48.0702218427027],[7.235382722232523,48.070222734648276]]],[[[7.236647781987283,48.072950634569494],[7.236867751875164,48.072898469734305],[7.237092871087985,48.07284512782873],[7.237360787852694,48.0727855587381],[7.237540325222227,48.07274566212112],[7.237499811938181,48.07265457087668],[7.236917731428842,48.072780510464334],[7.236921826755489,48.072786310743865],[7.236464116742287,48.072898759485504],[7.23636285148425,48.07291871522973],[7.236396869728546,48.07300931961688],[7.236647781987283,48.072950634569494]]],[[[7.240929378053917,48.07296920222895],[7.240983937294077,48.073230287388625],[7.24099487948062,48.07328288181191],[7.241010003749619,48.07340940154439],[7.2410135771185,48.07356625621189],[7.240986135356504,48.073690164193714],[7.24098087125561,48.07379552010899],[7.240974773755118,48.073917307290245],[7.240962035105498,48.07416919194578],[7.240952454693137,48.07421738909943],[7.241051934298821,48.07423885737062],[7.241053527532967,48.074191668916555],[7.241059016557023,48.074043859932985],[7.241061855808923,48.073856314801],[7.241070650354438,48.07379832320958],[7.241092427724585,48.07359207234324],[7.241095220338938,48.07356989311502],[7.241091446440284,48.07336528377241],[7.241080772377163,48.07327915625152],[7.241028284469343,48.07297014447362],[7.241025324766024,48.07295168705141],[7.240936429434581,48.0729447968688],[7.240924916175344,48.07294710413944],[7.240929378053917,48.07296920222895]]],[[[7.242386275335589,48.07359402020371],[7.242371363770879,48.07352381591044],[7.242369747447018,48.07351540318089],[7.24235193204722,48.07343079472773],[7.242347372880512,48.0734058164429],[7.242324354473131,48.073320043752595],[7.242295434874155,48.07321267545915],[7.242248385739535,48.073080457483215],[7.242237733996922,48.0730499312921],[7.242114632557399,48.07310104841602],[7.242159855372947,48.07326748654079],[7.242180317128636,48.07333983386962],[7.242208464804096,48.07349958788395],[7.242200420157561,48.07349987781325],[7.242202871610015,48.07353042918943],[7.241909462596944,48.073558846412304],[7.241886574277125,48.07356183405108],[7.24189189294144,48.07358119773078],[7.241899214167564,48.07360373344859],[7.241941870412306,48.07376332509098],[7.242255757384598,48.073753815270884],[7.242289498339844,48.074006728683266],[7.242418300999662,48.07402831050996],[7.242419028695481,48.07401224348765],[7.242421765461244,48.07390391453755],[7.242413257215913,48.07374426380149],[7.242402790596409,48.073685884853305],[7.242386275335589,48.07359402020371]]],[[[7.243012923699982,48.07348392967121],[7.243030637134907,48.07359071049068],[7.243175008216736,48.07358009924357],[7.243166670055487,48.073479559007005],[7.243065771678165,48.07310867029963],[7.24298012781305,48.072916113694],[7.242849655377729,48.07294406693151],[7.242906238667262,48.07308783649059],[7.242917305850559,48.073113481346425],[7.242984475349396,48.073372399140396],[7.242640249688441,48.0734093186447],[7.24264562923018,48.073431113263055],[7.242679410968487,48.073587329810884],[7.242691443540846,48.07364511160404],[7.242694233966143,48.07367150538388],[7.242695468397695,48.07368353654963],[7.242712815397983,48.073852781571205],[7.242711530163726,48.07393059873942],[7.2427101110069,48.073963182073854],[7.24270094197538,48.07407345511141],[7.242700486565611,48.07407950935442],[7.242838407193712,48.07410914295315],[7.242953518516528,48.07413437180344],[7.243037784269333,48.074152241444075],[7.243046806564785,48.07415407902464],[7.243047403226261,48.07414810980437],[7.243050790122917,48.07403281836948],[7.243055831731089,48.07386610066034],[7.243047445502395,48.07370464316139],[7.243012923699982,48.07348392967121]]],[[[7.244309160281579,48.07619053866634],[7.244362618044817,48.07626178603265],[7.244388412248866,48.076301678898936],[7.244476326874621,48.07643864060537],[7.24452068571656,48.07634295918165],[7.2446395788958,48.07608192924335],[7.244708440468429,48.075929671943605],[7.244772230481552,48.07579129521985],[7.244840576608589,48.075639326724314],[7.24488820202142,48.0755357772159],[7.244976817927516,48.07535658326095],[7.245094157233366,48.07512147212879],[7.245194383188473,48.07491942009175],[7.245089114703603,48.07489455931136],[7.24497878011278,48.07487024160527],[7.244899868571243,48.07485209009585],[7.244842342617759,48.07483902494022],[7.24480240467522,48.07483064241235],[7.244777971759952,48.07487468949581],[7.244654428463482,48.07509785825321],[7.244604235250255,48.075089034403724],[7.244507763096199,48.07506989374602],[7.244415436087122,48.07505213553414],[7.244340313564771,48.07503763193483],[7.244217734357568,48.07501321432395],[7.244164215146281,48.07500315846142],[7.244073236392818,48.07498544149359],[7.243869776896201,48.07494681742844],[7.243538717449941,48.07488152257471],[7.243065292790404,48.07478819567151],[7.242598203353459,48.07469671126959],[7.242405721923149,48.07465913093829],[7.242336438069143,48.07464531683423],[7.242418314142605,48.074730590297946],[7.242425355707336,48.074737906322724],[7.242429489207607,48.074740821317675],[7.242566207755623,48.074834211173055],[7.242644756121297,48.07488806355452],[7.242728581353854,48.0749406442895],[7.242897123345019,48.07504685485975],[7.242906484731438,48.07505291572221],[7.243356119003227,48.07533733752647],[7.243384017535054,48.07532137243168],[7.243500709809616,48.0753980906574],[7.243484439060403,48.075416520340674],[7.243579572529887,48.075477614419384],[7.243754646391704,48.075588094213806],[7.243853846243232,48.07564958218736],[7.243958396917609,48.07571574347632],[7.244052300196004,48.07580337589872],[7.244028692272573,48.07581918645163],[7.244162988941584,48.075997912419474],[7.244170697099675,48.07600682641736],[7.244233448783558,48.07608999463218],[7.244299605000206,48.07617871742175],[7.244309160281579,48.07619053866634]]]]}}]}
