{"type": "FeatureCollection","name": "aoc_geojson","features": [{"type":"Feature","properties":{"dt":"Bordeaux","type_prod":"Vins","categorie":"Vin tranquille","type_denom":"appellation","signe":"AOC","id_app":14,"app":"Bordeaux","id_denom":67,"denom":"Bordeaux","insee":"33539","cvi":"1B105D, 1B105S, 1R105S, 1R105S1, 1S105S, 1S105S1","nomcom":"VAYRES","insee2011":"33539","nomcom2011":"VAYRES","id_aire":79,"crinao":null,"grp_name1":null,"grp_name2":null},"geometry":{"type":"MultiPolygon","coordinates":[[[[-0.352208385591194,44.898934495216814],[-0.352172980543266,44.8989870203712],[-0.352141733835483,44.89903275138643],[-0.352105289285051,44.8990848573208],[-0.352064969617426,44.8991378912767],[-0.352022185594167,44.899194243790234],[-0.35196927509151,44.899263608350395],[-0.351918533083078,44.89932470686492],[-0.351854912389069,44.89939944118776],[-0.351786719125753,44.89947404315782],[-0.351690170158194,44.899572750970414],[-0.351595923429222,44.8996696769937],[-0.351547505716044,44.89972088252208],[-0.351532125027708,44.89973720720179],[-0.351463683172116,44.899811906575735],[-0.351405698504478,44.89990034835573],[-0.351369719411756,44.899945410930556],[-0.351203600850083,44.90040343780453],[-0.351139903286878,44.90064669086247],[-0.351105092960438,44.90079408981294],[-0.351078381559444,44.90090727060136],[-0.351043258358772,44.90103458311381],[-0.351016677838347,44.90113298091776],[-0.350983686901514,44.901219586752774],[-0.350975215507745,44.90123696445064],[-0.350895071363917,44.90121982795161],[-0.350664270152158,44.90162889043951],[-0.350637280911281,44.901654666997786],[-0.350545061040936,44.90173891463248],[-0.350477842820581,44.90179807646117],[-0.350416788042524,44.90184155232353],[-0.350385068926299,44.901853954139185],[-0.35028852175305,44.901950678002834],[-0.35029063643873,44.90196485251988],[-0.350287287757461,44.90197459596749],[-0.350277728844084,44.90198650934563],[-0.350263181806209,44.9020040703013],[-0.350234725921641,44.902039263066705],[-0.350143177651866,44.90214538825663],[-0.350080508409599,44.902231897945526],[-0.350009463775,44.902356508987346],[-0.349933372676177,44.90249641170958],[-0.349897492728247,44.902562287554815],[-0.34970791342682,44.90290170620108],[-0.349624570392825,44.90304759488074],[-0.349416453246202,44.902993855562386],[-0.349374845509296,44.90298294497143],[-0.349081463928235,44.90290915782536],[-0.348431643839768,44.90274816311797],[-0.348443943272209,44.90272904811316],[-0.348227917361505,44.902670228300515],[-0.348022404169335,44.90261757944686],[-0.347636026354527,44.902519467715834],[-0.347395328562737,44.90246364305343],[-0.347231522704938,44.90242568595376],[-0.347148104425494,44.90288698028133],[-0.346722309444211,44.90273391138439],[-0.346659589153176,44.902711290267256],[-0.346205930317296,44.902543829717196],[-0.346088272262326,44.902490872761376],[-0.346030675252187,44.90246485275062],[-0.3459657810687,44.90243553808656],[-0.345824538125974,44.90237193697479],[-0.345369399800045,44.90219658757997],[-0.344675713882924,44.90192478917963],[-0.344514949873575,44.9018612338175],[-0.344431067501685,44.90182816469188],[-0.344380671406693,44.90180805484879],[-0.344311725439995,44.90178093397187],[-0.343835926290739,44.90159277366508],[-0.343674768390305,44.90152895866605],[-0.343595429514408,44.901497644550965],[-0.343380510934785,44.90141255864166],[-0.343350776130793,44.901400837788906],[-0.343245506261392,44.901364176367096],[-0.342989269777422,44.90127510708962],[-0.342910415323044,44.901247652895954],[-0.342824312314219,44.90121771340538],[-0.342741610639413,44.90118740110688],[-0.342282690778855,44.90182914127486],[-0.342155001451921,44.90177585146062],[-0.341684651930735,44.902417482372975],[-0.341596586491763,44.902426981444826],[-0.340725861096459,44.90307398762724],[-0.340685271008415,44.90307800239278],[-0.339744411673054,44.903627172270696],[-0.339722147836365,44.9035961212366],[-0.339165006751166,44.90436525095598],[-0.338953174326892,44.90429159825658],[-0.338830111318286,44.9042478978684],[-0.338686029318191,44.90419617824445],[-0.338607178219477,44.90416881092635],[-0.338500528062405,44.90413029399002],[-0.338474797989678,44.90410916951415],[-0.338391504956425,44.90406256077566],[-0.338373775021814,44.90410553819118],[-0.338128528659018,44.90438226611645],[-0.338083148460267,44.904433644392064],[-0.337919498806769,44.904404680405115],[-0.337702665603394,44.90436415793444],[-0.337748104983046,44.9043137693149],[-0.33753134184593,44.9042744159196],[-0.337022427081416,44.9041817527173],[-0.336858086963547,44.90415181668844],[-0.336473271890115,44.90408191562306],[-0.336248571954875,44.904041266298286],[-0.336063861188049,44.90400779585123],[-0.335718436075423,44.903945630233046],[-0.335594223341287,44.90392304788516],[-0.335216975575089,44.903854537326666],[-0.334474853176431,44.903720835624476],[-0.334198335794938,44.90367020352206],[-0.333802855961624,44.903597820073394],[-0.33327525990932,44.903502096360825],[-0.333051830346488,44.90346140258284],[-0.332862249460653,44.90342699173591],[-0.332478879400501,44.903357754699705],[-0.332299564030013,44.903325377824856],[-0.332179716319877,44.90330365201913],[-0.332141142157537,44.90329678932928],[-0.332121915694247,44.903293311102836],[-0.332013213582508,44.903273503539246],[-0.331662886176077,44.90320976051467],[-0.331508959126118,44.90318211765584],[-0.331148432242275,44.903117417446786],[-0.330938851905321,44.90307927784189],[-0.330873218616502,44.90306727883588],[-0.330635951742981,44.90302411170657],[-0.330485564397278,44.902996271173386],[-0.330364926607988,44.90297402646164],[-0.330077355132673,44.90292074208133],[-0.329980120749071,44.902901850266296],[-0.329912393284713,44.902888742013126],[-0.329645977856422,44.90283725520692],[-0.329412260671455,44.90279190643866],[-0.328827235239974,44.90266616357214],[-0.328594384077128,44.90262042670486],[-0.328347768851629,44.902560683546675],[-0.328121883848565,44.90252762333978],[-0.327628235631417,44.902403190654255],[-0.327166451340352,44.90226653671862],[-0.326590815488465,44.90207444689095],[-0.326534282292029,44.90205550426126],[-0.326375278984469,44.90199989072538],[-0.325679240339384,44.90175940699493],[-0.325559287117916,44.901720825933936],[-0.3252130936972,44.90159818448431],[-0.324985082779529,44.901499217759564],[-0.323456963003253,44.900835944448325],[-0.323405171050665,44.90081352414873],[-0.323778099798976,44.90068782567702],[-0.323581351243257,44.900352450910724],[-0.323492905774342,44.90021857463289],[-0.324519581028339,44.899793677794314],[-0.325947446840684,44.89914714742828],[-0.32615387099011,44.898997681440555],[-0.326983813448925,44.89859983102158],[-0.32841144247618,44.89771951677719],[-0.328748958900374,44.89754881370003],[-0.328509865228262,44.89728428558375],[-0.328508753558725,44.89727837133441],[-0.328871553889743,44.89680313285971],[-0.32890746611667,44.896767361925875],[-0.329180370022248,44.89652280807107],[-0.328990163735035,44.89620184520696],[-0.328954933381357,44.89619569235704],[-0.3287923721834,44.89633411647133],[-0.32868018395501,44.896417682174295],[-0.328592787193046,44.896510957823835],[-0.328469365665491,44.89663811515977],[-0.328274282019866,44.896807521653436],[-0.328155838235856,44.89691389311422],[-0.32805648996902,44.89702158446422],[-0.32798323000334,44.89710100874457],[-0.327819194654549,44.89727236739415],[-0.327805025302306,44.897287841249536],[-0.327672177569544,44.89746132878888],[-0.327526400260266,44.89757716975383],[-0.327470877388853,44.897609382649065],[-0.327279795139516,44.89771811023167],[-0.327186695255133,44.89778371013642],[-0.327165699642376,44.897803804085584],[-0.327152505945943,44.897812219664544],[-0.32713252747006,44.89782381234196],[-0.327107273768238,44.89784051940302],[-0.327082360045,44.897860820859634],[-0.327059655040751,44.89787988463349],[-0.327043195054715,44.89789308404053],[-0.327018515408759,44.897908782616234],[-0.326997336780803,44.89792365536078],[-0.326973428642158,44.89794167379071],[-0.326951079560867,44.897964601809065],[-0.326937701812115,44.897989153412546],[-0.326930860440161,44.89800206458619],[-0.326918942088769,44.898017020296024],[-0.326901096678941,44.898032514061605],[-0.326883996976626,44.898043479743414],[-0.32685202702041,44.89805597236486],[-0.326819404388154,44.89807028682754],[-0.326771552983788,44.89800954143841],[-0.326049831631044,44.89843199403114],[-0.325619226193656,44.89874145986009],[-0.325141321271271,44.89908937755188],[-0.324059801690533,44.899431485076995],[-0.323527603076894,44.89957591997443],[-0.322492267913458,44.899850395082126],[-0.322328497407168,44.89944869863208],[-0.321297038751192,44.89975656909017],[-0.321107299799126,44.89951785398225],[-0.321018473193818,44.89940525440364],[-0.320855006351913,44.899196932758876],[-0.320813862735568,44.89914445508459],[-0.320685272964813,44.89901123683957],[-0.32062234247184,44.89894625398286],[-0.320506935607412,44.89882796076144],[-0.320289051241403,44.89859558321205],[-0.32050379040285,44.89855852252917],[-0.32090251558512,44.89848964520679],[-0.320792923084842,44.898103358282256],[-0.320754178689159,44.89796718267687],[-0.320742621757989,44.89792616580333],[-0.320738774777002,44.89791258346713],[-0.320730932956414,44.89788506275919],[-0.320700385269278,44.897769548548474],[-0.320689788905062,44.89772976454742],[-0.320680070336557,44.89769409955654],[-0.320704642013552,44.89768939962887],[-0.320811586841107,44.89766907930341],[-0.320860482350574,44.89765977691049],[-0.320869003295257,44.89765808022064],[-0.32080114088125,44.89747979098573],[-0.320763358355079,44.897391978094795],[-0.320893471297501,44.897366819475],[-0.320875977671066,44.89733688403574],[-0.320945303624776,44.8973300344117],[-0.321026346416155,44.897321933133924],[-0.321437729514376,44.89728070061114],[-0.321798009643887,44.897243608794874],[-0.32176300692616,44.897106420432685],[-0.321757314784221,44.89708523360443],[-0.321722158268294,44.89699040363542],[-0.321104858515061,44.89698201606166],[-0.320962710684364,44.89653407382515],[-0.320940547645887,44.89647237758036],[-0.320915565896942,44.89640589946633],[-0.320892695322777,44.896351523646416],[-0.321421076585805,44.89618585788505],[-0.322159583416049,44.89593757536156],[-0.323017235110454,44.89577664730152],[-0.323276456608433,44.89561965887539],[-0.322862067862338,44.894529151008676],[-0.322592626285309,44.89459272538099],[-0.322583627723355,44.89456280634703],[-0.322572078102708,44.894534765946275],[-0.32255778160497,44.894507438550704],[-0.32254147638509,44.89444619813141],[-0.322536670275351,44.894382180495114],[-0.322531649652911,44.89432952369628],[-0.322520245366047,44.89428895304141],[-0.32250093349411,44.894251863149876],[-0.322495636922827,44.89424805662212],[-0.322471809055472,44.89422461903503],[-0.322446836900805,44.8942011255729],[-0.322424451748245,44.89418278132399],[-0.322397794452816,44.89416294285737],[-0.322360052464593,44.89414217449373],[-0.32233573834932,44.89413407088047],[-0.322300899024059,44.89412592176677],[-0.322213048645035,44.894117466540905],[-0.321840651258607,44.89410373786258],[-0.321649978558041,44.89410160274646],[-0.321613629904936,44.89410007692663],[-0.322220996122998,44.89330980384051],[-0.322256081865633,44.893264327535235],[-0.322067086183779,44.89317914770812],[-0.320500572947289,44.89247319656713],[-0.320787473375163,44.892177871622856],[-0.320862791309541,44.89209460596307],[-0.320693376889961,44.89204028815969],[-0.319907204561311,44.891923673032416],[-0.319919204381161,44.89183725510598],[-0.319844821893101,44.891664297398016],[-0.319834090289696,44.89167146699175],[-0.319817405616565,44.89167872448733],[-0.319797634663729,44.89168310050105],[-0.319786029535982,44.89168407833055],[-0.319766571907589,44.89168303811666],[-0.319743794990503,44.89167732110221],[-0.319727085830564,44.8916691697866],[-0.319576391237919,44.89158410232857],[-0.319401059685088,44.8914661587319],[-0.319231359383276,44.89130839628379],[-0.31917027876964,44.89122308207222],[-0.319156595663602,44.89120393639192],[-0.319124832838673,44.89115775631428],[-0.31909907692794,44.89112311148093],[-0.319076287783814,44.89108504372156],[-0.319066518226546,44.89106776354086],[-0.319049786815672,44.89103780517247],[-0.319025697968203,44.890994910098456],[-0.319003832579304,44.89094888466624],[-0.318983414826512,44.890908042573216],[-0.318959294734309,44.890856046894896],[-0.318940433436985,44.890807228220375],[-0.318925103037786,44.890764521861165],[-0.318907891032933,44.89071358125205],[-0.31889399348723,44.89065866664635],[-0.318881777130274,44.89060216984035],[-0.318878545498281,44.89058397328199],[-0.318871146162802,44.89054247164411],[-0.318867441489561,44.890488423802736],[-0.318868990213024,44.890437463018344],[-0.318871641765759,44.890388001205174],[-0.31887503247656,44.89034031957757],[-0.31889640494223,44.89026659807434],[-0.318914617885803,44.89021018282249],[-0.318940245458209,44.890146246653686],[-0.318975165656481,44.89005725127595],[-0.318987774448296,44.89000253549689],[-0.318986919198427,44.8898852324778],[-0.318918367867117,44.88964361335862],[-0.31890432097234,44.88959474089048],[-0.31888704311777,44.88953839543022],[-0.318866255806659,44.88947629747122],[-0.318854837425013,44.88942257037249],[-0.318845448486738,44.88935814913845],[-0.318841549389804,44.88928581396985],[-0.318842920141505,44.88920827486695],[-0.318845042441207,44.88914558212301],[-0.318852676404033,44.889086058824695],[-0.318860351134941,44.889052937736516],[-0.318879605627364,44.88897342215542],[-0.318882046583649,44.88896325640157],[-0.318899736394945,44.88889586288371],[-0.318934752830918,44.888772080616825],[-0.318964520649578,44.88867314651821],[-0.319019425961293,44.88845487072283],[-0.319039651477796,44.888348922658565],[-0.319049703598352,44.88829599549553],[-0.319071984522374,44.888044812197826],[-0.319072512107865,44.88790160516365],[-0.319049033239053,44.88749832580331],[-0.319141314975178,44.88690910440552],[-0.319169680541385,44.88678434946574],[-0.319195785751834,44.88649069828352],[-0.319308097979636,44.88579445324597],[-0.319390161887954,44.885566083496016],[-0.319503842316879,44.885317213487525],[-0.319673637849712,44.88497988541369],[-0.31977505546534,44.88463306744013],[-0.319825426626664,44.88453964470065],[-0.319858943318725,44.88450412863831],[-0.320118631799082,44.884317215019],[-0.320247701389918,44.88419782829869],[-0.32069527716567,44.88424715924297],[-0.32070658447798,44.88415337271835],[-0.320731175282929,44.88415552072238],[-0.321330262185291,44.884184095933186],[-0.32166757271384,44.88419292672191],[-0.321805304495033,44.88420277283516],[-0.322004680711918,44.884215459894754],[-0.322633245289578,44.884225934133305],[-0.323045190696908,44.884219370036924],[-0.323745512726842,44.88420867570955],[-0.324016794163788,44.88419199161967],[-0.324217197028205,44.88417706902932],[-0.32464769584734,44.884147775251236],[-0.325597421824028,44.884087065114116],[-0.326289372581553,44.88404209170232],[-0.326239610150817,44.88399807513661],[-0.326289187103242,44.88399406633465],[-0.327023410780623,44.88395232726625],[-0.327098179237326,44.883949906019666],[-0.327295869128381,44.88394055611691],[-0.327305063442422,44.88399299741526],[-0.327449122302987,44.88398768790596],[-0.3278555363005,44.884050299327356],[-0.328572182573054,44.88400925720378],[-0.328809794377377,44.88397203361369],[-0.329169269927378,44.883931425003624],[-0.329273771733905,44.883919549655616],[-0.329601557598975,44.88389602057288],[-0.329915536551054,44.88388119523502],[-0.329987604956411,44.8838781321186],[-0.330502140214726,44.883853143134544],[-0.331295391329352,44.883804377966314],[-0.331294408326435,44.88376007111293],[-0.331791546700061,44.883738842328775],[-0.3317943051653,44.883781023262756],[-0.332047272549749,44.88377189806942],[-0.332250610357332,44.88375948609947],[-0.332239906360874,44.88377774023224],[-0.332718017091525,44.883756267464086],[-0.332751424180012,44.8837595899493],[-0.332958274259307,44.88374869328778],[-0.33391132039939,44.8837056546074],[-0.334494601969711,44.88367506775934],[-0.334978962534514,44.883652135855996],[-0.335319716245912,44.88362504615397],[-0.335481282352123,44.88361361301314],[-0.335695672824761,44.88358671456022],[-0.336949473960074,44.88346432175598],[-0.341674000401823,44.88293667909533],[-0.342223908491085,44.88287371343787],[-0.342608500124367,44.88282302273932],[-0.342731160669347,44.88282879100279],[-0.342814452643216,44.88281627988564],[-0.342949459511997,44.88279950778353],[-0.342960184357244,44.882790173278565],[-0.343009882487879,44.882777592364654],[-0.343064870004698,44.88276656431015],[-0.343126171953638,44.88275940122674],[-0.343189318175523,44.8827512814108],[-0.34326512446111,44.88274503312076],[-0.343282151868658,44.88274361911048],[-0.343359422840814,44.88273642548857],[-0.343446420210284,44.88272866849664],[-0.343649563037113,44.88270668914418],[-0.343681924723474,44.88270310096857],[-0.343790806687364,44.88269035893914],[-0.343794586379373,44.88268997473303],[-0.343860327278016,44.88268285774886],[-0.343942815671346,44.88267388446951],[-0.344047217653507,44.88266253875969],[-0.344159674346694,44.88265022935998],[-0.344266552169627,44.88265277669601],[-0.344450627919846,44.88265966648006],[-0.344501490239445,44.8826623693833],[-0.345562505702764,44.88253000676815],[-0.34569703714579,44.88251378630296],[-0.346988272639831,44.88236726121899],[-0.346937868658836,44.88242960885499],[-0.346879457375709,44.88257870855313],[-0.34691812561825,44.882848699445816],[-0.346969001906604,44.883040732998694],[-0.347057772885835,44.88303508246386],[-0.347082802608633,44.883259165362325],[-0.347140165759451,44.88355778991602],[-0.347288092254164,44.88426956577102],[-0.347291348018078,44.88429226677123],[-0.347421376872732,44.88501206199951],[-0.347497256185306,44.88543187413492],[-0.347498746490283,44.885495090183504],[-0.347499658830302,44.88552525132056],[-0.347498624773905,44.885569529152356],[-0.347495724138716,44.88561863938856],[-0.347492154541003,44.88580312309744],[-0.347616009901444,44.886253659732105],[-0.347727019913691,44.88666096787757],[-0.347748726100439,44.88674006541107],[-0.347897990879493,44.8872275940656],[-0.347912379146959,44.8872817700869],[-0.34795492523721,44.88744242438569],[-0.348015360112824,44.88765642820557],[-0.34806498956019,44.887729727212516],[-0.348074447031763,44.88779261291287],[-0.348127791288458,44.88780920734689],[-0.348384280365344,44.88788852270168],[-0.349122802905184,44.88811766647067],[-0.34927075510544,44.88816465868787],[-0.349459568965479,44.88822510665691],[-0.349675165063956,44.88829249612003],[-0.349817295057516,44.88833750054774],[-0.34991159628061,44.888367006390766],[-0.349977780466965,44.88838843921008],[-0.350039739987505,44.88841342387426],[-0.350086862342384,44.88843831557051],[-0.350132223345125,44.88846767606677],[-0.350167938818879,44.888490478852454],[-0.350219465098004,44.88854028972544],[-0.350236673186841,44.8885673457681],[-0.350248343430412,44.88859294685747],[-0.350295549823956,44.88898433608626],[-0.350340158387338,44.88930037699252],[-0.350361959968252,44.8895423102735],[-0.350335421074486,44.889564919194726],[-0.350311465480048,44.88957771765911],[-0.350270995083405,44.88958993313432],[-0.350263634348371,44.88966621286016],[-0.350121418168669,44.89115245637662],[-0.350101645346464,44.89135842664865],[-0.350100785188113,44.89136737405604],[-0.350085324985579,44.89152031629732],[-0.350085058163139,44.891522216778064],[-0.350064651138765,44.891736677070334],[-0.35003436116048,44.8920552488557],[-0.34995772953188,44.89299467429282],[-0.349774880225136,44.8931999780297],[-0.349592229605749,44.89340013884908],[-0.349420240115909,44.893600518396624],[-0.349277118308477,44.893770558947146],[-0.349092464373516,44.89399880528543],[-0.349274628720793,44.894055850227005],[-0.349436893322136,44.89410871911126],[-0.349584311560614,44.89417834663703],[-0.34977132753186,44.89426354076262],[-0.349909430732653,44.8943300245412],[-0.349895903935038,44.89447290567219],[-0.349865902953143,44.8946583679321],[-0.349835764871651,44.89487762773093],[-0.349806677702747,44.89501683303294],[-0.349787673208117,44.89510833323013],[-0.350807138510927,44.89536963469185],[-0.351006451076362,44.89542075250556],[-0.351176404481455,44.89546428527192],[-0.351007380170425,44.89567611270959],[-0.350497487909846,44.89631546327719],[-0.350598270557093,44.89636622099856],[-0.350748344959316,44.89644198508454],[-0.350797642163739,44.89648618602342],[-0.350192528524119,44.897010987865066],[-0.350232237223218,44.89703475175172],[-0.350263125109985,44.89705517716161],[-0.350461672896185,44.8971867926699],[-0.350667633192897,44.8972684402047],[-0.350848964653338,44.89734317083633],[-0.351020821649921,44.897433326612145],[-0.351084425078344,44.89746655212433],[-0.351015861118715,44.89792965438942],[-0.351004876012951,44.89800469200968],[-0.35094556555473,44.898406236174466],[-0.351023096676339,44.89852825616551],[-0.351154006375877,44.89856963338175],[-0.351297928144951,44.89860809445344],[-0.351426284577341,44.898634318836045],[-0.351618750548124,44.89866401480652],[-0.351857867037995,44.898689328317616],[-0.35204143248589,44.89870586498468],[-0.352127949396306,44.898727854639446],[-0.352167610171983,44.89874017462706],[-0.352201731606684,44.89875527520657],[-0.352226333622541,44.89877444805707],[-0.352243583890827,44.8987978980863],[-0.35225106451423,44.89882335528371],[-0.352250916716614,44.89884633932002],[-0.352245046758993,44.89886904554044],[-0.352233138581403,44.89890103577988],[-0.352208385591194,44.898934495216814]],[[-0.340104756315891,44.89887887403906],[-0.339965470144479,44.89883295988337],[-0.339369718395263,44.89957883119316],[-0.339329486877187,44.899701696925945],[-0.339384354956795,44.899777816319514],[-0.339563380482755,44.90005458317046],[-0.339639471903334,44.900195397796686],[-0.339685073022768,44.900309644280114],[-0.339750560568543,44.90049169020263],[-0.339771174893338,44.900548293443755],[-0.339806282119245,44.90060554213794],[-0.339852175593294,44.90067571334931],[-0.339911166974027,44.90077207461735],[-0.339932086392731,44.90081037523091],[-0.340035573860507,44.90095342952834],[-0.340089942219505,44.900948730143675],[-0.340131459637039,44.900945408581165],[-0.3401774035491,44.90094402650008],[-0.340238868361156,44.900937131025266],[-0.340284447969759,44.90092963200787],[-0.340997356904201,44.90082230314098],[-0.341108516606118,44.90080462997257],[-0.342040409507996,44.90065285620783],[-0.342409522418197,44.900595696587665],[-0.34294987206749,44.9005375256851],[-0.343051383572276,44.900453725839824],[-0.342788121009931,44.8995127351689],[-0.340850004555722,44.89912121168579],[-0.340104756315891,44.89887887403906]]],[[[-0.344784794401592,44.881814230010384],[-0.344774895060449,44.8818522865567],[-0.344766568131131,44.8819230976303],[-0.344758923923983,44.882111668622535],[-0.344747305273142,44.882327123585846],[-0.342652876275587,44.882584954144924],[-0.342660471452702,44.882365655729046],[-0.34259340216163,44.88204623509916],[-0.342671516975938,44.88174686357011],[-0.342761835401211,44.88153958249025],[-0.343395703445964,44.88147984942885],[-0.344358110923159,44.88132875021],[-0.344969782360215,44.88123480227695],[-0.345118647167011,44.88119967688021],[-0.344825516344286,44.88172126568761],[-0.344784794401592,44.881814230010384]]],[[[-0.344356869087168,44.90907462668225],[-0.344248243447656,44.909173330657985],[-0.344122906046682,44.909291642331716],[-0.344113894889159,44.90930002411557],[-0.344059480314372,44.90935086596541],[-0.343965058069972,44.90943895884487],[-0.343888951920031,44.90949820373946],[-0.34382060279289,44.9095450493693],[-0.343810856706328,44.909551741054244],[-0.343717864872155,44.909614918659],[-0.343636461988366,44.90966828508783],[-0.343480947545493,44.90975055706869],[-0.343416632464868,44.90979701063249],[-0.343318459319153,44.90986475955049],[-0.343233253832325,44.909913914585026],[-0.343141920492009,44.90996451564597],[-0.343004657004878,44.9100274933973],[-0.342976487771375,44.910046364535],[-0.342891923856442,44.91012118299346],[-0.342865595138838,44.91015603931698],[-0.342728729712548,44.91033633553947],[-0.34268548857932,44.91041297393349],[-0.342547659260078,44.91065583931202],[-0.342539210638091,44.91067366618918],[-0.342519696726342,44.91071435506901],[-0.342498994968285,44.91076490232274],[-0.342480813321902,44.91080879526679],[-0.342462026307128,44.91082125600122],[-0.342400736230175,44.91083977209256],[-0.342346673622795,44.910854015415595],[-0.34225167402338,44.91087931336748],[-0.342110922093876,44.9109327525287],[-0.341988824768861,44.91098427839264],[-0.341963837974451,44.91099485294551],[-0.341794826272233,44.91106779607884],[-0.341622269606379,44.91114084561075],[-0.341473554007325,44.911196866566435],[-0.341317802646643,44.91125400015806],[-0.341180471426088,44.91130102706804],[-0.341171022054498,44.91130419506387],[-0.340992473044734,44.91136183383008],[-0.340817525133753,44.91141819246476],[-0.340704696721426,44.911450784062936],[-0.340538187605834,44.91149553380616],[-0.340351277622364,44.91152566735187],[-0.340216345529018,44.91154486521876],[-0.339967591765397,44.91156721577619],[-0.339956494599593,44.91156827044477],[-0.33988069722312,44.911575326123724],[-0.339823624620266,44.911581638404186],[-0.339765525189463,44.911589873964786],[-0.339682846193157,44.91160488640869],[-0.339516083446986,44.91163900855701],[-0.339459139875674,44.91165387775983],[-0.339357505795367,44.91168919527454],[-0.33922730832961,44.91174744988441],[-0.33867664827832,44.91197298395398],[-0.338244152569537,44.91154405795497],[-0.338129735200864,44.91143494274161],[-0.337954004937054,44.91126089462061],[-0.337950520817286,44.911257755178895],[-0.33751887415268,44.91089404495592],[-0.337348964088526,44.91076659108895],[-0.337325592213435,44.91074890986601],[-0.337026965387942,44.91051916743624],[-0.337000421758013,44.91049932857037],[-0.33673641108035,44.91030143745941],[-0.33667595485008,44.91024873401966],[-0.336630204887211,44.91020874556667],[-0.336431414744566,44.91006260308576],[-0.33642328077237,44.910055908563685],[-0.336359105883923,44.91000250565411],[-0.336266348203148,44.9099248191759],[-0.336189600078629,44.909860439352386],[-0.336145435895143,44.90982364724336],[-0.336037757188561,44.90973388278619],[-0.335890470443446,44.90961142460418],[-0.335575730258893,44.909349360712945],[-0.335453381655232,44.90924958299254],[-0.33534721722597,44.9091703159738],[-0.335213105902845,44.90907530695902],[-0.335103831069733,44.909003432496945],[-0.334670858453286,44.90874050137518],[-0.334624952470321,44.90869997618753],[-0.334595178144857,44.908668428703926],[-0.33457770223091,44.908647506000754],[-0.334546908125209,44.90860093985753],[-0.334527280276532,44.9085544889943],[-0.334518606499229,44.908513116133726],[-0.334519150217366,44.90845614688303],[-0.334530849411926,44.90839911301124],[-0.334542924801771,44.90836333507301],[-0.334569867561642,44.90831314281711],[-0.334606202454968,44.9082609563347],[-0.334757949113143,44.90807679960403],[-0.334958598429484,44.90785990400063],[-0.335031291911638,44.90776661422515],[-0.335099064545832,44.90768014072351],[-0.335238697183642,44.90750130343846],[-0.335645137328404,44.90699634456546],[-0.335663787706408,44.90700290345907],[-0.33572708544819,44.906922241225956],[-0.335809514140568,44.90682424280308],[-0.33588994601078,44.9067353158392],[-0.335944187032501,44.90667934681275],[-0.335984986038886,44.9066446883487],[-0.336029047663669,44.90661371670098],[-0.336163484515089,44.90653947799556],[-0.336261163833673,44.90649536062834],[-0.336512305723843,44.906146908417895],[-0.336697678103845,44.90618071894262],[-0.336934672360908,44.906223251094005],[-0.337311520938775,44.90629113760052],[-0.338191180091318,44.906448893386745],[-0.338235786728987,44.906456924456386],[-0.338345251327961,44.90647661316482],[-0.338767073777246,44.90655224446817],[-0.338894358306685,44.906575181716846],[-0.338832863586304,44.9067371660204],[-0.338762532699009,44.90692113380497],[-0.33905441590857,44.90700373477595],[-0.339450396519815,44.907128712975926],[-0.338825351892694,44.908080654482895],[-0.339868516706041,44.908291876882075],[-0.34013259446087,44.908343951328845],[-0.340281093455416,44.90837381876938],[-0.341051192284134,44.90852881091456],[-0.341231341837356,44.90823213681922],[-0.341419933951336,44.907913310251914],[-0.341922088568514,44.90800886156786],[-0.341447444995855,44.90884112492655],[-0.341588142240726,44.90888474279603],[-0.342016577350028,44.90901774748815],[-0.342215250637645,44.90869149690449],[-0.34220911774596,44.90865455378797],[-0.342169994769072,44.90840025306923],[-0.342265654080692,44.90841801055826],[-0.34235734109718,44.9084350764825],[-0.342416584220356,44.90844608981577],[-0.342569647335007,44.90846527332516],[-0.343123003913847,44.908534676648145],[-0.343267336251406,44.90836911429357],[-0.344463819746394,44.90897335967588],[-0.344356869087168,44.90907462668225]]],[[[-0.342456857249739,44.87916062952458],[-0.342460723662003,44.87937021058463],[-0.342458793311139,44.87942929401152],[-0.342462984692469,44.879593267133],[-0.342408496926435,44.880004120019066],[-0.342368472034901,44.880270533656834],[-0.342431925480607,44.88051229379247],[-0.342526953608843,44.8810436338583],[-0.342553262984456,44.88121505136314],[-0.342511666484564,44.881284881513565],[-0.342231874834595,44.8816031220565],[-0.34196757805991,44.88189214862167],[-0.341828590164577,44.882044211937185],[-0.341902403135036,44.882076864134035],[-0.341552630956417,44.882431183089516],[-0.341382286007721,44.8826037447266],[-0.340646747265439,44.88268049361724],[-0.33963848921083,44.88278797190546],[-0.338637401845026,44.8828945944462],[-0.338609409277855,44.88289705846355],[-0.338176220646233,44.882876654233655],[-0.337423305424211,44.88294480251889],[-0.33639057533076,44.883041632333224],[-0.335824987236032,44.883094676891666],[-0.335130296617883,44.88324468612034],[-0.335002514341182,44.88324870561283],[-0.334901055158681,44.883252024228376],[-0.334673086053966,44.883261576504886],[-0.334388026105382,44.883272392716755],[-0.334150558321694,44.88328421177076],[-0.333976831998224,44.88329150250097],[-0.333520896568006,44.88331492819001],[-0.332691073561837,44.88336030181669],[-0.331675769436538,44.883411416744835],[-0.331211917879179,44.883433899008956],[-0.331260840172781,44.88345730242674],[-0.331048471652456,44.88346917258202],[-0.331045213862709,44.883442055759886],[-0.33011734707629,44.88348854989963],[-0.329485391041353,44.88351696916193],[-0.329016601540643,44.88353742757259],[-0.328179813231632,44.88357657806136],[-0.327776260640139,44.88358993866886],[-0.327463765267557,44.88360624546108],[-0.327376003647943,44.88361184999361],[-0.327302497115536,44.88361630624439],[-0.327293251840398,44.883558729963994],[-0.327261813984768,44.88355868105384],[-0.327158068596531,44.88356620635399],[-0.326889993958258,44.88363263534072],[-0.32614443713545,44.88367128889663],[-0.325524561305898,44.88370040489377],[-0.325464598896202,44.883713105119504],[-0.3252162792543,44.88372793349314],[-0.325019095883632,44.88373726453335],[-0.323982899002736,44.88377821097092],[-0.323997570809604,44.88370279661595],[-0.323493315053484,44.883635981769594],[-0.32300989628292,44.88382464527482],[-0.322932913481458,44.88357138613681],[-0.322614147615133,44.8835866954733],[-0.322265280942758,44.88359884966744],[-0.321596757163497,44.883414297434165],[-0.321113043327653,44.88334108995765],[-0.321010207686281,44.88299353300726],[-0.321101093720798,44.88244544372327],[-0.321300288916322,44.88210831464632],[-0.321434763061636,44.88206536160257],[-0.321837732460042,44.88123524768206],[-0.322185900519766,44.880406682299224],[-0.322254797738887,44.88041435245176],[-0.322697733936753,44.87979723984827],[-0.323155969876532,44.879468572791914],[-0.323262705774937,44.87912006012401],[-0.323416764778515,44.878528444591254],[-0.323568142981883,44.877979352829044],[-0.32363969632932,44.87794846381536],[-0.32359015042012,44.87790155623903],[-0.323797166311263,44.877626366709855],[-0.324170459017771,44.87715857948907],[-0.325512533753181,44.87558310275243],[-0.32563713333813,44.87562190310615],[-0.325717179507757,44.87550343766685],[-0.326159748905541,44.87484721140858],[-0.32618608450657,44.87480830390333],[-0.326545507900617,44.87497514632962],[-0.32663972081616,44.875018731206644],[-0.329296031125811,44.873484276772736],[-0.329371283026429,44.87355645360249],[-0.329772126760406,44.87394075011516],[-0.330043310079375,44.8742008835995],[-0.330152693478243,44.87430573857839],[-0.330465440609147,44.87411945970005],[-0.331474085116435,44.87349578460765],[-0.332704392908419,44.87269557813975],[-0.332028938723243,44.87223482979294],[-0.333211834586715,44.871151189214565],[-0.333271453099098,44.871096681706014],[-0.332962305058769,44.87092492715761],[-0.333090912396977,44.87086699608183],[-0.333507835713777,44.87111012763086],[-0.333849562345466,44.871348127348966],[-0.334712425371584,44.87179350113453],[-0.334790931618692,44.871830792459754],[-0.334867918147803,44.87186596665487],[-0.334924240305018,44.87189247998587],[-0.334966453251118,44.87193960289994],[-0.334972352601621,44.87194717545886],[-0.334999609820093,44.87199213447126],[-0.335061308164503,44.87206858978189],[-0.335110370789846,44.87215632863098],[-0.335185115217109,44.872226264051896],[-0.335233022989409,44.87226898036459],[-0.335286675217296,44.87231666054219],[-0.335341629893582,44.87235853423177],[-0.335347205010248,44.872362782285755],[-0.335411360722953,44.87240807411072],[-0.33546217487287,44.87245277561982],[-0.33550569479854,44.8725048153761],[-0.335532800932464,44.87253229662869],[-0.335585038785107,44.87257109786205],[-0.335626161854461,44.87259347185541],[-0.335864186073549,44.87271328879719],[-0.335869204253255,44.87274440767363],[-0.335864969444463,44.87276057533571],[-0.335856510195999,44.8727802943249],[-0.335832571461958,44.87281462656143],[-0.335781071123248,44.87286285381692],[-0.335747009983651,44.87288892941207],[-0.335725802157377,44.87290524676585],[-0.33562653161408,44.872981313282395],[-0.335582632910015,44.87316808820994],[-0.335597870625919,44.87317285687265],[-0.336039389100716,44.87335810814015],[-0.339074201168022,44.87461207342463],[-0.339175181655582,44.87465634547271],[-0.33924775291975,44.874698137959584],[-0.339287344848708,44.87472028642719],[-0.340632460673437,44.87581155767017],[-0.340882694417223,44.87620413512246],[-0.341665530588574,44.87741460046533],[-0.342317679768627,44.8785497862273],[-0.342351172798391,44.87861203831812],[-0.342393534331411,44.878697633450216],[-0.342420910389731,44.878774217778165],[-0.342437027664206,44.87884690575055],[-0.342444677478251,44.87889659905958],[-0.342448607980847,44.87894343058033],[-0.342454828564325,44.87907976739354],[-0.342456857249739,44.87916062952458]]],[[[-0.333086204518451,44.9101056510666],[-0.333290513240611,44.910421591240066],[-0.33322357607777,44.91042621368789],[-0.332818237105973,44.91045757354017],[-0.332751041142029,44.91046851154269],[-0.332499662429692,44.91050426127536],[-0.332490674362601,44.910510929177256],[-0.332349817344467,44.91052858308079],[-0.332293770064927,44.91053720373076],[-0.332140167920948,44.9105665943257],[-0.331957068558232,44.910594706943094],[-0.33142204896263,44.91068032681786],[-0.331531390812622,44.91060180044252],[-0.331681917943333,44.91049716655685],[-0.331710665359318,44.91047728978642],[-0.331950578943206,44.91030833494186],[-0.3319911492875,44.91027828080059],[-0.332016674656435,44.91025967211715],[-0.332041599134223,44.91024162214842],[-0.332092059605059,44.91020514338363],[-0.332178659292252,44.910145141522726],[-0.332180379775461,44.910146351513816],[-0.33223661733699,44.91018575666849],[-0.332318165691208,44.91012824926082],[-0.332517529455672,44.90998547180919],[-0.332612034108964,44.909917662687455],[-0.332893132565485,44.90971628983858],[-0.332965304855412,44.909663208622234],[-0.33303456722939,44.90961237745991],[-0.333085836025397,44.90964499242653],[-0.33343864490958,44.90986924344928],[-0.333086204518451,44.9101056510666]]],[[[-0.332173801547313,44.908200238803516],[-0.332091929002757,44.90827145339845],[-0.331992069719559,44.90836222193185],[-0.331817244188716,44.908514535429724],[-0.331648069937481,44.90865739721526],[-0.33147456753213,44.90880426352201],[-0.331360914149083,44.908889137192325],[-0.331326363830753,44.90891378383716],[-0.331266434774148,44.90895523228735],[-0.331124055646865,44.90905394399252],[-0.33098527261592,44.90914488784366],[-0.330863473928822,44.90922288618508],[-0.330738518432275,44.90931179289301],[-0.330605799189115,44.909408772321164],[-0.330522303236854,44.909465525810845],[-0.330466711100851,44.90950314901042],[-0.330467959389607,44.909549791258215],[-0.33048387081831,44.9095401223198],[-0.330503392701847,44.909554946555794],[-0.330518534200389,44.90956647778027],[-0.33067847855058,44.909688743331394],[-0.330826063200321,44.90980146670786],[-0.331074473710948,44.9099911880021],[-0.331085234982204,44.90999942616405],[-0.331277228628747,44.91014668280934],[-0.331056514918058,44.91030370572981],[-0.330148886542199,44.91106365328792],[-0.33017748308046,44.91111596377445],[-0.330224153027433,44.911128802500656],[-0.330267049214193,44.91113148123425],[-0.330272751146813,44.91113140036314],[-0.33030122970444,44.91111765987799],[-0.330468744218901,44.911249881920796],[-0.329832670417268,44.911737464575126],[-0.329824854272494,44.91173184143648],[-0.329781602972937,44.911706103662446],[-0.329763579334739,44.91172079215272],[-0.32973393696472,44.91174484052128],[-0.329394791603871,44.91202192967793],[-0.329308425788769,44.912092375583704],[-0.329075840457181,44.91219063456857],[-0.328421257996981,44.91280690724162],[-0.32798794447,44.913213425820494],[-0.327835109192549,44.9133264141244],[-0.327832779412,44.913366224737246],[-0.327821507060418,44.91341134975873],[-0.32780701181844,44.91344918190354],[-0.327785769579731,44.91348658540587],[-0.327772661516517,44.91350932674218],[-0.327739442132072,44.91355006291502],[-0.327702121269713,44.913594346347224],[-0.327608258001937,44.913683849550935],[-0.327531383676764,44.913756172347036],[-0.327416859342066,44.913848006596965],[-0.32727036802644,44.91393971703901],[-0.32706635248339,44.914062257750054],[-0.326936945643086,44.91413840668951],[-0.326871803589935,44.91417550297189],[-0.326800187449712,44.914210360032754],[-0.326726492281897,44.91424437816842],[-0.326661246493501,44.91426904153484],[-0.32658929717277,44.91428759758832],[-0.326501793128259,44.91430049165613],[-0.326406534527092,44.91431307721953],[-0.326221766958637,44.9143304161129],[-0.326102531658023,44.91434074569455],[-0.325954534211496,44.9143472504993],[-0.325785928385482,44.914339863697],[-0.325749166365643,44.91433159256888],[-0.325141708416039,44.91419514373417],[-0.325093028222034,44.91419975521735],[-0.325040741755752,44.914199157855926],[-0.324999710441654,44.914195880517916],[-0.324933620861205,44.91419776899438],[-0.324875387432132,44.914210236050046],[-0.32480309403634,44.91423583020796],[-0.324739201250371,44.914257658349285],[-0.324595773753391,44.914274928463584],[-0.324463089894644,44.914298004620946],[-0.324410069272425,44.914304277680614],[-0.324371654065436,44.914308761811625],[-0.324217737863828,44.91434806311209],[-0.324158485035056,44.91437542927829],[-0.324043431547351,44.91440924161391],[-0.323965770996841,44.914432022049766],[-0.323585819859907,44.9145242260875],[-0.323562966815112,44.91453022675828],[-0.323408860219408,44.91457061398372],[-0.323354014963229,44.9145867636656],[-0.323311292481882,44.914595611715555],[-0.323276009979744,44.91459946102991],[-0.323232482530575,44.914603286695005],[-0.323195900690046,44.91460447141234],[-0.323157662395915,44.914605525451194],[-0.323126941434014,44.914607165584364],[-0.323092622381816,44.914608012217116],[-0.323063425938414,44.91460969683265],[-0.323036492286808,44.914611043391794],[-0.322888448469987,44.914621059954015],[-0.322829585155084,44.91464003303763],[-0.322796388150651,44.91464697382762],[-0.322646641021866,44.91469245621309],[-0.322624094309681,44.9146993486714],[-0.322558438415224,44.91472140849706],[-0.322525289300084,44.91472915880595],[-0.322502270826132,44.91473237063766],[-0.322480358399353,44.9147414068504],[-0.322405399360498,44.91475842810524],[-0.322295787963503,44.91477495393748],[-0.322229035257145,44.91478064544784],[-0.32218297167261,44.91477805828164],[-0.322128180660085,44.914780147786],[-0.322103240522559,44.914780893795864],[-0.322064702229239,44.91478330815244],[-0.322011904826647,44.91478479727745],[-0.321929464373078,44.91479113807288],[-0.321948433685965,44.9148351775959],[-0.321926241284359,44.9148437714952],[-0.321867811798509,44.91486579498639],[-0.321749701694875,44.914890865038466],[-0.321625665176245,44.91492079818369],[-0.321534608684299,44.914942265328214],[-0.321492941074027,44.91495180203518],[-0.321473483238328,44.91495517750867],[-0.321380090496894,44.91497788588568],[-0.321351910661464,44.91497746699904],[-0.321323947171509,44.914959288994275],[-0.321310658654858,44.9149404919039],[-0.321294997990629,44.91492446919813],[-0.321279734394895,44.91491086771943],[-0.321269793105483,44.91490575811188],[-0.321252258365187,44.914905201096],[-0.321230461848869,44.91490549244089],[-0.321213562654225,44.914909241929905],[-0.321146753363037,44.914926829643925],[-0.321073990022738,44.91493810708393],[-0.321039358667208,44.91494653206729],[-0.321014919245851,44.91495573365978],[-0.320984888098116,44.91496474198944],[-0.320958858935738,44.91497065685334],[-0.320929865948995,44.91497792194176],[-0.320899817532709,44.91498449766152],[-0.320868888525669,44.914982628901775],[-0.32084223196358,44.91498009169615],[-0.320813596489844,44.91497626193046],[-0.320785336749313,44.91497449356593],[-0.320756709119453,44.91497507918149],[-0.320726199721227,44.914978154155754],[-0.320699351071954,44.914980939438536],[-0.320504566565664,44.91498766430659],[-0.320418010709016,44.91495663921395],[-0.320399360770609,44.91444678611139],[-0.320390368041081,44.9142006809162],[-0.320389854202552,44.91418771973791],[-0.320380330133265,44.914091130999736],[-0.320344018068711,44.91371562663191],[-0.320321731534377,44.91350416257701],[-0.320307739795533,44.9133706702292],[-0.320309690155554,44.91311018005022],[-0.320310233493126,44.91302725816335],[-0.32025844023884,44.912900032513285],[-0.320219737003294,44.912805397536],[-0.320199346295583,44.91267948593372],[-0.320185271559689,44.912593847064066],[-0.320209634948929,44.91250841077772],[-0.320256066395107,44.912465840183756],[-0.32025149617011,44.91242506469383],[-0.320200136312318,44.91233513363209],[-0.320172788517165,44.91223736562679],[-0.320152997599856,44.91220082999413],[-0.320158899946367,44.912163436127905],[-0.32022660176287,44.91211599425161],[-0.320241263178607,44.91207446357888],[-0.320214076129405,44.91201796336362],[-0.320120843402079,44.91196190568194],[-0.320069797177449,44.91187511923282],[-0.320065556145841,44.9117542218652],[-0.320109726809932,44.91163277836484],[-0.320096833188555,44.911573507842924],[-0.320059164740644,44.911543454241176],[-0.320002263325503,44.91149270850714],[-0.319938305305126,44.91140630802226],[-0.319977396097213,44.91139612795231],[-0.319988139231,44.91139337369228],[-0.32070295242704,44.911208353845375],[-0.320895669796642,44.91109841849167],[-0.320912993755388,44.911110426410616],[-0.320998311987829,44.91116347593538],[-0.321305508956938,44.91138912838074],[-0.321486071956273,44.91120674268784],[-0.32150657756821,44.911069064737795],[-0.321546797254564,44.9110244264716],[-0.321561879252793,44.911009286667465],[-0.321650589429842,44.91092048361609],[-0.321506657184657,44.9108477403374],[-0.321521064851401,44.91083406254404],[-0.321594634291036,44.910759409829325],[-0.321729650274296,44.91062596659738],[-0.321773636495481,44.91058283764737],[-0.321780942875055,44.91057559014818],[-0.321814487129716,44.91054457855483],[-0.321825278112154,44.91053407280351],[-0.321833913026634,44.91052570418392],[-0.321872399562006,44.91049463485436],[-0.321980392838365,44.91039741472385],[-0.321995206687547,44.910384175288],[-0.323091611079427,44.910649022345105],[-0.32316880731907,44.91066770914826],[-0.323370995285463,44.910715547474744],[-0.323463754392417,44.910737913638044],[-0.324172767415594,44.91093242843628],[-0.324404758745188,44.91100379400147],[-0.324722454576328,44.91108331704283],[-0.325112310852855,44.91118852421485],[-0.325398600495462,44.91126447996217],[-0.325629416210124,44.91132452377288],[-0.325861290265999,44.91138102093838],[-0.325707363821746,44.91117836596314],[-0.32544864406039,44.910814569132334],[-0.3254400486313,44.910802210412875],[-0.325131419337175,44.91036015571799],[-0.325020996571522,44.91017890641245],[-0.324920400436522,44.90999655178687],[-0.324737112142723,44.90966428840856],[-0.324655099271436,44.90947236577758],[-0.324641291947669,44.90943411982783],[-0.324633967831117,44.909413252198824],[-0.324620817048289,44.90936255073188],[-0.324610863807543,44.909337976984354],[-0.324592489868787,44.90929328935444],[-0.324582557984288,44.90926907542601],[-0.32454964010077,44.90918868710933],[-0.324531001020205,44.909141664423736],[-0.324528294166685,44.9091238125883],[-0.324459838606288,44.9089894279169],[-0.324447951030278,44.908975004938796],[-0.324382641789508,44.9088851329284],[-0.32429701453912,44.908777665895784],[-0.324218591172629,44.90867620109623],[-0.324152260894257,44.90859690298621],[-0.324126629946545,44.908568833445784],[-0.324090833278157,44.90852971371675],[-0.32381952563359,44.90823342643654],[-0.323765836623302,44.90817483665178],[-0.323772696110773,44.90817075640566],[-0.32376282494653,44.90815825554318],[-0.323750900256397,44.90813464190008],[-0.323721301435657,44.90809524645511],[-0.323839475189293,44.908011597340824],[-0.323934136292721,44.907946314388646],[-0.323957279863243,44.90794526119356],[-0.324008942433943,44.90789478243517],[-0.324459578755861,44.907526150012984],[-0.324472274658672,44.90753496165304],[-0.324541701808514,44.90747827356958],[-0.324568955071147,44.907454568486344],[-0.324654180739555,44.907392721376965],[-0.324682739883214,44.90737393348583],[-0.325020019611324,44.90717882925855],[-0.325046100212101,44.90716101663025],[-0.325060347835522,44.907155363356964],[-0.325076310360772,44.907150830226605],[-0.325092169057039,44.907148823419924],[-0.325050576916305,44.90705472724309],[-0.324881841666928,44.906952813109605],[-0.324789151017155,44.90689728400284],[-0.324594700187497,44.90678081986938],[-0.324393873113021,44.90666373527493],[-0.32411876609447,44.90647651168697],[-0.324119852002971,44.90647557803259],[-0.324035613802993,44.90638933652095],[-0.323819559936336,44.90614366236782],[-0.323792873613084,44.906112740725696],[-0.323646472136086,44.905923285746944],[-0.323624116372154,44.90589268503055],[-0.32360039354916,44.905860413045865],[-0.323489602563206,44.90570909200891],[-0.323132418328322,44.90522153717484],[-0.322970766579979,44.904969367448096],[-0.322940585032433,44.904922239470956],[-0.322932360179338,44.904926811103316],[-0.322887542515785,44.904307351937284],[-0.322875518943677,44.904207143720036],[-0.322845907988059,44.90404122748896],[-0.322845097898841,44.904036115192255],[-0.322865958848223,44.904030804978],[-0.322817593525894,44.903779480547],[-0.322803924741082,44.90371356515933],[-0.322777266775623,44.90362316680516],[-0.3227860150694,44.90362101261393],[-0.322775197614945,44.903594662366736],[-0.322745860364093,44.90352966641177],[-0.323436586138177,44.90336580297851],[-0.323573066953018,44.90333234063802],[-0.324050126318812,44.90321541998425],[-0.324117228655664,44.90325864882038],[-0.324159031937931,44.90328578352939],[-0.32441917515251,44.90345398957937],[-0.324489850192309,44.90349972457673],[-0.325004774547358,44.903781956051816],[-0.324990960829099,44.903788497492876],[-0.325121635702343,44.903860280962576],[-0.325468441706918,44.9040507613139],[-0.325915653131597,44.90429644758323],[-0.326178587005173,44.904443118939156],[-0.326262985902506,44.90449357836498],[-0.326324713798423,44.90455517017818],[-0.326450341809723,44.90463800728866],[-0.327037164035909,44.905204191143966],[-0.327262818897463,44.905414877349116],[-0.327441002042944,44.9055499373567],[-0.327418521323832,44.90556214570157],[-0.327675405981025,44.90574774457164],[-0.327690125749252,44.905739373346755],[-0.328358531451467,44.906147838122614],[-0.328349484865148,44.9061535161755],[-0.328538883246005,44.90625525634689],[-0.328788303241527,44.906385475649486],[-0.329069845394871,44.90651635351631],[-0.329437592574603,44.90664041071409],[-0.329784302216131,44.906764646992784],[-0.329900013435372,44.90680416220086],[-0.330258774956082,44.906932721661335],[-0.330304241352755,44.90694884047266],[-0.330351269488812,44.906965633350296],[-0.33068995344988,44.90708704371312],[-0.330776304749702,44.907121130587804],[-0.331053598165232,44.907216625761166],[-0.331111204174865,44.90723643529367],[-0.331336903280387,44.907330053083875],[-0.331572384735817,44.90744103954202],[-0.332294379150273,44.907781639869576],[-0.332444545120352,44.90785247003351],[-0.332504473092841,44.90788572649354],[-0.332500268219277,44.90791099483998],[-0.332475141346144,44.907938422996274],[-0.332173801547313,44.908200238803516]]],[[[-0.32082669909387,44.90359924345467],[-0.320805305238195,44.90364052494379],[-0.320723847260047,44.903785251938466],[-0.320652435318231,44.90391976584068],[-0.320562315802124,44.904072411463964],[-0.320480086462952,44.904216981098905],[-0.320398734926667,44.90435710880364],[-0.320326160239563,44.90450841855747],[-0.320271261624527,44.90463703154348],[-0.320204351097721,44.90479835479694],[-0.320139822629401,44.90495708357589],[-0.320072426332085,44.905118781725626],[-0.320025943802253,44.905237500687726],[-0.319994563274065,44.90534143989115],[-0.319981820965162,44.905378948073505],[-0.319957298123231,44.90545736003383],[-0.319927968366826,44.90557881025305],[-0.319920543506555,44.90561832220227],[-0.31991394489267,44.90565465543773],[-0.319909181496303,44.905681291542784],[-0.319902818737766,44.905743030045755],[-0.319891478666991,44.90584492824086],[-0.319882137649306,44.90593775521085],[-0.319883452290592,44.906024225936434],[-0.31988347603291,44.90602891118659],[-0.319883589693532,44.90620219819712],[-0.319884897897656,44.90625857083882],[-0.319885393029078,44.90629478211408],[-0.319887417681196,44.90635897331058],[-0.319891966629107,44.90641011253514],[-0.319901665597247,44.906483986909016],[-0.31990923278764,44.90655612272442],[-0.319918076981858,44.906591994281385],[-0.319923692749408,44.90662688098156],[-0.319933312428682,44.90666299969829],[-0.319947738911921,44.90671177098582],[-0.319808643792929,44.906701240698965],[-0.319726570981672,44.90670288324073],[-0.319299415283518,44.906714480623336],[-0.319308750074613,44.906912904310346],[-0.319184118721976,44.9069153679709],[-0.319163849608039,44.90691570346316],[-0.319076454690192,44.9069174144754],[-0.319013252930048,44.906918672676035],[-0.318840868131905,44.906922022515786],[-0.318819352256386,44.90682200755675],[-0.318812566235529,44.90661305442125],[-0.318811190471833,44.906566235957115],[-0.318806200810393,44.90641120778141],[-0.318799696418391,44.90621558321345],[-0.318115611769289,44.90617528887506],[-0.318132947322808,44.90557028263693],[-0.318769708937502,44.905560986143726],[-0.31884707419245,44.90420488329456],[-0.319160178208363,44.904171193848136],[-0.3191868607952,44.90381002829313],[-0.320835923647552,44.903581575466006],[-0.32082669909387,44.90359924345467]]],[[[-0.31688921940849,44.883979320598534],[-0.316791429943591,44.88425699974376],[-0.316712860425399,44.884323778778345],[-0.316631778250308,44.88446813074266],[-0.316507045785798,44.88465244564411],[-0.316399040069517,44.88481310140146],[-0.316116785930487,44.88529400061515],[-0.315774063499427,44.885935756197185],[-0.315669030452523,44.88612533904124],[-0.315468434019108,44.88620576449046],[-0.315414794419351,44.88623115658899],[-0.315449886816161,44.886827112799836],[-0.315490459537202,44.88681869191599],[-0.315545192709028,44.88680750512123],[-0.315616569207656,44.886792667210635],[-0.316120573585816,44.88718519760683],[-0.316372912298551,44.887484677494314],[-0.316510803239649,44.8879109421646],[-0.316514547062737,44.88797427053534],[-0.316309004280709,44.88799041369491],[-0.316366585124856,44.88840907509693],[-0.316388355498877,44.888618660591526],[-0.316187098849103,44.88862800698049],[-0.316149576101011,44.88886603744655],[-0.3164290965031,44.88891112490357],[-0.317161748787827,44.888996020113154],[-0.317105768714911,44.88924127099935],[-0.31706398103492,44.88943284041359],[-0.316969801525763,44.889857478150944],[-0.316816811827521,44.89054817737024],[-0.316813381544528,44.890563058558406],[-0.316810328498492,44.89056287943176],[-0.316685933766047,44.891001846681476],[-0.316679572250156,44.89105934926613],[-0.316676911816005,44.89107438767898],[-0.316671001855011,44.89110736575329],[-0.316620898767403,44.891241961031],[-0.316597376321508,44.89134584433993],[-0.316578660998965,44.891488152848844],[-0.316560114752907,44.89155827495058],[-0.316539553239812,44.891626474744044],[-0.31654784912984,44.89171318697609],[-0.316545730862535,44.89179957952345],[-0.316544237020399,44.891900822238966],[-0.316544301932769,44.891904064406],[-0.316573574041401,44.892294104760325],[-0.316604629144968,44.89233048424854],[-0.31660446786218,44.89235563089397],[-0.316604505552532,44.89238843129201],[-0.316619215334237,44.89255145879212],[-0.316608155098471,44.892671010139075],[-0.316571276862834,44.8929028038937],[-0.316550019297358,44.89304500816647],[-0.316464091552312,44.893352070592854],[-0.316423119715227,44.893456745491065],[-0.316375497763421,44.89354972396016],[-0.316316709989539,44.89360608915912],[-0.316292118930026,44.8936640461633],[-0.316267654372306,44.8937219993829],[-0.316229921675275,44.8937463759011],[-0.316230878920455,44.893762567845826],[-0.316230324013888,44.89379178138873],[-0.316222164464452,44.89385104984869],[-0.316212978441942,44.893882233369624],[-0.316203701926153,44.89390116407511],[-0.316195016628635,44.89391079536796],[-0.316170311194801,44.89391964357461],[-0.316139747087466,44.89392803597007],[-0.316106936922775,44.89393703612841],[-0.316035859942016,44.89396781536831],[-0.31601655708322,44.89402516378566],[-0.316020120899887,44.89405542579215],[-0.316045110544484,44.89408784138887],[-0.316057582156248,44.894142258257126],[-0.316096746035369,44.894206421220304],[-0.315958680164829,44.89457091125352],[-0.315842097166302,44.89498143861125],[-0.316033466275328,44.89504249761607],[-0.316266367519098,44.895124123386374],[-0.316224770634081,44.89520538721325],[-0.316177932580886,44.895266622003085],[-0.316165848232415,44.89529167421979],[-0.316057456129372,44.895418277934375],[-0.315119801906518,44.89495723024254],[-0.314578029309414,44.894840577766544],[-0.314478680673452,44.894781274921264],[-0.31453192500427,44.894603151962635],[-0.31455329064409,44.89454421032239],[-0.314376205818925,44.89458752506788],[-0.314202368625473,44.8946300216656],[-0.314173639381841,44.894639440097],[-0.314118833202432,44.894658107650166],[-0.313880779973361,44.89473811562526],[-0.313775663134745,44.89475927593167],[-0.313751108102858,44.8947642441887],[-0.313465162778876,44.8948211696665],[-0.313418041262288,44.89483257862632],[-0.313356693366553,44.89484567372703],[-0.313026952666284,44.894925262062635],[-0.312951205717799,44.89494356264801],[-0.312817416944848,44.89491502365129],[-0.312923880672998,44.89512487630976],[-0.312942975907415,44.895162695072294],[-0.312970271038262,44.89523631474268],[-0.313026239610804,44.89538756807528],[-0.313046630438755,44.895445173245285],[-0.313069803556642,44.89552197978382],[-0.313159248910466,44.89571197438781],[-0.313274546452034,44.89588245375096],[-0.313496825494779,44.89620707940989],[-0.313005750506281,44.89630067385309],[-0.312270436334722,44.8964384093234],[-0.312208899932243,44.89627443539348],[-0.311956386717382,44.89631368829133],[-0.311817316584981,44.89633531878556],[-0.31161653082897,44.896365999027445],[-0.311530839044271,44.896379098254094],[-0.311418692882932,44.8963972217788],[-0.311263291804201,44.896421411260356],[-0.310720570703341,44.896505722039215],[-0.310710556701027,44.89649286401383],[-0.310543443584756,44.89626706529832],[-0.310488585186961,44.89620111559873],[-0.310282780822834,44.895968450080225],[-0.310155200553326,44.8958259990289],[-0.310022960643755,44.89567332368125],[-0.309810452109189,44.895425808302164],[-0.309794656860764,44.89540735527075],[-0.309732602535491,44.89530106856135],[-0.309655259796856,44.89523218424284],[-0.309592577832917,44.895179714134386],[-0.30940525684616,44.89492928456838],[-0.309304704070659,44.89475277509746],[-0.309206239321162,44.89456007296065],[-0.309119340475617,44.89441298406628],[-0.30909124066924,44.89437290993807],[-0.309049675159625,44.89432377520346],[-0.308990666953345,44.894262634513375],[-0.308838108835449,44.89416084708046],[-0.30875150617504,44.89409827583207],[-0.308745239776311,44.8940930557603],[-0.308691505965928,44.89404824855876],[-0.30863166620477,44.893975147357914],[-0.308605660600833,44.89392113320362],[-0.308519283316646,44.893765647825504],[-0.308506425428361,44.89374539495155],[-0.308499445177265,44.89373451897658],[-0.308472895842055,44.8936927764722],[-0.308402815650628,44.89360294884822],[-0.308299043171893,44.893520072681085],[-0.308228720401666,44.89345836767155],[-0.308168746329152,44.89340446449209],[-0.308120169685402,44.89335679997553],[-0.30805998434365,44.89328641223469],[-0.307964588785786,44.89314993889009],[-0.307719388200764,44.89283571898048],[-0.307684823920138,44.89280638046839],[-0.307620560438312,44.89275711051919],[-0.307566700761433,44.89270798115157],[-0.307259646503896,44.89237667929278],[-0.307190049398487,44.89230143506329],[-0.307105921920069,44.8922313095443],[-0.307104719332458,44.89223026400412],[-0.306969990995216,44.89212325730469],[-0.306965212482578,44.89211961487205],[-0.30683884052523,44.892023172750534],[-0.306753765855729,44.89195631929899],[-0.306665502182738,44.89187622396232],[-0.306476015347833,44.891685420011925],[-0.306472402353229,44.89168219341578],[-0.305987612078631,44.891236601248124],[-0.305914278092036,44.89117318237832],[-0.305819764245106,44.89107948521176],[-0.30564558933007,44.89092039462845],[-0.305578457607628,44.89085895361223],[-0.305354627499827,44.89067466752783],[-0.305272424805415,44.89060700666662],[-0.305186686280461,44.89054602930485],[-0.30496492298785,44.8903881743534],[-0.304688450899716,44.89023122666591],[-0.304584948528377,44.89014842953807],[-0.304395694034376,44.889987172813335],[-0.304201008340252,44.88989510433256],[-0.304196963589937,44.88989315210989],[-0.3038665239844,44.88973456470627],[-0.303757205799712,44.88968212794961],[-0.303734461914279,44.889672621983756],[-0.303585891123546,44.88961017913628],[-0.303570951838567,44.88960404542353],[-0.303308243590845,44.88948480293515],[-0.303292349702827,44.88947752611826],[-0.30316625289395,44.88941783832271],[-0.303055678992865,44.88933759325858],[-0.302670881896347,44.889086721754445],[-0.302662834428473,44.889081374141576],[-0.302564901100457,44.88902418204036],[-0.30239712659421,44.88892617356565],[-0.30231127102319,44.888880336701135],[-0.302100116195222,44.88881200391935],[-0.301507256344941,44.88859471176737],[-0.301273901017052,44.888528209192884],[-0.301108322664215,44.888471765899034],[-0.300662603600479,44.88828613922025],[-0.300456562864315,44.88819692536526],[-0.300344808921826,44.88816546413374],[-0.300072255183295,44.88817383705645],[-0.300119920963525,44.88810708803026],[-0.300173617090851,44.88800925089391],[-0.300214508552605,44.88794801988778],[-0.300195846050187,44.8878850449129],[-0.300162626156663,44.88782241258953],[-0.300173622495535,44.88778739212055],[-0.300197921416917,44.88775224652478],[-0.300226907584045,44.887717051690316],[-0.300287214934481,44.88769282063128],[-0.300341363961985,44.88769319329256],[-0.300403831350312,44.88770998955622],[-0.300458379295104,44.88770205988907],[-0.300521913941304,44.887704676588434],[-0.300591159209913,44.88773325628536],[-0.300671580503986,44.887753573687455],[-0.300735755143701,44.88776491221705],[-0.300796645102011,44.88780013825945],[-0.300823965811688,44.88781635729886],[-0.300883624513457,44.88781557462884],[-0.301178233949543,44.887817988163455],[-0.301383023745903,44.88781270909413],[-0.301463220545826,44.88781843426935],[-0.301528005404983,44.887822905595236],[-0.301722031718098,44.88785227915441],[-0.301760332718085,44.88783537017479],[-0.301998375902678,44.88759174263259],[-0.302259874419012,44.88734822782589],[-0.302326935517541,44.887285857039366],[-0.302394112415429,44.88722330253774],[-0.302423199186637,44.887196304400035],[-0.302515962383007,44.88710973943308],[-0.302638665852234,44.88699561011209],[-0.302686831785925,44.886941731204274],[-0.302803295190162,44.88684004274035],[-0.302982139676962,44.88665034978497],[-0.303140939201624,44.886507751416865],[-0.303183385417257,44.88644070570571],[-0.303204353006869,44.88641791392563],[-0.303238097333937,44.88638176563853],[-0.303403342269443,44.88629268258179],[-0.303520176796105,44.88624685249636],[-0.303654420132066,44.88618022870095],[-0.303810359608081,44.886096738626186],[-0.303995825721012,44.88601957856735],[-0.304301573645524,44.88591856239276],[-0.304383587531096,44.88587124466995],[-0.304450281267536,44.88593828615946],[-0.304519551414468,44.8860167854244],[-0.304588377931503,44.886092053780544],[-0.304656089764097,44.88615915497188],[-0.304722296035116,44.88621575768868],[-0.304787097383508,44.88626357108925],[-0.304850818302506,44.88631240786847],[-0.304856059937426,44.886315315672185],[-0.304941123292324,44.88636279610422],[-0.305043389097133,44.886422560407034],[-0.305135982049384,44.886470897883314],[-0.305288643766778,44.886553401987925],[-0.305377192591979,44.886599787084016],[-0.305483582690894,44.88666068979585],[-0.305508953137105,44.88667606463956],[-0.305569275825398,44.886712386359875],[-0.305657786765306,44.88677102779886],[-0.30575819909177,44.886833730318195],[-0.305952310385771,44.88673549332336],[-0.305916951164191,44.8859934712823],[-0.305933439139462,44.88549672587102],[-0.306078742839718,44.88539201212325],[-0.306165143195127,44.885038447248625],[-0.306222020987266,44.884760375496256],[-0.306227896462074,44.88466864532017],[-0.306180419035614,44.8843534010661],[-0.3061477746674,44.88412638657987],[-0.306090898293324,44.88396137089707],[-0.306084998131641,44.88394298327788],[-0.306092466591246,44.88382020670502],[-0.306130060174158,44.88361498032544],[-0.306231306958769,44.883337028959055],[-0.30627080846948,44.88323087036562],[-0.306295091988289,44.88313318512573],[-0.306336874785216,44.88299046266213],[-0.305946928594317,44.88285393078497],[-0.305906463060457,44.88276304017102],[-0.305901473149013,44.882654692379425],[-0.305898090537006,44.8823434517184],[-0.305891473459434,44.88190632906763],[-0.30585559026859,44.88174906876044],[-0.30581349322006,44.88163047187973],[-0.305722200477715,44.88153523764911],[-0.30545569704457,44.881275718139804],[-0.30543876249233,44.88122062257543],[-0.305423236973842,44.88117008082525],[-0.305406650925888,44.88111659691958],[-0.305402265611353,44.881102399507036],[-0.30535837019282,44.88095970573226],[-0.305338765579051,44.88089585857953],[-0.305290168586241,44.880737895444],[-0.305625704469291,44.88076007373871],[-0.306291457716349,44.88080449562123],[-0.306288470512132,44.880826932689104],[-0.306288418200185,44.880828195832905],[-0.306286003487691,44.88086034807988],[-0.306417889776515,44.88087444215637],[-0.30718017739814,44.880945990876995],[-0.307430645357479,44.880976375486334],[-0.307548197821341,44.88099026455242],[-0.307801411838439,44.88101777299654],[-0.307943101887052,44.8810390525341],[-0.308335646906783,44.88112305365682],[-0.308741788444264,44.881132394702945],[-0.309917842746258,44.88141759461052],[-0.312184818764017,44.88197734198712],[-0.315256672760014,44.882813176993274],[-0.316040437226499,44.88305010432414],[-0.316594507006426,44.88321368826049],[-0.316886892453258,44.88329461502488],[-0.317230342776977,44.88339239824114],[-0.317227696573137,44.88340338109768],[-0.317292701549166,44.883433068409985],[-0.317205372408735,44.88354246312071],[-0.316918163038788,44.883926460035305],[-0.31688921940849,44.883979320598534]]],[[[-0.304872611530589,44.87632577427375],[-0.304522212462405,44.87607442903283],[-0.304373158579757,44.87595153709143],[-0.304090851803749,44.87572654895816],[-0.304039440752409,44.875692845262286],[-0.303727491740784,44.87551109183651],[-0.302903282600357,44.875025673649695],[-0.30286747953725,44.87500520213637],[-0.302602666199491,44.874853312261976],[-0.302514089441003,44.8748017901404],[-0.302318736249004,44.874684508710274],[-0.302285969870057,44.87466394666957],[-0.302145888843377,44.87482905618933],[-0.301610370179767,44.87463394375512],[-0.301449906584502,44.87452373312673],[-0.301210567688943,44.874360989715356],[-0.301141098462545,44.87431971175871],[-0.300905791895301,44.87417162631648],[-0.300857365054046,44.87412611784195],[-0.301200128555596,44.87389703895323],[-0.301310364649619,44.87382347195152],[-0.302133447917678,44.87327597063641],[-0.302691428760048,44.87290765683258],[-0.303134046543774,44.87266794043098],[-0.303750139492529,44.87230104534601],[-0.303974039510246,44.87216930322264],[-0.304158422247727,44.87205946312223],[-0.304635214145807,44.87178051508208],[-0.304938865044674,44.87162801310909],[-0.305178118020833,44.87152681006607],[-0.305820510592949,44.87130131785015],[-0.306738908319229,44.87103074200331],[-0.307865902535048,44.870706721744],[-0.307928815308757,44.87068835582554],[-0.309017651005204,44.87036645214309],[-0.309162949240872,44.87029678767808],[-0.310374885503851,44.86963660944288],[-0.31092996192713,44.869334391557004],[-0.310981611213161,44.8693098717388],[-0.311656090425805,44.868943891945676],[-0.31192880913348,44.868802475826136],[-0.312505768114872,44.86836460699795],[-0.312798816929386,44.868140488637025],[-0.313170151623067,44.8678515837241],[-0.313780374055034,44.86737648918213],[-0.31399678080798,44.86720439857227],[-0.314713213171497,44.86664196090136],[-0.315142792410514,44.86682242132706],[-0.315522287783596,44.86698085700598],[-0.315866195147082,44.86714386927598],[-0.316189880636076,44.8673270394458],[-0.316157094703926,44.86736406453475],[-0.31621557623573,44.86739304556211],[-0.316595518941063,44.867578228111334],[-0.31703040468792,44.86779249583958],[-0.317178493877755,44.867862502918506],[-0.317251653150962,44.867897532853284],[-0.317583077480792,44.86804640505797],[-0.317470327792917,44.868392026542175],[-0.317486849060727,44.86836711190541],[-0.317505438885423,44.868377189554934],[-0.318315701770911,44.86863258613107],[-0.319264639885951,44.868076592322076],[-0.319346251580701,44.8680295450322],[-0.319433365041721,44.867981251746194],[-0.319494845704743,44.86794949500923],[-0.319785710419921,44.867793908956905],[-0.319989947532749,44.86765199778537],[-0.320004794372281,44.867641641114375],[-0.320294801976711,44.86743949059247],[-0.320428640366908,44.867322123167],[-0.320483629593622,44.86756189200112],[-0.32049664816816,44.86761701241173],[-0.320506743383767,44.867656991103594],[-0.320514085199178,44.867693267413685],[-0.320523235193138,44.867730120414116],[-0.320532389276341,44.86776490068015],[-0.320544162824534,44.86779041098133],[-0.320553630388557,44.867811214263476],[-0.320563592043898,44.867829659807825],[-0.320577269933936,44.867848805173935],[-0.320591397756182,44.86787127127772],[-0.320605168645884,44.86789627124079],[-0.320625073561685,44.86792856708056],[-0.320647047812648,44.86795728656692],[-0.320669988637086,44.86798949155626],[-0.320696082452854,44.868023584691656],[-0.320723629107453,44.86805439025854],[-0.320754416435906,44.86809284861381],[-0.320786146565627,44.86813010727281],[-0.320822159074855,44.86816264198205],[-0.320862433636533,44.86820081640903],[-0.32089853672784,44.86823488031743],[-0.320939364020412,44.86827168647575],[-0.320979998194512,44.86831165237657],[-0.321021174405796,44.86835007011215],[-0.321061996539138,44.86838678627244],[-0.321104762798075,44.86842209253336],[-0.321146439833464,44.86846040512695],[-0.321183520745025,44.868489573556445],[-0.321222159449489,44.8685236516023],[-0.321254106089779,44.868551712079736],[-0.321297574281989,44.868588168745],[-0.32133618118055,44.86862170702648],[-0.321374549827743,44.86865336004071],[-0.321406909327979,44.86868411153221],[-0.321439547195226,44.86871314252496],[-0.321474194340432,44.86874400575751],[-0.321504615390601,44.86876769626524],[-0.321538596895955,44.86879587599393],[-0.321602992781357,44.86885405435257],[-0.321616393124682,44.86886635928485],[-0.322177967957487,44.86937283921676],[-0.322348635981785,44.86964852420901],[-0.322748020500566,44.86948085029223],[-0.32352501973743,44.86915462063229],[-0.324354916492842,44.868801658952904],[-0.324370646071761,44.86885327351801],[-0.324866445684644,44.8696436771054],[-0.325019950311511,44.8698796818808],[-0.325103058593243,44.8699798314552],[-0.325215362090531,44.87008721644276],[-0.325304829656389,44.87016635904374],[-0.325334269183987,44.870192691297135],[-0.325529240698529,44.87033715886936],[-0.325843689220414,44.87056031960337],[-0.325878050585225,44.870584161266436],[-0.326304995975292,44.87087937468087],[-0.326965033284118,44.87131844988576],[-0.327201724125283,44.87146535880066],[-0.327125828596829,44.87152116187835],[-0.326913873899003,44.87188553892255],[-0.326854700058168,44.87190704777056],[-0.326695423182151,44.8720741176222],[-0.326558627194295,44.872203566643535],[-0.326408746264205,44.87231538488217],[-0.326255160265062,44.87242884588888],[-0.326212379783121,44.87245968546151],[-0.325847795729753,44.87272293095431],[-0.325408309141411,44.87301608452886],[-0.325261640743886,44.87312230790461],[-0.32491196696236,44.87301707806904],[-0.32471918282248,44.87311927543968],[-0.324957667614843,44.87333065711116],[-0.325251055920375,44.873553189520415],[-0.3244606854926,44.874108089315925],[-0.324132172120499,44.87382316664901],[-0.3238932673925,44.873671000609576],[-0.323556775543446,44.87390816488184],[-0.323389416519985,44.87376142478889],[-0.322780413690863,44.873227532204126],[-0.322264860768827,44.872775636373724],[-0.322097678293494,44.87268313780101],[-0.322579484391115,44.87184597546809],[-0.322728211946705,44.87163110696723],[-0.322809559548581,44.87152819450648],[-0.322888572562116,44.87142652336138],[-0.322939693403038,44.87123476250367],[-0.322945677279529,44.87113464714901],[-0.322939451934101,44.871083018127464],[-0.322925292986575,44.87103009472268],[-0.32291609289537,44.87097531067717],[-0.322901991252558,44.87092121407783],[-0.322839213346442,44.87071493096221],[-0.322487371908751,44.87023029011118],[-0.322169857067231,44.86978382026377],[-0.32166436208467,44.86999792265858],[-0.321527194034887,44.87009763882146],[-0.32169476765717,44.87031250060842],[-0.321955220857708,44.87065777007379],[-0.322036481873025,44.87076104100092],[-0.322053323040152,44.87091922714642],[-0.32205797574095,44.87111769854035],[-0.322060565866749,44.87131343816328],[-0.322069728795725,44.87150889093321],[-0.322071288909754,44.87165726158005],[-0.322079061140708,44.871792830353485],[-0.322063763875999,44.871879076561285],[-0.32202412799674,44.87191811079374],[-0.321871851622853,44.87200458227668],[-0.321669695928067,44.87211976080769],[-0.321367721291811,44.872289201048176],[-0.321146764091823,44.87239079340021],[-0.320986605488131,44.87227988009093],[-0.320869833729074,44.87198771123952],[-0.320779127255179,44.87182975270606],[-0.320455024533461,44.8716980618205],[-0.32034155287379,44.87161152334699],[-0.320196327703495,44.87144879746485],[-0.319866912139734,44.87122724040951],[-0.319443766568098,44.87095072323115],[-0.319052754737591,44.87075677884407],[-0.3188926865093,44.870582960860254],[-0.318511980406022,44.870158196077796],[-0.318267457758097,44.87000907065924],[-0.318088084100806,44.86987944387918],[-0.318035088523191,44.869746128472826],[-0.317945969497544,44.87004562687258],[-0.318102678902458,44.87007698689649],[-0.318183565719499,44.87011620086025],[-0.318303637438421,44.870196596466954],[-0.318468757707675,44.87033160541335],[-0.318573363581845,44.8704183206048],[-0.318616631579192,44.8704749697547],[-0.318692221933914,44.870611033613464],[-0.318739774079201,44.87066512154635],[-0.318789963940806,44.8707038112748],[-0.318900626488122,44.870798635527436],[-0.319267667505342,44.87102438658966],[-0.319451721001168,44.87109376594525],[-0.319690217430116,44.87125442362177],[-0.319941046981337,44.87139218347812],[-0.320013523134078,44.87144768805529],[-0.320017768115402,44.871450895268396],[-0.320097390774693,44.87151366543624],[-0.320231762997729,44.87159363134402],[-0.320300043174962,44.87169386755344],[-0.320297783539173,44.87175205847464],[-0.32060148360471,44.8718409254882],[-0.32065865133204,44.871864717140824],[-0.320697000190108,44.871940977347535],[-0.320690958388647,44.87198450281563],[-0.320708834488773,44.87200604578876],[-0.320753516187352,44.87205868693243],[-0.320739054107761,44.87211625175403],[-0.320793437283115,44.87219149148114],[-0.320841221617033,44.87221304064481],[-0.320886807620113,44.872270250486984],[-0.320923314994816,44.87227898045845],[-0.32093943885762,44.87234157757656],[-0.320955064710428,44.872363638422904],[-0.321025092623503,44.872429128194625],[-0.321046866012448,44.872471550998895],[-0.32112353526018,44.872482233057646],[-0.321133064929491,44.87250835120317],[-0.321148734765043,44.872533294350376],[-0.321190684345548,44.87255474764484],[-0.321218515667327,44.87259032071718],[-0.321263101892113,44.87261349735728],[-0.321307519279102,44.872627397317885],[-0.321329437371944,44.8726465664011],[-0.321333735062625,44.8727298831138],[-0.321388227170884,44.87276411758852],[-0.321413782909536,44.8728019214536],[-0.321399235729467,44.872928696300804],[-0.32127812384659,44.87306857280281],[-0.321257824488999,44.87311315579827],[-0.321254559296957,44.8731629061923],[-0.32132131947233,44.87317316377513],[-0.321298304468846,44.87323395841259],[-0.321302086830298,44.873265745491615],[-0.321313288970187,44.87330298769024],[-0.321329865948522,44.87332826413465],[-0.321330931198404,44.873382660969924],[-0.32132130728753,44.8734384590612],[-0.321292656441742,44.87350681168911],[-0.321254630710104,44.87352597240217],[-0.321234613078077,44.87368237815086],[-0.321235722342418,44.873731096505786],[-0.321262604143826,44.87379129907408],[-0.321344402348867,44.87389716793172],[-0.321369246383782,44.87392508061768],[-0.321027270156533,44.87408904839649],[-0.321259598351216,44.87444282157111],[-0.321406476737518,44.874423467184435],[-0.321811202416436,44.87485705729626],[-0.322209886405362,44.87549673721349],[-0.322897640900473,44.875686564180924],[-0.322650129204019,44.87597341749717],[-0.322431215252092,44.87619534315763],[-0.321890006010605,44.876714829002374],[-0.321769213931749,44.87682811283147],[-0.321469085344112,44.87711266313727],[-0.321081369530959,44.87738424371051],[-0.320967039967508,44.87745687210034],[-0.320850984079613,44.87757100439382],[-0.320825571757122,44.87764700980567],[-0.32081931248455,44.87772541591647],[-0.320835996660945,44.87787883121697],[-0.320887574094391,44.87819566034888],[-0.320911387152169,44.87836030683781],[-0.320951040760472,44.878595579242045],[-0.32095820598387,44.87875090144538],[-0.320954687868445,44.878819943844285],[-0.320888151390997,44.87896990164899],[-0.320764145669616,44.879153208799295],[-0.320223359769421,44.87988191749141],[-0.319756833042089,44.880428534998615],[-0.318915689779674,44.88141538450822],[-0.318701947418398,44.881654629580204],[-0.31861977779461,44.88173115990834],[-0.318425550355009,44.88184393187032],[-0.318345589350862,44.881940671571726],[-0.317577816189788,44.88260216832097],[-0.317179485150464,44.88294812488536],[-0.316949038620886,44.88314731426485],[-0.312425165233068,44.881907000254856],[-0.311428644032279,44.88168117181495],[-0.310387344166186,44.88141161342759],[-0.310300821371143,44.88066264760584],[-0.309368069997228,44.88115643785204],[-0.307484716637566,44.88076912570931],[-0.306227974818696,44.880611201271186],[-0.305210034418376,44.88055879367064],[-0.305078553676472,44.87976836106477],[-0.30505909686445,44.879702707244064],[-0.305028095828364,44.87958738436213],[-0.304955944407727,44.87938668802881],[-0.304902899586152,44.87924354575052],[-0.304837125659658,44.8790176981561],[-0.30483469417465,44.878995782947996],[-0.304828976600932,44.87889655840067],[-0.304822040430904,44.878776644120514],[-0.304822929684726,44.87868199885867],[-0.304844072101118,44.878638565607],[-0.304873152603732,44.8785383950613],[-0.304968553463862,44.87834199141819],[-0.305080065257255,44.87813294267087],[-0.30532060265472,44.87774541227622],[-0.305508620061137,44.87747325833739],[-0.305643933168777,44.87729395835625],[-0.305713549868571,44.87722790461352],[-0.305826622257842,44.87715298701046],[-0.305927486761876,44.877098888588144],[-0.305825286733624,44.87704642295644],[-0.304872611530589,44.87632577427375]],[[-0.306002855704703,44.876971296270696],[-0.305872831202889,44.8770144584908],[-0.305825286733624,44.87704642295644],[-0.306002855704703,44.876971296270696]]]]}}]}
