{"type": "FeatureCollection","name": "aoc_geojson","features": [{"type":"Feature","properties":{"dt":"Bordeaux","type_prod":"Vins","categorie":"Vin mousseux \"Crémant\"","type_denom":"appellation","signe":"AOC","id_app":31,"app":"Crémant de Bordeaux","id_denom":89,"denom":"Crémant de Bordeaux","insee":"33397","cvi":"1B119M, 1S119M","nomcom":"SAINTE-EULALIE","insee2011":"33397","nomcom2011":"SAINTE-EULALIE","id_aire":93,"crinao":null,"grp_name1":null,"grp_name2":null},"geometry":{"type":"MultiPolygon","coordinates":[[[[-0.495506644666033,44.885280797684864],[-0.494993929497961,44.88530018706601],[-0.494633342465024,44.885305411881745],[-0.493606974564035,44.88530879150012],[-0.493059348737789,44.88528871555011],[-0.49245108766011,44.88608047608048],[-0.491821613770426,44.88689831479592],[-0.491821096472688,44.88689815082363],[-0.491821619369177,44.88689840474236],[-0.492230477415219,44.88706768012139],[-0.492111906505207,44.887227953315396],[-0.491465760017584,44.88810002730307],[-0.492177724945609,44.888313752472484],[-0.491865510149977,44.888827539810954],[-0.491695704570692,44.88907927639017],[-0.491507416196093,44.88931924722906],[-0.492484507741687,44.88971650278564],[-0.492303421133627,44.89000085919784],[-0.492367638195404,44.89002839914626],[-0.492336658478101,44.8900683968941],[-0.492312440925041,44.890109083121594],[-0.492273962693978,44.89019969532262],[-0.492250530193527,44.890259102352104],[-0.492163171117945,44.89025491113273],[-0.491828695511683,44.89008744053239],[-0.491312851515829,44.89066224554545],[-0.491071215620224,44.89093129061822],[-0.491043470718684,44.89096217397985],[-0.490337424171549,44.89183630448711],[-0.489993447123197,44.89157323645477],[-0.489795038247145,44.89140012998192],[-0.489516588662131,44.891144824043195],[-0.489083630468543,44.890733144696576],[-0.488908917108415,44.89055974271311],[-0.488788686060317,44.89042247968619],[-0.48876623017727,44.890338650529486],[-0.488762482068963,44.89027838625548],[-0.488771882187262,44.890217528516075],[-0.488789347616378,44.89016200489284],[-0.488833997156126,44.89006453105623],[-0.488909455240273,44.8899242720761],[-0.489032392913049,44.889679060120955],[-0.489087583787856,44.889439221813205],[-0.489088121796587,44.88942748898014],[-0.48910168000233,44.88912163774551],[-0.489090157166519,44.88911370865818],[-0.489078272543464,44.88905919762292],[-0.489054770029729,44.88899522840395],[-0.489020191031058,44.88893458136928],[-0.488953424670613,44.8888435833768],[-0.488896121407642,44.8887742778084],[-0.488810741926576,44.88862249136871],[-0.488793581808432,44.88856264865882],[-0.488790112098207,44.888468129144435],[-0.488800747284175,44.88837821318391],[-0.488815002824158,44.88832612498436],[-0.48886902582814,44.888191856951494],[-0.488977768418,44.88797529955048],[-0.48901463903584,44.88791177593403],[-0.4890479677425,44.887827995962105],[-0.489080852243637,44.88773503745319],[-0.489111727372667,44.887603659814424],[-0.489119378193882,44.887506537715645],[-0.489124306234259,44.887351372237454],[-0.489120274974576,44.88720910552105],[-0.48911902691121,44.88705043917008],[-0.489112814809628,44.88700151771713],[-0.489110672533547,44.88698338032702],[-0.489100436081699,44.88696351466641],[-0.489067223303564,44.88692481464684],[-0.488985772335047,44.886856538611],[-0.488945886458284,44.88683895670557],[-0.488879513428358,44.88681743081611],[-0.48878953193648,44.88679340249999],[-0.488262872352763,44.8867274020916],[-0.488578326036058,44.886261288947715],[-0.488565435257343,44.88625989163656],[-0.488395153446614,44.88624109038357],[-0.487453702569187,44.8861363007916],[-0.48739824856728,44.88628223874224],[-0.48732692142051,44.886256451622444],[-0.487017532160765,44.886145227206526],[-0.486432320621787,44.88593451896721],[-0.486290871908852,44.88588191429519],[-0.48609141980705,44.88613826771118],[-0.485900628499292,44.88638713896848],[-0.485835850800312,44.886470823985995],[-0.485628142435822,44.88630872789726],[-0.485323114082742,44.886067676069864],[-0.485032047401515,44.885835017129345],[-0.484928527674177,44.885756256080576],[-0.484872394015142,44.885813804048276],[-0.484501817159581,44.88592763629864],[-0.484127283049202,44.88604105074865],[-0.483761961331015,44.88615381427285],[-0.483479773107048,44.886243690178254],[-0.48325203394419,44.88632644939797],[-0.482870585093282,44.886124378799174],[-0.482324258635075,44.88583321202903],[-0.482343346592311,44.88581395793272],[-0.482591655830893,44.88554183961828],[-0.482844171234394,44.88526400115141],[-0.483318882822698,44.88474279921575],[-0.483362724308519,44.8846934784448],[-0.483428246905157,44.88463401442519],[-0.483558928677946,44.88446228613591],[-0.483770217004623,44.884186189840484],[-0.483980007369956,44.883910500608444],[-0.484184121382372,44.88364346059628],[-0.484268834630997,44.88353175368476],[-0.484547117756662,44.88331393449839],[-0.484854219119948,44.88307439156878],[-0.485120762024516,44.88286559115896],[-0.485458990543991,44.88267418561268],[-0.485710981388746,44.882580115496],[-0.485816537330812,44.88254075165529],[-0.485989953233522,44.88249186642836],[-0.486425251702947,44.88236941665072],[-0.486809606885359,44.88224315816095],[-0.486938205597831,44.88218297208602],[-0.487083088807008,44.882119660699246],[-0.487203612847109,44.882082528896596],[-0.487288467180401,44.88206499272253],[-0.487448428390639,44.8820464484407],[-0.487503703345753,44.88203840310357],[-0.487551932619097,44.882031209979914],[-0.487689945184188,44.88199605153912],[-0.487979573741677,44.88187745173947],[-0.488199291545793,44.881780244325],[-0.488201265434339,44.881779371190646],[-0.488243840557776,44.88178929843114],[-0.488304168743804,44.88178505925033],[-0.488700954771414,44.881756906910795],[-0.488787404098889,44.88175076495511],[-0.488788790155917,44.8817506312652],[-0.488954263604514,44.881739211410334],[-0.488954637551777,44.88173910953329],[-0.489227901805157,44.881720245383185],[-0.489895237867095,44.88189248669792],[-0.489888007296617,44.88190055468746],[-0.489869299378391,44.8819217809213],[-0.489629751988049,44.88219129815453],[-0.489420572753158,44.88242939876983],[-0.489088235427424,44.88285594095666],[-0.488883893754295,44.88311686957811],[-0.488681228467329,44.88337828582862],[-0.488639625046986,44.883367697313325],[-0.488398064634255,44.88385374863832],[-0.488039245406528,44.88457230475041],[-0.488080128902055,44.8845774186826],[-0.48806268542007,44.884621045297244],[-0.487959256997885,44.88487816995639],[-0.487827206592103,44.88520712013117],[-0.487640982492546,44.885669981722245],[-0.488890000674683,44.88580583790973],[-0.489191944829293,44.88537745812106],[-0.489401854978919,44.88507958397873],[-0.489588582733038,44.884814611905085],[-0.489617118455768,44.88477406093897],[-0.48981133748899,44.884798686524995],[-0.489887819961197,44.88467912275404],[-0.490052707508745,44.88442177592492],[-0.490131610836332,44.88429835070896],[-0.49014998151437,44.88426965488251],[-0.49015783498337,44.88425733153965],[-0.492641919492347,44.88327121044396],[-0.492771690080786,44.883219722479446],[-0.494038258193352,44.88255720226869],[-0.494059869431221,44.88254597761366],[-0.494092277868892,44.88252900570398],[-0.494250889391519,44.88244605646012],[-0.494264217815539,44.88246059720073],[-0.494290869082026,44.88248958873118],[-0.494560697424106,44.88278183266382],[-0.49476795363446,44.88299953214271],[-0.495702563479349,44.88397974505032],[-0.495741077023591,44.88398547154514],[-0.495877483586625,44.884007941866074],[-0.495937785526202,44.8840174881889],[-0.495940090880455,44.8840178661927],[-0.496001494670262,44.88402881974055],[-0.495996073585276,44.884045573059375],[-0.495995114285164,44.88404848719978],[-0.495923037641488,44.884236500183896],[-0.496091158761011,44.88438747769556],[-0.496167952007214,44.88446229404758],[-0.496216289714481,44.88450970812954],[-0.496325454834231,44.88461576865482],[-0.496448733755487,44.884724538796874],[-0.496543342538496,44.8848105998093],[-0.496616009546434,44.8848558053769],[-0.496689615195922,44.884903865259545],[-0.496872185728138,44.88502626825951],[-0.497092881028658,44.885168468447176],[-0.497095880719211,44.88516981590365],[-0.497116229131884,44.88517899818922],[-0.496936412898599,44.88530416612294],[-0.496276656219565,44.885293226162034],[-0.496253441139248,44.88527872665661],[-0.496235545654884,44.88529262849442],[-0.495506644666033,44.885280797684864]]],[[[-0.495280582357776,44.894580659644355],[-0.494805891803179,44.894941045085],[-0.49511696707035,44.895133217571946],[-0.494943119604854,44.89530388594294],[-0.494575080382187,44.89562603513685],[-0.493480806543624,44.894945259491166],[-0.493451821915738,44.894960320860555],[-0.492685849653383,44.895358971980734],[-0.492390927714544,44.89517971304519],[-0.492054351194669,44.8949749070565],[-0.49266954325663,44.89443942114711],[-0.492913397254097,44.89422419618984],[-0.493040199972446,44.894098180212794],[-0.494104932846258,44.89310017918017],[-0.494141670249378,44.89306711939656],[-0.4941861843741,44.89302660499821],[-0.49425980415397,44.892952640109],[-0.494333124911115,44.89288201912409],[-0.494698175521428,44.89255897321426],[-0.494780030477602,44.89247068953961],[-0.494870468762376,44.89238790344342],[-0.494912799426358,44.89234898955688],[-0.494922280267173,44.89234039977554],[-0.494999697679101,44.892341657507195],[-0.495613049285685,44.892522148117926],[-0.495714168537425,44.89255176872192],[-0.496130493906169,44.892667083302875],[-0.496497110681136,44.89277206579823],[-0.496589422751886,44.89279259024211],[-0.496641289086797,44.892806998477845],[-0.496904133451902,44.89290893960814],[-0.497050154491672,44.89298968633394],[-0.497152744894524,44.89305711099669],[-0.497248001192353,44.89312891227729],[-0.497311313145263,44.89320487415005],[-0.497355641253908,44.893283416763744],[-0.497433716204695,44.89345786856229],[-0.496480497430288,44.8936181226818],[-0.496020817892006,44.89380004808305],[-0.495512809459506,44.8941668032831],[-0.495719186876672,44.894298463448244],[-0.495280582357776,44.894580659644355]]],[[[-0.491239590229152,44.899446110311395],[-0.491116393555395,44.89954272061406],[-0.491089752229893,44.89955473355654],[-0.490745585565109,44.89970912062078],[-0.490478284333072,44.899829276727466],[-0.490239578204677,44.899928075367384],[-0.490114682084729,44.89998111845983],[-0.489906293124682,44.90007400657805],[-0.489721534228491,44.900143170252505],[-0.489601384676023,44.900195072200304],[-0.489418423884053,44.900258501098],[-0.489292530158388,44.90029553271921],[-0.488831347788834,44.899698272072186],[-0.488712108469848,44.899650648935314],[-0.487594399047064,44.898741909417424],[-0.487594382267593,44.89874163957651],[-0.487749199545194,44.89861718345255],[-0.487857382312308,44.89852988071756],[-0.488143730680934,44.89830008407993],[-0.48873013652674,44.89782861204921],[-0.488730907016037,44.8978287680832],[-0.48884809459682,44.89791277497798],[-0.488955485658423,44.897994205695156],[-0.489101319853943,44.898110657524114],[-0.489162653296266,44.898156945664574],[-0.489253029369438,44.89820944072482],[-0.489303867055962,44.898231725515366],[-0.489347546474477,44.898249008140766],[-0.489412339686899,44.89826733949137],[-0.489522269892195,44.8982917323328],[-0.489590054766781,44.8983031202249],[-0.489706520089023,44.89832045815401],[-0.489768027856015,44.89833285434644],[-0.489860250219006,44.89835591088506],[-0.489915401277627,44.89837211172168],[-0.489974054140006,44.898395682645734],[-0.489999669719086,44.898407945237],[-0.490090027054251,44.898451968704876],[-0.490159584109436,44.89849998052629],[-0.490603438680695,44.89879226397533],[-0.490882549252424,44.89897193529688],[-0.491149169861197,44.899150556759274],[-0.491252272943312,44.89920985995214],[-0.491293973669898,44.89922792506401],[-0.491327400374638,44.899237328182856],[-0.491388253204747,44.89925343915764],[-0.491471718784461,44.89925189589003],[-0.491484918354811,44.899256167187076],[-0.491239590229152,44.899446110311395]]],[[[-0.485179922413228,44.89420426819922],[-0.485122145875674,44.894249791359],[-0.485179814457289,44.89420429045348],[-0.485179922413228,44.89420426819922]]],[[[-0.484202820278263,44.8940847945845],[-0.4841101612321,44.893997400012495],[-0.483935334356312,44.893832285012394],[-0.484491500631699,44.89376409089325],[-0.484518176466462,44.89376082029975],[-0.484540951877011,44.89375803261541],[-0.484497930665379,44.8934736950429],[-0.484347214448881,44.89349464759374],[-0.4842595996838,44.8931271748544],[-0.48425029139672,44.893087542803556],[-0.484250164857172,44.8930875467751],[-0.483320080614581,44.89318585795314],[-0.483159306593209,44.89302850211231],[-0.483118821682461,44.892978853263095],[-0.483080072400867,44.89290815145578],[-0.482981639357954,44.89276650339983],[-0.482936632906907,44.89271753709321],[-0.482867048185711,44.89266681845471],[-0.48295153182302,44.892414348977425],[-0.482997376970115,44.892258350937524],[-0.48293011320332,44.892206207708604],[-0.483003299452312,44.892237346879774],[-0.483140356201119,44.8917473778276],[-0.482705728118725,44.891412241024305],[-0.482080511547318,44.89092734998697],[-0.481914732811955,44.89079132845924],[-0.481626966163848,44.89056910070902],[-0.481082555550218,44.890148000237204],[-0.48062866173036,44.88979822976825],[-0.480728390519043,44.88972597912111],[-0.48080652843552,44.88966945577944],[-0.480343854077098,44.889300673585666],[-0.479933030360416,44.88898082269185],[-0.480123844104182,44.88872358053956],[-0.480218922708463,44.888600917672264],[-0.480320958078843,44.88848209209254],[-0.480534193227063,44.88825731109162],[-0.48066481161724,44.888137408704594],[-0.480782588430522,44.888041430675365],[-0.480933779495044,44.88793845664021],[-0.480980956087297,44.88791012087514],[-0.481331169243044,44.88770889035043],[-0.481549816003417,44.887569373216664],[-0.481642623472672,44.88750211518889],[-0.481760910929213,44.88742053955974],[-0.481815882824655,44.88737483571657],[-0.481945186925708,44.88729715005695],[-0.482034065851855,44.887254437989384],[-0.48224550523709,44.88716020651979],[-0.482365843755912,44.88709740137578],[-0.482521753850181,44.88700518176532],[-0.482609544768042,44.88694087404665],[-0.482670594179706,44.88688894089342],[-0.48303067510344,44.88656302658794],[-0.483231527532825,44.88643514929436],[-0.483555939387371,44.88630456559258],[-0.484124491186337,44.88613693821396],[-0.484344590856436,44.886063879778035],[-0.484699629260029,44.885957024690605],[-0.484787050623488,44.88594193344708],[-0.484846350984907,44.885939440876456],[-0.484895695490388,44.88594402000537],[-0.484965926330817,44.885958307417305],[-0.485021867639441,44.885975206360634],[-0.485071684775261,44.886007798573026],[-0.485244676061006,44.88613962314359],[-0.485432392999596,44.88629216380979],[-0.485703481633807,44.88649498790674],[-0.485945278907225,44.886687466018095],[-0.486034549149951,44.8867449542867],[-0.486056878043658,44.88675542820027],[-0.486093104390526,44.88676717797368],[-0.486152529579988,44.88677892012738],[-0.486196811883472,44.88678158487869],[-0.486288968445858,44.88677535598661],[-0.486732643308438,44.886717801193534],[-0.48693379594061,44.88669480987398],[-0.487091121724476,44.88668464053761],[-0.48713627641692,44.886685024449775],[-0.487182920010926,44.88668896646126],[-0.48745680490111,44.88672659461452],[-0.487472712077571,44.886729609611486],[-0.487544380394054,44.88673844294538],[-0.4876697568186,44.88676289222835],[-0.488066470309586,44.886796208953356],[-0.488584905382943,44.88685634046678],[-0.488671668358,44.88686938505018],[-0.488723525055714,44.886881724208],[-0.488827654607775,44.88691513124607],[-0.488868405940125,44.88693439831871],[-0.488901426746088,44.88695778361891],[-0.488955195807215,44.887021252093206],[-0.488982157979949,44.88706952134446],[-0.488997334605607,44.887158625996],[-0.489010785142363,44.887334122180725],[-0.488998780574644,44.88753042565029],[-0.488988946329458,44.88762302011911],[-0.488938958079726,44.88781195583381],[-0.488847765691844,44.88801309139039],[-0.488772430204722,44.88818993617498],[-0.488736316970788,44.88825749140802],[-0.488706474935525,44.88833007663521],[-0.488682756008268,44.88841346435246],[-0.4886716190509,44.88848104570222],[-0.488665584743225,44.88861029067789],[-0.488670628846831,44.88863635778186],[-0.48868615543602,44.888669936094416],[-0.488716849054917,44.8887190795273],[-0.488780454814602,44.888791882118554],[-0.488832420006516,44.88886505053562],[-0.488869136125643,44.88890706522469],[-0.488901772737198,44.888956868531466],[-0.488972869559791,44.88913379740797],[-0.488979677889915,44.88917395828558],[-0.488984181406614,44.88924636532745],[-0.488978486508801,44.88936271218925],[-0.488980941720011,44.88946537464491],[-0.488972189597861,44.889540721751445],[-0.488960593193993,44.88959479922613],[-0.48894817010759,44.889631509043404],[-0.488799463149945,44.88992511545494],[-0.488666496919372,44.89020479871189],[-0.48861847825718,44.89031130047867],[-0.488607138914091,44.890385827639356],[-0.488650618855029,44.890434659437915],[-0.488791127716939,44.890565697721165],[-0.489071921848968,44.89083841531751],[-0.489203575737069,44.890959547626196],[-0.489498974064579,44.89124685573759],[-0.489670997496175,44.891411599624696],[-0.489237562301173,44.8917892289927],[-0.48890948906085,44.891924450129515],[-0.48879020074371,44.89193081264794],[-0.488588879918293,44.892059435691884],[-0.488773658635347,44.89220503467645],[-0.488492532924231,44.89239798957102],[-0.487722757022486,44.89301274933018],[-0.486856861606341,44.891067890458125],[-0.486323976014772,44.891265412767936],[-0.485789551534317,44.891913592637046],[-0.485777758648075,44.89192784178241],[-0.485826818872235,44.89205833057979],[-0.486120807426906,44.8928433476931],[-0.48616791197119,44.89308718174335],[-0.486248887585621,44.893231358181154],[-0.486280283926995,44.89328976291275],[-0.486297646976517,44.8933222925845],[-0.485179814457289,44.89420429045348],[-0.4844991625789,44.89434459902823],[-0.484415002339398,44.89427361056194],[-0.484202820278263,44.8940847945845]]],[[[-0.484164806625181,44.88352636746605],[-0.483965647277963,44.88378541130588],[-0.483767526174097,44.8840448727757],[-0.483565153774296,44.88430735118564],[-0.483408142466005,44.88451234972335],[-0.48325968517256,44.88466525939865],[-0.483151160132183,44.88478348049828],[-0.482903891469687,44.88505592802637],[-0.482734035062047,44.8852419523282],[-0.482570486767472,44.88542137976591],[-0.482406574721579,44.88560721701682],[-0.482272001436496,44.88575923905352],[-0.482212573297132,44.885923052703575],[-0.482108001403045,44.88605601880621],[-0.481965187230106,44.886203973092904],[-0.481915661083685,44.88627203671708],[-0.481867347885781,44.88633105006611],[-0.481906542791141,44.886353883182174],[-0.482700366589507,44.88672119080336],[-0.482617536895756,44.88679597735395],[-0.482510198681471,44.88689460400723],[-0.482416738405135,44.886967651104364],[-0.482296677701965,44.88704513749394],[-0.482267800238453,44.887061904899426],[-0.481730429143472,44.88683137649161],[-0.481625800380487,44.886947130563826],[-0.48152278809924,44.88705625491974],[-0.481522791753557,44.88702975892703],[-0.481479504841318,44.88697163604449],[-0.481260220743927,44.88683936505955],[-0.481110180349313,44.88674836096831],[-0.480988964468853,44.88685832604507],[-0.480845481262479,44.88698331864359],[-0.481023340880195,44.88707318033659],[-0.481279403613678,44.88720159470112],[-0.48120973389301,44.88724947153201],[-0.48105949245077,44.887322766070184],[-0.480948083322007,44.8873824058216],[-0.480876187846437,44.887414851241275],[-0.480852902792544,44.88745433388394],[-0.480740413204221,44.88741892857831],[-0.480549185774493,44.887579483975905],[-0.480432619105275,44.88766839430285],[-0.480276048392909,44.88759066147483],[-0.479957552770168,44.88789246170461],[-0.480217034887625,44.88802284420101],[-0.480219781268709,44.88802420004828],[-0.480149467232283,44.88809237381545],[-0.480425378660409,44.88824233800319],[-0.480247996466402,44.888423817623114],[-0.480078894745738,44.888626396253045],[-0.479878613339076,44.888896552202276],[-0.479731324368196,44.88909520205767],[-0.479528323077014,44.88936039573794],[-0.479137089055218,44.88910490592187],[-0.478932567181535,44.88897153663644],[-0.478886113561004,44.889017692970434],[-0.478597249230361,44.88929260519596],[-0.478527130394677,44.889257672226904],[-0.478365350208912,44.88916955558912],[-0.478122065137292,44.88903460570859],[-0.478117645615225,44.88903897991375],[-0.47809608205663,44.88902857055689],[-0.478331958968321,44.88879461320383],[-0.477839392270578,44.888558786649625],[-0.477321353604033,44.88831077844206],[-0.477277192813514,44.88828963133956],[-0.477312036064233,44.8882463628272],[-0.477356656328981,44.88819107218573],[-0.477506870101814,44.88802928405959],[-0.477512482390952,44.888023700928336],[-0.477611162423835,44.88792634200221],[-0.477816173872863,44.887771218007494],[-0.478103263075419,44.88755566363318],[-0.478112955858918,44.88754842054204],[-0.47812584006656,44.887535399773455],[-0.47806660521635,44.88743469709805],[-0.478063481434756,44.8874292975412],[-0.478058916026268,44.88741700377061],[-0.478133303992092,44.88733067936899],[-0.478214550663267,44.8872363895184],[-0.478291422318726,44.88714719339756],[-0.478335914132452,44.887059192108545],[-0.478364484170767,44.88700269164874],[-0.478420952403976,44.886889080904716],[-0.478529846391307,44.88667027721504],[-0.478642989522602,44.8863319287653],[-0.478650260159463,44.886310161785495],[-0.478652932448092,44.88630214731454],[-0.478765823404814,44.88619280630257],[-0.478762947046822,44.88614846636513],[-0.478774157451964,44.88610846140814],[-0.478771590827258,44.886085470647814],[-0.478749841511552,44.88601072026816],[-0.47874744809778,44.88598438957099],[-0.478752733598029,44.88595718736441],[-0.478752751765679,44.88592681572691],[-0.478736541399078,44.88585756943738],[-0.478730259811774,44.885819644754626],[-0.47872662143862,44.88579776904704],[-0.478726747962126,44.885797765081826],[-0.478909611146252,44.88580284865633],[-0.47931951841378,44.88581406334801],[-0.479298748132615,44.88566312938213],[-0.479297647443769,44.88554113885546],[-0.479315321166301,44.885501111485766],[-0.479453994974463,44.885247487499875],[-0.479266819046229,44.88508698971683],[-0.479267858042965,44.88486868199825],[-0.479526033362048,44.884434583076604],[-0.479853459940216,44.8841748611537],[-0.480026709089254,44.88390447119641],[-0.480111819062685,44.883745891906976],[-0.480035865844741,44.883712855381944],[-0.480214941644992,44.88354051525165],[-0.480311737301065,44.88344771884631],[-0.480346200781888,44.88342906445931],[-0.480389200286833,44.88342131751721],[-0.480910693129487,44.8833393555549],[-0.480968982641852,44.88331652912692],[-0.481085939646034,44.88318912375328],[-0.481237679125063,44.88302575015591],[-0.481386714356371,44.88285966737262],[-0.48148754423038,44.8827481782158],[-0.481507943081497,44.882719420339],[-0.481558292648576,44.88264628423421],[-0.481562783904229,44.88262469434148],[-0.48153814629821,44.88246667234787],[-0.481552662123933,44.88246567629749],[-0.48155724646895,44.88246805591302],[-0.481575170814088,44.882477046597714],[-0.481610790611364,44.88247908356077],[-0.481620714665128,44.88247967348514],[-0.481639792514341,44.88248069724885],[-0.481758352788281,44.882487432339246],[-0.481893064337975,44.88249501246542],[-0.482399372090646,44.88252391894522],[-0.482679368980518,44.88253991730092],[-0.483446062974797,44.88258335926894],[-0.484047269081535,44.88261964397721],[-0.484634912799254,44.882657973442974],[-0.485157103402224,44.882691505762075],[-0.485056693981562,44.88277495730785],[-0.484771298154471,44.88301084536249],[-0.484484502651476,44.883246686444096],[-0.484197985705534,44.88348296859327],[-0.484164806625181,44.88352636746605]]],[[[-0.48275627843666,44.893733375912674],[-0.482736805518826,44.89379139470663],[-0.48242436567954,44.89359274320036],[-0.481849759357031,44.89393169176714],[-0.481740120033939,44.893887275479656],[-0.481481928540988,44.89377614102286],[-0.481440925414121,44.893754896330435],[-0.481413419427343,44.89373458019187],[-0.481397350551754,44.89372490029533],[-0.481310344247855,44.89367130235848],[-0.48125780185608,44.893641857851],[-0.481225029640225,44.893626573409485],[-0.481144058486858,44.893584411866705],[-0.481111919039796,44.89356910755216],[-0.481103351547176,44.89355567762941],[-0.481104023447841,44.89353177417872],[-0.481109021912164,44.893510168359164],[-0.48113538368505,44.89342624906396],[-0.481152580454198,44.89335604536143],[-0.481189612728924,44.89317644217297],[-0.481225222877699,44.89306177154539],[-0.481239626135825,44.89303644615769],[-0.481270773576365,44.89299491443074],[-0.481329357724201,44.89292764857529],[-0.481368702179333,44.89288540915356],[-0.481844313922317,44.89320466625047],[-0.481744087229644,44.89327305818919],[-0.482053291187537,44.89337267848888],[-0.482326367699759,44.89318035365837],[-0.482642124534895,44.892956678473524],[-0.482896182988996,44.89277666465456],[-0.482979273691047,44.892879500825536],[-0.483033370780745,44.89299523288031],[-0.483029821610177,44.89304220781907],[-0.482958650835152,44.89318647346355],[-0.482923160762784,44.89327852030026],[-0.482862412646426,44.89343750930106],[-0.482802045876873,44.89360468742972],[-0.48275627843666,44.893733375912674]]],[[[-0.47874672699138,44.90714167096009],[-0.478939352422094,44.90717420858295],[-0.479300375396839,44.907222828594556],[-0.477565688233778,44.90832799571335],[-0.477382881833034,44.90827387922178],[-0.477307307232722,44.908231094513056],[-0.477051582726811,44.907876359514276],[-0.476946922003284,44.90763648647736],[-0.476861280941235,44.907611320205284],[-0.476822962934294,44.90756601683135],[-0.476452913689432,44.907353378311825],[-0.477109205839255,44.90681561721949],[-0.476375533815575,44.90632813594845],[-0.476516932634562,44.90621970787914],[-0.476798533744693,44.90600198740188],[-0.476919721349544,44.90591122473947],[-0.477186366163307,44.90571208611194],[-0.477346752288985,44.905582694669796],[-0.477368739143053,44.90556506311545],[-0.477482577937156,44.9054805681309],[-0.477625770596081,44.905370460163326],[-0.477847745170439,44.90520155800677],[-0.479195836609897,44.90593032331732],[-0.479235255472908,44.90597496052463],[-0.479393460369526,44.90614772481232],[-0.479476481153727,44.90623695814559],[-0.479487492289895,44.90624886976272],[-0.479452067237001,44.9063176617902],[-0.478315197189362,44.90702766596654],[-0.47874672699138,44.90714167096009]]],[[[-0.476731759085551,44.89261508295362],[-0.476773838672726,44.892684420704704],[-0.47680884092671,44.892737758145394],[-0.476895015041571,44.892863933657075],[-0.476942851603932,44.89292182581047],[-0.476997792442025,44.89298796690521],[-0.477021067339876,44.893023917570446],[-0.477031373105178,44.89304495369704],[-0.477056000014302,44.893092487746635],[-0.477080190354612,44.89313093314637],[-0.477097375641385,44.89315454757709],[-0.477140105198777,44.89320367754502],[-0.477194833745174,44.89327865716847],[-0.477260207230193,44.89337195859976],[-0.47706156660239,44.893446132308895],[-0.476666509650842,44.8935915250558],[-0.476344153484482,44.89370300700531],[-0.475857722866254,44.89386342446316],[-0.475751099779418,44.89375915713962],[-0.475562378953576,44.89357400709388],[-0.47541929017713,44.89344186186914],[-0.475226871666751,44.89326043197427],[-0.475247291960468,44.893236000552626],[-0.47538838164852,44.893102619305594],[-0.475427410739753,44.89305931053971],[-0.47546074218589,44.89301203452446],[-0.475523013750852,44.89293050737153],[-0.475576877152987,44.89285447048942],[-0.475604196391863,44.89280224570554],[-0.475647424682852,44.892726451625016],[-0.47565414844094,44.89268559613969],[-0.47565258748581,44.89264608149779],[-0.475622319359232,44.8925668206527],[-0.475583423753095,44.89249359771257],[-0.475565998644359,44.89245791425416],[-0.475548120216243,44.892433329978275],[-0.475518435978671,44.89239622787903],[-0.475492685620864,44.89235918285918],[-0.475454761334175,44.89228935411065],[-0.475401592542875,44.89217196764638],[-0.475368885399091,44.89211062724942],[-0.475348877672882,44.89205781134463],[-0.475314971837422,44.89198326055046],[-0.47525738284113,44.891792472991575],[-0.475237685097392,44.89174874968159],[-0.475192860432915,44.891655524973054],[-0.475174076533258,44.891577436626946],[-0.475140270332251,44.891398070991315],[-0.475124815695907,44.89128572225295],[-0.47512777553904,44.891208665553506],[-0.475911384507972,44.8910118193736],[-0.476066379424872,44.89141801201328],[-0.476087970885325,44.89141454214506],[-0.476110467456493,44.891462503527336],[-0.476131445211373,44.89145526774883],[-0.476906715863437,44.89118729907068],[-0.477068826978185,44.891131392793774],[-0.477156510724281,44.891349445069196],[-0.477246346274119,44.891567429909976],[-0.477260614333155,44.89160330213125],[-0.47734883872632,44.89182800642341],[-0.477392166231496,44.891935877039195],[-0.477448895313558,44.892075861876464],[-0.477479432125877,44.89215123862272],[-0.47718169263534,44.892252669579804],[-0.476650651917188,44.892433594036795],[-0.476614833709464,44.89243868113125],[-0.476672844358645,44.89254618230667],[-0.476731759085551,44.89261508295362]]],[[[-0.476415305015169,44.899991838921316],[-0.476172646684414,44.90018887329346],[-0.475933923308116,44.90038190865269],[-0.475807719925766,44.90048364208528],[-0.475769561939942,44.900514486809044],[-0.475495212580439,44.90073630391166],[-0.475378323363384,44.90083080585887],[-0.475394249956267,44.900840220765836],[-0.475197610030876,44.90099012047457],[-0.474878915760027,44.90079714009455],[-0.474728744792455,44.90090502965707],[-0.474615601999657,44.900986345808164],[-0.474526826425106,44.90105572416412],[-0.474347617444302,44.90120048058034],[-0.474329623903515,44.90121501255118],[-0.474188555094024,44.901355240695274],[-0.473943005713045,44.90121512358541],[-0.473625720791229,44.90104075085599],[-0.473474584362622,44.9009385944086],[-0.473365579840845,44.90086972661448],[-0.473202785891195,44.90076973695652],[-0.472896300607608,44.90063044242353],[-0.472805146265132,44.900581563597626],[-0.472520681806898,44.90043130541866],[-0.472337768023649,44.9003094133711],[-0.472115521299434,44.90017072670447],[-0.471918727049951,44.90004989895851],[-0.471766850797319,44.90001968081576],[-0.471464680861376,44.89994792920586],[-0.471447651076488,44.89994116179436],[-0.471436032374505,44.89992962897962],[-0.471406787394884,44.899885302171704],[-0.471383807222485,44.89986024581031],[-0.47135597232243,44.899840748544165],[-0.471232747479164,44.89978584171688],[-0.471193497805704,44.899770396287394],[-0.471130296880944,44.89974903063273],[-0.471047671786025,44.89972728086125],[-0.470971901876993,44.89971180549599],[-0.470836864478824,44.89968114982953],[-0.470813050642122,44.89966720441092],[-0.470799913463575,44.89965571900533],[-0.470787656297946,44.8996359148787],[-0.47071358646824,44.89951881888259],[-0.470676607191351,44.899476536123586],[-0.470618785098435,44.89942733465258],[-0.470580243334709,44.8994007819074],[-0.470497931298373,44.899361538332144],[-0.470419133880051,44.8993278625166],[-0.470420419554563,44.899348640470215],[-0.470415804207387,44.899538401050386],[-0.470399900715119,44.900006810699786],[-0.470386710315756,44.900476036823],[-0.47028634755857,44.900475028166234],[-0.470335426476782,44.90069645562142],[-0.470372069818317,44.90083166466311],[-0.470423836453915,44.90096946514535],[-0.47047108777768,44.90107117775984],[-0.470507776960125,44.901145643212935],[-0.470564207619458,44.9012481503444],[-0.470636914518006,44.901349337593054],[-0.470716552538939,44.901431382548076],[-0.470668436857696,44.901446855479],[-0.470639350761839,44.901456326244244],[-0.470528610029118,44.90150484869792],[-0.470472395881069,44.90152264747962],[-0.470406530971937,44.901534078858695],[-0.470323168623765,44.90153938806973],[-0.470152277537572,44.90156464613936],[-0.470012928536764,44.90157503940793],[-0.469619298561042,44.90158481724819],[-0.469459633074835,44.90159476322449],[-0.469356200347738,44.901597454467414],[-0.469467473559302,44.9018342423194],[-0.469604247204792,44.90212655941628],[-0.469741717728524,44.90242191878212],[-0.46988199363785,44.90272160635202],[-0.469949304502776,44.902864689184696],[-0.469538716184625,44.90298584633673],[-0.469189492396145,44.903088412100125],[-0.469365146309511,44.90337374706582],[-0.469543743662499,44.90366358607721],[-0.469581785004056,44.90372710490896],[-0.469655595195314,44.903846102584616],[-0.469578443983711,44.90387807337207],[-0.469479050754833,44.90391948091499],[-0.469282575044146,44.903969959885885],[-0.469339942145426,44.90416958989576],[-0.4694438689491,44.90415021082354],[-0.469516611910983,44.90413306775536],[-0.469570735862518,44.90412038167396],[-0.469676738904838,44.90409562030917],[-0.469767242530785,44.90407449745001],[-0.469856502696706,44.90405377386072],[-0.469861334438856,44.90405398335728],[-0.470007855593201,44.90406103022455],[-0.470082500290898,44.90412791111169],[-0.470145620247182,44.90417658701145],[-0.470259832153534,44.904259895119786],[-0.470313953653306,44.904306599117675],[-0.470387056785616,44.90437929581195],[-0.470406238470412,44.90440032556835],[-0.470420731658367,44.90442141173771],[-0.470381114071432,44.90443490655291],[-0.470156837982881,44.90451158019284],[-0.469950569803298,44.90458417585466],[-0.469839980651203,44.90462295955087],[-0.469974340005854,44.90484947301372],[-0.470109241555019,44.90507858295631],[-0.470255784825424,44.905325713834344],[-0.470401850943241,44.905573310101026],[-0.470587521552025,44.90588707964959],[-0.470767814119379,44.906195880128195],[-0.4708072315089,44.90626314080121],[-0.470826037546018,44.90629652898267],[-0.470900107555772,44.90643192020392],[-0.470942190633758,44.90650946155553],[-0.470991566313395,44.906588036648664],[-0.471074664827664,44.90674225144795],[-0.471077083778227,44.906746501692],[-0.471092021743338,44.90677271086982],[-0.471160595515146,44.906893043156416],[-0.471244336314257,44.90702074190391],[-0.471336936139349,44.90717682248201],[-0.471110042485406,44.90725439073625],[-0.470879421926167,44.90733117378158],[-0.470980622871895,44.9075258284233],[-0.471058638666524,44.907673713406716],[-0.4711066380432,44.90777305961561],[-0.471201011144487,44.90796801768561],[-0.470590086750305,44.90798585166084],[-0.470496381091765,44.9078057424161],[-0.470454757961416,44.907725392695156],[-0.470324533764305,44.90746747775652],[-0.47023647015966,44.90729449193242],[-0.470207504256788,44.90723627710394],[-0.469804886235581,44.907214161708765],[-0.469406903046069,44.907193161761825],[-0.469282745223053,44.90719514832251],[-0.468727623444099,44.90720059445723],[-0.46872695719921,44.90720007453761],[-0.468740288611331,44.906950200531284],[-0.468741198123364,44.90687059444111],[-0.468741957553708,44.90687057071785],[-0.468751800403164,44.90658890254156],[-0.468345133953508,44.90667757820706],[-0.468236086357274,44.90670036043916],[-0.468343942995845,44.90648403352779],[-0.46844539931616,44.90627700873313],[-0.468550162410031,44.90606194981381],[-0.468655380907024,44.90584606546173],[-0.468672216011558,44.90580660689907],[-0.468685254015236,44.90576726694868],[-0.468688589279167,44.90571047607836],[-0.468681198161703,44.90565248821112],[-0.468640123054209,44.905595282204764],[-0.468614649346765,44.90557093393845],[-0.468573150122589,44.90553762346464],[-0.468502288445972,44.905490900788976],[-0.468333015228239,44.905403092307736],[-0.468273613095007,44.90537556800417],[-0.468199004823238,44.90533797436337],[-0.46809877859528,44.905281894731715],[-0.468060911343559,44.905256040884],[-0.467970662220444,44.905182886865795],[-0.467863384003951,44.90508863538009],[-0.467820696775665,44.90502994739685],[-0.467791241870982,44.904992475390195],[-0.467744278082625,44.90492409766315],[-0.467674085639043,44.90478768238728],[-0.467659122565915,44.90472821866033],[-0.467646128392287,44.904700596573434],[-0.467642413897321,44.9046753883411],[-0.467648799502794,44.90466176076901],[-0.467663724905114,44.90464678503949],[-0.467677561113736,44.90464085550613],[-0.467808868435825,44.90459872330651],[-0.467757218759451,44.90455915069054],[-0.467908534780708,44.90449197046214],[-0.468040364710105,44.904433689842605],[-0.468169256904888,44.904377123010875],[-0.468134504469797,44.90433395865152],[-0.467949242519159,44.9041023640862],[-0.467454461330383,44.90432437545896],[-0.467160268188413,44.90409681218332],[-0.46754851236819,44.90396888187204],[-0.467781429648005,44.90389248441006],[-0.468281486320655,44.90372510074282],[-0.468102387822942,44.90341680057475],[-0.468055471013808,44.90333481318056],[-0.468015559562524,44.903277931198595],[-0.467920367743203,44.90311453949694],[-0.467806872554882,44.90292378163558],[-0.467685836080631,44.90271974094882],[-0.467666677167396,44.90268059559537],[-0.467548058876513,44.90247873232807],[-0.46748054814898,44.90236512431943],[-0.467396458698563,44.90222743077641],[-0.467280791965339,44.90203430706908],[-0.467173711020118,44.901850828561074],[-0.467121887937792,44.901750969758425],[-0.467115117964629,44.90173991594498],[-0.467110853839912,44.90174067995002],[-0.467052463039594,44.90176431272021],[-0.467002055285069,44.90178580362949],[-0.466934923006503,44.90182187572172],[-0.466898104265316,44.90184780884041],[-0.466852605238827,44.90188717074885],[-0.466812417461233,44.90192834947903],[-0.466782947050508,44.901966489911665],[-0.466737723414549,44.90204108075922],[-0.466691924342003,44.90210226141791],[-0.46627748434701,44.90197235755356],[-0.466176747606766,44.901940715406575],[-0.465713815939064,44.9017955606881],[-0.465603926859515,44.90197490813762],[-0.465407212254161,44.902294400903564],[-0.465191877606316,44.902647098425824],[-0.465028424099467,44.9029139127063],[-0.464921228065598,44.90289472749895],[-0.464858274830186,44.90287533316721],[-0.464741840297227,44.9028297600783],[-0.46443315825319,44.90268140868102],[-0.464306774210281,44.90262461003767],[-0.464064000186464,44.902539359213854],[-0.463860020687115,44.90248065508009],[-0.463627812722092,44.902422741042095],[-0.463435698470151,44.90238367301218],[-0.463558227917749,44.9019263592414],[-0.463633963554755,44.90163533738571],[-0.463049467016397,44.90156254649429],[-0.463136822495055,44.90126458378409],[-0.462867042262007,44.901244970315176],[-0.46288894596208,44.90114380170699],[-0.463018303162533,44.90051774863506],[-0.463141346244675,44.89994966025408],[-0.463153309269067,44.899892871067046],[-0.463273411106227,44.89935317244636],[-0.463333885226263,44.89906965649195],[-0.463335158296193,44.8990635786425],[-0.463376262893209,44.89884627529753],[-0.463395608285449,44.898748881390624],[-0.46344669802213,44.89848178986889],[-0.463448047629787,44.898474898537835],[-0.463454199821265,44.898447219578344],[-0.463455483972924,44.89844132162503],[-0.463536824537931,44.89806865538822],[-0.463537743730821,44.89806916744162],[-0.463548801819576,44.89807576182276],[-0.463559331483567,44.898082012202],[-0.463573695859487,44.89809697485254],[-0.463580223903897,44.898110289417275],[-0.463585016693049,44.898120143379366],[-0.463588944631797,44.89812831201423],[-0.463645511348245,44.89815115046969],[-0.463697655052129,44.8981660159543],[-0.463760935401652,44.89818053397427],[-0.463809370962427,44.89818668319235],[-0.463975161235931,44.898136449930455],[-0.464047704062467,44.89814491102454],[-0.464104637746139,44.898155210918574],[-0.464220837964271,44.89820331500328],[-0.464270698367821,44.89821816134789],[-0.464308561025868,44.89821941320699],[-0.46432966998096,44.898222449523736],[-0.464379359417073,44.89825505508879],[-0.464411053738962,44.89828371607766],[-0.464461659425577,44.89835783902782],[-0.464500041375182,44.89837160150869],[-0.464529723894148,44.89837590232007],[-0.464569100387108,44.89838729058443],[-0.464597853249125,44.89840117326747],[-0.464623691093501,44.89841712958185],[-0.464651906920693,44.89843463387071],[-0.464711232199906,44.89849595773164],[-0.46472554266999,44.8985120935099],[-0.464737948047523,44.89852612582195],[-0.464770180328986,44.898542964014865],[-0.464815902569393,44.89855649732538],[-0.464879404666233,44.8985725398785],[-0.464881215859317,44.89856491314713],[-0.464899143220935,44.89856570549237],[-0.464911293041527,44.89857560017243],[-0.464927207921401,44.89857870835731],[-0.464948171312937,44.89857733315021],[-0.464988313256236,44.898562111534744],[-0.465012251535033,44.89855757934034],[-0.465062397652994,44.898570884364695],[-0.465063041533379,44.89857104451251],[-0.465065254066251,44.89857196679711],[-0.465065644840122,44.89857213484426],[-0.465134877276595,44.89860088579195],[-0.465180294761421,44.89861974563917],[-0.465215741079956,44.898637294490904],[-0.465221917966828,44.898669545459065],[-0.465231307717686,44.89871890936535],[-0.465235653235238,44.89872562297455],[-0.465248386670746,44.898744962168074],[-0.465252326010028,44.898753310641894],[-0.465260353475269,44.89877036343164],[-0.465279117541781,44.898780592365675],[-0.465294347958162,44.89878903903501],[-0.465318861263173,44.898797916939884],[-0.465415144222977,44.898808880577825],[-0.465484080134588,44.89880204256443],[-0.465577333194038,44.898780386508854],[-0.46559431234345,44.898778144208876],[-0.465601354887054,44.89877720340835],[-0.465626999102424,44.89878181023242],[-0.465650046831999,44.89878748943662],[-0.465662533746449,44.89879052427945],[-0.46567152974197,44.898798624776],[-0.465697179951306,44.89882179644049],[-0.465697846068667,44.89882231637695],[-0.465726366848218,44.898842694783056],[-0.465760133644814,44.89885768237335],[-0.465792152640036,44.89886695673255],[-0.465818393759291,44.89886685855939],[-0.465852281527255,44.89885507623796],[-0.465892928752321,44.89882956465966],[-0.46591503715529,44.89882004258623],[-0.465944070468628,44.89879741694462],[-0.465962521201824,44.89879026208363],[-0.465988628880096,44.89878800511684],[-0.466038773227342,44.898788963113134],[-0.466097724637125,44.89879496331505],[-0.466134737797762,44.89880092740839],[-0.466175991346,44.89880369497284],[-0.466205901191961,44.898801409374684],[-0.466233968671609,44.8987918814379],[-0.466262393218663,44.89879018292493],[-0.466296340006072,44.89879371929308],[-0.466400098648652,44.89879228227122],[-0.466432434250295,44.89878000749926],[-0.466453715199395,44.89876735689372],[-0.466502937934943,44.89872057900276],[-0.466519263647092,44.89871186820596],[-0.466522729313187,44.89871049829616],[-0.466534859143188,44.898705703611014],[-0.46655008447492,44.89870585908402],[-0.466566721201087,44.898710386445764],[-0.466598327228058,44.89871913273819],[-0.46665875015482,44.89872022012898],[-0.466691209003779,44.89872019797042],[-0.466833606552885,44.89872025771269],[-0.466838800805336,44.89872018564124],[-0.46691350469393,44.89872461207069],[-0.466965168479835,44.898743997135476],[-0.466987750365576,44.89875239426156],[-0.46708272999217,44.89878124124503],[-0.467112331740966,44.89880473981136],[-0.467124209990439,44.898793824645615],[-0.46712329075296,44.89879331262177],[-0.467140100582758,44.898776025057295],[-0.467197689501341,44.898716909279386],[-0.467306764423712,44.89860661868025],[-0.467345133041295,44.89857297663709],[-0.467370330319756,44.8985416384812],[-0.467397616821947,44.89849076879575],[-0.467396612215962,44.898451957741415],[-0.467387664671176,44.89838311387906],[-0.467307718354724,44.89820158224627],[-0.467241199416463,44.898081364565726],[-0.467192754507862,44.89794174700548],[-0.467082213399368,44.89775549306076],[-0.467028565850793,44.89764451636021],[-0.467021148998566,44.89761068200635],[-0.467021434934531,44.8975332586221],[-0.46704751472059,44.89746287032914],[-0.467053435032046,44.897454033775475],[-0.467068068217214,44.897432308109806],[-0.46709831425175,44.89741496144253],[-0.467180125441473,44.897368246980086],[-0.467211514792193,44.8973406808339],[-0.467232691330211,44.89730379061142],[-0.467246011947974,44.897269038278665],[-0.467273020724117,44.897180866957775],[-0.467270983127606,44.89713559942675],[-0.467270588337429,44.89712921312249],[-0.46727199699518,44.89701868004873],[-0.467273105459595,44.89701404922949],[-0.467293294402773,44.89692221566281],[-0.467250170287949,44.89686660559925],[-0.467083774543859,44.89672643594056],[-0.467061056252723,44.89670146075354],[-0.467043645908181,44.8966823579494],[-0.467017255313928,44.89664515077953],[-0.466992676685628,44.89661059066794],[-0.466981825169614,44.89657452042428],[-0.466980155626003,44.896553664356354],[-0.466974500726812,44.89647858943714],[-0.466955300855109,44.89636284206748],[-0.466955503912824,44.89636202463236],[-0.46696485907467,44.89630414481129],[-0.466960578337371,44.89626976193174],[-0.46695067813273,44.89623267064685],[-0.466930830203893,44.89621310322476],[-0.466855870722599,44.89617371773321],[-0.466803770671664,44.896130824606594],[-0.466748030770976,44.89606596533848],[-0.466649762300023,44.89593664530072],[-0.466629209730798,44.895872850162355],[-0.466617061970258,44.895813749266416],[-0.466619039812458,44.89568778773094],[-0.466595935100424,44.89559910862413],[-0.466588706777065,44.895558058670765],[-0.466574686507914,44.89552199723634],[-0.46654193610546,44.89548444784878],[-0.466514954902481,44.895460236541275],[-0.466473359772803,44.89543549019789],[-0.46641527150858,44.89538800746543],[-0.466401514619485,44.89537672120691],[-0.466364693713634,44.89531433521308],[-0.46631780516131,44.895244963708954],[-0.466287383285478,44.89519995159417],[-0.466259185342078,44.89514784056048],[-0.466259998292821,44.8951281686925],[-0.4662604646101,44.89511724943221],[-0.466248918078324,44.89505966182069],[-0.466248133968226,44.89505518022775],[-0.466251155427877,44.89503021235943],[-0.466258569659594,44.895008622076894],[-0.466272558062443,44.894968261505184],[-0.466341088538174,44.894727209722426],[-0.466411358643425,44.89440147950653],[-0.46641529196114,44.8943830620317],[-0.466481920666005,44.89438206305033],[-0.466635349430836,44.894355643023665],[-0.46689547810247,44.894320122985576],[-0.467253214990542,44.8942637999635],[-0.467427090175464,44.8942399846194],[-0.467619322110857,44.89437979707148],[-0.468120322830305,44.89473553821235],[-0.468138218314771,44.894748136919716],[-0.468466347019461,44.89459639498767],[-0.468973368752765,44.89436669464],[-0.46913305213462,44.894291770500566],[-0.46926214072663,44.89433306775974],[-0.469361860184745,44.8943669013722],[-0.469434046064894,44.89439835098354],[-0.469696014611651,44.89452786969796],[-0.469800164388852,44.89459436875769],[-0.469969707980688,44.89469523295463],[-0.470058735314641,44.89474886645226],[-0.470210175968292,44.894862462579795],[-0.470435873812122,44.895055297407914],[-0.470632709740468,44.895209921286806],[-0.470847082729592,44.895373369249775],[-0.471028160233704,44.895508928755994],[-0.471085093950494,44.89555202933593],[-0.471246601351665,44.895695049650186],[-0.471314877163122,44.89576366043993],[-0.471358265005209,44.89582962476336],[-0.471410331713165,44.89592109252893],[-0.471427318044558,44.89594561524809],[-0.471467913412562,44.895976699606464],[-0.471519657595313,44.89600968838213],[-0.471567409075034,44.896037574922765],[-0.471732909334826,44.89611395989215],[-0.471865370131345,44.89616866715872],[-0.472071564307364,44.89625107892268],[-0.4721703382512,44.89629413218978],[-0.47232521106233,44.896364720419264],[-0.472358522497916,44.89636620196771],[-0.472398683672603,44.89635953854585],[-0.472485055850124,44.896476699104774],[-0.4730586461027,44.89624291517677],[-0.473016745110554,44.89617438151181],[-0.473074456247659,44.896172666262736],[-0.473154952360235,44.89616420001837],[-0.473217657198381,44.896144844828804],[-0.473306758458714,44.896136109264845],[-0.47335895873694,44.89613754029703],[-0.473408695612009,44.89614833092909],[-0.473454255581922,44.89616538050879],[-0.473534501962436,44.89621225664041],[-0.473732312170155,44.8963291740385],[-0.474104155160913,44.89657826154955],[-0.474347051224217,44.89676388197445],[-0.4747715857276,44.89708566914045],[-0.475188602921933,44.89740678895208],[-0.475608645381675,44.89772754230717],[-0.475906694521577,44.89794567949747],[-0.476007821846163,44.8980204689703],[-0.476059670343453,44.89806120302662],[-0.476137288519092,44.89812492245082],[-0.476184875713758,44.898162365236985],[-0.47627407894793,44.89822887611971],[-0.476376892639492,44.89833290217257],[-0.476456035948896,44.89845803691902],[-0.476549864947448,44.89862984563303],[-0.47661546453446,44.89875125878006],[-0.476673084295411,44.89887075885243],[-0.476738745764207,44.89899316135852],[-0.476751172163578,44.89901566325035],[-0.47679557645252,44.89909583326265],[-0.476877450416346,44.89924043879556],[-0.476959527725025,44.89938422682042],[-0.477038324487138,44.899526224976],[-0.477133201248512,44.8996964684762],[-0.47720543178653,44.89982866863212],[-0.477268138886297,44.899942241362915],[-0.477306668652478,44.900003309075515],[-0.477392484000634,44.900086688064725],[-0.477479494365634,44.90014434474259],[-0.477349763511449,44.900068469544735],[-0.477183246193188,44.89996986391953],[-0.477073944684073,44.89990443364444],[-0.476928074289659,44.899819780855964],[-0.476754358160376,44.899717524826784],[-0.476415305015169,44.899991838921316]],[[-0.468765551490101,44.90046379178814],[-0.468899500619872,44.900478892936704],[-0.469015263053467,44.9004849191252],[-0.469139239200438,44.90048843550958],[-0.469248609784764,44.900489524229144],[-0.46957018767949,44.90048145832884],[-0.469602685509894,44.900016766107285],[-0.469031629836962,44.89996025951105],[-0.468701576973132,44.89996246043517],[-0.468675626007794,44.899961108260705],[-0.468655236626628,44.90031826691173],[-0.468650261976603,44.90044080767586],[-0.468765551490101,44.90046379178814]],[[-0.468494226573457,44.900468392936226],[-0.468478454400091,44.90039994250818],[-0.468380789986591,44.90036874717715],[-0.468257935271535,44.90033824852535],[-0.468188778203454,44.90032923369741],[-0.468004630992763,44.90031642063988],[-0.468003007678165,44.90046652402247],[-0.468494226573457,44.900468392936226]]],[[[-0.476092910803644,44.89691173696203],[-0.475692878325906,44.89704069889144],[-0.475102057076905,44.89723168723132],[-0.474823282130335,44.89701141282264],[-0.47445132145669,44.89673186995906],[-0.474299805060647,44.89660908905346],[-0.474223165266457,44.896552908131966],[-0.474113902512808,44.89648179643601],[-0.474616224563911,44.89631548268047],[-0.474570795005821,44.896247330338234],[-0.474563017422866,44.89623639862903],[-0.474604747699372,44.896224368096675],[-0.474885960987596,44.896142297478704],[-0.475546297406015,44.8959520177304],[-0.475960479401226,44.89583667216053],[-0.476035322331788,44.89597023283722],[-0.476119429636226,44.89614279660651],[-0.476204611158293,44.896316318044676],[-0.476244021977673,44.89641007265349],[-0.476321182714984,44.896591235191316],[-0.476375508793587,44.896696508975886],[-0.476414573326478,44.8967560280166],[-0.476453379205158,44.896795007318474],[-0.476092910803644,44.89691173696203]]],[[[-0.476541011551941,44.90504321843521],[-0.476627734231226,44.9049958926197],[-0.476700606394171,44.90495630031319],[-0.476876993865485,44.904860024142685],[-0.47694004707209,44.904825695853894],[-0.476978694221537,44.9048047488945],[-0.477063204891014,44.90475857345321],[-0.47708357356421,44.90474757155314],[-0.477303811800146,44.90492290199014],[-0.477395678563573,44.90500149559098],[-0.477517341215119,44.905102497657566],[-0.47753431324307,44.90511647581734],[-0.477654262359582,44.90521437713619],[-0.477534705673057,44.90531094753932],[-0.477281112113315,44.90550373029058],[-0.476948534373095,44.90529803146902],[-0.476714099280217,44.90515144321736],[-0.476541011551941,44.90504321843521]]],[[[-0.476491958135558,44.91383988994319],[-0.476369310509626,44.913862384632935],[-0.476221574015189,44.91388935953756],[-0.476008390671346,44.91393063940002],[-0.476004862569709,44.91389623290998],[-0.476003659210674,44.91388500526202],[-0.475961297464951,44.91363335731917],[-0.475868910870784,44.91351178978909],[-0.475919067481905,44.91350454221698],[-0.475873829623651,44.91339267415761],[-0.475753217235912,44.91321268940739],[-0.475668853171884,44.91301796159958],[-0.47589189065968,44.91299043297724],[-0.475783335585823,44.91264893195985],[-0.475750445323299,44.91260120512367],[-0.475527959340132,44.91265602334601],[-0.475363710946605,44.91269279655696],[-0.475247302132272,44.91270950723191],[-0.475230595001647,44.91269164508213],[-0.475152658452133,44.912506449075764],[-0.475117342101874,44.91245230917891],[-0.475012205226521,44.9123214068683],[-0.474899996192065,44.91219712446325],[-0.474819842120027,44.91209482017498],[-0.47464604919068,44.91186702132079],[-0.474452765269123,44.9115845870647],[-0.474343595113165,44.91141514795633],[-0.474302330021059,44.911338663391156],[-0.474238746876566,44.911239715605014],[-0.474142231350237,44.911077991460864],[-0.474100126093074,44.9109961257894],[-0.474046893823572,44.9109086601308],[-0.474004637567388,44.91083049417462],[-0.473973658143612,44.9107808145733],[-0.473927294173126,44.910714132511],[-0.473802125701709,44.91054843789472],[-0.473615340377191,44.91035438948772],[-0.473468451184394,44.910210642854025],[-0.473332903112169,44.910063657418085],[-0.473287531311184,44.91001911418885],[-0.473213608354403,44.90993950515783],[-0.473148148073223,44.90985728822665],[-0.473050929496094,44.90974145758491],[-0.473006356919486,44.909683190684156],[-0.472954797911714,44.90962883727977],[-0.472904919787253,44.90956271539735],[-0.472890177680886,44.90953559904354],[-0.472864427076855,44.90948431372304],[-0.472961896158594,44.90941376388678],[-0.473139708031033,44.90928897098282],[-0.473313002918368,44.90916702272469],[-0.473297599096958,44.9091456048235],[-0.473412754658526,44.90911082062604],[-0.473439932029292,44.9091052841821],[-0.473516721066024,44.90908990464015],[-0.473646348230524,44.90905944399889],[-0.473729479520035,44.909039990655586],[-0.473943855223847,44.9089895750473],[-0.474021800669956,44.90896830102305],[-0.474167769880318,44.90891299548598],[-0.474228225370492,44.90889190801239],[-0.474594981875724,44.90871776210882],[-0.474727394271582,44.90865449862145],[-0.474916057009851,44.90893617526078],[-0.475109490902822,44.90921499868337],[-0.475195279856522,44.90934893940168],[-0.47527422733389,44.909390899022846],[-0.47543523002495,44.90948607626291],[-0.475470144720602,44.909521483081384],[-0.475635073989752,44.909688184448946],[-0.475795600841959,44.9098472728826],[-0.475860731668548,44.909911834699216],[-0.475892592894632,44.90994093829241],[-0.475917068609881,44.90996342375175],[-0.475954246181302,44.90999236092139],[-0.476027910631669,44.91003295334731],[-0.476287485444002,44.910149016469305],[-0.476571365098567,44.91027864758139],[-0.476625061378208,44.91028967376497],[-0.476676575605791,44.9102839153428],[-0.477008184491732,44.910246496133084],[-0.477304517802115,44.91021901253305],[-0.477599210878805,44.91019166962238],[-0.477873128056559,44.91016470623107],[-0.478134545439605,44.91013660158221],[-0.4784002864659,44.91011277688215],[-0.478498231884235,44.91047524582381],[-0.478876572293773,44.91181865720342],[-0.478877859746157,44.91187620520775],[-0.479000273950238,44.91187660604817],[-0.479100140830095,44.91194287178165],[-0.479223434499023,44.91197379639381],[-0.479262024490563,44.91199683034861],[-0.479373642196645,44.91205011053121],[-0.479467581387566,44.91210259267553],[-0.47953373093583,44.9121344061636],[-0.479587077145507,44.91216427759552],[-0.479701904322537,44.9122937907885],[-0.479733394365868,44.91233525183984],[-0.479765133312956,44.91239707280413],[-0.47996894219713,44.91274847333618],[-0.480024919465876,44.91285955279566],[-0.480284209382015,44.91330988136582],[-0.479192756883978,44.91345394026918],[-0.47850853615404,44.91354449804857],[-0.476656202399462,44.91379482398991],[-0.476657468922599,44.91380911382329],[-0.476491958135558,44.91383988994319]]],[[[-0.47385258498587,44.89630783698552],[-0.473710273059008,44.896202611494985],[-0.473576103406812,44.89612443802179],[-0.473403143909205,44.89604639653049],[-0.473349327331052,44.89603933841064],[-0.473336768202614,44.896035135115405],[-0.473007663480429,44.89566322408091],[-0.472846348491049,44.89547423803597],[-0.472615533306153,44.89556139609219],[-0.472514190497658,44.89559971349237],[-0.471610993246586,44.89594077308097],[-0.47156015010455,44.895905953737994],[-0.471523758614341,44.89587518857059],[-0.47149576378043,44.89584488181155],[-0.471433949260451,44.89576390264689],[-0.471361002522609,44.89567308777823],[-0.471237934092493,44.895555001071116],[-0.471185337329617,44.89550617741591],[-0.471105867694137,44.89544107081227],[-0.470993118664048,44.89535654700318],[-0.470788981720772,44.89519665453594],[-0.471431588476505,44.89496162243221],[-0.472074352836225,44.89473126786339],[-0.472350805220172,44.89462970593019],[-0.472106122521673,44.8942142370131],[-0.471864116021035,44.8937968815951],[-0.47169377997274,44.8935070598218],[-0.471571300536347,44.8935664049271],[-0.47139801345187,44.8933394898983],[-0.471255447111091,44.89315415151152],[-0.47068773047781,44.89333493173265],[-0.470532474444316,44.89338502649315],[-0.470359946096781,44.893440797899636],[-0.469808358387568,44.893618005134414],[-0.469146979138786,44.893856859019536],[-0.468700986922011,44.89401544006983],[-0.46868157029669,44.89407255297242],[-0.46855829116201,44.89404522265382],[-0.468440930374777,44.89403978708376],[-0.468459186020033,44.8940069532064],[-0.468458212966844,44.893901000638785],[-0.468453642162403,44.89389474481175],[-0.468404562061136,44.893824811794424],[-0.468344847065311,44.89373871876909],[-0.468358939159074,44.89373287121187],[-0.468373278772269,44.893726925798184],[-0.46831926653867,44.89366129243629],[-0.468292951576728,44.893629400431145],[-0.468048954182966,44.89333313315911],[-0.467940792330748,44.89319961741597],[-0.467930220074652,44.89318651956953],[-0.467904698167758,44.89315514344633],[-0.468020075158683,44.89306700522846],[-0.46807197658017,44.893036995573226],[-0.468164072242401,44.89297013220337],[-0.468232618697818,44.89290175142297],[-0.468302543098222,44.892820800653844],[-0.468397725397976,44.89269724431883],[-0.468462045397455,44.89261998327656],[-0.468521378738338,44.89253999410787],[-0.468549438574645,44.89249964416797],[-0.468563403808591,44.892485599480565],[-0.468566031936022,44.892482993963064],[-0.468599777635846,44.89243823064479],[-0.468677955147805,44.89232674091201],[-0.468757770378451,44.89220483596875],[-0.468774383030696,44.89217619896224],[-0.468833063228099,44.89207541194272],[-0.468933632431085,44.891883194406056],[-0.469027644931698,44.89173462024069],[-0.469068148990974,44.89166999907671],[-0.46907566188815,44.8916582287454],[-0.469108087024471,44.891606477043055],[-0.469100921650163,44.891603366462945],[-0.46915567682863,44.89152523229476],[-0.469347505786287,44.89130808262679],[-0.469553151555454,44.89105607433318],[-0.469615564900296,44.891083323019046],[-0.469649839775458,44.89109838351925],[-0.469809200310413,44.891168023237185],[-0.470064117237501,44.891296499214974],[-0.470321515004598,44.89139128174157],[-0.470599527134029,44.89149956832156],[-0.470883242039063,44.891587308452955],[-0.471090267755515,44.89164247861575],[-0.47127813102771,44.89166661490704],[-0.47140373322647,44.89167827837522],[-0.471479348344542,44.891677085405476],[-0.471517595999459,44.89167643007795],[-0.471556102294758,44.8916758567707],[-0.471642969151265,44.89166800330864],[-0.471716852753362,44.89166136690386],[-0.47237680011349,44.89160476759687],[-0.472654246058194,44.891580948470306],[-0.472987442865229,44.89155250060259],[-0.473508929355253,44.891507976615124],[-0.473730571666738,44.89148590083245],[-0.474262300016613,44.89143276158112],[-0.474263312308798,44.89143272989996],[-0.475041645979452,44.89135528631149],[-0.475083172277959,44.89158559949953],[-0.475101225895188,44.89168669178762],[-0.475157566002516,44.8918573312024],[-0.475253524741709,44.892104685760394],[-0.475327668628608,44.89227413693803],[-0.475420366628591,44.89245247002646],[-0.475448715327627,44.892519173939995],[-0.475491241467742,44.89262643945749],[-0.475532771071451,44.892691018389215],[-0.475478773203897,44.89286105659257],[-0.475462279163086,44.89288951075137],[-0.475404123709085,44.89297199047204],[-0.475360938836253,44.89301984530151],[-0.475277428836874,44.89310032490427],[-0.475174843756293,44.89318807058125],[-0.475108253930742,44.893271535133444],[-0.475070330126625,44.893328597827804],[-0.475044012008549,44.8933744825958],[-0.475028358348477,44.89342264707027],[-0.475023952180976,44.89345180424087],[-0.475025229948884,44.893572707819146],[-0.475019203372413,44.89369645357821],[-0.475003502236189,44.89376841171688],[-0.474955635944441,44.89386760214396],[-0.474917407852073,44.893944320877104],[-0.474889379228049,44.89400557986708],[-0.47487059999482,44.89406060129386],[-0.474859010398936,44.894219398350806],[-0.474874665093943,44.89439023009196],[-0.474897145720786,44.89448091005325],[-0.474931103090705,44.89458492931549],[-0.474968479341298,44.89471957313477],[-0.474989757973151,44.894778567802106],[-0.475001426957018,44.89486868496084],[-0.47502892608447,44.89491757150486],[-0.47508149289062,44.8949597253334],[-0.475129648383902,44.89501048868651],[-0.475183606666881,44.89505872720855],[-0.475226686134394,44.89510532356687],[-0.475489984170059,44.89531535658462],[-0.475607961448081,44.89542071077966],[-0.475686199097312,44.89550063289904],[-0.475756658018139,44.89558187997018],[-0.475118636552346,44.89583346651674],[-0.474462207544415,44.89608886970784],[-0.474472833624196,44.896104849226624],[-0.474274491600825,44.89616972569351],[-0.474164140088495,44.89620589323282],[-0.47385258498587,44.89630783698552]]],[[[-0.474676534300811,44.917232228804245],[-0.474399307337455,44.91729641726454],[-0.474296139330786,44.91698043075594],[-0.474219538039904,44.91668172777539],[-0.47416791618705,44.916405404869685],[-0.474133896009167,44.91622072665804],[-0.474178187449852,44.91622727191475],[-0.474226534617187,44.916225579257706],[-0.474270509157381,44.91622086908148],[-0.474305732865568,44.91621003394639],[-0.474357990793751,44.91619776468196],[-0.474405632429451,44.91618059295011],[-0.474449795580767,44.91617073981907],[-0.474492916604202,44.9161727253192],[-0.474540606848745,44.91616861976831],[-0.474650865644417,44.91617535406382],[-0.474702120416132,44.916175552924564],[-0.474746316008899,44.91642615270205],[-0.47477558713415,44.91658123895952],[-0.474782578882496,44.91661833092815],[-0.474691118090309,44.916628402256926],[-0.474538835969112,44.91664560343507],[-0.474609207932059,44.91694405051976],[-0.474676534300811,44.917232228804245]]],[[[-0.473852379586726,44.91704063485275],[-0.473753078419654,44.91735204983021],[-0.473393417560932,44.91732842120247],[-0.473386632094633,44.91735197513271],[-0.473328003148734,44.91755216824909],[-0.473269432629333,44.91775740636488],[-0.473173564900942,44.91807312937908],[-0.473135864093879,44.91819552308372],[-0.473635981220605,44.918236118914834],[-0.473630960486576,44.918314772645154],[-0.473626388097334,44.91838223716338],[-0.473619306644398,44.91847267127285],[-0.473598844626765,44.91876684026006],[-0.47380866078359,44.91877325560043],[-0.473911395490109,44.91906176892875],[-0.474030992037848,44.91938697541385],[-0.474062014464723,44.91947207209986],[-0.474071155115834,44.919504951288374],[-0.474043776870977,44.91954212705012],[-0.473312751598539,44.91987356997286],[-0.473221081070349,44.91990491540308],[-0.473099516165942,44.91992259571786],[-0.473025242925031,44.9199214935884],[-0.472353938524279,44.919822620132166],[-0.471710031272221,44.91972982575132],[-0.471800229111661,44.91935308828315],[-0.471849248379624,44.91915941493521],[-0.470845555192709,44.91897746565284],[-0.470747428063435,44.919265138621824],[-0.470646963391236,44.919572441101025],[-0.470295829439309,44.91947364388579],[-0.469418803190844,44.919161732847435],[-0.46922324528602,44.91909466212081],[-0.468920241293639,44.91901923110302],[-0.468637726278852,44.918961273980294],[-0.468304067270069,44.91890698609098],[-0.468046657246811,44.91887960607048],[-0.467700080105617,44.91885843414201],[-0.46768953623408,44.91845005909322],[-0.467688446433856,44.918071489733244],[-0.467841478217143,44.91780382510788],[-0.467770960040963,44.917791607401824],[-0.46753684659177,44.91775115223539],[-0.466689652695738,44.917605105799005],[-0.466012159919564,44.91748548015594],[-0.465695615489504,44.91742470264534],[-0.465580859920241,44.91740268886138],[-0.465626436315696,44.9175203179563],[-0.465798323553754,44.918025405761355],[-0.465871445921732,44.918233649162666],[-0.466046254881529,44.91873873577793],[-0.466097743999343,44.9188986278002],[-0.465465248330027,44.918961353039855],[-0.465385376915281,44.91855360934732],[-0.464985053918366,44.91851653218546],[-0.464918553870233,44.91885052644733],[-0.464887816982342,44.9190140655867],[-0.46434653835089,44.91902166786854],[-0.4642069776057,44.91901908155372],[-0.464102039097435,44.919006132639964],[-0.463966016025879,44.918972523825545],[-0.463877279427659,44.91894464986359],[-0.463869471083376,44.918939395944065],[-0.46381826544834,44.9189051243498],[-0.463638614275873,44.91873814336477],[-0.463578996952332,44.91868268495812],[-0.463467615937711,44.918616764398834],[-0.463411465981036,44.91858868499625],[-0.463394452537484,44.91858020333802],[-0.463320748723286,44.91855131945368],[-0.463237685432779,44.91851876200518],[-0.463164423905217,44.91846417946556],[-0.462895357731696,44.918326030728466],[-0.462706283087381,44.91823846930219],[-0.461973980681328,44.91796245403047],[-0.461647766937345,44.91783131087391],[-0.461413821881929,44.91775857406008],[-0.461058667785318,44.91766609227699],[-0.46089871748467,44.91763313540142],[-0.460578915277676,44.91755442061247],[-0.460177001281722,44.91744410700759],[-0.460028080314141,44.91741720394276],[-0.459893213578424,44.9174042823435],[-0.459500929454247,44.917392439837286],[-0.459039769585829,44.91737850538574],[-0.458790760959357,44.91737607672328],[-0.458286178932622,44.91734087088238],[-0.457946324145869,44.91730711296357],[-0.457765145426425,44.91727129787378],[-0.457589205959893,44.917221711015486],[-0.457339313075399,44.91715144504485],[-0.456855426475653,44.91700131432776],[-0.456447457147615,44.91686459020686],[-0.456113056242179,44.91674639339274],[-0.455646224158495,44.91659915153774],[-0.455541882895063,44.91655256083134],[-0.455532245392782,44.916515550369716],[-0.455563757703531,44.91645472918674],[-0.455680647512742,44.916311854396625],[-0.456138244544906,44.91582781145324],[-0.456609288243731,44.91532541374267],[-0.457049823864136,44.914842618690116],[-0.457187280173011,44.914675490101914],[-0.457555573002606,44.91421837333667],[-0.457648600274625,44.91408975742912],[-0.457759183534714,44.91391265013968],[-0.458141431506568,44.913322077262734],[-0.458442426399732,44.912837222575384],[-0.458516195295819,44.91272750029053],[-0.458518900475138,44.91272200874792],[-0.458639317770085,44.9125646012201],[-0.45871504444713,44.91248663073983],[-0.458812143417539,44.91238915913666],[-0.458851666218218,44.91234521052642],[-0.458967161515455,44.91222112065809],[-0.459076815745025,44.912094869435776],[-0.459116398129214,44.91204983740721],[-0.45976656731737,44.91221307129875],[-0.459979038188325,44.91179432540315],[-0.459504300420664,44.911678799701946],[-0.459566243254758,44.91162207607955],[-0.459825926394693,44.91140120873492],[-0.46005814866685,44.91121012539489],[-0.460267225602091,44.911048872020125],[-0.46041704293668,44.910938490996344],[-0.460736808975204,44.91069871611143],[-0.46087180892962,44.910598979943295],[-0.461043723263696,44.91046240492438],[-0.461188245553632,44.91034642002786],[-0.461329688068636,44.910194932865956],[-0.461423077715256,44.910092978197596],[-0.461554827794816,44.90993242018565],[-0.461802446863616,44.90961909858242],[-0.461880603169703,44.90952104300065],[-0.462027824904484,44.909337922232574],[-0.462156872179043,44.90917267124943],[-0.462325867964696,44.90899716237748],[-0.462348194574725,44.90900547841769],[-0.462868649480734,44.90920851584882],[-0.463360791986571,44.909400718164854],[-0.46344539425561,44.90917710100771],[-0.463878175625989,44.90928085047522],[-0.463948441303706,44.90916393363931],[-0.464101010895323,44.90890737408544],[-0.465029625416973,44.90915832018845],[-0.465367329970634,44.909250340765475],[-0.465477022011633,44.90905730124646],[-0.465599500132346,44.90884133210903],[-0.466264470204839,44.90903704994019],[-0.466684753134029,44.90916010433492],[-0.466845043877829,44.909207100539824],[-0.467018500252103,44.90925575827854],[-0.46684857249999,44.90951854185149],[-0.466733411524016,44.90969075519519],[-0.466683070019442,44.90975856638522],[-0.466538687959926,44.90992790660725],[-0.466390530554066,44.910081322770594],[-0.466287336619748,44.91018250646681],[-0.466148190012929,44.910305269927555],[-0.466063537264877,44.91037198883322],[-0.465972267116318,44.9104445017654],[-0.465769451466725,44.91060827467246],[-0.465704246307424,44.91068186645178],[-0.465677059721731,44.91067496442454],[-0.465528609553769,44.9106369695792],[-0.464912447440275,44.91068134054833],[-0.464718960700319,44.910696479782985],[-0.464697888425302,44.910698218695046],[-0.464524870563762,44.911028235541316],[-0.464491061677503,44.91109273608401],[-0.464389425846039,44.91128696514374],[-0.465033107222582,44.91125066068979],[-0.465389527538334,44.911228724325234],[-0.465404436395429,44.91122780847479],[-0.46534386066685,44.91153845639644],[-0.465289749574655,44.911828535017406],[-0.46528604862095,44.9118425292773],[-0.46525166631218,44.911895692612156],[-0.465208427895042,44.91193894850223],[-0.46516746716006,44.91197185940567],[-0.465096332205886,44.9120275213101],[-0.465028606069613,44.912068567177705],[-0.464996864051194,44.912092628791],[-0.464780269477135,44.91222033025526],[-0.464574662640805,44.91233498129441],[-0.464455868518138,44.9124075404469],[-0.464401986724938,44.9124448195026],[-0.464350877981208,44.91249003287088],[-0.464277851395402,44.91256026284722],[-0.46424973341184,44.912589618493406],[-0.46421776343872,44.91263874086116],[-0.464166000274292,44.91272263683625],[-0.464109836033354,44.91281946737483],[-0.463919848905738,44.91312748203308],[-0.463740709913244,44.9134201977513],[-0.463740564730525,44.913426060201374],[-0.463712109046695,44.91349102437036],[-0.463800574570866,44.91351259806955],[-0.465016944288729,44.91386659311762],[-0.465426563569928,44.91398484925683],[-0.465441002371048,44.9139701594291],[-0.465669019713287,44.91356137034025],[-0.46572679855349,44.91346196512813],[-0.465737343741719,44.91344379188816],[-0.465762101257719,44.913401112545316],[-0.465862417758603,44.91322864264693],[-0.465970955653996,44.91303735093243],[-0.46613853344042,44.91274246868017],[-0.466369214354634,44.912331792418975],[-0.466452601499124,44.91218301170469],[-0.466477060262104,44.91213962053429],[-0.46663587662998,44.912183148609024],[-0.467063164313658,44.912300125858714],[-0.467199654267523,44.91233741079321],[-0.467387062926083,44.9123879758783],[-0.467834890960844,44.91250890515851],[-0.467887648662719,44.91252320928775],[-0.467985809747866,44.91254979408527],[-0.467834531680102,44.91282506456298],[-0.467777882528619,44.91292831096158],[-0.467475685248328,44.91348064229449],[-0.467671242535131,44.91353780189646],[-0.467750150243165,44.913560662285974],[-0.468050549588358,44.913647802488335],[-0.468576956655504,44.91380043155833],[-0.468814981450024,44.91386951078568],[-0.469017898912,44.913518725616434],[-0.469124547328992,44.91333190549342],[-0.469128791385367,44.91332465326766],[-0.469457629149199,44.91341838146013],[-0.469482671125003,44.91342543974685],[-0.469427936209434,44.91356368479987],[-0.469855615857889,44.913682622314525],[-0.469941812251702,44.913515816605106],[-0.469974912476776,44.913452237570816],[-0.469635162110284,44.91335434570642],[-0.469542056719813,44.91332751421937],[-0.469712638610287,44.9129933289967],[-0.469696251996063,44.912990866941314],[-0.469627265483417,44.9129807656847],[-0.469554774854897,44.912965276411036],[-0.469363630121701,44.91291384022499],[-0.469312308636462,44.91290021288118],[-0.469335022550935,44.91285939894209],[-0.469544560919735,44.91247839519012],[-0.469574524342681,44.912423566016855],[-0.469754897606569,44.91209394141405],[-0.46977459800169,44.912057727637816],[-0.470052978454624,44.91216213268127],[-0.47016419084924,44.9121987619181],[-0.470183960936744,44.912175974085685],[-0.470205034361224,44.91215170356742],[-0.470230941192222,44.91211331307132],[-0.470292351343197,44.912128066663264],[-0.470314370092059,44.91213341677543],[-0.470335573210875,44.912168622810185],[-0.470320267014923,44.912191811910105],[-0.470638647299692,44.91226828939354],[-0.471014166911585,44.911694280472574],[-0.471131770702953,44.911510450308654],[-0.471608119749187,44.911182475366275],[-0.471618208333785,44.911175400813825],[-0.471825280138794,44.911344845758734],[-0.472028375007092,44.911493055735434],[-0.472055265007134,44.911544305662275],[-0.47209264314072,44.91161541504777],[-0.472370851684484,44.91196891765119],[-0.472488102964507,44.912117377760346],[-0.472744973395363,44.912560407444815],[-0.472904272543552,44.91283687784423],[-0.473011301312641,44.91303729731802],[-0.473175984997054,44.913363797206635],[-0.473237070580311,44.913397845577634],[-0.473255139213757,44.91343359978442],[-0.473526797272301,44.91396773007004],[-0.473587090716968,44.914095440217636],[-0.473630422730811,44.914188893627994],[-0.473644326456395,44.91421882998897],[-0.473685937107878,44.91435000839131],[-0.47373342016107,44.91451660145676],[-0.473794663364924,44.91470466385615],[-0.473873399212835,44.91494372910208],[-0.473927747776956,44.915133088614915],[-0.473934364627167,44.9151559529797],[-0.473972638291614,44.91530489973566],[-0.474012652540043,44.91548398306393],[-0.474032193604162,44.91557214241021],[-0.474057020493649,44.9156841991052],[-0.474071768745831,44.91575232094889],[-0.474095830671048,44.91586431145295],[-0.474128586954031,44.91601631472655],[-0.474171241564945,44.91621343009033],[-0.473953897593594,44.916175437979064],[-0.473947299622568,44.91619177628507],[-0.473861892463708,44.916459227587644],[-0.47379122372572,44.91668205781834],[-0.473958082626357,44.91670973332173],[-0.473852379586726,44.91704063485275]],[[-0.463389135831033,44.91129906040936],[-0.462948134679958,44.91117745036203],[-0.462600034909306,44.91108151054704],[-0.462451476823421,44.91134983880879],[-0.462809376022012,44.91144835747023],[-0.463223093481562,44.91156351913915],[-0.463389135831033,44.91129906040936]]],[[[-0.474129168122147,44.920723666760104],[-0.474136292927194,44.920754716442815],[-0.474151221760106,44.92081958836343],[-0.474180874892293,44.92094807688696],[-0.474234779746333,44.92118134040087],[-0.474272826677205,44.92135111289678],[-0.474337398578168,44.92186702781837],[-0.474226338787967,44.92187825231003],[-0.474081009541136,44.92190758175555],[-0.473685373660065,44.9220142240443],[-0.473112160816701,44.92217436294004],[-0.472737090020007,44.92163417993501],[-0.47219553977897,44.921799632729346],[-0.472180632300859,44.92182109730281],[-0.47179495022873,44.92191849947064],[-0.471143585216249,44.92208260295989],[-0.471077661765468,44.922099623481806],[-0.471032178654194,44.92211077809025],[-0.471005283735657,44.9220738572496],[-0.471066768281002,44.922007678494694],[-0.471295878447326,44.92176007156848],[-0.470864086283328,44.92155321615886],[-0.47070066325184,44.92178615244988],[-0.470674316776105,44.921823655552004],[-0.470619996016484,44.921901055783295],[-0.470382549721614,44.92178248382612],[-0.469923561222033,44.92241506372203],[-0.469652315378316,44.92219309419493],[-0.469528949122221,44.92208952194099],[-0.469227757721543,44.92184685753451],[-0.46904585878851,44.921625520643126],[-0.46891886256062,44.92157189884187],[-0.468503333206897,44.921393996674645],[-0.468495255570833,44.921390553908154],[-0.468273627411939,44.92129176122129],[-0.468121748820224,44.921225487314544],[-0.468089542820264,44.92121135238742],[-0.468101783497104,44.921167260859235],[-0.468102008884453,44.92116680321006],[-0.468102728188387,44.92116407708089],[-0.468286160706678,44.92050397125228],[-0.467815794143087,44.92046061948194],[-0.467655738249975,44.9204528193394],[-0.467336913912449,44.920419063603575],[-0.467196972844872,44.9204042361779],[-0.467175129149656,44.92040176378955],[-0.467212414946768,44.920372932316404],[-0.467290248927216,44.92031264406261],[-0.467318602827992,44.92028706541868],[-0.467326772308359,44.92027969072596],[-0.467329165279566,44.9202773629658],[-0.467371363639261,44.92023567083767],[-0.467395491245105,44.920195083574136],[-0.467450332683564,44.92010144678696],[-0.467462962685424,44.920080054003016],[-0.467512179247164,44.91977651784324],[-0.467517593231744,44.919738948089325],[-0.467511323033808,44.91973806237876],[-0.467269309441941,44.9196910037311],[-0.467029993805893,44.91964449120645],[-0.466905587949936,44.91962034655903],[-0.466872210141329,44.91961390828916],[-0.466756706714519,44.91959218926105],[-0.466731972468577,44.919588094698774],[-0.466728256558147,44.919587489706394],[-0.466653668480332,44.91957512789003],[-0.46658176685384,44.91956313278665],[-0.466581761292297,44.91956304283806],[-0.466583691039132,44.91955937771972],[-0.466590607244002,44.91954609413521],[-0.466681523529532,44.91937121317211],[-0.466781141493756,44.91893704936241],[-0.46681850490869,44.91893615346325],[-0.466867267801124,44.91893499184277],[-0.467465704122118,44.91892045582623],[-0.467985858369535,44.91895071840107],[-0.468321328762846,44.91898917928437],[-0.468713191928426,44.919059583696196],[-0.468983133870136,44.91912343081088],[-0.469298016790224,44.91921453239606],[-0.469978076497046,44.919455093062425],[-0.470433372831094,44.919603448310205],[-0.470704191479529,44.91966293812905],[-0.471074936395632,44.91972606361538],[-0.472158954239558,44.91987756227051],[-0.473048669612446,44.920008900866414],[-0.473176021582395,44.92000068275643],[-0.4733161661852,44.91996349560174],[-0.473437486250924,44.9199131983479],[-0.473824082059558,44.91973663383671],[-0.474093156420709,44.91959799056463],[-0.474245206860813,44.91951960425883],[-0.474250073434782,44.91953468274212],[-0.474323630703662,44.91999912661804],[-0.474344217072486,44.920126636968234],[-0.474419222659498,44.920589864013756],[-0.474422547088384,44.920610758586854],[-0.474199973818188,44.920623759094774],[-0.474105209151914,44.92061951347604],[-0.474129168122147,44.920723666760104]]],[[[-0.472445627693338,44.90654897375846],[-0.472260760653926,44.90661910191738],[-0.472480943317508,44.906908357886344],[-0.472230689254517,44.90700594516163],[-0.471941255195741,44.9066038582322],[-0.471654144025445,44.90620440176562],[-0.471497190008206,44.90598589620497],[-0.471475397616578,44.90595548540043],[-0.47188063141688,44.90582538662026],[-0.471965962377742,44.90579442020372],[-0.472122518673566,44.90574635643088],[-0.472126121333692,44.905751290614816],[-0.472293246794637,44.90598452764982],[-0.472426556923686,44.90617340042084],[-0.472641134261121,44.906474547169516],[-0.472445627693338,44.90654897375846]]],[[[-0.471867185755829,44.911103990764545],[-0.471894148081013,44.91108881837591],[-0.47190627861643,44.91108195032225],[-0.472100708541546,44.91101035254684],[-0.472311622294775,44.91093256129828],[-0.472624308399366,44.91137384563268],[-0.472139896724108,44.911516245100906],[-0.472122684101991,44.91149019721319],[-0.471770487642321,44.91115838356266],[-0.471867185755829,44.911103990764545]]],[[[-0.46740388460061,44.90692128371349],[-0.467378470339085,44.906971734454885],[-0.467340997735414,44.907046624260154],[-0.467540299284705,44.90709086905067],[-0.467407484243332,44.90736303891722],[-0.467763867626515,44.90744140100288],[-0.46773102158836,44.90750497135627],[-0.467376868796261,44.90742987401104],[-0.467118429220835,44.90737062259801],[-0.467031228042577,44.907350904926396],[-0.466997526517827,44.90734321534668],[-0.466740811036578,44.90728517095775],[-0.466660280658847,44.907508753994314],[-0.466568309973775,44.90775243080106],[-0.466245734839665,44.9076855364714],[-0.466279800170568,44.907545234861225],[-0.46631077980583,44.907416565159785],[-0.466322838682786,44.90735724904699],[-0.466359555115299,44.907206500645785],[-0.466371041528066,44.907164595912974],[-0.466390962820115,44.90711143300488],[-0.465916865262517,44.90704485184623],[-0.465764753098739,44.9070233741215],[-0.465714223391953,44.90701629951476],[-0.465166449314685,44.906939487764085],[-0.465028317489259,44.90692054679722],[-0.464670852847619,44.90687176984058],[-0.463815570073861,44.90679111770777],[-0.463709041112305,44.907125728056705],[-0.463475318320549,44.907858768293295],[-0.46321135248996,44.90785168043469],[-0.462997081738319,44.90781555506359],[-0.462869189048011,44.90780431287509],[-0.462676431051471,44.90777769977458],[-0.462444388752131,44.90775771857378],[-0.462299719331762,44.90773149792754],[-0.462191047271198,44.907715239714335],[-0.462034319621279,44.907717602760144],[-0.461889959480857,44.907712820894155],[-0.461744324663299,44.90770177006579],[-0.461640324041376,44.90770366037751],[-0.461513998567468,44.90769930715367],[-0.461434947449593,44.907696544300734],[-0.461448550240025,44.90761284791556],[-0.461454468979245,44.907577245627316],[-0.461496019531254,44.90742652878846],[-0.461573874020788,44.90714283233003],[-0.461794938083555,44.90714936890213],[-0.461857652877487,44.906928598467196],[-0.461921381215013,44.90673041691881],[-0.462053913927283,44.906340294078106],[-0.462157142088363,44.90603219420109],[-0.462039040764666,44.90596585198301],[-0.461994514341261,44.90594507032188],[-0.462303834576943,44.90552023576983],[-0.461934995243643,44.905381503250005],[-0.461887313025652,44.90544517373683],[-0.461839117875724,44.905516971133174],[-0.461671657139812,44.90574596370761],[-0.461096780531781,44.90548243450779],[-0.461349518552196,44.90517219862503],[-0.461491573589434,44.90499798135765],[-0.461705684761829,44.90473382924636],[-0.460861298893208,44.9044099384489],[-0.460941208166202,44.90432805073933],[-0.461053931193287,44.90421485933681],[-0.461258530353816,44.90400823176191],[-0.461286430212428,44.90397744172018],[-0.461377988831403,44.90387680574291],[-0.46154434758712,44.903693719801915],[-0.46162261607841,44.903603771774144],[-0.461625698051119,44.90360439666309],[-0.46164198276566,44.90360731358928],[-0.462217680881301,44.9038145778443],[-0.462788200464867,44.90401388981934],[-0.462965796320858,44.90374177154327],[-0.463057486112492,44.90361661692517],[-0.462635130291202,44.903467389836756],[-0.461987262286721,44.903237234158404],[-0.461985226959171,44.903218642466754],[-0.462082019498783,44.90309396046539],[-0.462160485041865,44.903005177457835],[-0.462201372997011,44.902958841768694],[-0.462411771069395,44.902716883666365],[-0.462493910268536,44.90262600317027],[-0.462533439970093,44.902582323227165],[-0.462581708854355,44.90253025980079],[-0.462625812779617,44.902499054186755],[-0.462666780664518,44.90247867081485],[-0.462714288839931,44.9024635808727],[-0.462789596236943,44.90244690296754],[-0.46296361093168,44.902426966274255],[-0.463071236335821,44.90242027504554],[-0.463238460946182,44.90243001944112],[-0.463322636261979,44.902437847995095],[-0.463540281649101,44.902473506291145],[-0.463675653884467,44.902507494990765],[-0.463928911016843,44.902575656982066],[-0.464143669087009,44.90264051347824],[-0.464285079386177,44.902694229953944],[-0.464447056719377,44.90277091639696],[-0.464554686458199,44.90282586680014],[-0.464667257922108,44.90288075302843],[-0.464733185666629,44.902905191582455],[-0.464891971495465,44.902952777595516],[-0.465145940453356,44.903036505764796],[-0.465413757356603,44.90311448400346],[-0.46552277115291,44.903144606865716],[-0.465740814064399,44.9032112504432],[-0.465814159024062,44.90322437190132],[-0.465872377516853,44.903238956814405],[-0.465912842070459,44.90325968342868],[-0.465651195938864,44.90349910258676],[-0.465502441214259,44.903650824048796],[-0.465334777772934,44.90382079927189],[-0.465699716936709,44.904009299178796],[-0.46597160783442,44.90372837452139],[-0.466209791255443,44.903474546576255],[-0.466362540774399,44.9035967595746],[-0.466414982635718,44.90363892156803],[-0.465694035004284,44.9043872667692],[-0.465995051086207,44.90453242980313],[-0.466185476718915,44.904338852072065],[-0.466236288557688,44.90436078766673],[-0.466236282998204,44.90436069771853],[-0.466470633563721,44.904604911596124],[-0.466662408951146,44.9045111457877],[-0.467160595953494,44.90427235919888],[-0.46716060151445,44.90427244914703],[-0.466769932313092,44.90445966374385],[-0.466808100804023,44.904510922927265],[-0.466808106364437,44.904511012875446],[-0.46706503833986,44.90477993491858],[-0.467390951564441,44.90463854067886],[-0.467431851269373,44.904547321912716],[-0.467470723866639,44.904614059855895],[-0.467578276729301,44.904811222209354],[-0.467605874069477,44.90487813199052],[-0.467703468682255,44.905035230669085],[-0.467753651101305,44.90509413522633],[-0.467797310557634,44.905150089217],[-0.467876553429878,44.90523187831764],[-0.467961195935404,44.90530664946803],[-0.468054851467297,44.90537951686703],[-0.468177810028051,44.90544227652054],[-0.467861025126285,44.905585731101766],[-0.467521379464113,44.9057389108153],[-0.467767296548743,44.90599772145009],[-0.467817338845915,44.906001025203665],[-0.467767546458575,44.90602637240097],[-0.467789716703147,44.90604857098046],[-0.467871372476853,44.90614064880795],[-0.468102739285807,44.90619488593431],[-0.468328817023153,44.90624766560288],[-0.46832377223035,44.906258367439186],[-0.468253114361632,44.90640359786462],[-0.468080720046583,44.90676775760736],[-0.467950187953782,44.90705013079772],[-0.467503238848795,44.90694476717662],[-0.46740388460061,44.90692128371349]]],[[[-0.466401671685145,44.89423037091924],[-0.466401621656443,44.894229561388045],[-0.46639993670162,44.89421870930051],[-0.46649219257249,44.89413796370486],[-0.466722661629907,44.89395079448309],[-0.466778333045526,44.893920217137776],[-0.46682590832178,44.89389403817826],[-0.466959828362457,44.89382893390726],[-0.467070533924113,44.893761580454964],[-0.467244668116538,44.89366403787492],[-0.467383261108815,44.89358635035213],[-0.46751279276064,44.89350975676621],[-0.467580799476882,44.89345518187196],[-0.467596157147683,44.89344109382406],[-0.467623827364235,44.89347645838442],[-0.467636767676479,44.89349299703231],[-0.468075453786394,44.89405291720084],[-0.4676530497322,44.894127574855176],[-0.467166962819194,44.89419962356688],[-0.466732475271147,44.89426753543166],[-0.466487913221849,44.89429644076802],[-0.466411572811051,44.89429621093048],[-0.466401671685145,44.89423037091924]]],[[[-0.466816415018075,44.90447515535749],[-0.466812200189544,44.90449313106642],[-0.466816288451618,44.90447515930916],[-0.466816415018075,44.90447515535749]]],[[[-0.465533414282317,44.91108409459973],[-0.46554630689542,44.91104439911066],[-0.465631979206971,44.910879235701415],[-0.465671658969992,44.9108235637405],[-0.465778156961342,44.91070398280387],[-0.465886026818865,44.91059634515216],[-0.466091795309314,44.91042905522321],[-0.466113871184782,44.91043945117562],[-0.46634205346462,44.91055885996763],[-0.466555084670094,44.910677299338],[-0.466597746469065,44.91075194037989],[-0.466677096006348,44.91078407014429],[-0.466676381008763,44.910784813440294],[-0.4664796068593,44.91103194212999],[-0.466331176823571,44.91121177240974],[-0.465894286181055,44.91114240640953],[-0.465551198112102,44.911086603763266],[-0.465533414282317,44.91108409459973]]],[[[-0.461768560130009,44.909505700446005],[-0.461707559136718,44.909575553804686],[-0.461569608071667,44.909746579186944],[-0.461424970875307,44.90993051994591],[-0.461304223840772,44.910063878579635],[-0.46125567415914,44.91011973519432],[-0.461170184309639,44.910226400181664],[-0.461069736586301,44.91032496973452],[-0.460945994398734,44.91042832066022],[-0.460785166910147,44.910549319448805],[-0.460693503261303,44.91061967717114],[-0.460563747178133,44.91071807811916],[-0.460404171659242,44.91083678426029],[-0.460043215962238,44.911111997599434],[-0.459873135953354,44.91124959526919],[-0.459736869779587,44.91136586184441],[-0.459569840503962,44.91150976260369],[-0.459353246423556,44.91169107549319],[-0.459168116520281,44.91185203170389],[-0.45909108006281,44.91192724955208],[-0.459038604535902,44.9119873729884],[-0.458997082087298,44.91203796283363],[-0.458956090927142,44.912072494469115],[-0.458901234815651,44.91209402981772],[-0.458814549491739,44.91205806757707],[-0.458704381699065,44.91202590076816],[-0.458216438060061,44.911881311123906],[-0.457889483042884,44.911776497125445],[-0.45776234700838,44.9117529687075],[-0.457770499051193,44.91177821927392],[-0.457503709435103,44.91170298323099],[-0.456952303015812,44.911522513062934],[-0.456867345902821,44.911493975660484],[-0.456673566720978,44.911422142622115],[-0.456569405296643,44.911388615240945],[-0.45654985881504,44.91138219416907],[-0.45646070271204,44.91135342668112],[-0.456387994169647,44.91133018534273],[-0.456248764165853,44.91129765903431],[-0.456071416350786,44.91126604848526],[-0.455717946451753,44.911210358613445],[-0.455698737356314,44.91120735151189],[-0.45566761751743,44.91120246201058],[-0.456014080800886,44.910677357291355],[-0.456200053471837,44.910396248476665],[-0.456349599164715,44.91017025582955],[-0.456617812345221,44.90976672501365],[-0.456631963099404,44.90974528624723],[-0.456768559470682,44.90953970300845],[-0.45709344038855,44.90905158532089],[-0.457265520822736,44.90879010288428],[-0.457280138571469,44.90876801863712],[-0.457467088997788,44.90848651654455],[-0.457791697065236,44.907994169382185],[-0.457818947938274,44.9080021527176],[-0.457835873144471,44.90800721320917],[-0.458346992812537,44.908158020839046],[-0.458375392027985,44.9081167619618],[-0.45854715000984,44.90786664268672],[-0.458280023444144,44.90777537802149],[-0.458045290127447,44.90769527037314],[-0.458028579318512,44.90768957238971],[-0.458000601403524,44.90768007968671],[-0.458117985769367,44.907654614779815],[-0.458133298244385,44.907647919538704],[-0.458194052382585,44.90763160807829],[-0.458290429290604,44.907592467901594],[-0.458162062131825,44.90753031650746],[-0.458138142975613,44.907424177389096],[-0.458178679552417,44.907320627156274],[-0.458215573027052,44.907262881929],[-0.458312306780707,44.90711026772252],[-0.458425423298666,44.90693542391542],[-0.458515940748862,44.90677867729108],[-0.458797897034532,44.90646483402949],[-0.459295333889713,44.90680928349642],[-0.459615321474063,44.90702975508594],[-0.459838601159174,44.907183214675484],[-0.460058981977381,44.90733694443245],[-0.460236558169563,44.907456680006305],[-0.460489723811213,44.90760938737244],[-0.460489958809039,44.90764813231681],[-0.460490282616823,44.907688316438914],[-0.460499550282768,44.90768847823461],[-0.460622291627105,44.907690240659576],[-0.461218962197005,44.9077538349696],[-0.461203280382823,44.90777919732857],[-0.461130308240156,44.90789547563986],[-0.46145048616098,44.90801608175583],[-0.461976296434059,44.908252661476304],[-0.461943339652492,44.90828784504991],[-0.462043165270201,44.90833745399221],[-0.46248731393236,44.90853097584565],[-0.462267812598783,44.908751137872734],[-0.462166678928699,44.90885495695897],[-0.462072153057483,44.909115111276385],[-0.461907450271733,44.90932320006388],[-0.461768560130009,44.909505700446005]]],[[[-0.45862410263623,44.91244746639942],[-0.458418287986959,44.91268233430651],[-0.458251123731902,44.912937266910994],[-0.458090288295658,44.91319407496185],[-0.457729927328928,44.91377964036113],[-0.45759291406109,44.91399091547543],[-0.457450660670192,44.914203615242194],[-0.457132666481266,44.91459815357652],[-0.456887611292568,44.91489417072718],[-0.456845110845405,44.914945420978874],[-0.456349434340562,44.91548021908392],[-0.455899625109242,44.91597735864415],[-0.455719412747145,44.916173212832476],[-0.455670604720958,44.91620447162935],[-0.455551572565091,44.9161932151066],[-0.455571782051829,44.91610129318153],[-0.455571543055126,44.91605831264351],[-0.455570557781974,44.91597029455759],[-0.455570431188795,44.91597029849649],[-0.455570000081357,44.915915968624255],[-0.455569659392156,44.91587957012479],[-0.45556897337961,44.915808755945],[-0.455555688983393,44.915751671746044],[-0.455542087126294,44.91564827496023],[-0.455517045646415,44.91556506084822],[-0.455510664031871,44.91538330405878],[-0.455501837207519,44.91533680563177],[-0.45549007028063,44.915275528634226],[-0.455551458587923,44.914851579539096],[-0.455625882554936,44.91447246581296],[-0.455636871282734,44.914416158439174],[-0.455858460414676,44.91406653118754],[-0.455881860386089,44.913861767953065],[-0.455885732304825,44.913694111611456],[-0.455860938912325,44.91357375986554],[-0.455760841508139,44.913303716498014],[-0.455688009033663,44.91306653011573],[-0.455549354098492,44.912621499025846],[-0.455389430098818,44.91221615225566],[-0.455356020353555,44.91211030778626],[-0.455356410860539,44.912059016548426],[-0.455380963013508,44.91194496999076],[-0.455394661210881,44.91182972908764],[-0.455490867522982,44.91164360885349],[-0.455602468164578,44.911472690624876],[-0.455639754292923,44.911394476567594],[-0.455713591465699,44.91128169005042],[-0.455966324171922,44.91131618221148],[-0.456280740092191,44.91138227921041],[-0.45659697164178,44.91146958749588],[-0.457307842446995,44.911712505846225],[-0.457582339753445,44.91179345039533],[-0.458109282472775,44.9119308803148],[-0.458388315339746,44.91201952228873],[-0.458689687922138,44.91210638637089],[-0.458816687267586,44.912162632163195],[-0.458840300412925,44.91220001814457],[-0.458830960716698,44.91223365402922],[-0.45862410263623,44.91244746639942]]]]}}]}
