{"type": "FeatureCollection","name": "aoc_geojson","features": [{"type":"Feature","properties":{"dt":"Pau","type_prod":"Vins","categorie":"Vin tranquille","type_denom":"appellation","signe":"AOC","id_app":9,"app":"Béarn","id_denom":61,"denom":"Béarn","insee":"64087","cvi":"1B101S, 1R101S, 1S101S","nomcom":"BAIGTS-DE-BEARN","insee2011":"64087","nomcom2011":"BAIGTS-DE-BEARN","id_aire":75,"crinao":null,"grp_name1":null,"grp_name2":null},"geometry":{"type":"MultiPolygon","coordinates":[[[[-0.868278072734429,43.51166799218124],[-0.867926100156638,43.511901694604866],[-0.867898546688982,43.5119170903135],[-0.867850056231988,43.51192116245389],[-0.86744516241444,43.511889217194756],[-0.866661951923058,43.51180275533727],[-0.866634404528187,43.51179986450184],[-0.866613136029349,43.511796479471464],[-0.866363240331595,43.511761433868266],[-0.866277448507052,43.51175377423523],[-0.865917596582643,43.51174003427859],[-0.865832221071851,43.511582288272784],[-0.865732671691841,43.51140703192461],[-0.865832435787522,43.51137221702536],[-0.865722765110969,43.51114588669955],[-0.865639713515098,43.511000578726936],[-0.865378459499731,43.510642283426264],[-0.865260437587272,43.510497771801944],[-0.865313885228404,43.510309943787945],[-0.865337441031811,43.51027928784898],[-0.865453312901677,43.51016571067126],[-0.865572425375271,43.51003409216125],[-0.865630297556269,43.509935914604824],[-0.865655902986367,43.509851138336536],[-0.865653495432844,43.509671967762756],[-0.865526574442868,43.509191150285936],[-0.86647275755741,43.508866092080716],[-0.866472420460524,43.50889601019787],[-0.867141473740002,43.509008073114714],[-0.867187860306471,43.50902425388481],[-0.867859431119896,43.5092636840272],[-0.86794765249421,43.50927990313674],[-0.868678102577909,43.509397512915314],[-0.868388052614827,43.50985573534947],[-0.868173116164565,43.51004743603785],[-0.868391336739054,43.510134141725864],[-0.867920632920631,43.51043324453458],[-0.867888981527934,43.510457614184766],[-0.868255211517533,43.51093727758396],[-0.86856924130921,43.51134196566322],[-0.868281880710248,43.511645516740664],[-0.868278072734429,43.51166799218124]]],[[[-0.866085685035269,43.534447492198545],[-0.866114152896637,43.53448962576576],[-0.866150314390846,43.53461841246954],[-0.866171213774737,43.53465847375786],[-0.8662123161155,43.534697004087484],[-0.866258991775959,43.53477416029718],[-0.866329406380751,43.53491514780165],[-0.866351790109176,43.534980919107916],[-0.86636303407388,43.535041232344206],[-0.866368523233117,43.53510985797326],[-0.866348581118631,43.535304601845404],[-0.866312761236544,43.53539965242647],[-0.866315579461176,43.535443330974545],[-0.866338927754969,43.535490331226555],[-0.866389300066506,43.53557456208827],[-0.866417084702143,43.535606540920845],[-0.866476830585099,43.53568287082935],[-0.866508875280578,43.535733974952976],[-0.866540772124987,43.53579391221395],[-0.866543051449222,43.53584796922579],[-0.866534318870513,43.53591133679289],[-0.86649146149248,43.536017718254676],[-0.866490493202822,43.536052974187285],[-0.866513208741234,43.536088736952266],[-0.866523821781371,43.53610475319767],[-0.866510262766581,43.53612955829652],[-0.866391783710653,43.5362070175576],[-0.86633896009308,43.53632537463221],[-0.866310789055677,43.53639060622029],[-0.866303859873471,43.53643111916127],[-0.866306502184687,43.5364905680762],[-0.866354336186787,43.53655732386298],[-0.866366651942046,43.53657472071412],[-0.866375127262781,43.536604955809096],[-0.866378506081447,43.536658793492826],[-0.866338283223619,43.53670319578316],[-0.866282272384514,43.53673563972105],[-0.86610710314364,43.5367766552929],[-0.866111932492782,43.53678585149452],[-0.865801609495668,43.53766979222863],[-0.865755465696502,43.537644683113136],[-0.865482279840278,43.5376092899573],[-0.865153580314808,43.5376210949098],[-0.864484170486853,43.53765206597236],[-0.864303234262996,43.537684726374735],[-0.863480582960141,43.53785077670784],[-0.863450038646356,43.537604864671884],[-0.863362084418015,43.53686105248604],[-0.862594818081806,43.53688766102674],[-0.862590108414224,43.53673487263912],[-0.861624754206315,43.53677105140029],[-0.860859190814871,43.53679902832963],[-0.860822663462839,43.53694445679013],[-0.860708171064604,43.537055547666675],[-0.860395429873679,43.53702290121117],[-0.860180323588963,43.53702064889062],[-0.859882652225369,43.537029802208146],[-0.859198921421449,43.537050260731924],[-0.859003803498156,43.53705432105091],[-0.858967680432895,43.53651701827753],[-0.858491365838744,43.53641974415221],[-0.858404009862455,43.535921467360545],[-0.858441892921015,43.53576112860269],[-0.858612322117371,43.535102526510556],[-0.858620502371365,43.534754527332694],[-0.858236455327679,43.53472738486386],[-0.857688668596699,43.534693904845376],[-0.857577448812091,43.534210709805855],[-0.857578462932263,43.53412446744183],[-0.857611493080393,43.53386242169305],[-0.857630190245568,43.53378690038153],[-0.857864205224968,43.533435102008305],[-0.85795012264288,43.53333548014527],[-0.858007497833783,43.533292002375966],[-0.858162286254675,43.533224160500666],[-0.858250551000373,43.53320552659835],[-0.859566086518776,43.53302530710796],[-0.860016780846563,43.5329610734221],[-0.861134169498793,43.533280984291984],[-0.861143349095794,43.53363097808577],[-0.861122611544055,43.53377917719671],[-0.861023621289309,43.53430471460108],[-0.860805271968155,43.534592816837105],[-0.860728953320741,43.53489586026047],[-0.860564921017085,43.53526075822776],[-0.860432343575595,43.5353459189771],[-0.859884997637326,43.53561924632618],[-0.859421630496062,43.535856252717934],[-0.859388161064089,43.535903564701655],[-0.859388918046408,43.536038207266266],[-0.859489202211175,43.536038061520685],[-0.859832070499215,43.535986674480405],[-0.860281521946455,43.535829972473344],[-0.860551436492943,43.53573406800427],[-0.860666822848107,43.5358921945888],[-0.861073618474604,43.5358726681762],[-0.861100500518625,43.535755057494406],[-0.861156694248606,43.535513624185874],[-0.861177803007322,43.53540774928844],[-0.861241416503097,43.53513857740759],[-0.861275345662448,43.53501161773573],[-0.861296129382095,43.53495061423888],[-0.861313385138035,43.53484820948409],[-0.861305146489271,43.53478463612102],[-0.861331813945102,43.53462703757596],[-0.861336541175556,43.53458687376188],[-0.861332478063561,43.53452279142263],[-0.86134728720214,43.53443371555078],[-0.861364481641372,43.534313837491354],[-0.861356864424204,43.53422637084792],[-0.861369308245824,43.53414999039616],[-0.8613860658226,43.53412669358801],[-0.86139544378235,43.53406915892357],[-0.861417928520499,43.53401872429192],[-0.861539826383903,43.5338337736564],[-0.861562969172448,43.53377655957007],[-0.861561314677207,43.53373356028338],[-0.861518886294781,43.53359427615681],[-0.86152252024178,43.533515777248354],[-0.861539026885279,43.533435378699814],[-0.861579435733155,43.53325936500131],[-0.862032646545405,43.53322701167834],[-0.862120168912113,43.53322128244972],[-0.863194457707247,43.53313599656169],[-0.863743921141863,43.533093361084724],[-0.863738126593056,43.53323904673248],[-0.863726139714231,43.5332872162037],[-0.863717285702053,43.53336905406097],[-0.863711686824634,43.5335029322785],[-0.863695447132265,43.53360196832308],[-0.863654459074542,43.53375088962015],[-0.863657111913626,43.53386204395107],[-0.863636602008718,43.5339105170755],[-0.863642876352827,43.533976142052516],[-0.863631017534609,43.53404277337757],[-0.863609307684833,43.534088136448105],[-0.863553023228735,43.53427102239224],[-0.863528002676537,43.534329745163696],[-0.863505016254185,43.53442604893087],[-0.863508262685958,43.5344798011568],[-0.863190670049054,43.534501834522814],[-0.863083827667327,43.53486812259744],[-0.86304465412491,43.53540648538641],[-0.863021777490867,43.53571969808638],[-0.863207826418016,43.53539697971891],[-0.863561852689625,43.53478299322763],[-0.863575240749617,43.53475747400442],[-0.86355581783749,43.534652862335236],[-0.863538497339384,43.53458132524174],[-0.863540003242964,43.53452091794215],[-0.863523271699648,43.53447836565569],[-0.863525044404794,43.53441272421239],[-0.86352800545801,43.534375775976784],[-0.863547808241487,43.53432967013937],[-0.863565383829193,43.5342688705147],[-0.86423881634509,43.53421731228746],[-0.864830312765015,43.53417173260266],[-0.864825964646615,43.53413657615098],[-0.865875949989268,43.534098341378545],[-0.865891158015049,43.53411824745296],[-0.865960743909768,43.53421386419514],[-0.865986092786201,43.534274034925865],[-0.866060280146214,43.53439200764477],[-0.866085685035269,43.534447492198545]]],[[[-0.864200844692426,43.51087973737514],[-0.864283348333724,43.511307552385915],[-0.864335254218505,43.511606204476394],[-0.864303307923592,43.51160599206433],[-0.864039545159363,43.51160026066328],[-0.863655800179795,43.51159376047616],[-0.863586880611768,43.511590361651265],[-0.863560917439596,43.5114583309464],[-0.8635304235522,43.511308626162766],[-0.863475004580585,43.51132744593189],[-0.86344470521846,43.51133699314384],[-0.863400096268321,43.511350923691744],[-0.863404187734681,43.51133447365671],[-0.863411862133179,43.51130321312411],[-0.863414808364757,43.51127158062316],[-0.863426295398484,43.511146142183826],[-0.863387394009169,43.510913774691105],[-0.863218169192669,43.510852516741025],[-0.863238407622421,43.51040275405329],[-0.863275268660246,43.51021479775886],[-0.863305118568376,43.51007348175482],[-0.863338468324024,43.510006265699204],[-0.863504803788752,43.509695331900744],[-0.863659874346671,43.50945244828454],[-0.864321964107758,43.509345165446476],[-0.864441573086688,43.509993340407426],[-0.864549166562676,43.510402244837216],[-0.864606206103696,43.51061901232005],[-0.864633529262859,43.51068478650562],[-0.864142426234616,43.51072706470762],[-0.864200844692426,43.51087973737514]]],[[[-0.863552220387947,43.534698751179434],[-0.863551745399754,43.53470273162492],[-0.863547072350453,43.534666415669975],[-0.863552220387947,43.534698751179434]]],[[[-0.862998057147601,43.525579359452465],[-0.863015508039044,43.52558297148441],[-0.863130419991231,43.525765522270795],[-0.863210875154901,43.525875705644786],[-0.863252128082196,43.5259110784131],[-0.863335010894796,43.52599478193084],[-0.863463164350421,43.526050298963106],[-0.86306918798354,43.52650950854879],[-0.862867422748057,43.52648048446006],[-0.862764517456462,43.5264598288453],[-0.862665441631224,43.52642984861193],[-0.862279867664975,43.52626513546965],[-0.862120409086597,43.52620064316425],[-0.86185443143371,43.52608751812303],[-0.861880188669431,43.52600480864578],[-0.861902100396875,43.526006640556304],[-0.861916260144205,43.525976049717386],[-0.862076819957579,43.52601275858875],[-0.862081838672265,43.526000869508515],[-0.862174992252218,43.52602196314161],[-0.862205603581873,43.52595988903387],[-0.862177759439009,43.52595268355991],[-0.862187982501141,43.52592430472521],[-0.862197397173413,43.52590415191301],[-0.862157647629743,43.52589295659076],[-0.862162273361148,43.525875226340105],[-0.862017581737444,43.52583515997839],[-0.86199343754293,43.525831425858485],[-0.861994812501346,43.525824260612225],[-0.861917385460686,43.52581242538851],[-0.861809672014336,43.52579572351416],[-0.861777566925508,43.52599387062504],[-0.861102602206079,43.5259623279118],[-0.860896611852618,43.525953268185575],[-0.860746038955407,43.52593250638655],[-0.860609493681284,43.52590863264924],[-0.860575367368749,43.52587795956865],[-0.860599780313802,43.52581205309078],[-0.860663280033641,43.525817449004755],[-0.860678495916521,43.52574916757985],[-0.860562541178874,43.52573140672017],[-0.860482263822228,43.52571399697011],[-0.860360567705124,43.52569553951365],[-0.860315242408538,43.52583155151465],[-0.860137205430348,43.525801857907304],[-0.859835489779173,43.52574999321389],[-0.859708668532631,43.525740004762646],[-0.85922821411186,43.52569954496756],[-0.859254329132036,43.52526299221659],[-0.85927290557612,43.52485057888533],[-0.859300893721235,43.52433324873839],[-0.859273967875839,43.52393821904644],[-0.859903728198723,43.523907245022066],[-0.860203354411524,43.523891353855525],[-0.860112918035464,43.52504110201964],[-0.860571334300426,43.525146028417375],[-0.860591576650508,43.525102790279995],[-0.860995768336733,43.525110107860954],[-0.861424629441875,43.5250314204385],[-0.861725455996978,43.524957831711234],[-0.861792425714833,43.52497985811164],[-0.862036664720187,43.525066193008385],[-0.862117452001151,43.52511511121025],[-0.862157764203556,43.52500954358677],[-0.862260569094878,43.52503795005967],[-0.862441407381781,43.52508537605997],[-0.86254539852401,43.525147970198255],[-0.862719010322832,43.52527933697669],[-0.862829511940096,43.525392683918156],[-0.862998057147601,43.525579359452465]]],[[[-0.860069456924169,43.52039375556933],[-0.859994403432673,43.520435521859845],[-0.859702842560537,43.52089152204463],[-0.859650505648892,43.52098580617178],[-0.859437783071832,43.52154295034532],[-0.859070678278638,43.52142585278707],[-0.858973772804434,43.52171899584036],[-0.858719035586328,43.52170824449469],[-0.858405866732023,43.52169191518782],[-0.858422174357328,43.521658275887354],[-0.858554427926462,43.52139558329242],[-0.858503097221804,43.52139804055093],[-0.858291272661158,43.52137927544238],[-0.858202451312784,43.52160303943046],[-0.858319433342298,43.521658328807455],[-0.858310726932336,43.521666925888326],[-0.858204121061721,43.52164630799038],[-0.858125438024233,43.5216322630439],[-0.858023900012439,43.521620742774616],[-0.857965537910291,43.52159777746624],[-0.857863909421316,43.521527799045245],[-0.857780217266635,43.52145393952615],[-0.857729888214329,43.52139024285499],[-0.857294087649412,43.521118395974476],[-0.857166339255652,43.521039167305766],[-0.857119431121074,43.52098399627899],[-0.857037747692731,43.520833137490605],[-0.857011946307643,43.520808382866896],[-0.857952633791794,43.520368569590644],[-0.858238992005503,43.520295504878355],[-0.858388548706956,43.52025901551184],[-0.8589013617699,43.520070696175864],[-0.858980308958044,43.520005821961654],[-0.859034542570676,43.5199563300098],[-0.859071174547263,43.52000961398952],[-0.859093069684579,43.52006648517339],[-0.859106825409497,43.520050141678155],[-0.859101479838843,43.52002033566983],[-0.859067713571638,43.51997469648493],[-0.859061419702195,43.51994735635994],[-0.859068939207009,43.519922947576454],[-0.85917351343702,43.519817616437095],[-0.85931029504177,43.51966844137355],[-0.859384038418341,43.51954826348486],[-0.859422005514694,43.51945935532598],[-0.859431595089084,43.51939208536353],[-0.859863982968996,43.51933516661661],[-0.859907415284619,43.519336773154656],[-0.860161656955748,43.519345827469756],[-0.860185984132254,43.51934496133916],[-0.860739495204293,43.51935894249994],[-0.860849443471253,43.520093855114695],[-0.860873673776342,43.52026089956166],[-0.860851343768065,43.52029331244993],[-0.860343383738971,43.52035860065088],[-0.860099623392003,43.52038583558131],[-0.860069456924169,43.52039375556933]]],[[[-0.859153974416781,43.52415129332572],[-0.859111797554247,43.52455148488011],[-0.859051546755571,43.52518742652339],[-0.859003738530489,43.52518156133245],[-0.858981651735639,43.52541286013193],[-0.858940308667076,43.525481080189586],[-0.858859178477011,43.52566277474545],[-0.858683517520697,43.52591890576837],[-0.85855958578007,43.52607347801368],[-0.858345205538363,43.52631351088855],[-0.858197469610194,43.52638101234883],[-0.858000993953948,43.52608984069409],[-0.858061221766966,43.52588628066768],[-0.858001687424163,43.52583119858436],[-0.857986845832141,43.525886674958606],[-0.857939335755583,43.526034473811706],[-0.857404813202207,43.52623770211867],[-0.857433682850113,43.52627676036],[-0.857513699161822,43.52624238610754],[-0.857581227307521,43.526331684431646],[-0.857605437484478,43.526373250457546],[-0.857822903601018,43.52656044524644],[-0.857524855113975,43.526706888116244],[-0.857305312298951,43.526813064555384],[-0.857278154522866,43.52676079379589],[-0.857213464698319,43.52669715694808],[-0.857189791401183,43.52670043118391],[-0.857138201491155,43.526610655739574],[-0.857161777611515,43.52660225045553],[-0.857098967096391,43.5265131443724],[-0.856965437259365,43.52655257453791],[-0.856851462618272,43.52658824629542],[-0.857016694470514,43.5269082757282],[-0.856939126818747,43.52692751926045],[-0.856816912993031,43.52694375667512],[-0.856806324707131,43.526922514266225],[-0.856556895761705,43.52646036156054],[-0.855995200386253,43.526648064601886],[-0.855929893786373,43.52648121828788],[-0.855616260570606,43.526521015782016],[-0.855592256027947,43.52700784624705],[-0.855513338681106,43.52700515741833],[-0.855195563747459,43.52699438631133],[-0.855068670945961,43.526953858082244],[-0.855018991389399,43.526923826337885],[-0.854981084612661,43.52695480999447],[-0.854865631540775,43.52684496433031],[-0.854706525766794,43.52668973916327],[-0.854633181320684,43.52659488086857],[-0.854502211139779,43.526403254240435],[-0.854380432187866,43.526210219853574],[-0.854292350142055,43.526024905452665],[-0.854257237722524,43.525948145098134],[-0.854681140867333,43.52592632076917],[-0.855276964245881,43.52599431661329],[-0.855704374301614,43.526127930198435],[-0.855813464594024,43.52615593910392],[-0.855933051415056,43.5261485338699],[-0.856429989486772,43.52595520719338],[-0.856864609753614,43.52578517327053],[-0.857677314793268,43.5254844942077],[-0.857783999815716,43.52527405703924],[-0.857816545698563,43.52524623569048],[-0.857938623446072,43.52513776080733],[-0.85814326684483,43.52485051349611],[-0.858330478483538,43.524574695563274],[-0.858391721101572,43.524601792057176],[-0.858517856768892,43.524190866481426],[-0.858679368049237,43.52363770809885],[-0.858430386184156,43.52360035776985],[-0.858449796159802,43.523544718823],[-0.85865420950524,43.523018408903795],[-0.8587652516556,43.52272557361179],[-0.858874147295892,43.52282258668652],[-0.859004112012838,43.52294758504187],[-0.859078516122016,43.52304159180123],[-0.859123430374336,43.52311124580953],[-0.859134817437559,43.523184885548204],[-0.859147423210365,43.52340188786451],[-0.859094668533958,43.52370363887982],[-0.859123534759549,43.52370765593391],[-0.859035323579272,43.52401048873771],[-0.859153974416781,43.52415129332572]]],[[[-0.85425423589117,43.525204559696995],[-0.853799983242568,43.52522232668862],[-0.853686886587061,43.52505528632337],[-0.853622249105031,43.52493516628435],[-0.853567432625744,43.52478983542148],[-0.8533287912286,43.524349543344655],[-0.853642621765247,43.52434235369641],[-0.85365626541953,43.52435934409989],[-0.854044443644325,43.52436059063355],[-0.854231768862519,43.52436095837244],[-0.854285793395676,43.524747098020455],[-0.85425423589117,43.525204559696995]]],[[[-0.853398139689769,43.52695603527326],[-0.853959840307362,43.52686599154343],[-0.854140245787763,43.52683877123963],[-0.854275399024782,43.526864053780834],[-0.85435499293309,43.52688788803446],[-0.854788666868709,43.52710550678826],[-0.85478859945562,43.527440063048815],[-0.854772399499695,43.52747351782161],[-0.854653215941295,43.527564410700364],[-0.854402116130001,43.52770223961697],[-0.854349669486649,43.527719507358135],[-0.85425747814183,43.527742241317846],[-0.854147410562607,43.527756872894486],[-0.854059003520336,43.52775668216078],[-0.853985623582539,43.52773875216408],[-0.853861377508693,43.52766020510557],[-0.853784477274289,43.527584299080075],[-0.853476605572366,43.52729689839764],[-0.853414828309273,43.52722126545234],[-0.853378856641163,43.527129852415776],[-0.853398139689769,43.52695603527326]]],[[[-0.853415849284438,43.524868276439555],[-0.853482904978988,43.52487688303835],[-0.853972996056459,43.525610633254665],[-0.854117272492514,43.525819803133324],[-0.854169276713977,43.52595271288644],[-0.854256722284202,43.52613408650615],[-0.854330207141408,43.52626055773051],[-0.854575413007386,43.52661215775968],[-0.854569787976747,43.52663163463555],[-0.854454630949249,43.52666815656151],[-0.85408365830027,43.52672980513385],[-0.853578216446706,43.526809562967344],[-0.853512148042095,43.526819387448825],[-0.85335163528423,43.52687922903115],[-0.853243676753493,43.52691972754179],[-0.853153012190492,43.52680656718425],[-0.853124368349563,43.526770832782596],[-0.853051574986713,43.526680457869936],[-0.852973142332597,43.52658352737783],[-0.852859726035134,43.5266275523587],[-0.852847058050853,43.52661034699204],[-0.852741615117811,43.52665327782922],[-0.852646422907357,43.52669584435691],[-0.852667379221548,43.52673509484956],[-0.852776155027573,43.5269668766467],[-0.852511104721901,43.5269890849211],[-0.852382348838209,43.52699086684746],[-0.851954411010718,43.52698589162169],[-0.851544541379543,43.52698450665465],[-0.851325114005121,43.52697815792068],[-0.851169135162869,43.526967213292245],[-0.850876545870978,43.52691662100819],[-0.850778819142434,43.52689189684881],[-0.850516386068303,43.526812848732646],[-0.849993817489245,43.52665575005723],[-0.849884901085563,43.526643222740155],[-0.849705764750538,43.52663030579246],[-0.849564309616696,43.526627310683466],[-0.849306088413303,43.52663503624866],[-0.84917910146684,43.52663918373052],[-0.849051240887185,43.52663399388259],[-0.848871866854133,43.52665630479605],[-0.848876553959807,43.52662650251869],[-0.848828203366528,43.52662731791202],[-0.848821067159571,43.52657073151646],[-0.848865013718758,43.526574396224376],[-0.848913306675851,43.526423151352034],[-0.848721103909273,43.52639259078325],[-0.848564892179313,43.52638552414125],[-0.848532479806933,43.5263969434903],[-0.848414307488967,43.52637375363328],[-0.848390850067162,43.526472591788625],[-0.848553773234895,43.52652806300069],[-0.84858997207434,43.526538038073454],[-0.848572473014489,43.52669990008752],[-0.848310591157908,43.526736127990546],[-0.848165373205826,43.52675641482267],[-0.848035988279556,43.52674695408999],[-0.847947001533288,43.526739933023265],[-0.847885119887413,43.526716186276076],[-0.847799342047711,43.526666534076135],[-0.847702147916649,43.52660539652388],[-0.847587106123652,43.526542099743466],[-0.847483827209631,43.52649730200352],[-0.847024003814333,43.52634156625915],[-0.846807109153588,43.52626395653533],[-0.846741556683897,43.52623529500242],[-0.84669783464505,43.5261980221649],[-0.846686888825266,43.526175080107734],[-0.846699289123339,43.52612734894351],[-0.846685410408095,43.52607541554536],[-0.846938803123369,43.52608804505211],[-0.847130409444433,43.52594531860218],[-0.8471324303992,43.52595515554805],[-0.847139647794748,43.52595571018918],[-0.847164041871067,43.52593178458161],[-0.847202352808376,43.525901239857376],[-0.847357858486339,43.52577402623763],[-0.847520704096667,43.52565844231823],[-0.847566419033194,43.52561646499497],[-0.847620807112635,43.52552841995992],[-0.847660180055439,43.525384428411584],[-0.8476797281055,43.52530113268225],[-0.847708682661645,43.52525290405416],[-0.847758939633067,43.525208513507295],[-0.847848166039544,43.52514895804328],[-0.847912471647805,43.52511839138643],[-0.847998808936693,43.52506560413383],[-0.848203481524633,43.524996006209896],[-0.848312340613804,43.5249597145001],[-0.848416859487791,43.52483836234773],[-0.848466687929239,43.52477281818925],[-0.848506337993413,43.5247087162063],[-0.84856086836491,43.52461913428865],[-0.848606795522368,43.524596966263005],[-0.848639432767358,43.524590763447534],[-0.848967760231202,43.52467423240739],[-0.849067012614149,43.52469962446919],[-0.84907503060538,43.524601334291646],[-0.849237589876824,43.52455728025472],[-0.849336847770321,43.52453844325374],[-0.84942936445351,43.52453353743514],[-0.849506464807452,43.524538727182986],[-0.849624621686131,43.524558042867774],[-0.849734627627882,43.52457764781722],[-0.849954643393226,43.524648294713685],[-0.850315641558078,43.52477032438551],[-0.850334308932621,43.52479578434926],[-0.850374779568973,43.52485100677355],[-0.850380231890554,43.524858469854955],[-0.850508740063833,43.524989655147984],[-0.850610601018916,43.525070531802236],[-0.850656047366674,43.525096572093815],[-0.85068528789425,43.52512093590712],[-0.85069903627786,43.52513765271186],[-0.850622079820118,43.52542071071019],[-0.850453301679459,43.5260771630596],[-0.85043596050171,43.52630405681195],[-0.851232588427848,43.52644043031632],[-0.851545483037567,43.526396978586426],[-0.851801224039096,43.52633754038001],[-0.85191431186693,43.52628677227364],[-0.852576785705173,43.5262171167706],[-0.852625881049972,43.526232937835616],[-0.852617504139172,43.52520048084231],[-0.852616107998695,43.52504316267072],[-0.852742626299083,43.525024705149505],[-0.852818190543209,43.52501805674954],[-0.853132374964435,43.52498104002017],[-0.853112009007427,43.52489708957523],[-0.853196368870722,43.52489238032539],[-0.853415849284438,43.524868276439555]]],[[[-0.853750066978826,43.53249006649448],[-0.854235915603714,43.53199051499479],[-0.854710735375771,43.532245047670415],[-0.855567683036086,43.53270479644445],[-0.855578803938197,43.533631679887314],[-0.85510253439417,43.5336194256308],[-0.854688859536257,43.53360818728936],[-0.853250446273691,43.53315900392757],[-0.85348198514164,43.53277181271724],[-0.853750066978826,43.53249006649448]]],[[[-0.852679665393626,43.52299440424162],[-0.852642800612009,43.522957881049386],[-0.852591824971762,43.52293429008842],[-0.852480199601183,43.52289790095436],[-0.852444892692693,43.522867988177055],[-0.852419665771591,43.52281303568597],[-0.852334356902373,43.52252313074662],[-0.852332641411137,43.52239978390681],[-0.852322315107681,43.522190537732264],[-0.853288595215902,43.52233780094956],[-0.854005370075192,43.52244708363564],[-0.854674662281187,43.52267695378615],[-0.855010612126769,43.52279652514619],[-0.85405688063423,43.523406213386906],[-0.853463298198013,43.523728984290926],[-0.853038449136112,43.523699583164834],[-0.852824402736078,43.52327886451264],[-0.85277859429738,43.523193926541076],[-0.852679665393626,43.52299440424162]]],[[[-0.852037834927198,43.5230667511529],[-0.852061079778913,43.52307187054701],[-0.852102021073671,43.5230805949418],[-0.852172105171489,43.52309747198958],[-0.852205005861768,43.52303432896022],[-0.852256311946576,43.523044396555214],[-0.852268511777621,43.523056484059026],[-0.852405296233005,43.52307117135128],[-0.852636869152949,43.523083481398125],[-0.852726603468589,43.523260360372646],[-0.852981319022579,43.52380196104382],[-0.85307298601293,43.524014982908554],[-0.853149286750143,43.52416504522398],[-0.853227580254108,43.52429314754067],[-0.853195190104311,43.52429195651234],[-0.853137258298744,43.524432196110745],[-0.852870247218461,43.52437520594602],[-0.852206119998691,43.52418927904882],[-0.850122576274871,43.52359156439333],[-0.850301175234591,43.523231123466275],[-0.851877512139372,43.52324368627382],[-0.851925699077871,43.52327737537983],[-0.852037834927198,43.5230667511529]]],[[[-0.851613164259412,43.520008175889],[-0.851606228340718,43.52002103326731],[-0.851034356701704,43.52004522021955],[-0.850758960481195,43.52004004852828],[-0.850686998661648,43.51786703169927],[-0.850810064092214,43.517900673799566],[-0.850951589613346,43.51794194728742],[-0.851019553570009,43.51797898755338],[-0.851107647786516,43.51806332449505],[-0.851142216461025,43.51810074019978],[-0.851275060597169,43.518582804831446],[-0.851301487330338,43.51872950456698],[-0.851328453584383,43.51881412114004],[-0.851363639357722,43.51889763503287],[-0.851487992309084,43.51909805596224],[-0.851573615646837,43.51923409539098],[-0.851605382778771,43.519792534215455],[-0.851613164259412,43.520008175889]]],[[[-0.851179474653528,43.536143844301506],[-0.851203044408294,43.53608544653559],[-0.851225674624955,43.53603888254149],[-0.851265825139584,43.535943413774234],[-0.851778993567162,43.53573953543304],[-0.852218868039443,43.535812550143056],[-0.852227582426683,43.53578557706692],[-0.853001846283606,43.53591877419401],[-0.853594613903082,43.536022743617536],[-0.853691958679284,43.53571877906506],[-0.854389629344223,43.535806585459916],[-0.854898578181389,43.53587190989064],[-0.854936370325116,43.5357561653777],[-0.855646825358225,43.53583333034496],[-0.855742681656848,43.535868656719],[-0.855777300284084,43.535906610610525],[-0.855778261352931,43.5359559401343],[-0.855767629693063,43.53600964532305],[-0.85570542591102,43.536097432573044],[-0.855666905712191,43.53618572899116],[-0.855654201367759,43.53624175985344],[-0.855681762772795,43.536318428739634],[-0.855749379735351,43.536419976850794],[-0.855852670799354,43.536488548529796],[-0.85602162892637,43.536550371451156],[-0.856924257350001,43.536673482427815],[-0.856595512708368,43.537898999266424],[-0.856384303336345,43.53783867937031],[-0.856061766690199,43.53772106301584],[-0.855696537260071,43.53759091109454],[-0.855442055405612,43.537526002406885],[-0.854861324244606,43.53731577074221],[-0.854512957295826,43.53718771809904],[-0.85450233298149,43.537208363633944],[-0.853965332531276,43.537014949495784],[-0.853971777047218,43.536981841396106],[-0.853646971082726,43.53688375613475],[-0.853407829141902,43.5368074882748],[-0.852766453343062,43.53661219206253],[-0.852024663340803,43.53639658771985],[-0.851603509713013,43.536270480907156],[-0.851179474653528,43.536143844301506]]],[[[-0.84998816898092,43.53535128557138],[-0.84999910307395,43.535386929161646],[-0.849991556463834,43.53568977371519],[-0.849834547267173,43.5356416600625],[-0.849778512206282,43.535624011889794],[-0.849638751816828,43.53559492297539],[-0.849510181086511,43.53557021091302],[-0.849459206138318,43.53567786351904],[-0.848798535471801,43.53553601628579],[-0.848592702415458,43.53556484979936],[-0.848320117737527,43.535624876944425],[-0.847954097284145,43.53566344680653],[-0.847829367874523,43.53567201588818],[-0.84740572823045,43.535669300055766],[-0.847277043853133,43.53564287790114],[-0.846939690977296,43.53553278750088],[-0.846673858726716,43.53544601208013],[-0.846585691132617,43.535414458788296],[-0.846127114382456,43.53528020051499],[-0.845698583774922,43.53507506363454],[-0.845413468648759,43.53492402204855],[-0.845330220042834,43.53488085334108],[-0.845283494124327,43.53485242368386],[-0.845281264471391,43.534856105903074],[-0.84473977397415,43.53470388356846],[-0.844350850498494,43.53459453287305],[-0.844049295382296,43.53451036886685],[-0.843523815556568,43.53438450683173],[-0.843128631240058,43.53429438048139],[-0.842854132903022,43.53424627690234],[-0.8425801030568,43.5342162619036],[-0.842483471945525,43.53420248063616],[-0.842582112078748,43.5339410898245],[-0.842512717391674,43.533916164638526],[-0.842477077118719,43.533999669429946],[-0.84245398668768,43.53400985575283],[-0.842302709970984,43.533984318491036],[-0.84230679634,43.53394733146012],[-0.842231439467451,43.5339239685194],[-0.84228158653043,43.53383706733283],[-0.842332252728203,43.53376717263168],[-0.842388263059667,43.53369943061002],[-0.842478686942329,43.533577953274566],[-0.842720080198148,43.533323935217155],[-0.842752436209922,43.533294954351064],[-0.842968452198116,43.53318343886596],[-0.843128769764003,43.53309992956215],[-0.843496185853102,43.53291044402542],[-0.843522822407943,43.532923642367926],[-0.843569645671292,43.532948015658924],[-0.84422041735079,43.53243059616764],[-0.844228879649115,43.53239426464774],[-0.844475105614056,43.532205198153996],[-0.844497185622855,43.5321965785369],[-0.844547230402431,43.532204352748316],[-0.844615906609217,43.53223335558218],[-0.844881829860587,43.53235688417164],[-0.844624155376219,43.53272993830448],[-0.844491374197325,43.532925072366226],[-0.844429626620284,43.533210289288185],[-0.844490415371179,43.53333964956673],[-0.844582222588806,43.53343115798941],[-0.844647473902022,43.53347370406127],[-0.844738165183664,43.53354669567207],[-0.845376922868378,43.53382401137726],[-0.845861788315661,43.533814924970564],[-0.845997500564174,43.533820651420434],[-0.846200268565018,43.53390876394073],[-0.846465744248087,43.53412706827243],[-0.846686004645453,43.534413364168444],[-0.84704996484426,43.534724738894305],[-0.847021646776704,43.5347696119742],[-0.847150401596129,43.534895028863296],[-0.847642586124543,43.53496728693609],[-0.848491141019153,43.535082386012036],[-0.848545539276615,43.53508856274734],[-0.848917966469787,43.53491293294737],[-0.848973512419746,43.53490483620416],[-0.849153732102861,43.53495383869445],[-0.849372214186153,43.53501949866886],[-0.849433394513733,43.53505480009343],[-0.849731936782289,43.535212020773315],[-0.84998816898092,43.53535128557138]]],[[[-0.848867614412766,43.53488030965563],[-0.848528243236619,43.53504665910825],[-0.84811199608687,43.534987924808874],[-0.847312758967141,43.534871523691784],[-0.84721132536021,43.53478243056285],[-0.847270700462509,43.53466520305051],[-0.847736074428482,43.534649683711194],[-0.84810164835372,43.53464148692938],[-0.848497310347335,43.534625915649784],[-0.848524262442253,43.534577307291876],[-0.848653409570603,43.53432257415125],[-0.848854197366076,43.53391387517824],[-0.849106830975846,43.53360998949292],[-0.849259316027461,43.53342270734228],[-0.849556986694029,43.53306119272346],[-0.849652889481971,43.5329404151981],[-0.850114617984483,43.532898441196764],[-0.850792905767318,43.53284373123777],[-0.851710991845404,43.53284769944351],[-0.852262040192048,43.53281389379215],[-0.852443368020657,43.53366906165968],[-0.851481332552574,43.53387204096061],[-0.850905319769021,43.533995276750474],[-0.849850036513018,43.53421848725079],[-0.849395628379494,43.534096525923594],[-0.849384939384219,43.5341033009574],[-0.849250378554953,43.53428832570387],[-0.849161612833983,43.53441218249773],[-0.849029385652534,43.53464864947554],[-0.848917469217642,43.53485196692096],[-0.848892499608234,43.534848889607304],[-0.848867614412766,43.53488030965563]]],[[[-0.846703031388528,43.52184317457352],[-0.846766561878495,43.521581224853556],[-0.846833189044162,43.52138212999034],[-0.846873114814054,43.52125379313107],[-0.847515931978563,43.52129800272159],[-0.847988859565673,43.521330312403904],[-0.848164310367084,43.52134020959823],[-0.848225284839472,43.521771592818276],[-0.84827535389588,43.52215661251478],[-0.84813438600907,43.52213116912397],[-0.84776036301836,43.52205274294459],[-0.847381548748308,43.52197853905571],[-0.846703031388528,43.52184317457352]]],[[[-0.847778736026266,43.5333595876698],[-0.847223708749549,43.53396407253631],[-0.846911306590585,43.533801211834344],[-0.846477223770511,43.53357222437535],[-0.846205592489771,43.533426472027976],[-0.846744803257464,43.533068109285196],[-0.846958148373613,43.53292794509471],[-0.847399036793883,43.53315876079654],[-0.847778736026266,43.5333595876698]]],[[[-0.846457067932174,43.52554052211728],[-0.846499240457491,43.525515875934246],[-0.8464863028139,43.52536527315796],[-0.846511432922804,43.52531537897932],[-0.846542280348248,43.525262129230455],[-0.846734783061927,43.52502010515682],[-0.84716445555418,43.52450069170584],[-0.847372728166802,43.524248378445726],[-0.847492318955308,43.52406929262559],[-0.847567893157555,43.523844837675114],[-0.847616833580851,43.52360718546375],[-0.847684851125684,43.52328292142813],[-0.847719544154223,43.523159633988314],[-0.84773046910262,43.52316194865791],[-0.848363548847967,43.52322307405674],[-0.848397215386312,43.52323223818666],[-0.848410986770602,43.523245621497935],[-0.84841605302865,43.52326949264652],[-0.84835596115165,43.523652837741366],[-0.848260698357272,43.52403229664353],[-0.848246531580223,43.52408873821159],[-0.848196295535719,43.52428301897854],[-0.848447942635636,43.52429741812124],[-0.848409767773964,43.524516492962306],[-0.848400926537734,43.52458220381107],[-0.848429469588395,43.524679286365576],[-0.848438201354007,43.524785539451806],[-0.848319546024605,43.52493792998729],[-0.848210039284501,43.52498118074322],[-0.848090504810271,43.525013347270075],[-0.847957267202319,43.52507194258495],[-0.847823110175644,43.525155612206035],[-0.847718792289286,43.52522272929952],[-0.847702495661409,43.52524555699589],[-0.847680855137983,43.525277311939504],[-0.847657888870228,43.525326228855974],[-0.847618831445556,43.5255100239486],[-0.847602655149868,43.52553464893276],[-0.847554571930747,43.52561148065096],[-0.847358109960929,43.52559304939161],[-0.846685410408095,43.52607541554536],[-0.84653931057065,43.52579613016121],[-0.846508653880448,43.52574136895024],[-0.846477881392267,43.52564607649149],[-0.846457067932174,43.52554052211728]]],[[[-0.846631834944951,43.52717888765386],[-0.846618909816479,43.5272372667361],[-0.846602685839054,43.52730368976245],[-0.84657329001823,43.52741742094437],[-0.846180887984331,43.527440257693904],[-0.846252979122673,43.52758867248352],[-0.846343814224497,43.527793262044504],[-0.846432936443399,43.527985211243106],[-0.846357353871545,43.52831685968296],[-0.846346074598077,43.528336987003335],[-0.846312814186314,43.528348705966934],[-0.846249700956218,43.528358331031946],[-0.845664507253802,43.528277297033476],[-0.845646739391567,43.52823568025344],[-0.845542695078592,43.528007597625994],[-0.845453738326995,43.52781807405289],[-0.84462113720594,43.528017124816806],[-0.844546990446606,43.528139287944356],[-0.844316244509263,43.52852597884293],[-0.844204086746582,43.52852238834111],[-0.844206774153299,43.528518149455024],[-0.843791069872565,43.52849262044365],[-0.843601614544252,43.52848095980622],[-0.843710794183914,43.52816271566536],[-0.843745661725984,43.528069599606994],[-0.843805017313219,43.527970571113066],[-0.843905668570217,43.527809726110654],[-0.843982087230211,43.527691896795616],[-0.844012603551475,43.52764289323338],[-0.84407326867652,43.52754309754027],[-0.84418935285004,43.5274685408891],[-0.844271688141288,43.52740950305807],[-0.844282502914558,43.527326968022244],[-0.844317852449835,43.52702106920601],[-0.844354283566499,43.527060403045425],[-0.844401384398259,43.52710007922956],[-0.844470672893819,43.52715680431444],[-0.844503219297145,43.527182493824384],[-0.844593652728698,43.52722405659839],[-0.844751868820938,43.52728321344572],[-0.844984503815662,43.527364773175336],[-0.845441018052434,43.526607958849496],[-0.845551797204473,43.52663537757129],[-0.845726005803665,43.526680093690324],[-0.845689523383117,43.52674165012594],[-0.845855182611126,43.5268028834083],[-0.845864810568115,43.52679137218982],[-0.845927306068167,43.52681320664114],[-0.845943269451358,43.526790931517716],[-0.846012636038403,43.52681369324203],[-0.846269658914011,43.52682133142737],[-0.846464664115496,43.526830898700325],[-0.846471886302165,43.526864782314185],[-0.846632500323167,43.52710752175097],[-0.846631834944951,43.52717888765386]]],[[[-0.846448810697838,43.53083483133123],[-0.846247964481008,43.531331443820356],[-0.846232439497274,43.53136027923114],[-0.84586637889381,43.53115391979311],[-0.845789537194044,43.53110836262555],[-0.845747555060781,43.53103796852119],[-0.845797059105009,43.53076786802886],[-0.845879809104209,43.530491363921904],[-0.845938980160723,43.53032306997488],[-0.846030682457364,43.5300360693885],[-0.846237626808759,43.53014051743661],[-0.846311084877986,43.530178087140825],[-0.846650975407206,43.53035240421342],[-0.846448810697838,43.53083483133123]]],[[[-0.846358832452058,43.528758373195295],[-0.846430790788903,43.528448382043464],[-0.846505340688962,43.528095781802804],[-0.846529074177827,43.528047198208],[-0.846906174585059,43.528200556708306],[-0.847400081857427,43.528395439675265],[-0.847351708365015,43.52877278452577],[-0.847308446451655,43.52891051857948],[-0.847208341923622,43.52929555392745],[-0.84683204941975,43.52915621970736],[-0.846305696886168,43.52895572880511],[-0.846358832452058,43.528758373195295]]],[[[-0.845828163302341,43.522025270440324],[-0.846094874560126,43.5221852473459],[-0.846150374396456,43.52220066377476],[-0.846264164593607,43.52220293281137],[-0.846312529719534,43.52219869494026],[-0.846341602701467,43.52218919624795],[-0.846396514135211,43.52215887363461],[-0.846521044359687,43.52210896635961],[-0.846471522085859,43.5224285195673],[-0.846617018279888,43.5224236282255],[-0.846587840368733,43.52233917898981],[-0.846583580201052,43.52228852593508],[-0.846659576304158,43.522009379427026],[-0.846887258263642,43.522109665969765],[-0.84724574698466,43.5223072795542],[-0.847351598905217,43.522377658157744],[-0.847406851040305,43.5224447877564],[-0.847448286596183,43.52252186583597],[-0.847471896240497,43.52261741197328],[-0.847549716153703,43.52293262743889],[-0.847590574789541,43.52311376659524],[-0.847579592499355,43.52326206513284],[-0.84748251299198,43.52372716211527],[-0.847445893677884,43.523878982654445],[-0.847384354555272,43.524026552935865],[-0.847326611180676,43.524145793933215],[-0.847268043132478,43.524230564092186],[-0.847296956876946,43.52423899643482],[-0.846985058450916,43.524583533257655],[-0.846555956282214,43.525096710299295],[-0.846501390447738,43.52507864853343],[-0.846485581813296,43.52501453294687],[-0.846481011389545,43.52496109835996],[-0.846596151735941,43.524534455586625],[-0.846774632971628,43.524554336676914],[-0.846839247484207,43.52438242653966],[-0.846919692016369,43.52416779802111],[-0.846736814641147,43.52413402093308],[-0.846668363396088,43.52411933440928],[-0.846644866193489,43.52417880907344],[-0.846517315607661,43.5245550878034],[-0.846463797841085,43.52470417454272],[-0.846415568891787,43.52486199142296],[-0.846401047165503,43.52485773239132],[-0.846281448072642,43.52476514047482],[-0.846242311785059,43.52480183947249],[-0.846228880606057,43.52479537985192],[-0.846182933477787,43.52483574339906],[-0.846117200594479,43.52471196511165],[-0.845925264799681,43.52472778082426],[-0.84584784743851,43.524738183351474],[-0.845794117954547,43.52475107858129],[-0.845756390946723,43.5247903396846],[-0.845624009224665,43.52491718117655],[-0.845850317550987,43.52503193172077],[-0.845709965936308,43.52514329226565],[-0.845788693301503,43.52520787877239],[-0.84568232818232,43.52526479748462],[-0.845530434341296,43.52534801225966],[-0.845363244695763,43.525417266612195],[-0.845402804123019,43.52547558574377],[-0.845458272672523,43.525510821046254],[-0.845542343467243,43.52553135002914],[-0.845500558875683,43.52555994552172],[-0.845118333234122,43.52594894730649],[-0.844901492431916,43.52620480261458],[-0.844847301140973,43.5263402204765],[-0.844790186460872,43.526406111279165],[-0.844709979671403,43.526467326025305],[-0.844537628120776,43.526544598862294],[-0.844409978574243,43.52658506588614],[-0.844249650172029,43.52637230964225],[-0.844032062010022,43.526055020318026],[-0.843632528727028,43.525510787116694],[-0.843592609089346,43.52545815510761],[-0.843322926756662,43.52506344243338],[-0.843218390603384,43.52490545699237],[-0.843133313547075,43.52481253897576],[-0.843096923244936,43.52477932874809],[-0.843080486026382,43.524744600624096],[-0.843211687806227,43.524662933490596],[-0.843445897831569,43.524513028876804],[-0.843676027757678,43.524638727887485],[-0.843876351864039,43.524775932156466],[-0.844017659266043,43.52486739669734],[-0.844063395959042,43.52487748546923],[-0.84388667243585,43.524767369164906],[-0.843669627920347,43.524626343780966],[-0.843539113339605,43.52454629653437],[-0.84346445686193,43.52450363343835],[-0.843897878773325,43.524047246014696],[-0.844227661805004,43.52365344239371],[-0.845163688739638,43.523894271232514],[-0.845215550334458,43.52348752986729],[-0.845216372313636,43.52344435318945],[-0.84426747625114,43.52331072416222],[-0.844268647938843,43.523272759663875],[-0.844313055060275,43.52285628472146],[-0.84420850494584,43.5224355428163],[-0.84415718767006,43.52180222081087],[-0.844152085395146,43.52161323753898],[-0.844345879461212,43.52162717463699],[-0.84470011969304,43.52163767418735],[-0.844767487149511,43.52163807780032],[-0.845316269584779,43.52155168859908],[-0.845267146965334,43.52163702331199],[-0.845353542779866,43.52161657420609],[-0.845354265728511,43.521666181675585],[-0.84538500724621,43.52175922318392],[-0.845493526407055,43.521902742486546],[-0.84558829577434,43.52199621546804],[-0.845646316256011,43.522014155011384],[-0.845678587290279,43.52201913575241],[-0.845701177757909,43.52202004600032],[-0.845773047018128,43.5219952475715],[-0.845828163302341,43.522025270440324]]],[[[-0.845823920391461,43.53038525139588],[-0.84550108286027,43.53031761093641],[-0.845396875596345,43.5302959940777],[-0.845447727179762,43.53018276338023],[-0.845331133247191,43.5301536587797],[-0.845195084648626,43.53012614468462],[-0.844934814693265,43.53007393948393],[-0.844939401057388,43.530053689306364],[-0.844892156500666,43.530048878745234],[-0.844792642141843,43.52987179920024],[-0.844631037520763,43.52958098965708],[-0.844898084221444,43.528455266460824],[-0.845320094347756,43.52836977086488],[-0.845596461352888,43.52831123773508],[-0.84564199699276,43.52830719075054],[-0.845997083959316,43.52835927391769],[-0.8462653727359,43.528398220506475],[-0.846321233856794,43.52841893896064],[-0.846342012495158,43.52844081169928],[-0.846345602422627,43.52846113223496],[-0.846292305534669,43.52870227179466],[-0.846148571415922,43.529350892518984],[-0.846077976460597,43.529631379468476],[-0.846017401054333,43.52983413335647],[-0.845910708760475,43.53012283654957],[-0.845823920391461,43.53038525139588]]],[[[-0.844269377007898,43.532102324764544],[-0.844148810673087,43.53205462315661],[-0.844017800088384,43.53200440911545],[-0.843954852009539,43.532075730856015],[-0.843924626542009,43.53211247344065],[-0.843891601954334,43.53215363901627],[-0.842655584459896,43.53152077160442],[-0.841951813316107,43.53110945601749],[-0.842190441993898,43.53090859356804],[-0.842565012521889,43.53059310779644],[-0.8433247743622,43.53082921346862],[-0.843450171422846,43.5308566570692],[-0.844958186121439,43.53128980508661],[-0.844988804838857,43.531303312242855],[-0.84502778022137,43.53131958577459],[-0.845188339433876,43.53138397414678],[-0.84528637705405,43.531435446002305],[-0.84506576165079,43.53161306715865],[-0.844955488938496,43.531711649874545],[-0.844920278731256,43.531699836830384],[-0.844543771045492,43.53205287266064],[-0.844423978931377,43.532162781902386],[-0.844269377007898,43.532102324764544]]],[[[-0.84310476743873,43.5248058940681],[-0.843198141305246,43.52491734440895],[-0.843323451923436,43.525084231916786],[-0.843603191222248,43.525490478460256],[-0.843912816977286,43.52592331916785],[-0.844080114608119,43.52615699712592],[-0.844391232475667,43.5265916756805],[-0.844299847088293,43.52660428372171],[-0.844202956110882,43.52660492627022],[-0.844042540997452,43.52657575274827],[-0.843878087115807,43.5265398762007],[-0.843845594240151,43.526529768215035],[-0.843551918174984,43.52636848862331],[-0.843545739283865,43.5263427650479],[-0.843344893361938,43.52638645582085],[-0.84304915474479,43.52672139999699],[-0.842139405442001,43.524999903449164],[-0.841995725881924,43.523616889017504],[-0.842949965773672,43.523626941354195],[-0.842936448591295,43.52367281985516],[-0.842920856527222,43.52374318309404],[-0.842927350278603,43.52386608990197],[-0.842930189071075,43.52391219943178],[-0.842999009758178,43.524045238004696],[-0.843006251015812,43.52410533379625],[-0.843015388095201,43.524214094743186],[-0.843007429688481,43.52442624091684],[-0.842990524301473,43.52449547972798],[-0.842980219295964,43.52455790889589],[-0.843063415251775,43.52475034011414],[-0.84310476743873,43.5248058940681]]],[[[-0.840183374775901,43.53166698569886],[-0.840208920788568,43.531650947870666],[-0.840251469392353,43.53161701285004],[-0.840269259539584,43.53159053030578],[-0.840275549566505,43.53151058800981],[-0.841813547584222,43.53206999911202],[-0.842767534673507,43.53244038213433],[-0.842436636565375,43.532781434969145],[-0.842005290606075,43.532731680524535],[-0.841989568994444,43.532720617343315],[-0.841546058309688,43.53296269679699],[-0.841072180403977,43.53256782235627],[-0.84143652826673,43.532321342758785],[-0.841400499600788,43.53230469332217],[-0.841019897669329,43.53255805400134],[-0.840643292690302,43.53249554594679],[-0.840636674622565,43.53240588181751],[-0.840491310705448,43.5322965398463],[-0.840623913222328,43.53200233101791],[-0.840195306424945,43.53183609110172],[-0.840183374775901,43.53166698569886]]],[[[-0.839784057229935,43.531094533851174],[-0.839732795205042,43.531155530526064],[-0.839692190867201,43.53122038350845],[-0.83962573979,43.53135416091853],[-0.839635929032874,43.53142505228051],[-0.839645193134637,43.53153579112206],[-0.839612328342435,43.53165342631853],[-0.839558208082006,43.53178091201028],[-0.839489862968588,43.53186602391073],[-0.839361079042838,43.53202488800079],[-0.83923292141435,43.532507832496634],[-0.839271659490436,43.532515018543585],[-0.839146633809409,43.53272455365855],[-0.839702049246045,43.53285225847174],[-0.840033252998239,43.53292826787515],[-0.84020540333879,43.532975318427816],[-0.840286775601178,43.53301090052994],[-0.84035286056478,43.53305486077961],[-0.840422215745858,43.53315140122463],[-0.84046224390814,43.533220425254754],[-0.840556389548034,43.533493182499626],[-0.840723740689308,43.5335554454317],[-0.840746273938176,43.53356653780094],[-0.840772240344569,43.53360858574576],[-0.840774589128372,43.533638138470266],[-0.84078345924038,43.533654128582114],[-0.840791432265705,43.533708524014074],[-0.840827862968817,43.53374227441996],[-0.840907976937972,43.53378123360606],[-0.8409782865215,43.53382909746898],[-0.841087356823718,43.533927023438174],[-0.841239697169608,43.534060979569375],[-0.841234100545427,43.53409946129218],[-0.841221315984773,43.534226655000495],[-0.840844934960601,43.53422872573637],[-0.840700133026455,43.53422223378977],[-0.840537765315759,43.53420672528469],[-0.84051409177718,43.53420450096038],[-0.840468446685547,43.53420143328509],[-0.840442842166296,43.534198106302476],[-0.840292402626304,43.53417767109214],[-0.839798494518362,43.53409418148099],[-0.839757537753192,43.53410752199923],[-0.839184639539053,43.53403331201774],[-0.839215575855214,43.53393123863537],[-0.839234916057457,43.53384831213213],[-0.839122665319046,43.53383607174762],[-0.838963710262653,43.533816026281976],[-0.838939144938373,43.533815274449424],[-0.838957587484688,43.53373373097089],[-0.838918805922723,43.53372960899146],[-0.838647313191418,43.53356897048651],[-0.838652114412072,43.53355745063462],[-0.838403365647357,43.533514730143544],[-0.838255219438239,43.53348781545768],[-0.838005561911335,43.53344260404122],[-0.838053557088907,43.53334380075401],[-0.838198197888607,43.53306646423685],[-0.838181743793783,43.533061101398275],[-0.838181157724725,43.533020857020595],[-0.838170191148236,43.53251797629135],[-0.838172152712177,43.53235288300197],[-0.838278536740693,43.53177747952349],[-0.838424128995154,43.53104043873405],[-0.838383815702615,43.531020787281506],[-0.838381272620599,43.53107348311037],[-0.838285261145776,43.53154474894917],[-0.83820593242059,43.53196371929313],[-0.838147117657474,43.53227287854102],[-0.838127697543047,43.53237499427456],[-0.838133914453192,43.53260870818859],[-0.838138453442258,43.5330210172309],[-0.838085455686006,43.533017217953194],[-0.83798003041778,43.53300518529062],[-0.837822424589338,43.533001574884885],[-0.837701828945196,43.53301449010067],[-0.837579790425218,43.53302619513969],[-0.837465518931791,43.53274477993498],[-0.837289510281704,43.532286203001064],[-0.837277595690378,43.53222465060482],[-0.83733454050647,43.53190411820764],[-0.837289430896188,43.53189976922481],[-0.837296386007936,43.53175377620243],[-0.837327626972882,43.531539545174866],[-0.837296474236657,43.53153839555442],[-0.837518739377615,43.53121102232903],[-0.837562928586396,43.53111271437468],[-0.837639376322086,43.530919132898696],[-0.83770966770421,43.530794589140406],[-0.838283553686812,43.53061745175373],[-0.838487279081879,43.530562859542535],[-0.838589843032476,43.530546978427395],[-0.838754802897838,43.53054402166017],[-0.838918468931634,43.53054948773968],[-0.839161542022027,43.5305723199558],[-0.83947114908321,43.530618108039505],[-0.839651764889189,43.5306548606945],[-0.839631772139994,43.530740962996056],[-0.83996310984619,43.530963525090534],[-0.839875057731119,43.53101312348834],[-0.839784057229935,43.531094533851174]]],[[[-0.83623311429715,43.52423383871858],[-0.836040509665145,43.524449002945126],[-0.83583152426108,43.52467285330061],[-0.835622894881384,43.52490020367617],[-0.835400806359625,43.52513550616157],[-0.835770745554617,43.52531770931657],[-0.835863867956396,43.5253626068239],[-0.835958715540467,43.52534438865903],[-0.83585095714367,43.525417650784625],[-0.835881180410365,43.52543829041508],[-0.835620907554164,43.52564683985696],[-0.835331372524367,43.52591587509702],[-0.835185628287721,43.52607470296518],[-0.835108365371827,43.52616715326303],[-0.834884372345693,43.5260775207669],[-0.834583016063194,43.525962068970536],[-0.834180391243671,43.52580020401085],[-0.833963162850467,43.525713573347126],[-0.834150269139183,43.52545482961695],[-0.834293130995177,43.52526394738342],[-0.834336769283201,43.52527600604468],[-0.834498935368834,43.52501273893025],[-0.83387433897528,43.5247894527039],[-0.832889638870918,43.52443458821472],[-0.832929753441935,43.52429931472697],[-0.833485664155654,43.523679474604656],[-0.833848302108845,43.52374330932782],[-0.833859725294671,43.52376236222117],[-0.83385325338364,43.523769256805444],[-0.833816892112494,43.52383278616407],[-0.834250543073321,43.52409984638032],[-0.834572001066731,43.52430142270808],[-0.834642699721641,43.52426640440859],[-0.834593429232872,43.52407177722252],[-0.834600177189413,43.5240690164071],[-0.834564848014213,43.52398117886008],[-0.834545429286869,43.523929530390724],[-0.834477019465043,43.52368928009134],[-0.835115400573825,43.52358905577393],[-0.835281031112874,43.52355752521649],[-0.835348816745913,43.52353080654435],[-0.835727933733875,43.52329652509327],[-0.836194511807879,43.52371725664135],[-0.836584444547442,43.524072779751464],[-0.836398690160478,43.52429409780682],[-0.83623311429715,43.52423383871858]]],[[[-0.83649805008229,43.528424534169105],[-0.836444882658583,43.52867007667459],[-0.836073958615415,43.528597624588],[-0.835129465102427,43.52840475600771],[-0.835140108429984,43.52822494401724],[-0.835081151714908,43.52821712052858],[-0.835056189798072,43.527856429944215],[-0.835037444166471,43.5277036899749],[-0.835009936663129,43.52752171429878],[-0.834974833006457,43.527311272400446],[-0.834963473640779,43.52722276712776],[-0.83497199948909,43.52695565453781],[-0.834979254311633,43.526888199774945],[-0.835200743066185,43.52690693934102],[-0.835491960743436,43.52691501500522],[-0.835720092449185,43.526918295364744],[-0.836051043130616,43.52691145233982],[-0.836226465896144,43.52691146180986],[-0.836386110098883,43.52692545086399],[-0.836488045076112,43.52693544622944],[-0.836640446134835,43.52694293532032],[-0.836725757426434,43.52694685285611],[-0.836793398543405,43.526979049527036],[-0.836711212762511,43.52736830249087],[-0.836675273464136,43.527549279952304],[-0.836606121808514,43.52787609800314],[-0.836539664902515,43.528191380790716],[-0.83649805008229,43.528424534169105]]],[[[-0.836539350486307,43.5291018122461],[-0.835798689494388,43.52918782570722],[-0.835786932346792,43.52911933177231],[-0.835318191325686,43.52916716835414],[-0.835308156784583,43.529218957886485],[-0.834842310184721,43.52910256763891],[-0.834916926327239,43.528623866048875],[-0.835123125915116,43.528700886801346],[-0.835125509146105,43.52844561121975],[-0.835625927714004,43.528547715852454],[-0.836073618543576,43.52863700077788],[-0.836503031258755,43.528726930578095],[-0.836515863706238,43.528785567876106],[-0.836560985578951,43.5290179946865],[-0.8365653462981,43.529066572724744],[-0.836539350486307,43.5291018122461]]],[[[-0.834851713411368,43.531632261867294],[-0.835064279238054,43.53177661688445],[-0.835120336780511,43.5318169712542],[-0.835133499662514,43.53186388695075],[-0.835177294986166,43.531870805495835],[-0.835469457376198,43.531940822630446],[-0.836046106421715,43.53207527104502],[-0.83620548221034,43.532114672525125],[-0.836128552223058,43.53254013182659],[-0.836105231152437,43.53267841644901],[-0.836048655134781,43.53298605384398],[-0.836044131324026,43.53299432092252],[-0.836031836151966,43.5330919504786],[-0.8360503371087,43.53329469321768],[-0.835865211857691,43.533242420139565],[-0.835852988011433,43.53328924290769],[-0.835300374936297,43.533177453362],[-0.835169583481932,43.533419525492974],[-0.8348710313721,43.533244701759116],[-0.834698865603658,43.53313990316434],[-0.834737529734603,43.53307926442118],[-0.834820017343687,43.53294996763363],[-0.834840866715253,43.5329173426284],[-0.834876061663766,43.53286223121239],[-0.834889298136273,43.53284167566964],[-0.834939495606695,43.532762793494136],[-0.834703928942473,43.53267636100658],[-0.834564176237559,43.532834345723536],[-0.83455594939263,43.532831664029544],[-0.834539248975967,43.532861529999884],[-0.834458765307827,43.5329504005892],[-0.834400567124402,43.53290210453687],[-0.834345384986753,43.53285262088054],[-0.834122232795468,43.53264062941725],[-0.834013451329806,43.53254124557979],[-0.833903557354098,43.532423344856035],[-0.833869540086072,43.5323607720361],[-0.833841195959181,43.53227376759416],[-0.833812231349874,43.53214039477976],[-0.833791925989467,43.53194573287177],[-0.833791382355379,43.53178928617069],[-0.833800964568326,43.531630589870225],[-0.833821898222736,43.53147131212352],[-0.833853960912292,43.53128587857002],[-0.833878692819819,43.53117420801136],[-0.834081799020478,43.53126782483354],[-0.834603239430182,43.53151007436467],[-0.834692546308396,43.53154961353876],[-0.834851713411368,43.531632261867294]]],[[[-0.833146030293617,43.529585637587296],[-0.83321742188674,43.529588698875955],[-0.833489492897896,43.52947486092871],[-0.833718242342326,43.52937786710601],[-0.833505554462664,43.52927413965424],[-0.833656415736172,43.52889327097177],[-0.833755312067189,43.52864638377196],[-0.833823404068777,43.52839428011381],[-0.833866721071282,43.52822538367393],[-0.8331457602836,43.52800928181806],[-0.833157168629856,43.52798545827661],[-0.833126301444632,43.52797186668014],[-0.833437706758556,43.527214292425725],[-0.833444732070216,43.5271897230264],[-0.833570340455457,43.527213116545596],[-0.834520703322856,43.52739786323972],[-0.834483551791201,43.52774985068218],[-0.834970623521119,43.527730103990955],[-0.834967622930635,43.52788163132008],[-0.834972978117314,43.528022954571384],[-0.834987677695696,43.52820223055274],[-0.834987301345321,43.52828925929243],[-0.834977558733571,43.52839175239837],[-0.834851522829236,43.52860293884882],[-0.834797275142479,43.52877681634985],[-0.834766935693848,43.52896759375745],[-0.834729626665723,43.52926346858359],[-0.834704493809216,43.52926345656023],[-0.834651598462011,43.529568800304254],[-0.834529892195014,43.52982262044673],[-0.834164293446786,43.52961494617345],[-0.834013994115972,43.529772492243346],[-0.833825641394916,43.52997200866727],[-0.833653809541853,43.53015382585584],[-0.833778036643275,43.530208345206155],[-0.833518364061005,43.53059873583611],[-0.833455229472309,43.53067113853997],[-0.8331611418345,43.530535067064555],[-0.833034943587262,43.530417652059654],[-0.832927699851569,43.53032451862],[-0.832869637038916,43.5302911701556],[-0.832168659361488,43.529931490634006],[-0.831984619062006,43.52983404413997],[-0.831961408068313,43.5297923475161],[-0.831960121898792,43.52977122463144],[-0.832038380837403,43.5297269332298],[-0.83241631683898,43.529546482553336],[-0.832570880043639,43.52946202159473],[-0.832698325631104,43.52938491438498],[-0.833146030293617,43.529585637587296]]],[[[-0.833392753324202,43.53207532409308],[-0.833415507151813,43.532099021058976],[-0.833363630479797,43.53219913018368],[-0.833048340102555,43.53210164031717],[-0.832615116267951,43.53194192994554],[-0.83251417597015,43.531911717951324],[-0.832374812016795,43.531875297169854],[-0.832269910575887,43.531865492529235],[-0.831906069020471,43.53186411709612],[-0.831903436132988,43.53184322192129],[-0.831989230022494,43.53179677270321],[-0.832108157398954,43.53174590977317],[-0.832274698903987,43.531703542941926],[-0.832630771204775,43.53162565265596],[-0.832902169642668,43.5315646259819],[-0.833269195657708,43.53145797176469],[-0.833500650864899,43.5313902484077],[-0.833627897198941,43.53141763787363],[-0.833556931753732,43.531480318798664],[-0.83358313703453,43.53152974615126],[-0.83370315355686,43.53153415093984],[-0.833687576291335,43.53200166720528],[-0.833550614857646,43.53199011463859],[-0.833393182101789,43.53198162756898],[-0.833388482570159,43.53202620226096],[-0.833392753324202,43.53207532409308]]],[[[-0.83234806500988,43.5193961473081],[-0.832358160426901,43.51968277700954],[-0.832337517378031,43.51981673112789],[-0.832323107366947,43.51988272673258],[-0.832282412980974,43.5200185605879],[-0.832274896568687,43.5200135116909],[-0.832123625984674,43.519974450131414],[-0.832031970701098,43.52014424265682],[-0.832013038111378,43.5201832847627],[-0.831335269046594,43.52000438265968],[-0.831041844105787,43.519944130275135],[-0.830730465531785,43.51988379082617],[-0.830433533809423,43.51983960442552],[-0.830131734822175,43.51979667009646],[-0.829999615780179,43.51977746672785],[-0.829160595908704,43.51970288201573],[-0.829007735589594,43.51968819321429],[-0.828899681957315,43.519688315942325],[-0.828179212307068,43.51973015047104],[-0.828742575148106,43.51917186671985],[-0.829151186668965,43.51877668039566],[-0.830198784367815,43.51773639751436],[-0.830223280372363,43.517743639073274],[-0.830676756354939,43.51802865580758],[-0.830726437353735,43.518085000273295],[-0.830849491699562,43.518224415656825],[-0.831261385272264,43.51869123418949],[-0.831454330801739,43.51870936736207],[-0.83205876648682,43.51930125229248],[-0.832278379732778,43.51934798692487],[-0.83234806500988,43.5193961473081]]],[[[-0.832698325631104,43.52938491438498],[-0.832685808519063,43.52937544820177],[-0.832680339033539,43.529371407845396],[-0.832655513559885,43.529381563299026],[-0.831902507131547,43.52976497335089],[-0.83164913365312,43.52947270549419],[-0.831413902488589,43.529194388823484],[-0.831315725470692,43.52898103997217],[-0.830982207702045,43.52863791609966],[-0.831512617281253,43.528111767535805],[-0.831915442066654,43.52790927077522],[-0.832881064291982,43.52885095866831],[-0.832698325631104,43.52938491438498]]],[[[-0.829810167640948,43.531291485170776],[-0.829879378363265,43.531363895727864],[-0.829896056601575,43.53138006121842],[-0.830824032163725,43.531634813444605],[-0.830964245679718,43.53156896752622],[-0.831214252207498,43.53145267225886],[-0.831204712408433,43.53143958765378],[-0.831610589911588,43.53120455644927],[-0.831956327273402,43.53103308203004],[-0.832020966939126,43.531003594327615],[-0.832257164049779,43.530954982783875],[-0.832409880398088,43.53091697760511],[-0.832535929656353,43.530974676840565],[-0.832540739447222,43.531000359278124],[-0.832600627598075,43.531025806645786],[-0.832820473905714,43.5309603866467],[-0.832878291753731,43.53092330272789],[-0.832927160626978,43.53094688743222],[-0.833117001097466,43.53144632661212],[-0.832367132886457,43.5316434371157],[-0.832080601234088,43.53171517600981],[-0.831940613550756,43.53176399066135],[-0.831847563797328,43.53182600950564],[-0.831779482339633,43.53188741628043],[-0.831715687342295,43.53192957499071],[-0.831540674515041,43.53200827149085],[-0.831220616209691,43.53213794178765],[-0.831214244647233,43.532127807900366],[-0.830900249073955,43.53223888709261],[-0.830778791479675,43.5322722727897],[-0.830562426183446,43.53231945979918],[-0.830339590750586,43.53235318302295],[-0.830345266674289,43.53237144855688],[-0.83019802187201,43.53240060994031],[-0.830080480161802,43.53241475997603],[-0.829840614186945,43.53242890614547],[-0.829825918576405,43.53229214616142],[-0.829816998258529,43.53218256596111],[-0.829779265278204,43.532182997729926],[-0.829789707880275,43.531988781001964],[-0.829747041537678,43.53198578386565],[-0.829752031671441,43.53194552291519],[-0.829363589792892,43.53190573368755],[-0.829340852792906,43.532095700384836],[-0.829354330613466,43.53209729626215],[-0.829338989393773,43.53217170195436],[-0.829324220397595,43.532228702382206],[-0.829302141856233,43.53222623918287],[-0.829233163353542,43.53247098473089],[-0.828714179012965,43.53249921732651],[-0.828214743564565,43.532568103135475],[-0.828070499255893,43.532584724900886],[-0.827765660996181,43.53260115988312],[-0.827440945639797,43.53261658405067],[-0.827032143927146,43.53262614699645],[-0.826500062940226,43.53263438340972],[-0.826495733773038,43.5326344460843],[-0.826360188843191,43.53263670645023],[-0.82637264532975,43.532522678732384],[-0.826376291146129,43.53248264559483],[-0.826380828661403,43.532450417771074],[-0.82643787267725,43.53203945152813],[-0.826668731914222,43.53204436686733],[-0.826758630706091,43.53191085194947],[-0.826774515902672,43.531612403937764],[-0.826872386657144,43.5314034827032],[-0.826829983617182,43.53139885374944],[-0.826788052774227,43.531419880298785],[-0.826795870190428,43.53131799664557],[-0.826054471113539,43.53153097795404],[-0.825285386587308,43.531759613287896],[-0.824965356272303,43.531609302020314],[-0.824841649113196,43.5315922267165],[-0.824826843127322,43.53156140186811],[-0.824800420236754,43.53149558619397],[-0.824899800746848,43.531324086085476],[-0.824991224019408,43.53123384641932],[-0.824917700054615,43.531109610266434],[-0.825018156520574,43.531058325851475],[-0.82542319349752,43.53084938075663],[-0.825457622163798,43.5308309614135],[-0.825991382056303,43.53055838220707],[-0.825893401680055,43.53044059439421],[-0.826441193011273,43.53020958411717],[-0.826401126614405,43.52974592660083],[-0.827818234807977,43.529783830129055],[-0.82772522536113,43.52997087185595],[-0.827551128233386,43.5303121062859],[-0.827312338488254,43.53062824001887],[-0.827383536431308,43.53078993905952],[-0.827461611160367,43.5309712124995],[-0.827506373016622,43.531048360686555],[-0.827696383508653,43.53132639029011],[-0.827799633942364,43.53146371777291],[-0.827990856470483,43.531438682168265],[-0.82879201805878,43.53133293197411],[-0.828799627263455,43.53126510486714],[-0.829044855793683,43.53127202989782],[-0.829693606766699,43.53128875563063],[-0.829810167640948,43.531291485170776]]],[[[-0.828691010520641,43.516898700831746],[-0.829160303355386,43.517198387694926],[-0.828849156440419,43.517777942768774],[-0.828973970886482,43.51795125697032],[-0.828744605385006,43.51820364606595],[-0.828352201797093,43.518065902887066],[-0.827830858785515,43.51807908589092],[-0.827452100954984,43.518114436209956],[-0.827357547869739,43.51815920949562],[-0.827155231977587,43.517870448320515],[-0.826852810883769,43.51743911551541],[-0.827063582493995,43.517245666865755],[-0.827525616396623,43.51727871881915],[-0.827706512830712,43.5169899411748],[-0.828219595071216,43.51709063720231],[-0.828269304303829,43.51710104237462],[-0.828391386992977,43.516951257208625],[-0.828445687042361,43.516907994451756],[-0.828548646204051,43.51686310346795],[-0.828622611293418,43.51686787784751],[-0.828691010520641,43.516898700831746]]],[[[-0.822651378662632,43.53399445032024],[-0.822137495629465,43.533997249318986],[-0.822121120106123,43.53401349997404],[-0.821928122268268,43.53399715169854],[-0.821666905677071,43.534005005878825],[-0.821531587808254,43.53399770385748],[-0.821438649493189,43.53397791887023],[-0.821367428002605,43.53393656063928],[-0.821289411858732,43.53387868733096],[-0.821250073428408,43.53383827739461],[-0.821194952909139,43.533744917389114],[-0.82136468210202,43.533320616179765],[-0.82146561732156,43.53307556132414],[-0.821497589322215,43.532983005889605],[-0.821628977376313,43.53223577601222],[-0.82173286740043,43.53163345926228],[-0.822214134807735,43.53165991520883],[-0.822373028466255,43.53180753681747],[-0.822421225702575,43.531921497668456],[-0.822644316746694,43.53221323233697],[-0.822669022458502,43.532141740598085],[-0.822790234576404,43.53228123182225],[-0.822790789898931,43.53277853113526],[-0.822791921737946,43.532987021126345],[-0.822704545872784,43.53327943072239],[-0.82262098656246,43.53326661247789],[-0.822522497212444,43.5335687817531],[-0.82273846573543,43.533664218189955],[-0.822819840611783,43.533705577941845],[-0.823166761968113,43.53382270013816],[-0.823251080188575,43.5338450394918],[-0.823239612444406,43.5339702915977],[-0.823188688499137,43.53398460765281],[-0.823003809562941,43.53399535871347],[-0.822651378662632,43.53399445032024]]]]}}]}
