{"type": "FeatureCollection","name": "aoc_geojson","features": [{"type":"Feature","properties":{"dt":"Dijon","type_prod":"Vins","categorie":"Vin tranquille","type_denom":"appellation","signe":"AOC","id_app":138,"app":"Bourgogne","id_denom":362,"denom":"Bourgogne - blanc exclusif","insee":"71126","cvi":"1B309, 1R309, 1R309 GA, 1S309","nomcom":"CHEVAGNY-LES-CHEVRIERES","insee2011":"71126","nomcom2011":"CHEVAGNY-LES-CHEVRIERES","id_aire":1780,"crinao":null,"grp_name1":null,"grp_name2":null},"geometry":{"type":"Polygon","coordinates":[[[4.768809412339762,46.33919491654216],[4.768729504588506,46.339132747415626],[4.768708272693547,46.33910353400597],[4.768703972265176,46.339083154914945],[4.768726103403366,46.33898337458042],[4.768702948641971,46.33889069187696],[4.768683360787819,46.3388519956364],[4.768446134018697,46.33838875504814],[4.768413953513659,46.33830648026412],[4.768370223073229,46.33819277019581],[4.768350332563379,46.338120572673986],[4.768337385339519,46.33805799496016],[4.768300123428496,46.33790302266911],[4.768287295333774,46.337819997282175],[4.768280209513398,46.33773760337035],[4.768314625017208,46.337535133222765],[4.768327772813206,46.33733047104729],[4.768322792295608,46.3372810099809],[4.768299066466823,46.33717464546367],[4.768290937665314,46.33706803897888],[4.768136193105328,46.33670214451218],[4.768021691316119,46.33650297513872],[4.767977333142684,46.33644619871501],[4.767899992470561,46.336314455441105],[4.767821303964005,46.33618525497422],[4.767796075640243,46.33616511036194],[4.767733849919261,46.33616301305701],[4.767696879575523,46.336161785023684],[4.767646184161381,46.335993420341445],[4.767591928393326,46.33580340405492],[4.767629838274764,46.335761294025225],[4.767697859358121,46.33560477883499],[4.767726142307544,46.3355263398412],[4.768393726058826,46.33542114095795],[4.768430295197484,46.33541399849879],[4.768557214047609,46.33519297969636],[4.767807494104408,46.335295490459586],[4.767847108194034,46.3351854413569],[4.766886096830422,46.33514359878102],[4.766623393819308,46.33537203437301],[4.766565718967489,46.33542624952382],[4.76648985144258,46.3355090284725],[4.766429375520175,46.33559328015905],[4.766312213256057,46.3357784776566],[4.766112282879106,46.33609456774073],[4.766627255629925,46.336111446501484],[4.766773115398518,46.33611819267604],[4.766768245012404,46.33614051537703],[4.766763031242515,46.336164284514936],[4.766761698443234,46.33617133060783],[4.766787081024536,46.33637737684556],[4.766813746566047,46.33647018561935],[4.766833077508048,46.336557343621116],[4.766876296392662,46.33665133690458],[4.766902962219136,46.33674414565445],[4.766943106939906,46.336807382742634],[4.767017346276386,46.336911613393],[4.767051028486278,46.33696801526514],[4.767072446724996,46.337011096804225],[4.767126703610448,46.33709654240062],[4.767165841839912,46.337188977591794],[4.767198652370939,46.33724656384323],[4.767226381423117,46.3372877461203],[4.767288359784033,46.33736262384916],[4.767355828255379,46.337458492724075],[4.767397872216716,46.337536201431746],[4.767457043989086,46.33762481318191],[4.767512470897114,46.337718256665504],[4.767550812906196,46.33781016366307],[4.767588019186642,46.33788704662559],[4.767608056980301,46.33793969686309],[4.767652973923928,46.33808212102454],[4.767691721094815,46.338234818722256],[4.76762758946487,46.33849566423582],[4.767664882422745,46.3384867094405],[4.767675470256971,46.33864930113376],[4.767634985535703,46.33893364838216],[4.767673581792906,46.33903338745914],[4.76773256059286,46.339103898073034],[4.767823252886788,46.339226157230044],[4.767974657439752,46.33918291740822],[4.768019428144695,46.33924031793771],[4.76822355267528,46.339484212797885],[4.76823775183349,46.339505068839884],[4.768252528825151,46.33950357863856],[4.768522305106707,46.33941301661528],[4.768727233276946,46.339283649381564],[4.768809412339762,46.33919491654216]]]}},{"type":"Feature","properties":{"dt":"Dijon","type_prod":"Vins","categorie":"Vin tranquille","type_denom":"appellation","signe":"AOC","id_app":138,"app":"Bourgogne","id_denom":362,"denom":"Bourgogne - blanc exclusif","insee":"71126","cvi":"1B309, 1R309, 1R309 GA, 1S309","nomcom":"CHEVAGNY-LES-CHEVRIERES","insee2011":"71126","nomcom2011":"CHEVAGNY-LES-CHEVRIERES","id_aire":1780,"crinao":null,"grp_name1":null,"grp_name2":null},"geometry":{"type":"Polygon","coordinates":[[[4.766886096830422,46.33514359878102],[4.766623523789796,46.33537203235856],[4.766565586088652,46.33542616151363],[4.766489848534484,46.33550893844791],[4.766429375520175,46.33559328015905],[4.766312080376774,46.33577838964611],[4.766112412851331,46.33609456572686],[4.766627125657679,46.33611144851594],[4.766773248279369,46.33611828068601],[4.766768115040095,46.336140517391655],[4.766763031242515,46.336164284514936],[4.766761701351812,46.33617142063241],[4.766787081024535,46.336377376845554],[4.766813876539138,46.33647018360469],[4.766833077508048,46.336557343621116],[4.766876296392662,46.33665133690458],[4.766903092192874,46.33674414363967],[4.766942974057108,46.33680729473288],[4.767017346276385,46.336911613392985],[4.767051158460544,46.3369680132502],[4.767072446724995,46.337011096804225],[4.767126703610448,46.33709654240062],[4.767165968905398,46.33718888555216],[4.767198652370938,46.33724656384323],[4.767226511398136,46.337287744105154],[4.767288229808837,46.33736262586436],[4.767355698279959,46.33745849473937],[4.767398002192319,46.337536199416405],[4.767457043989086,46.33762481318191],[4.767512343830979,46.3377183487055],[4.767550809996231,46.33781007363853],[4.767588019186642,46.33788704662559],[4.767608056980299,46.33793969686309],[4.767652843947037,46.33808212304016],[4.767691724005035,46.33823490874679],[4.767627589464868,46.33849566423582],[4.767664752444891,46.33848671145614],[4.767675470256971,46.33864930113376],[4.767635115514619,46.338933646366556],[4.767673451813755,46.3390333894748],[4.767732690572177,46.33910389605731],[4.7678232499763,46.33922606720552],[4.767974787419248,46.33918291539223],[4.768019561035139,46.3392404059462],[4.76822368265548,46.339484210781606],[4.768237621853238,46.33950507085618],[4.768252398844903,46.33950358065487],[4.768522175126685,46.33941301863191],[4.768727103297239,46.33928365139842],[4.768809279448158,46.339194828534595],[4.768729634567854,46.33913274539877],[4.768708399760888,46.33910344196465],[4.768703842285944,46.33908315693176],[4.76872597342437,46.33898337659726],[4.768703075708825,46.33889059983562],[4.768683490766501,46.338851993619585],[4.768446134018697,46.33838875504814],[4.768413823536263,46.33830648228062],[4.76837035013902,46.33819267815485],[4.768350462540334,46.33812057065757],[4.768337515316328,46.33805799294375],[4.768300123428496,46.33790302266911],[4.768287295333774,46.33781999728216],[4.768280339489447,46.337737601354014],[4.768314754992775,46.33753513120637],[4.768327642838125,46.33733047306367],[4.768322919359363,46.337280917939964],[4.768299193530372,46.33717455342277],[4.768291064728628,46.33706794693799],[4.768136060220865,46.3367020565038],[4.768021561342993,46.33650297715477],[4.767977203169693,46.33644620073102],[4.767899992470559,46.336314455441105],[4.767821303964005,46.33618525497422],[4.767796075640241,46.336165110361925],[4.767696879575521,46.336161785023684],[4.767646181251356,46.33599333031688],[4.767592061274731,46.33580349206393],[4.767629708303388,46.335761296040815],[4.767697989329124,46.3356047768193],[4.767726272278359,46.335526337825485],[4.76839385311814,46.335421048916935],[4.768430295197484,46.33541399849879],[4.768557344017601,46.33519297767971],[4.767807364134145,46.33529549247539],[4.767847108194034,46.3351854413569],[4.766886096830422,46.33514359878102]]]}},{"type":"Feature","properties":{"dt":"Dijon","type_prod":"Vins","categorie":"Vin tranquille","type_denom":"appellation","signe":"AOC","id_app":138,"app":"Bourgogne","id_denom":362,"denom":"Bourgogne","insee":"71126","cvi":"1B309, 1R309, 1R309 GA, 1S309","nomcom":"CHEVAGNY-LES-CHEVRIERES","insee2011":"71126","nomcom2011":"CHEVAGNY-LES-CHEVRIERES","id_aire":1781,"crinao":null,"grp_name1":null,"grp_name2":null},"geometry":{"type":"MultiPolygon","coordinates":[[[[4.766429375520175,46.33559328015905],[4.766312213256057,46.3357784776566],[4.766112282879106,46.33609456774073],[4.766627255629925,46.336111446501484],[4.766773115398518,46.33611819267604],[4.766768245012404,46.33614051537703],[4.766763031242515,46.336164284514936],[4.766761698443234,46.33617133060783],[4.766787081024536,46.33637737684556],[4.766813746566047,46.33647018561935],[4.766833077508048,46.336557343621116],[4.766876296392662,46.33665133690458],[4.766902962219136,46.33674414565445],[4.766943106939906,46.336807382742634],[4.767017346276386,46.336911613393],[4.767051028486278,46.33696801526514],[4.767072446724996,46.337011096804225],[4.767126703610448,46.33709654240062],[4.767165841839912,46.337188977591794],[4.767198652370939,46.33724656384323],[4.767226381423117,46.3372877461203],[4.767288359784033,46.33736262384916],[4.767355828255379,46.337458492724075],[4.767397872216716,46.337536201431746],[4.767457043989086,46.33762481318191],[4.767512470897114,46.337718256665504],[4.767550812906196,46.33781016366307],[4.767588019186642,46.33788704662559],[4.767608056980301,46.33793969686309],[4.767652973923928,46.33808212102454],[4.767691721094815,46.338234818722256],[4.76762758946487,46.33849566423582],[4.767664882422745,46.3384867094405],[4.767675470256971,46.33864930113376],[4.767634985535703,46.33893364838216],[4.767673581792906,46.33903338745914],[4.76773256059286,46.339103898073034],[4.767823252886788,46.339226157230044],[4.767974657439752,46.33918291740822],[4.768019428144695,46.33924031793771],[4.76822355267528,46.339484212797885],[4.76823775183349,46.339505068839884],[4.768252528825151,46.33950357863856],[4.768522305106707,46.33941301661528],[4.768727233276946,46.339283649381564],[4.768809412339762,46.33919491654216],[4.769006952400552,46.33931155368389],[4.769081677921887,46.339370290332496],[4.769154730969348,46.33944967885144],[4.769167845121221,46.33947316364384],[4.769168064301783,46.339504054146886],[4.76918199694624,46.33952068093773],[4.769323724899139,46.33963656252248],[4.769425278966489,46.339704519983776],[4.769573580226368,46.339782379891744],[4.769630067474579,46.33980393032915],[4.770128198693207,46.33956858986761],[4.770219392382342,46.33952538134692],[4.770390738039169,46.3394433688481],[4.770443418176422,46.33939553425265],[4.770453891060264,46.339373574716696],[4.770426956158952,46.339027674953485],[4.770387273917852,46.33884635042107],[4.77041376012097,46.33865625219342],[4.770428854640138,46.33844768645096],[4.770417821189027,46.33833986420504],[4.770423441703827,46.33822025436525],[4.770415392226519,46.338172462286806],[4.770429233574266,46.33798544266237],[4.770402099830069,46.33782617044644],[4.770355840521668,46.33781923299767],[4.770357532500485,46.33780722744323],[4.770362226734172,46.3376308880478],[4.770316662532715,46.3374807288969],[4.770324563703927,46.33730704178259],[4.770321620561013,46.33718801528728],[4.770338285001827,46.33691547561295],[4.770351938518658,46.33686725637526],[4.770441494696191,46.33665312062667],[4.77048031362451,46.3365547919794],[4.770495549386532,46.336515284909005],[4.770524573787244,46.336455838377205],[4.770533049981915,46.33645255427255],[4.770579588415568,46.33637175934805],[4.770624998968179,46.336296296038476],[4.770728733376497,46.33612652430597],[4.770788152059116,46.33606201195546],[4.770833761282831,46.33602482511883],[4.770861338868398,46.33599701545681],[4.770889513331902,46.33597559146823],[4.770963182184383,46.335929502063955],[4.770990864153608,46.33591294946902],[4.771056407091923,46.33587293086311],[4.771134798015242,46.335808033456026],[4.771159902165126,46.3357681027302],[4.771184220619682,46.33572800406762],[4.771199150720431,46.335683097450335],[4.77120204932986,46.33563207290829],[4.771223409696766,46.335524738070106],[4.771219366493826,46.33548823256555],[4.771213480768242,46.335471120697505],[4.771277071420498,46.33530260269622],[4.771299687057512,46.3352581170444],[4.771348121654287,46.33517972417854],[4.771364486191845,46.33517910957978],[4.771454218738893,46.335042880524156],[4.771448272929931,46.33499982949827],[4.771474912482928,46.334995272258915],[4.771587567694922,46.33484814865211],[4.771725395176139,46.3346712708818],[4.771940204732593,46.33439817251424],[4.771909060710685,46.33439613472761],[4.771908136362856,46.334359580751034],[4.771921816698721,46.33435639577202],[4.771963935361181,46.33434799497895],[4.7719911809514,46.33433406092985],[4.772008477662435,46.33431406673056],[4.772020829008735,46.334237765704835],[4.772048749156353,46.334148342640376],[4.772051633611615,46.334100921066835],[4.772060175660426,46.334043503851284],[4.772055590329547,46.33396620516005],[4.77205445276986,46.33385084339686],[4.772040082435591,46.33380062771354],[4.772024670163012,46.33377042372965],[4.771905401509363,46.333600965147056],[4.771897857005269,46.33358081672383],[4.771896015481238,46.33351194193428],[4.771878065606216,46.33351177063446],[4.771684366861462,46.33351325051412],[4.771443475904708,46.333515013193015],[4.77074945545323,46.33351769135718],[4.770714350077013,46.33351778640149],[4.770689800391059,46.333506548792485],[4.770240621220515,46.333484883948785],[4.770146777702204,46.33347805502895],[4.77012938340772,46.33322991270903],[4.769883728739047,46.333213011580064],[4.769713076281866,46.3332073750153],[4.769542825853629,46.33321416158231],[4.76941435720736,46.33321822765978],[4.769430550551222,46.33316411454506],[4.769165365224742,46.33313031175478],[4.769021236208366,46.33310850024502],[4.768997454442054,46.333104906289826],[4.768942793602749,46.333147637092665],[4.768840944043219,46.33324703353412],[4.768824536665702,46.33325836674464],[4.768656736581041,46.33343741738218],[4.76835344853866,46.3337493511822],[4.768075807291489,46.334074396727594],[4.768017984118979,46.33414807002586],[4.767862413039112,46.33431540077316],[4.767698137926824,46.33446692394241],[4.767550398947393,46.33459098937173],[4.767467023057827,46.33465461054054],[4.767415555361041,46.33469161665368],[4.767314137654756,46.33477236050124],[4.766886096830422,46.33514359878102],[4.766623393819308,46.33537203437301],[4.766565718967489,46.33542624952382],[4.76648985144258,46.3355090284725],[4.766429375520175,46.33559328015905]],[[4.769245305811976,46.335850438281604],[4.769335605789888,46.335844082758],[4.769342544601551,46.335869644921935],[4.769352069797842,46.33591083907104],[4.769329583688346,46.335939289880585],[4.769267255178602,46.33596214432766],[4.769111621388046,46.335986897314655],[4.768511728861161,46.336074387157375],[4.768508243513807,46.336055076246396],[4.768366735317882,46.33607834806228],[4.768138944979385,46.336111604867526],[4.767951187733697,46.33614027721076],[4.767796075640243,46.33616511036194],[4.767733849919261,46.33616301305701],[4.767696879575523,46.336161785023684],[4.767646184161381,46.335993420341445],[4.767591928393326,46.33580340405492],[4.767629838274764,46.335761294025225],[4.767697859358121,46.33560477883499],[4.767726142307544,46.3355263398412],[4.768393726058826,46.33542114095795],[4.768498582917464,46.33600163465667],[4.76870476231443,46.335967631632904],[4.768941039253968,46.33591938046967],[4.769245305811976,46.335850438281604]]],[[[4.767800078881214,46.326711417879345],[4.767814722135093,46.32682657013865],[4.767817216515072,46.32684742763768],[4.767819925232136,46.326870893835824],[4.768016154470024,46.32681569929953],[4.768126958496544,46.32700970191483],[4.768206816746338,46.327143297389014],[4.768197384337132,46.32719739554837],[4.768197534810625,46.3272100930556],[4.768194835389345,46.32724724369597],[4.76829347427403,46.32739468868228],[4.768333330372794,46.32744513983619],[4.768381527774292,46.327500235245],[4.768421977248869,46.327532843341416],[4.768556628729018,46.32753543746079],[4.768574824308815,46.32755533072777],[4.768570179343449,46.32757251607451],[4.768624058025207,46.327574111824006],[4.768623394682628,46.32762194918614],[4.768627301093019,46.32767439925962],[4.768656638249394,46.327672953202054],[4.768719809006046,46.32769250873212],[4.768717748557166,46.32779765217614],[4.768700546890835,46.32791302835478],[4.768696538178965,46.3279780308983],[4.768696085846575,46.328004248231565],[4.76867654440247,46.328095522007125],[4.768673016891056,46.3280789138383],[4.768449635218626,46.32807859743135],[4.768324211986664,46.32807595004686],[4.768229929050591,46.32807534132614],[4.768031555587475,46.32807238433821],[4.76806283901243,46.32823168281312],[4.768086652497457,46.32832480580706],[4.768136562435677,46.32849318254408],[4.768157842997772,46.328584363285806],[4.768179025546782,46.32866446696082],[4.768182311810572,46.32870981114617],[4.768181019104742,46.328794496799055],[4.768172095555676,46.32901314453711],[4.768155881225539,46.329098782247904],[4.768133762048145,46.32922297135968],[4.76811208666262,46.32932067306469],[4.768066791001557,46.32950016427792],[4.768104735512663,46.32951155489378],[4.768071607315896,46.32961294698403],[4.767987977182709,46.32960811961817],[4.76787497967403,46.32959176846077],[4.767689479936924,46.32956086960905],[4.767565528435923,46.32954351714022],[4.767372069719769,46.3294996811],[4.767296699461858,46.329581462311765],[4.767241329879698,46.32963438122278],[4.767141622285882,46.329727528214306],[4.767026559032313,46.32982028270582],[4.766997369489959,46.32987865011316],[4.766993345579936,46.32988690884688],[4.766989013933209,46.329925886133246],[4.766933376397585,46.330034922483954],[4.76692259545339,46.330059408455526],[4.766915301811321,46.33010329542417],[4.766922798654911,46.33019045677253],[4.766914521905493,46.33029245396096],[4.766892455008786,46.33055922233895],[4.76687750900866,46.330619800766065],[4.766886378086693,46.33063272338034],[4.766909420393,46.33065371268026],[4.766927579656589,46.330664419660096],[4.766964312403533,46.33067853154116],[4.767041012501192,46.33069418542536],[4.767139265539411,46.33070887459066],[4.767182876548431,46.330718556406396],[4.767217013117773,46.33073279853236],[4.767241373653366,46.330746291539],[4.767264413234618,46.330767190742264],[4.767276228812304,46.330782769730774],[4.767286551792171,46.33080044346701],[4.7672955596335,46.33082570345367],[4.767330651020356,46.33100628954877],[4.767335416697061,46.33105719512011],[4.767332594187114,46.3311267727252],[4.767334727749481,46.33116060586156],[4.767337739117303,46.33116929592944],[4.767387402345911,46.331209327393374],[4.767453276781329,46.33125207973956],[4.767503672416882,46.33127453619773],[4.767869188398791,46.331351371006576],[4.767945169140059,46.33137288999174],[4.767998250614234,46.331393953526664],[4.768209599224257,46.33147209784358],[4.768252858125261,46.33149097183933],[4.768397351556723,46.33160059661502],[4.768463008085559,46.33164461275295],[4.768478793739656,46.3316542754872],[4.768667000971846,46.33181690321317],[4.768836973146952,46.33203079313415],[4.769028537893106,46.332277042999806],[4.769060219349732,46.332295736118844],[4.769135916090915,46.332328517464916],[4.769517177572808,46.33229692891366],[4.769519755089988,46.332312290828575],[4.769988694047766,46.33228591451004],[4.770102510198593,46.33227513994069],[4.770229587758175,46.33225227007024],[4.770366117455503,46.33220808683269],[4.770483265535303,46.332155647873925],[4.770560570927938,46.33211760842648],[4.770669947433741,46.33203799884589],[4.770790060209669,46.33194462180512],[4.770848196278653,46.331884812877746],[4.770895491214595,46.33182751418162],[4.770936445384548,46.331775177758495],[4.770965652902457,46.33172950887184],[4.77099410269745,46.331680519167236],[4.771025882790283,46.33161391408891],[4.771056374773538,46.33147140015144],[4.771071249773139,46.33140073439674],[4.771072751444744,46.331390893450134],[4.771073986130159,46.33137682337031],[4.771072375136696,46.33133109293072],[4.771070142147745,46.33131032149947],[4.771028646569787,46.33118531889928],[4.771048740866981,46.331183475461835],[4.771027447137673,46.33114426569459],[4.770951675348279,46.33100475402539],[4.770906503105048,46.33093484118051],[4.770803901731033,46.330773859330776],[4.770639663326311,46.33050827316149],[4.770451742295242,46.33017379097267],[4.770423134947726,46.33011749137619],[4.770374019073161,46.32997792555018],[4.770246618762305,46.32962511944285],[4.770221938535368,46.32952543521387],[4.770165243701967,46.329268175689556],[4.770164412099908,46.3292384655625],[4.770162415559263,46.32912455823829],[4.770170640042438,46.3290532753276],[4.770201977786108,46.32885652641129],[4.770218511665372,46.3287487262131],[4.770229248861779,46.328678755311145],[4.77023417596844,46.3286100455629],[4.770240447940298,46.328458360602134],[4.770264372865213,46.32814508634292],[4.770267242240596,46.32810117775805],[4.770286157084436,46.327829953848955],[4.770291636469389,46.32775421006202],[4.770307259400414,46.32757409788973],[4.770305823382634,46.327521699543446],[4.770292618829687,46.32744714668398],[4.770262678480943,46.327329530191356],[4.770243965952317,46.32724146233684],[4.770206179801391,46.32709433472031],[4.770168931139692,46.326967824739604],[4.770137528654351,46.32684518701504],[4.770093521152984,46.32674283064437],[4.770041388217698,46.326622406350474],[4.770015658363403,46.32656254924655],[4.769932087155068,46.32636254108897],[4.769874482008077,46.32622968200337],[4.769848397633137,46.32617091120876],[4.769377211075234,46.32566401913139],[4.768840591638272,46.32474967413094],[4.768768491543714,46.32462676705907],[4.768698491210722,46.324637130720106],[4.768372237073935,46.32468758910137],[4.768071506881086,46.324739361863415],[4.768040044704737,46.32474741586132],[4.768047389148079,46.32480972030059],[4.768111327016228,46.32507029106219],[4.76816064050104,46.325232372174746],[4.768212253488468,46.32546557274568],[4.768264987456858,46.32573343277998],[4.768318839612312,46.32603586224816],[4.768360895664439,46.326246873730526],[4.768362077402476,46.32628342373806],[4.767699085185074,46.32631001219559],[4.76774879527016,46.32648838994265],[4.767791076946635,46.32661392185917],[4.767800078881214,46.326711417879345]]],[[[4.76941305309416,46.324396810269306],[4.769233252097544,46.3244692258821],[4.769086891907018,46.32453851004684],[4.768988482172699,46.324578947893365],[4.769010672246911,46.324670114397634],[4.769028689341503,46.32471667103235],[4.769146092991069,46.32491777583344],[4.769455963970262,46.32547004688844],[4.769503106381682,46.3255447934347],[4.769551673188228,46.325611321488594],[4.7696047318046,46.325672015302736],[4.769636924063621,46.32570258950848],[4.76993675392373,46.32601660036371],[4.769999574595169,46.326089662098944],[4.770040917817099,46.32615792340783],[4.770087698562654,46.32624555533512],[4.770145897453939,46.32641281178461],[4.770240556768836,46.32672640579164],[4.770251924228231,46.32676027562073],[4.770257910131204,46.32678855464309],[4.770281267550183,46.32689159201123],[4.770376657691187,46.32725984696267],[4.770431420733637,46.32750164442115],[4.770441620503163,46.32761992782576],[4.770451043634112,46.32764995483771],[4.770476259076925,46.327665775684146],[4.77052644334754,46.32767373282033],[4.770963885520502,46.32768774212345],[4.77124154433126,46.327693965254966],[4.771484162797684,46.327702173507184],[4.771573480327132,46.32771006230433],[4.77175814902097,46.32771944099567],[4.771937241503025,46.32772926636816],[4.77202666706347,46.32774048571821],[4.772093152379562,46.32775395317778],[4.772165709585303,46.32771004172651],[4.772061117252583,46.32717052816319],[4.771987967793151,46.32677076444318],[4.771978561052214,46.326640939837425],[4.771976504843447,46.326613590558374],[4.772040449045033,46.32660485027365],[4.772071818873293,46.326541763903904],[4.772123461288174,46.32646232984088],[4.772197574756045,46.32633408869829],[4.772290010041694,46.326265729270546],[4.77231567463689,46.326251279234185],[4.772689946565312,46.32609765324144],[4.772692759246786,46.3261322864115],[4.77269290023064,46.326156693168606],[4.772610115710944,46.3261617638058],[4.772290877217233,46.32631255214028],[4.77225527175049,46.32634120767097],[4.772229279547495,46.32636962362376],[4.772196292555591,46.32642291757033],[4.772134768740341,46.32653042699888],[4.772080746653219,46.32660062086853],[4.772058718197092,46.32663500982674],[4.772037987597077,46.32667334167516],[4.772023444969729,46.32671004611313],[4.772016734622351,46.32673969338157],[4.772012219822449,46.32678092552816],[4.772014236212546,46.326819083813824],[4.77205398320829,46.32701454795554],[4.772072001544992,46.32711721767758],[4.77213249578595,46.32731497120908],[4.772198802429007,46.32753560214954],[4.772260833899305,46.32776872918313],[4.772283094158592,46.327797655729825],[4.772302944746897,46.32784049051043],[4.771956407693102,46.32779111659286],[4.771869070382641,46.32777211870924],[4.7715089097002,46.32775168754814],[4.770517854585198,46.32772169334578],[4.770423923119002,46.32773594251417],[4.770393992186356,46.328156853536896],[4.770384056216705,46.32827968301623],[4.770370961219378,46.32843345552141],[4.77036171287505,46.328577530794114],[4.770350358289116,46.32868867321973],[4.770347652693986,46.32872960695536],[4.770295481209472,46.32910213558269],[4.770293568069263,46.329127384853564],[4.770300221717446,46.329236536208114],[4.770302675182594,46.32925208017868],[4.770305446841711,46.329269420603204],[4.770342740117997,46.329453484463805],[4.770359759961105,46.329517349802586],[4.770378849855833,46.32958892898844],[4.770435195468335,46.32978314496142],[4.77046690727822,46.32987911712319],[4.770525308714635,46.33004042563029],[4.770581048103362,46.330163675928],[4.770617661943277,46.330242368557776],[4.770668138404622,46.330331564114296],[4.770768957737024,46.33050581402852],[4.770921750367835,46.3307672545182],[4.770942272290434,46.33076657536035],[4.771186508941739,46.33072395992064],[4.771531092449361,46.33068437779492],[4.771558148933002,46.33068071471884],[4.77226592794385,46.33059414221551],[4.772397375276444,46.33057786706873],[4.772400725031808,46.33057691427675],[4.772408721213379,46.33057489845749],[4.772413480092899,46.33057329326208],[4.772418495972286,46.330571593999856],[4.772427996224257,46.33056784346103],[4.772437094927892,46.33056373888664],[4.772445789165466,46.33055919025232],[4.772453819019217,46.33055420160034],[4.772461577283233,46.33054885689201],[4.772468541204574,46.33054307418736],[4.772475106495039,46.330537027472154],[4.77248101323713,46.33053072078873],[4.772485386732098,46.33052524857914],[4.772470067165473,46.33049387230407],[4.772457839521235,46.330441551730836],[4.772391338209389,46.330275236107944],[4.772324554043411,46.33015233852766],[4.772372333449384,46.330146191315556],[4.772409416787756,46.33014300259071],[4.772506875415028,46.33032171674057],[4.772540761661934,46.33039639807186],[4.772564928477905,46.33048411055162],[4.772579873266245,46.33049991055488],[4.772599747966823,46.33050734745197],[4.772791864294324,46.330469412161975],[4.772834064459932,46.33046362175379],[4.772976393669193,46.33047419762753],[4.773463615901546,46.33045481797449],[4.773538047117378,46.33045257890631],[4.773642311894413,46.33044411104016],[4.773769977981848,46.33042753286355],[4.773827205037467,46.3304160139499],[4.773873610480591,46.33040358260012],[4.773919266828947,46.33038810051356],[4.773942942671562,46.330372420116895],[4.773953342313132,46.33035631587144],[4.773959352595134,46.330333164422676],[4.773971448159301,46.33010879213141],[4.773968463599516,46.330080916912486],[4.773951842366795,46.33002145927008],[4.773930714957388,46.32997540211191],[4.773906874557556,46.329925874450474],[4.773839479812923,46.3298323500029],[4.773803582809747,46.32977589444902],[4.773760431824607,46.329696223674304],[4.773640147901751,46.32947931583513],[4.773660168494803,46.32947522132496],[4.773681624442362,46.32947128461274],[4.77376287505545,46.32964727768406],[4.773844387716455,46.329795254879066],[4.773875902790105,46.32984088016354],[4.773954284102576,46.329936395261086],[4.773973706046067,46.32996995924265],[4.774003229434602,46.330090463598054],[4.773991068225313,46.3303408671227],[4.774104591903167,46.33029316436553],[4.774284541329394,46.33019687047465],[4.77433819344154,46.330179372268425],[4.774410210384511,46.330146816645055],[4.774546369296744,46.33009948158063],[4.774564227443984,46.330088845479374],[4.77482222569049,46.32998566101928],[4.774934489470559,46.32995527046023],[4.775113698489622,46.329916361305024],[4.774954544829204,46.329535592449254],[4.774421552197435,46.32966683753894],[4.77432616723199,46.329327768166536],[4.774241967556145,46.32934547173731],[4.774190687418511,46.32921161550122],[4.774126363827325,46.32904841935356],[4.774334293444935,46.32900915435574],[4.774146959488667,46.328741410611514],[4.774121818428565,46.3286878500937],[4.774073158665388,46.328602680852526],[4.773975311066522,46.3284160478739],[4.774101592479263,46.32839300576466],[4.774127307237152,46.32838810196483],[4.774051218813202,46.328295073264655],[4.773994311073007,46.32823218959001],[4.773929209102784,46.328173216373315],[4.77384015243446,46.32805715135295],[4.773747822598848,46.32792834728003],[4.77369532936617,46.32771290635735],[4.773675047276877,46.32763675264167],[4.773591643707663,46.3274223331601],[4.773571687415855,46.327352209042786],[4.773569506188406,46.327192729129365],[4.773571654789578,46.32697832923596],[4.773574204061372,46.32670411665907],[4.773608406269351,46.32648786685293],[4.773610615791493,46.32644775133944],[4.77361493115124,46.326368332554814],[4.773624741765869,46.32634611273208],[4.773648248761665,46.32624910182651],[4.77372302899806,46.32625379250155],[4.773726863848839,46.32597514644869],[4.77372745568065,46.32590920602988],[4.773762954605512,46.325720947714586],[4.773768034391256,46.32569718024981],[4.773972384411071,46.325704267379784],[4.77401747662135,46.32547109485618],[4.774130396008043,46.324855960458166],[4.774040237421332,46.32483403590579],[4.773808942602361,46.32478575603072],[4.773545093219744,46.32474789004277],[4.773394180593942,46.324732765037744],[4.773287427374883,46.324720285273706],[4.773195398977349,46.32470082104605],[4.77306916734674,46.32468504136434],[4.772977111448419,46.32466071361307],[4.772623235776943,46.32459290177548],[4.771687554413545,46.324428393498955],[4.771575699736135,46.324406894396624],[4.771324853150358,46.32438503376255],[4.771167171705898,46.32437361384191],[4.770815824929788,46.32434763965167],[4.770660338177599,46.32433573457977],[4.770232204251527,46.32430320567255],[4.770052029543022,46.32429573642273],[4.769964455993025,46.32429736684003],[4.769856143195085,46.324308956766224],[4.769709728079456,46.324332306970696],[4.769591515433628,46.32435134604226],[4.76941305309416,46.324396810269306]]],[[[4.769814593891316,46.32428249102242],[4.769955375164265,46.32426985642918],[4.770251905580078,46.32426921349112],[4.770362758337204,46.32428388413422],[4.770460098700354,46.324294801526534],[4.770642950517063,46.32431267664356],[4.770921931465909,46.32433617316721],[4.77110503515937,46.32434575720186],[4.771151438111373,46.324349449432944],[4.771484607451434,46.324376155512574],[4.771649662072886,46.32439043267522],[4.77175348679665,46.324404850956924],[4.771851673103173,46.3244137724777],[4.771977418344441,46.3244466743422],[4.772080780208913,46.324466864001295],[4.772314192372821,46.32450835916566],[4.772491968679975,46.32453405628713],[4.772711565110624,46.3245704514077],[4.773271104693468,46.324673973099486],[4.773546750827965,46.32470679234189],[4.773887581016866,46.32420394090838],[4.772859361621687,46.324012150410404],[4.772006522748316,46.32385221059261],[4.7718968694034,46.32383040738019],[4.771680074547879,46.323812161310364],[4.771353629332769,46.3237802173465],[4.771269727533854,46.32377476625259],[4.771179443980735,46.3237689639369],[4.770969632761895,46.32375358028588],[4.77078417923583,46.32373961915337],[4.770652346189006,46.323735452826796],[4.770582108388618,46.32373843562715],[4.77046305000191,46.32374334779571],[4.770257171723902,46.323716913207676],[4.769685715578775,46.32362229878633],[4.769189140915656,46.32355164849594],[4.769096711684665,46.32397388982527],[4.769026609577614,46.32427049727902],[4.768990050239627,46.32447065959348],[4.768981327776966,46.32451853201362],[4.769038135037055,46.324522333807074],[4.769375638157982,46.324377575832635],[4.769513922627608,46.32433597806073],[4.769672782213782,46.32430748101417],[4.769814593891316,46.32428249102242]]],[[[4.772280403718425,46.33065966811763],[4.772250606483339,46.33066301370542],[4.772285455669641,46.33067111850131],[4.772280403718425,46.33065966811763]]],[[[4.772657650777014,46.33127483297403],[4.772885307142122,46.331246162412356],[4.77308857004331,46.331223094942835],[4.773132233963094,46.33121430935518],[4.773231750367333,46.33119168472007],[4.773259478723924,46.331276909767894],[4.773343766238765,46.331570577212275],[4.773385783443646,46.331759610622825],[4.773407934895576,46.331901396229],[4.773581245873894,46.33188888178814],[4.773714356171295,46.331879694810986],[4.773980941753474,46.33184050856053],[4.774137244936891,46.33180474974762],[4.774144867411072,46.33179922689965],[4.774147709043335,46.33178260980347],[4.774169491494107,46.331776686393674],[4.774441020408148,46.33169752113189],[4.774781382206637,46.33157179805632],[4.774905157254039,46.33153141070692],[4.775038699644033,46.33149150159079],[4.775136057492575,46.331466477019234],[4.775396909708511,46.331410983976994],[4.775564737675228,46.33136981958729],[4.775583152311374,46.331356292423635],[4.775280674430406,46.33109881075885],[4.775158891182122,46.330996226523425],[4.774922985004231,46.33079868439681],[4.775206973742097,46.33071499980805],[4.775181221699254,46.33065469377704],[4.77510281591333,46.330510452024484],[4.775067049089474,46.33039797131421],[4.775036739942379,46.330153182915275],[4.775033216249265,46.32996048811263],[4.774915349736943,46.32999051567486],[4.774753271621939,46.33005248586156],[4.774620309365979,46.33009815014411],[4.774501745965264,46.33015079567387],[4.774403627984986,46.3301843882172],[4.774306277973763,46.33022562466178],[4.774111741043399,46.330329171116304],[4.773976150611444,46.33039406043034],[4.773917359680367,46.33041749298946],[4.773825585517488,46.3304422494999],[4.773647003287071,46.33047250012125],[4.773453591175533,46.33048649843136],[4.77323171675633,46.330488869885784],[4.772990050492889,46.330498394114585],[4.772832328328966,46.33052237432417],[4.772841386932333,46.3305451111661],[4.772622209523018,46.33059058294888],[4.77254185044815,46.33061453037951],[4.77243439963942,46.33064907697247],[4.772349511184466,46.33066165583046],[4.772285455669641,46.33067111850131],[4.77240669101785,46.33100573421873],[4.772428399735088,46.331065743429285],[4.772510670769177,46.33129333149923],[4.772657650777014,46.33127483297403]]],[[[4.773192491558935,46.336204773247715],[4.773198328218799,46.33622837081413],[4.773182828986245,46.336251669807794],[4.773176058183672,46.33628347971887],[4.773179327506114,46.33630810799306],[4.773196185425321,46.33633873969237],[4.773269021441568,46.33650360527998],[4.773271680555457,46.336517434665254],[4.773303709721355,46.33668707828268],[4.773632953272232,46.33756463994919],[4.773638771324082,46.33758364422271],[4.773701033623821,46.337807309542754],[4.774318368453153,46.33779211736407],[4.774368336634212,46.33755265444859],[4.774378459897557,46.33750394921472],[4.774357729564332,46.337502290380144],[4.774442347938899,46.33699216853229],[4.774441401272193,46.33693093576748],[4.774511229407167,46.33671845473929],[4.774548537304011,46.336481620669076],[4.774571601021401,46.33631075934329],[4.774581472304384,46.33621423090121],[4.774583363067329,46.336164302757304],[4.774585878755978,46.33610157496216],[4.77463187709085,46.335771923633956],[4.774613302903177,46.33577257310227],[4.774595375649349,46.33577312242545],[4.774213074978023,46.335785378771796],[4.773827660666125,46.33579786242892],[4.773511609964353,46.33580800455139],[4.773438864005496,46.335810307336416],[4.773098387309399,46.33582109856166],[4.773051750957308,46.33582254458592],[4.773073227011315,46.336115928231834],[4.773098288106141,46.33612283404259],[4.773148061556272,46.336121879620535],[4.773192491558935,46.336204773247715]]],[[[4.77399874198443,46.33931179655115],[4.774027959228273,46.339514899632306],[4.774052526812429,46.33958270013389],[4.77410360167189,46.339681882727355],[4.7742701450826,46.33988086682999],[4.774354552803105,46.33999331116651],[4.774366844167314,46.34001942022824],[4.774404054870706,46.34022834340538],[4.77442953032134,46.34032008827197],[4.774440113326158,46.34039774385573],[4.774473574834046,46.340495128866394],[4.774513269782963,46.340592236692146],[4.774574355226976,46.34070729568252],[4.774716587589358,46.341022577500546],[4.774804638273395,46.34131528459083],[4.774890308707697,46.34156668663208],[4.774907019215746,46.341628754760414],[4.774963200799788,46.34184107524478],[4.77496251592418,46.34184802128457],[4.774969529665537,46.34187178057717],[4.77498918796593,46.341952537316516],[4.775036699190181,46.34208203847091],[4.775170753558771,46.34234952996521],[4.775371793303661,46.34260120665252],[4.77544308985872,46.342690166076466],[4.775715915957262,46.34298170589307],[4.776301316360958,46.34287846267213],[4.776309279737935,46.34289139871248],[4.77631821152828,46.34290612105907],[4.775735112875567,46.3430161738143],[4.775797066854931,46.34318183790905],[4.775880973669095,46.343358688925036],[4.77593328083294,46.34345956288929],[4.776089616898911,46.34369608251871],[4.776168725420653,46.343817254874246],[4.776243113382352,46.343929223538936],[4.776302340197402,46.34402287401248],[4.776431826418788,46.34418145081947],[4.776488903424601,46.344264956812],[4.776541168469994,46.34439249184278],[4.776565470882647,46.344520012273506],[4.776640873658603,46.344523070458656],[4.777063230847987,46.34441687016586],[4.777085135439275,46.34439455166621],[4.777366445271057,46.34460246074491],[4.777675159669935,46.34483714292088],[4.77789417824593,46.34500513036505],[4.778462762653533,46.34508407973784],[4.778714418053507,46.345119784275404],[4.778831074114098,46.34489170853596],[4.778859669626951,46.34480722713558],[4.778874351985509,46.344694861025324],[4.778824965330482,46.344544044035395],[4.778864362373755,46.344247909984134],[4.778890099243477,46.3440635856602],[4.778905296692888,46.343915093466315],[4.778914907290821,46.343798753331086],[4.778909352146472,46.343707959492264],[4.779029825424415,46.34343343788347],[4.779081064345951,46.343317438835626],[4.779119406342475,46.34321677278369],[4.779162993115412,46.343069458716116],[4.779190613120247,46.34293905676069],[4.779201539612283,46.34278324541504],[4.779201575741628,46.34268443815436],[4.779198536600342,46.342371222415935],[4.779189381202684,46.34206188506338],[4.779177457242916,46.342011181661945],[4.779187218219511,46.34196743547371],[4.779162308441405,46.34172148301308],[4.779130588798598,46.34144609389095],[4.779097576927434,46.3412189123359],[4.779103585552432,46.34109181995745],[4.779112811869772,46.34098368211246],[4.779112018874761,46.34077545280372],[4.77911104535147,46.34062162854881],[4.779106579617236,46.34028852954808],[4.779101371600473,46.34022439096488],[4.778918711389398,46.339914338712106],[4.778867838715403,46.33984163554574],[4.778787364166226,46.33973444715761],[4.778717369914174,46.33958962608609],[4.778643410136713,46.339470806993226],[4.778412964465484,46.33919077233037],[4.778316785361016,46.339072479835785],[4.778236649699501,46.33897564383861],[4.778212281052372,46.33897809559994],[4.778053203911107,46.33876512982116],[4.778024375190987,46.3387263990875],[4.777984178759223,46.33867001181601],[4.777928885203882,46.33858125469731],[4.777853644452706,46.33847893790237],[4.777778251124637,46.338383919104594],[4.777737433618754,46.33838041248432],[4.777490952988203,46.33807486614828],[4.777279974202017,46.33781326030712],[4.777233901040473,46.3377560637188],[4.776912791185017,46.33739475559321],[4.776811799680236,46.33731625775551],[4.776588213312769,46.33733883765688],[4.776243359906882,46.33735529068415],[4.775994094448182,46.33735998538454],[4.775744852804904,46.337381432166794],[4.7756876121517,46.33751688829643],[4.775662077186265,46.337519447760506],[4.775698352325222,46.33778756111392],[4.775633197750782,46.33778344210686],[4.775650683506711,46.337901431466854],[4.775699283406039,46.33802046731353],[4.77570009587968,46.33803747786331],[4.77469203017078,46.33806218423538],[4.77469217577085,46.3380185881608],[4.774693032606539,46.33768837874066],[4.774466971141933,46.33767082182691],[4.7744124932529,46.337851449310946],[4.774360176259414,46.33799448399772],[4.774330449911039,46.338076279794365],[4.774183090200069,46.33833212011263],[4.774119208544439,46.33841534815686],[4.774096360264525,46.33841255132608],[4.773986544975698,46.3385630557954],[4.773956985704675,46.33864601978305],[4.773946457204728,46.33872634577849],[4.773943805545116,46.339001370213104],[4.77399874198443,46.33931179655115]]],[[[4.774116642109329,46.332400162283506],[4.774142389417094,46.33242426051218],[4.774563201654521,46.332818160115124],[4.774836056056674,46.33268754343667],[4.774921392577197,46.33278484108719],[4.774941508136733,46.33280767579619],[4.774955437908548,46.33282421187041],[4.774988379292409,46.33286161829818],[4.775000399011709,46.33287539194594],[4.775040075358357,46.3329199891353],[4.775127727817502,46.333296917656405],[4.775151761628333,46.333400393948224],[4.775189653724344,46.33358228542603],[4.775187271578739,46.33363708503391],[4.775235573571187,46.33363092852734],[4.775306633507568,46.333865174401296],[4.775372440740739,46.33413787183433],[4.775393698466544,46.334139792460384],[4.775411911602426,46.33414806540126],[4.77542069129706,46.33416215968749],[4.775419695775027,46.33417955868744],[4.775403055850551,46.33419170711191],[4.775379293834385,46.33419676087842],[4.775376776684094,46.33421535448813],[4.775373015568698,46.334243695024426],[4.775363577691496,46.33431346607162],[4.775282922970901,46.33430040123118],[4.775287911393469,46.33436994757064],[4.775064310277447,46.33439973049077],[4.775000738583568,46.33440819631864],[4.774953481465444,46.33441451658232],[4.774710698730394,46.3344422556934],[4.774675931663214,46.334452794788014],[4.774666777049528,46.33446320529447],[4.774671236941733,46.3344724130517],[4.774704376536652,46.33453593674824],[4.774724450329327,46.3345614742464],[4.774738146840182,46.334578824610645],[4.774807084924662,46.33464755533746],[4.774882124348669,46.3347119577301],[4.774985678678922,46.33480554901531],[4.775111874421455,46.33490761444697],[4.775706972838715,46.335333922945104],[4.775811041717869,46.335407239768514],[4.775965993099711,46.33550975697848],[4.776040575752837,46.335552008560306],[4.776126468893085,46.33559417391812],[4.776254361883778,46.3356402782713],[4.776395796753158,46.33568292891791],[4.776520496712453,46.33570278232464],[4.776625015802787,46.33571385309445],[4.776885247243215,46.33571871349745],[4.776985895728425,46.3357147125288],[4.777145154785083,46.33570160129213],[4.777250500504826,46.335686087969215],[4.777384796515436,46.3356530998909],[4.777473213444964,46.335608847817014],[4.777909875496527,46.335328855280444],[4.778422822952134,46.33498363098504],[4.778546615087076,46.334911624945924],[4.77870387329139,46.334841078057316],[4.779204400714988,46.33466195284368],[4.779275276222992,46.33463418573897],[4.779699515684788,46.33445246622326],[4.779890342712116,46.33438661755135],[4.779874371496419,46.3342634710244],[4.779877990857592,46.3341589332755],[4.779888079486862,46.33409734797328],[4.779994089560296,46.33383070643093],[4.78009163611136,46.33364363872201],[4.780284031070665,46.333382402920954],[4.780340803960963,46.333316935904335],[4.780269363521481,46.33328733791644],[4.780139761565793,46.33324459737083],[4.779971563245093,46.33313463671046],[4.779931779594039,46.33312282834327],[4.779793732031611,46.333108231087216],[4.779696445734794,46.33308353984438],[4.779631888755966,46.333073649389824],[4.779364527014496,46.3330490913594],[4.779158525569409,46.333016099076836],[4.779009887651856,46.33300770088475],[4.778802787174953,46.33297688679968],[4.778738775567025,46.33297176104264],[4.778621651522288,46.332992773769185],[4.778297980081537,46.333071951902724],[4.777785504911352,46.33319118303334],[4.777223639946913,46.333323161271196],[4.776927456972667,46.333079906713756],[4.776418171593386,46.33314531016089],[4.776427613914325,46.33318380300098],[4.776377796735305,46.333191334685395],[4.776183916591576,46.332486586618586],[4.776128512190994,46.332350093358485],[4.776373186266781,46.332288815563594],[4.776339522352923,46.33220116174982],[4.776214525788827,46.331887684833234],[4.77580444164814,46.33197648904153],[4.775714604420441,46.331780635570965],[4.775671266045537,46.33168331468104],[4.775543160955181,46.331414109860006],[4.775202235893021,46.3314943587116],[4.775019844262998,46.3315315160869],[4.774967236575066,46.33154917846829],[4.774865344576304,46.33158274007401],[4.774615900160858,46.331673271590496],[4.77441284681919,46.33175893709213],[4.774237359337403,46.33183660723106],[4.774157134936639,46.33184470137985],[4.773950989044308,46.33188718062489],[4.773785471416829,46.33191146356638],[4.773612341430634,46.33192955983389],[4.773653766852228,46.33196800551156],[4.773723747311897,46.33203293768567],[4.773726699916639,46.33203577397199],[4.773792659038822,46.33209698575285],[4.773831816950906,46.3321336652607],[4.774000247972413,46.332291368175376],[4.774116642109329,46.332400162283506]]],[[[4.775156415435641,46.3255441498199],[4.775062510722136,46.32563919525872],[4.775156108852221,46.325702947997385],[4.775224616260055,46.32572268700872],[4.775404987874323,46.32574005279708],[4.775553094261968,46.325740717641615],[4.775653961221402,46.32574400982629],[4.77572321166133,46.325750586742785],[4.775799816988948,46.325771460211136],[4.775933306633859,46.32581846817572],[4.775991832438802,46.325855115305274],[4.776062464002492,46.32593624846762],[4.776071480941912,46.325961687824005],[4.776076690930744,46.326014027375415],[4.776081490441144,46.326101770839365],[4.776142959702509,46.326124951590394],[4.776273870074191,46.326160560479074],[4.776293420785717,46.326162057147876],[4.776322205613567,46.32617565940358],[4.77638034157533,46.326232307963174],[4.776483409147405,46.326355358256066],[4.776887310815768,46.32732217792088],[4.777072592002973,46.327270380898305],[4.777126345658735,46.32725612225268],[4.777247472176605,46.32739465254289],[4.777259640596299,46.32744102898347],[4.777360861397832,46.32769515922675],[4.776897366263654,46.32786379230474],[4.777211920160161,46.32818512108638],[4.776903911227008,46.32830935668814],[4.77666973391623,46.328409022261276],[4.776478648389344,46.32848639884268],[4.776550907147481,46.32855345545716],[4.776715142484701,46.32873418763187],[4.776819918379259,46.32883361269618],[4.777085655480548,46.329108956606866],[4.777138960082871,46.329100829749194],[4.777224893311473,46.32906048941121],[4.777456922177654,46.32892266655235],[4.777622749143046,46.32885622050854],[4.777739805805334,46.32880539653772],[4.778021275674384,46.32870066759197],[4.778092146985729,46.32867299122756],[4.778353352628717,46.32856488472599],[4.778604534553785,46.32847242609259],[4.778833626475653,46.32838040175484],[4.779074968712584,46.32830926210515],[4.779533329329385,46.328178709883495],[4.779554842136125,46.32816855632718],[4.779578707935588,46.32815080013761],[4.779591653689209,46.32813708747552],[4.779598829851321,46.32811788056052],[4.779611760649566,46.32802778869822],[4.779626081766077,46.32798442149661],[4.779682578391143,46.327862665199994],[4.779708042485944,46.32779813764466],[4.779740507985683,46.327748992799755],[4.77983089656818,46.32765390830307],[4.779949895410452,46.327511090081174],[4.780029591564077,46.3273831166848],[4.780102961450924,46.327356390768536],[4.780118379758805,46.32735074572867],[4.780123822319815,46.32733021480168],[4.780137388635091,46.327279653704686],[4.78017970488997,46.32717766383622],[4.780185002809319,46.32715668481411],[4.780177484168521,46.32699359522267],[4.780187175564539,46.32691985655589],[4.780217270061612,46.3268418360861],[4.780286937096657,46.32670537240901],[4.780303259647961,46.32662765712144],[4.780306257927839,46.32655600453927],[4.780271646589451,46.326351455571],[4.780249560014684,46.326276051628206],[4.780248263705607,46.32625220329686],[4.78038206050568,46.32588911205084],[4.780399992692013,46.32583289834961],[4.780410376009619,46.325800400955],[4.780435368316559,46.32573741175612],[4.780432636742695,46.32570142638032],[4.780383737483724,46.325589152324135],[4.780321789701921,46.32551536190319],[4.780301496954365,46.325471094208154],[4.78025322385417,46.32541798639298],[4.780164796404491,46.325289576700406],[4.780133821636968,46.32526862386426],[4.780133168977041,46.325268543989175],[4.780097125158319,46.32526361273811],[4.780092556539658,46.32526305361106],[4.780025502349119,46.325272027176766],[4.779963311804112,46.32528263606846],[4.779711575268351,46.325325568093305],[4.779730403620066,46.325432727696],[4.779723476613145,46.32547156602539],[4.779703997747603,46.32550024231327],[4.779637396204855,46.32557108674237],[4.779533713875018,46.32559315174768],[4.779382348678936,46.32562019448641],[4.779304888312572,46.325633022975694],[4.779169097482197,46.32564324935987],[4.778922138248335,46.325661245674176],[4.778437572665857,46.32571699621868],[4.778361078340224,46.325727557233094],[4.778217986673152,46.32575717140308],[4.778111319902123,46.32577144557215],[4.777900051354986,46.3257875317233],[4.77771116131702,46.325780120387485],[4.777647229661225,46.32577319149779],[4.777497209032291,46.32572563273181],[4.77726826215734,46.3256457986361],[4.77697292316974,46.325535294703215],[4.7769284137078,46.32552590088392],[4.776824386228173,46.32549734942879],[4.776719840343882,46.32546484288099],[4.776556908462899,46.32538397814454],[4.776377981015262,46.32531498155259],[4.77633859496618,46.32529920274224],[4.77627216583228,46.32529141132135],[4.776203860310678,46.3252778846263],[4.775841023062249,46.32524264754328],[4.775754093397049,46.32524012913349],[4.775699146663587,46.32524161580912],[4.775649777490537,46.3252467084225],[4.775590004064314,46.325259709143324],[4.775486219002056,46.32530266829368],[4.775296611783798,46.32532516740157],[4.775272084407462,46.32534257272406],[4.775214664782991,46.325448128536316],[4.775156415435641,46.3255441498199]]],[[[4.775528677287306,46.33533742103731],[4.775103241054979,46.33532666397344],[4.774802999800428,46.33531899988239],[4.77467280121448,46.33629567325341],[4.774620662374703,46.33668855915136],[4.775022196805412,46.3366917642455],[4.775243193884875,46.33669363664698],[4.775739886385472,46.3366958975475],[4.775741968881628,46.33669595517429],[4.77587926414079,46.33659104642384],[4.775898461198959,46.336469423176],[4.775853486684133,46.336297820172064],[4.775838267569867,46.33622960416211],[4.775807251948911,46.336071384215856],[4.775801044485449,46.33584819764012],[4.775788568363344,46.335740308130184],[4.775756431149734,46.33561561164584],[4.775696301200187,46.335505852506735],[4.775528677287306,46.33533742103731]]],[[[4.776077737312209,46.33662812517806],[4.776168822081373,46.33674199534235],[4.776205328270673,46.336772950938254],[4.776353633180658,46.33689889935346],[4.776649804473599,46.33709721086965],[4.776791050544571,46.33719795911917],[4.776953005285101,46.33735170575709],[4.777145564938045,46.337530825084855],[4.777325182357312,46.337735815834066],[4.777507833519693,46.33797408487955],[4.777624066116728,46.33811332178338],[4.777805321991336,46.33830459563879],[4.777952905622485,46.33848810800706],[4.778224548047106,46.338871441575286],[4.778560796415656,46.339265835884085],[4.778714800121244,46.3394746468754],[4.778861274772606,46.33971582020479],[4.778922828040834,46.3397930403295],[4.779020379826528,46.33991347259816],[4.779108701895912,46.34008196605095],[4.779161059060758,46.34007637516615],[4.779548789697827,46.33944685857227],[4.779639667976791,46.33926232754799],[4.779659898613849,46.33922463266149],[4.77965145921493,46.339157121878195],[4.779502770446644,46.33914368094927],[4.779498657863831,46.33890542002894],[4.779493699139788,46.33866113762375],[4.779354150452625,46.338640798585494],[4.779378385393366,46.338586288224455],[4.779338504734885,46.33833183262563],[4.779484134776104,46.338287316424754],[4.779453888079237,46.338137101550664],[4.779366705198321,46.33794760427152],[4.779284833454907,46.33796527502743],[4.779316379927702,46.337735824725506],[4.779275926793252,46.33761161921112],[4.779274851176413,46.33749463510557],[4.779266398210897,46.337414694846515],[4.77927005383604,46.33735519159968],[4.779250785899857,46.33726659329938],[4.779284373140813,46.33726372719225],[4.779271608362798,46.33719114990676],[4.779177294158584,46.33711813422262],[4.779018550254342,46.33713520327765],[4.779014809575264,46.33712814613279],[4.778971205487815,46.33704695307399],[4.779266800043295,46.33688750899466],[4.779170223973327,46.336621058300814],[4.779117574304217,46.33658558189862],[4.779168666031407,46.336465261550394],[4.779214088499107,46.33631458601358],[4.779133411969243,46.336249013380055],[4.779408811249004,46.33604854193977],[4.779477791898762,46.336010446271956],[4.779184576578496,46.335735266165806],[4.779161102360776,46.33571320515516],[4.779280206775281,46.335664959916585],[4.77944613644116,46.33558112644495],[4.779558061854666,46.3355240760535],[4.779496890399718,46.3354584693623],[4.779434369591142,46.33539135251579],[4.779690826140277,46.33528025525651],[4.779751217652076,46.33520203221731],[4.779779450275393,46.335102604429906],[4.77980827342953,46.3349813704679],[4.779781988274268,46.33498880637212],[4.779759994198545,46.334988249105095],[4.779656785454166,46.335017422055756],[4.779526001264042,46.33506233734104],[4.779230909296738,46.335172956508934],[4.779094160049672,46.33523039406022],[4.778910678000588,46.335318283914944],[4.778792648915334,46.33536759283426],[4.778427369332207,46.33549128450724],[4.778259235848849,46.33555137238759],[4.778140653004276,46.335591682256315],[4.777945606174243,46.33565191930694],[4.777829633463374,46.33568453218394],[4.7777797498125,46.335690083944044],[4.777660766245701,46.33568608513642],[4.777552251806584,46.33568012153897],[4.777509264870408,46.33567781960943],[4.777449859179465,46.33569847132939],[4.777366768250277,46.33572255473378],[4.777273476375376,46.33574085252061],[4.77709357443598,46.33576698564306],[4.776941462328544,46.335783948462584],[4.776782097681391,46.33579381853861],[4.776713325410157,46.335794350143715],[4.77665099904669,46.33579315997528],[4.776535649966766,46.3357849601233],[4.776436977826637,46.335769744996995],[4.776335920774806,46.33574916275859],[4.776215655416261,46.33571771109438],[4.776070573962086,46.335670883761004],[4.775951170350249,46.335633924130235],[4.775915067192266,46.33561935490658],[4.775879048012483,46.335627391910066],[4.77589392214319,46.335825133817735],[4.775911202142566,46.335904756590914],[4.775908108292135,46.335969655126405],[4.775916101861261,46.336091665370894],[4.775925234953223,46.33613664809245],[4.776040841230043,46.33650908725508],[4.776077737312209,46.33662812517806]]],[[[4.776574790319879,46.329424780577384],[4.776571506113321,46.329451762700074],[4.776580562601631,46.32949440477019],[4.776629923266436,46.32963702673323],[4.776644444591253,46.32969579620667],[4.776670733151383,46.329744564609435],[4.776718428749237,46.329867937516006],[4.776761945454748,46.329990745062496],[4.776810779769853,46.329981066804386],[4.777028101755654,46.32991868264282],[4.777299878992291,46.3302996741204],[4.777424874590409,46.33048101726931],[4.777549368737996,46.3306629085311],[4.777628307579386,46.330795341217524],[4.777800450335629,46.33106700938368],[4.777840183257805,46.331113316070756],[4.777899537841235,46.33116724281947],[4.777908524468486,46.33115170066121],[4.777921195689017,46.33112150968247],[4.777933402809351,46.331053046188096],[4.777996931070356,46.33098738487406],[4.778076275609717,46.330912289630106],[4.778274537820137,46.33078751175233],[4.778308969921581,46.33077076190349],[4.778436675601138,46.33072742707548],[4.778560624472642,46.33067253169385],[4.778809464320414,46.33059172836132],[4.779028195559608,46.33049671304268],[4.779073379754999,46.33047475119728],[4.779239589398441,46.33038001488709],[4.779401011297394,46.330293999800496],[4.779479766975679,46.33024485289808],[4.779531500886462,46.330204414307374],[4.779576424195427,46.33016246077491],[4.779598673043552,46.330130949127245],[4.779617330187611,46.3300889553614],[4.779635914323304,46.33003273166183],[4.779642674184779,46.32998074574918],[4.77962318692932,46.329869363163226],[4.779579038363358,46.32966739488707],[4.779553597072893,46.32954484650071],[4.779525800133354,46.329461785579795],[4.779514367564199,46.32939414132961],[4.779507479404023,46.329374253327266],[4.779452148058479,46.32927613025999],[4.779450546734081,46.32919094897871],[4.77948189952284,46.329055624548865],[4.779505860388832,46.32896085698745],[4.779526782191536,46.32883263080456],[4.779542425333608,46.32867404335312],[4.779557113375947,46.32861797055675],[4.779577531663299,46.328318438926495],[4.779569320954323,46.32819796329835],[4.779292926892634,46.32826271587095],[4.779137057078374,46.328307392150194],[4.779045097369017,46.328330264386366],[4.77889654512648,46.32838806639941],[4.778725915099886,46.328446663145165],[4.77856599247109,46.32851067687256],[4.778531949946681,46.32852336759498],[4.778357549289233,46.328585985701245],[4.778208007514055,46.32864938657649],[4.778004818835385,46.328730377239744],[4.777825023208579,46.32879506021787],[4.777551217379888,46.328907595290055],[4.777467476309265,46.32894736127258],[4.777341887355912,46.32902371776173],[4.777200303997029,46.32911203262453],[4.777003003984337,46.32922229244163],[4.776862610503246,46.3292992394936],[4.776717733408409,46.329366258494154],[4.776593743986316,46.329403859091286],[4.776583312776745,46.3294109570873],[4.776574790319879,46.329424780577384]]],[[[4.778964896800141,46.343768250179814],[4.778956254827051,46.34388637660388],[4.778946816301239,46.34403198677298],[4.778898978655463,46.34437247689706],[4.778894829946457,46.34444883083102],[4.778892649656658,46.344469761067124],[4.778900881965003,46.344642836999974],[4.77891829453782,46.34477028438436],[4.778909164554541,46.34488940917019],[4.778840766106749,46.345021708282914],[4.778654288935755,46.345342384389646],[4.779577415551001,46.34527330557559],[4.779585071593485,46.34518086441858],[4.780199814259957,46.345131455576684],[4.780488378718987,46.34510236000113],[4.780788094902856,46.345076241939296],[4.781023425201399,46.34505392116548],[4.781054295064313,46.34504335105161],[4.781122242361016,46.345057060948974],[4.781173058590766,46.3450160057335],[4.781094141900211,46.34478134554569],[4.781045613709574,46.344780842741116],[4.780991412412276,46.34467405594721],[4.780941001615839,46.34456784040268],[4.780888970510037,46.34445579560378],[4.78076223264646,46.344465881712566],[4.780717076864149,46.34436525839458],[4.780699547758605,46.344274291359774],[4.780694248476472,46.34424735315495],[4.780629538222975,46.34398157677438],[4.780565022504335,46.343849551178494],[4.780505482822531,46.34372654489323],[4.780453575530206,46.34362224399136],[4.780427509599138,46.343564646054666],[4.780462507153574,46.343549057774354],[4.780356320606838,46.34329554805791],[4.780349288575279,46.34328728137653],[4.780331799725794,46.34328539282861],[4.780291580540184,46.34316856973948],[4.780167466125304,46.34290363074707],[4.780316802803493,46.342884725737434],[4.78018882043818,46.34254490898266],[4.780218547711287,46.342515262087225],[4.779989970932097,46.34226132148631],[4.77989362805496,46.34205836704242],[4.779767948706568,46.34188505321178],[4.779239406931459,46.34196860245573],[4.779261261141905,46.34266017848473],[4.779261034659392,46.342893012752775],[4.779236232482454,46.34302607284629],[4.77917190933126,46.34323955168832],[4.77906797300864,46.34345869261319],[4.77901026041947,46.34358758260258],[4.778964896800141,46.343768250179814]]],[[[4.779244513237551,46.34190970709479],[4.779322739261543,46.34190371239497],[4.779734956774545,46.34183837165552],[4.77975966090878,46.34183420302168],[4.77995502926861,46.341807194014564],[4.77990534828925,46.34158342537353],[4.77991077511856,46.34112290306209],[4.779893425889469,46.34076172323695],[4.779829284188476,46.33942644681329],[4.779611718512244,46.339442453478746],[4.77945093266924,46.3397206677089],[4.779160241514142,46.3401911370331],[4.779170455954256,46.34033319804358],[4.779176653505107,46.34054764790804],[4.779172261652661,46.340672463319486],[4.779172119302656,46.34079198834663],[4.779171286598184,46.341218032127536],[4.779234938064404,46.34161145487878],[4.779244513237551,46.34190970709479]]],[[[4.780096815608513,46.33059900988923],[4.780032607566577,46.33050787105165],[4.779997050687943,46.330446097899895],[4.779945533517051,46.33038133147888],[4.779795720857494,46.330184796399294],[4.779702555275218,46.330166706068205],[4.779691302750393,46.33016453996077],[4.779669306377384,46.33017983507322],[4.779616923866192,46.33021632077363],[4.779539020540434,46.330259689981034],[4.779110816543317,46.33050641188],[4.77893116127836,46.330591540226536],[4.778741784667503,46.330657635084634],[4.778619038983781,46.33070953957887],[4.778535516647548,46.330752095063936],[4.778353997655921,46.33087192851397],[4.778355654259405,46.33099484824398],[4.778336455729971,46.331096206369004],[4.778337858010883,46.33115932357181],[4.778406089834264,46.33125031046821],[4.778654464197233,46.331474942241336],[4.778716750516641,46.33152702142769],[4.778795431902185,46.33162342936387],[4.778851187132821,46.331678582723185],[4.778897622208497,46.331739015518174],[4.779011612244229,46.33190954026128],[4.77911457964465,46.33204898266063],[4.779151938467968,46.33211018752775],[4.779196103023143,46.33218074349546],[4.779311235285276,46.33235034942785],[4.779335799463028,46.33237797772061],[4.779376794653315,46.33240706081781],[4.779544372501204,46.332494064140526],[4.780617511359479,46.333029433066244],[4.780831131720587,46.332881082717236],[4.781008538141417,46.33278265624153],[4.780990282564171,46.33276510763342],[4.780975919081824,46.33275128114755],[4.780872234844582,46.33230651401126],[4.780738489255812,46.331769084016244],[4.780734657865899,46.33174725685079],[4.780708859338108,46.33159787339628],[4.780553789589746,46.33136386216301],[4.780486060449329,46.331232517249916],[4.780338106105568,46.33101730930049],[4.780214896758586,46.33081927832371],[4.780096815608513,46.33059900988923]]]]}}]}
