{"type": "FeatureCollection","name": "aoc_geojson","features": [{"type":"Feature","properties":{"dt":"Bordeaux","type_prod":"Vins","categorie":"Vin tranquille","type_denom":"appellation","signe":"AOC","id_app":685,"app":"Côtes de Bordeaux","id_denom":1849,"denom":"Côtes de Bordeaux","insee":"33081","cvi":"1R120S","nomcom":"CADILLAC","insee2011":"33081","nomcom2011":"CADILLAC","id_aire":1451,"crinao":null,"grp_name1":null,"grp_name2":null},"geometry":{"type":"MultiPolygon","coordinates":[[[[-0.318186148223135,44.64141023030946],[-0.318147818713139,44.64143444813732],[-0.318083345038203,44.6414754896775],[-0.317982377200048,44.641398325938574],[-0.318003248090943,44.64138625594797],[-0.317621159400771,44.641087398786205],[-0.317264967693296,44.640803892273546],[-0.317150935479841,44.64071486549972],[-0.316979104348498,44.640578735556126],[-0.316813209178026,44.64044909511246],[-0.316637495355753,44.640313441635186],[-0.316624666037515,44.64030346438006],[-0.316601469935544,44.6402846073563],[-0.316550986975009,44.6402438623241],[-0.316496801829942,44.64020025485131],[-0.316424422097229,44.64014556957394],[-0.31637206552293,44.64010515100428],[-0.316355954360002,44.64009301953499],[-0.316495715287389,44.6400016934858],[-0.316548092037206,44.63996741338745],[-0.316251583369407,44.63973924056481],[-0.316237950708713,44.639728476420274],[-0.316120709209248,44.63963846374854],[-0.315977473362449,44.63952706470492],[-0.316089467829008,44.63945288137233],[-0.316139346927957,44.6394211993711],[-0.316331667015683,44.639296579272525],[-0.316557419717446,44.63915248389843],[-0.316765135014255,44.639019291504816],[-0.317014356684245,44.6388580014692],[-0.317097539001183,44.63891398401801],[-0.317148965890986,44.638882885829275],[-0.317161763205891,44.6388923233348],[-0.317374546009883,44.639061734340345],[-0.317441733571994,44.63911612426498],[-0.317465979690435,44.63913567043217],[-0.317622074345875,44.639259656918505],[-0.31768602167806,44.63931044961604],[-0.317762425780277,44.63937132069038],[-0.317886372119137,44.639470141031246],[-0.318936177588036,44.6403149067777],[-0.319060808596792,44.64041028136502],[-0.319296952433312,44.64059899123398],[-0.319341239686858,44.64063307306639],[-0.319248914776546,44.64069405423852],[-0.31875429910024,44.64101743004955],[-0.318444080817766,44.641221012970846],[-0.318170931791894,44.64139401743367],[-0.318186148223135,44.64141023030946]]],[[[-0.31812518492533,44.64801496678384],[-0.317652258277348,44.64832416947763],[-0.317280991575802,44.648522822489824],[-0.317072589102619,44.64855917148004],[-0.316939318334083,44.648578848785576],[-0.316881295977754,44.64858383352421],[-0.316790106356108,44.648585037710575],[-0.316287985274888,44.64859577657677],[-0.316089932274222,44.6486685766456],[-0.315988386064515,44.648706133399514],[-0.31591555876928,44.6487340883144],[-0.315856732519523,44.648759730992275],[-0.315747300748317,44.64880914776724],[-0.315541682828019,44.64890785404207],[-0.3154190042109,44.64896812011321],[-0.315345130086357,44.64900403539539],[-0.315283397749642,44.649036072355706],[-0.315249554543634,44.64905727111195],[-0.315184046014635,44.64910879413415],[-0.315113388130097,44.64916290440415],[-0.314995347979476,44.64925267589062],[-0.315182941489281,44.64941176500568],[-0.314215505352313,44.65023289742438],[-0.313999651802509,44.65010195600457],[-0.31379760686415,44.650270113869155],[-0.313545884529003,44.649988597747644],[-0.313524920960744,44.64999057767885],[-0.313531420991714,44.650025974866146],[-0.313559409745493,44.65014128306227],[-0.313586548736851,44.650246434710354],[-0.313333883858836,44.650309422975226],[-0.313268624619498,44.65032660679895],[-0.313224596934837,44.650342073004396],[-0.313048225697861,44.650420975550844],[-0.313000887227153,44.650405904724444],[-0.312913701433608,44.65038508979898],[-0.312836463415247,44.65037244670553],[-0.312738556026439,44.65036249537161],[-0.312639938698765,44.650361936282884],[-0.312568198708475,44.65036336505835],[-0.312272612234512,44.6497908557188],[-0.312260071909855,44.64976005466864],[-0.312177914489947,44.64979468412625],[-0.312107069169711,44.649824198978514],[-0.312012814132866,44.64985702820059],[-0.311943146646877,44.649878668410906],[-0.311882265036523,44.649893017081155],[-0.311826874756979,44.64990630014893],[-0.31177424418826,44.649914995202586],[-0.311713862909534,44.64992067858799],[-0.311552957414868,44.649934148803595],[-0.311298611203164,44.64995780631949],[-0.311171159571113,44.64996919266685],[-0.311089731691899,44.6499797410734],[-0.311010467901606,44.649992747579496],[-0.310930002169307,44.65000678119347],[-0.310818530996635,44.650028050743074],[-0.310822157707581,44.65005109943025],[-0.311077032511575,44.65047453439361],[-0.311053973264525,44.65047522502114],[-0.310925943189566,44.65050041463202],[-0.310474035748575,44.65058188791298],[-0.310340955163876,44.65060921040565],[-0.310031651080218,44.65073092417124],[-0.309723737857082,44.65099235012284],[-0.309496548062676,44.651173236610305],[-0.309492525543183,44.651171374690165],[-0.309028532927691,44.65093548925485],[-0.309148861392374,44.650695358877115],[-0.309154917101188,44.65068670763347],[-0.30916224425394,44.65068036109202],[-0.309171535489475,44.65067521724582],[-0.309181919323886,44.650671482392795],[-0.30919141134292,44.650669756569286],[-0.309167333019264,44.65065524936188],[-0.30917564628511,44.65064635032954],[-0.309212055681611,44.65058497945571],[-0.309222507908888,44.650539433288834],[-0.30927373004621,44.65041220191882],[-0.309325583248582,44.65024629608952],[-0.309336097108179,44.650197504246435],[-0.309346116681643,44.65014674486349],[-0.309356677266528,44.65006866711888],[-0.309370328649765,44.649916429592146],[-0.309388029612441,44.64965693463566],[-0.309395679337279,44.64961525681123],[-0.309277707555622,44.64931098573449],[-0.30919571442723,44.649099167775645],[-0.309040774840043,44.648700580804224],[-0.308988890615607,44.64856724500924],[-0.308971816972585,44.64849576129818],[-0.308949922645666,44.64833575749734],[-0.30894838362629,44.64830525760278],[-0.308948707715506,44.648287136580485],[-0.308965696274847,44.64825617222166],[-0.308993459176581,44.64822812917594],[-0.30903661381308,44.64819566073641],[-0.309063263286107,44.6481808965937],[-0.309391346359935,44.64803312310429],[-0.31029612427198,44.647627317695154],[-0.310429784188326,44.64756916143442],[-0.310639633636873,44.64748655721302],[-0.310912388285267,44.64737683884391],[-0.311346850321523,44.64720731129859],[-0.311978917663823,44.646968156795054],[-0.312194092489436,44.64688818325039],[-0.312223846575776,44.646881164527265],[-0.312250280783844,44.646882084506885],[-0.312274069943511,44.6468852462822],[-0.312290237569791,44.646891880240254],[-0.312364104989744,44.64695247093651],[-0.312434274429039,44.64700812644996],[-0.312627522003135,44.64718849518081],[-0.312821149190997,44.6473817374385],[-0.312888523458191,44.64745423622717],[-0.312945062433384,44.64751633705917],[-0.312966435661627,44.64754065595885],[-0.312987856514975,44.647565784384085],[-0.313054109699914,44.64764282200033],[-0.313093606802028,44.64769200767651],[-0.313121344111189,44.64773010229045],[-0.313134110513862,44.647749723267815],[-0.313138794145431,44.64776282851811],[-0.313141091927287,44.647782583030114],[-0.313136223540428,44.64780282263334],[-0.313121491528238,44.64781416701237],[-0.313053119169915,44.647849195010615],[-0.312586422522327,44.64806943387207],[-0.312611185115067,44.64811275380855],[-0.31264718738944,44.64815402491864],[-0.312697917086072,44.64823323996116],[-0.312718780597063,44.648268206732865],[-0.312750977850685,44.64832418905324],[-0.312775478674512,44.64835661395076],[-0.312795225644314,44.64838332439518],[-0.312816551531733,44.648406833802035],[-0.312906869850329,44.64850243313338],[-0.313050391601042,44.64865275438664],[-0.313426337760204,44.64904417209743],[-0.313487926827481,44.649123421806806],[-0.313502055202106,44.64914687651534],[-0.313507230090964,44.6491661843752],[-0.313553775689166,44.649206418381496],[-0.313657878033554,44.649150045195526],[-0.31392969372169,44.64900286328824],[-0.314277585198796,44.648814293791276],[-0.3143960040532,44.64874811960325],[-0.314587216527565,44.648906560457974],[-0.314904241565481,44.64867827639984],[-0.314681545742785,44.64850176765959],[-0.314404354849676,44.648675513834384],[-0.314192423014334,44.648486697294324],[-0.314091074307429,44.648544790598464],[-0.313975732494113,44.648611773278425],[-0.313837961568136,44.64869015082563],[-0.314039277632753,44.64889163085465],[-0.313909304771875,44.64896310684274],[-0.313650265564119,44.649104319144634],[-0.313629708744289,44.649111062548506],[-0.313612289478439,44.64911320658725],[-0.313595146723699,44.64911146776303],[-0.313576839589909,44.64910066309777],[-0.31355691892481,44.649086032220765],[-0.313530684597855,44.64906492271337],[-0.313490135361207,44.649025770464156],[-0.313110907525197,44.6486343612077],[-0.313038154823524,44.648560581956744],[-0.312949412640737,44.64846817931292],[-0.312872099347312,44.648385526016305],[-0.312839113063556,44.648350472023914],[-0.312817726171096,44.648319485630495],[-0.31277422535416,44.64825158760818],[-0.312729686418873,44.64817461995059],[-0.312693913870854,44.64809432597425],[-0.313051857500988,44.64790500859696],[-0.313159711518328,44.64784807288381],[-0.313193297492781,44.64782679238176],[-0.313208253126482,44.64781066565859],[-0.313215661701936,44.64778854779412],[-0.313220620949234,44.647771999820264],[-0.313220864802379,44.647741806913416],[-0.313190737742388,44.64770171150091],[-0.313089682875361,44.64758021330985],[-0.31300306299305,44.6474873867571],[-0.312878229149192,44.647360744137934],[-0.312694223857085,44.64717658468957],[-0.312532598112651,44.64702311133738],[-0.31239472966246,44.64690659031141],[-0.312358559407795,44.646875325988866],[-0.312353712086265,44.646859432330466],[-0.312353400717459,44.64684340275826],[-0.312362568846438,44.64681041949982],[-0.312371958432582,44.64679193670149],[-0.312383492769432,44.64677987728268],[-0.312406626749063,44.6467611628558],[-0.312919668103473,44.64636761302872],[-0.313227572963504,44.64613032615708],[-0.313317342854033,44.646062128324445],[-0.313330951002629,44.6460746056371],[-0.313355946019731,44.64609827524372],[-0.313572214439931,44.64629020669562],[-0.313669344523236,44.6463728961015],[-0.313931381795484,44.6462485336223],[-0.314208608231811,44.646094881109114],[-0.313786121123341,44.645740273850585],[-0.313898389710256,44.6456812226443],[-0.314305301318575,44.6454706995476],[-0.314448804082685,44.64536331540282],[-0.314486478393511,44.64533218041293],[-0.314533108892699,44.64530095707777],[-0.314587451491615,44.64526995300799],[-0.314604710772959,44.64526511039191],[-0.314623493364187,44.645273287502015],[-0.31465289208687,44.64529457211228],[-0.314684374109486,44.6453362483653],[-0.314848419801953,44.645575877633085],[-0.314874045037184,44.645610250652226],[-0.31469723883561,44.64568790775369],[-0.314715968452745,44.64570590802531],[-0.314756623017075,44.645749021246694],[-0.314781189616426,44.645776127426686],[-0.314830030782108,44.64582323013471],[-0.314843550258659,44.645836340671345],[-0.314996510567281,44.64598835850403],[-0.315169291863731,44.64590235164523],[-0.315198521281216,44.64586498201159],[-0.315252598261873,44.64583804036277],[-0.315375413163284,44.6457802031322],[-0.315713894794626,44.64561659995486],[-0.315805007665463,44.64592941933744],[-0.315653748357551,44.64599721095584],[-0.315679107431965,44.646044206682824],[-0.315697156708643,44.646044205945266],[-0.315734153107189,44.64605517050241],[-0.315956772462165,44.646153286544234],[-0.316060789932424,44.646196390871445],[-0.316125528138669,44.646219768745844],[-0.316164189169437,44.64623113376166],[-0.316215066630976,44.646242042178436],[-0.316368330091648,44.64626618825518],[-0.31655920109595,44.64628379944379],[-0.316618875739485,44.64633264884853],[-0.316625495498613,44.646342181727256],[-0.316632710676887,44.64637683642129],[-0.316641615372091,44.64638873361747],[-0.316663405755048,44.64640510994983],[-0.316682354275305,44.646418237606966],[-0.31677272909072,44.64646328242998],[-0.316825419798305,44.646487832343965],[-0.316882458018007,44.64651333306474],[-0.316687628358492,44.64663217214411],[-0.316750986643869,44.64665568118736],[-0.316885562704176,44.64669255164391],[-0.317096422069579,44.64674091923984],[-0.317174373020561,44.64675930463809],[-0.317211517359065,44.64677062471317],[-0.317247848578067,44.64678314055992],[-0.317283782864467,44.64679963298929],[-0.317267000018197,44.646812571300345],[-0.317766008307866,44.647083593711926],[-0.317896129329091,44.647001926489814],[-0.318084051402852,44.64712585918162],[-0.318282529798636,44.647373281032955],[-0.318329619565479,44.647416290026854],[-0.318377056416497,44.64749947608439],[-0.318421039912459,44.64754546169856],[-0.318379324508658,44.647617267308405],[-0.31812518492533,44.64801496678384]]],[[[-0.314337193370814,44.63260575812748],[-0.314328030548746,44.63260873608525],[-0.314321354315286,44.63260893629845],[-0.314317590184564,44.63260715695898],[-0.314301298447054,44.63259620209354],[-0.314284837850475,44.63260597662107],[-0.314258570595671,44.632588472860995],[-0.313736207439208,44.632243983729346],[-0.313197202158387,44.632586416688525],[-0.313253539055834,44.632651766435],[-0.313142365021656,44.63270754082832],[-0.313055864975859,44.63275158254629],[-0.312985011701372,44.63278488310209],[-0.312953790559802,44.63279257693486],[-0.312935771036002,44.63270715622896],[-0.312817236111287,44.63253040786187],[-0.312531044622526,44.63229434920478],[-0.312212070438698,44.63202863647804],[-0.312228457208618,44.6320176030002],[-0.312323058083802,44.6318816816695],[-0.312310081322118,44.631766104604765],[-0.312552850159943,44.63161988533148],[-0.312690770230988,44.63152970038985],[-0.31317391833458,44.63186203396077],[-0.31324231835476,44.63181493052567],[-0.313666153896562,44.63153551036093],[-0.314214516751078,44.631890933583655],[-0.314519653113808,44.63172815229307],[-0.314629307357436,44.63180749057584],[-0.314671730473604,44.631782159965475],[-0.31477061777477,44.63185650480475],[-0.314981788836667,44.63200767580472],[-0.314212042322566,44.6324775062468],[-0.31427879476564,44.6325225396743],[-0.314341600028442,44.63256697059171],[-0.314370382344503,44.63258647134052],[-0.314337193370814,44.63260575812748]]],[[[-0.314903188623543,44.6455135036455],[-0.314889976347025,44.64549488742537],[-0.31486210573955,44.64550815785229],[-0.314653481470539,44.645208052443536],[-0.314629384365415,44.64517390388561],[-0.314618435096078,44.64514440703501],[-0.314613677475873,44.64511931994544],[-0.314616637279387,44.64509454208605],[-0.31462970433642,44.64506135159752],[-0.314646632619654,44.64503372202004],[-0.314669468990367,44.644999247420664],[-0.314706701655712,44.64495632167497],[-0.314750491251624,44.64491328940344],[-0.314811736945379,44.64486018239764],[-0.314879237657033,44.64481256447581],[-0.315019067661473,44.644726464640236],[-0.315110240475694,44.64481302572209],[-0.315241164792909,44.64494236642186],[-0.315250761417052,44.64495316168119],[-0.315263292758594,44.644985944959735],[-0.315265698172204,44.644998938227516],[-0.315263667320549,44.64501161401211],[-0.315253133197814,44.645049233934905],[-0.315252305100532,44.645063045029225],[-0.315257886841629,44.6450763935681],[-0.315279466472565,44.645114942600806],[-0.315299054700564,44.6451389541392],[-0.315322512768115,44.64516438141947],[-0.315393078775344,44.64523534121257],[-0.315377096441299,44.6452425785254],[-0.315440552780819,44.64533213320965],[-0.314964039848149,44.64553519659089],[-0.314937710519321,44.64549958321943],[-0.314903188623543,44.6455135036455]]],[[[-0.314602252884914,44.6449380083409],[-0.314573549709325,44.64497788500151],[-0.314553080722209,44.64501183806321],[-0.314539481173608,44.64504026887717],[-0.314529384007979,44.64507030669127],[-0.314516630638906,44.64513457441149],[-0.314507604903869,44.645165661372715],[-0.31449201256313,44.645198837456945],[-0.314468261027241,44.6452413589117],[-0.314429198288487,44.64528965571032],[-0.314407679072051,44.64531219674048],[-0.314377446013954,44.64533680115657],[-0.314354443556596,44.645353439635805],[-0.314319375011471,44.645377378059166],[-0.314267137040947,44.6454076881469],[-0.314204143782661,44.64544183480838],[-0.314105465644805,44.64549588348161],[-0.313668635984957,44.645734244408764],[-0.313621687220212,44.64576007052696],[-0.313481986713658,44.645852742361],[-0.313356621937526,44.645942371240736],[-0.312912377666928,44.64627583308655],[-0.312805497022121,44.646199021847494],[-0.31242125877554,44.64641967250728],[-0.312369504643841,44.6463831083704],[-0.31224641477367,44.64629894306134],[-0.312119673886987,44.646208489483286],[-0.31195889543429,44.646099412422814],[-0.311930574936292,44.64608142873128],[-0.311910306032702,44.64607158367832],[-0.311890000122034,44.64606110898763],[-0.31185657815388,44.64604652193912],[-0.311750366644614,44.645996090793005],[-0.311698428398397,44.64596926335048],[-0.311678757834742,44.645958859695966],[-0.311650589930086,44.64594132189775],[-0.31156839476358,44.6458850350618],[-0.311529628176404,44.64585682179422],[-0.311433553339079,44.64578986760481],[-0.311389056228585,44.645754347149044],[-0.311295802084648,44.64567739668641],[-0.311028431881141,44.645461942273606],[-0.310897645439548,44.64535412803594],[-0.310843152299471,44.645303138219035],[-0.310686590785508,44.645158341306406],[-0.310653661467319,44.64512634870255],[-0.310635084902375,44.64510663119301],[-0.310611952382081,44.645075967082825],[-0.310575283158059,44.645025434514274],[-0.31051575300466,44.644940265011655],[-0.310468268032332,44.64487320649756],[-0.310437186803258,44.644827552485054],[-0.310365240460346,44.644713650507406],[-0.31038837766667,44.64470358659366],[-0.310843655596111,44.64450415278896],[-0.310826964653434,44.6444864512826],[-0.311024454771933,44.64437844591486],[-0.311333943746266,44.644208966815455],[-0.311608092338688,44.644058837081865],[-0.311550010370364,44.644011198990306],[-0.311350171883087,44.64385373318692],[-0.31132737783219,44.64382882589198],[-0.311066176677517,44.64359363417611],[-0.310946142548055,44.643477568799405],[-0.311857902694891,44.64289781522852],[-0.311825657760789,44.64286886612094],[-0.312199126879301,44.64263286141694],[-0.312353586815346,44.64253587430318],[-0.312475402184168,44.64264143245687],[-0.312569020524733,44.642585103962226],[-0.312581936420273,44.64257723809731],[-0.312753124674239,44.642477136011706],[-0.312971675328934,44.64265449241744],[-0.313113182977513,44.642770813075515],[-0.313304360831194,44.642645782329076],[-0.313325203867802,44.64265038372122],[-0.313432594515307,44.64274240681619],[-0.313293440236974,44.642831367796035],[-0.313199272564598,44.642891227521666],[-0.313305375666137,44.64296779109876],[-0.313480946913629,44.6431010214248],[-0.313552914101446,44.64317013806477],[-0.31371143569303,44.643326766115486],[-0.31387274251839,44.6434878157832],[-0.314060833514519,44.64364716118373],[-0.314071179356989,44.64365568141039],[-0.31413760796711,44.64371000615492],[-0.314177379564448,44.64368664761899],[-0.314210616448562,44.64366591785957],[-0.314323846415815,44.643754160904024],[-0.314407784684551,44.64382291813028],[-0.314519361505752,44.64391094024766],[-0.314726506014505,44.64406800130479],[-0.314556071915261,44.644189529129385],[-0.314496154667594,44.64423088235545],[-0.315000843312223,44.64463339078139],[-0.314790192293963,44.644783607409124],[-0.314726003412039,44.64482959415967],[-0.31466679597506,44.64487444033027],[-0.31465126347279,44.644889323078786],[-0.31462002380813,44.644916120300344],[-0.314602252884914,44.6449380083409]]],[[[-0.31412378766349,44.63955932281384],[-0.314114794989678,44.63956950410791],[-0.314131581059059,44.63957810151123],[-0.314142043192213,44.639567155307745],[-0.314185198276041,44.63959064050879],[-0.313888461036778,44.63991842269352],[-0.313784591196673,44.63984755974527],[-0.313462035734011,44.63962908119243],[-0.313334637593122,44.63954225357178],[-0.312940941324464,44.639274996291526],[-0.313120539532146,44.63915283573041],[-0.313500350643247,44.638892127146136],[-0.313668842884961,44.63877858832652],[-0.313798208697617,44.638692893661364],[-0.31429697557832,44.639019260550505],[-0.314531909600138,44.6391706221134],[-0.314550901803825,44.63918239711092],[-0.314336233026223,44.63942274953714],[-0.314288804195385,44.63947679362423],[-0.314217571349923,44.639443698066],[-0.314117571215488,44.63955662581187],[-0.31412378766349,44.63955932281384]]],[[[-0.313850928865421,44.63792415084637],[-0.313655684038938,44.63776943569489],[-0.31421084215314,44.63735109818684],[-0.314407113023406,44.63749965436173],[-0.314345289665103,44.63754710186779],[-0.314223037976659,44.63763997260783],[-0.314061562377955,44.637763303732655],[-0.313951541579758,44.63784742756879],[-0.313874358292445,44.63790623814821],[-0.313850928865421,44.63792415084637]]],[[[-0.313598903802786,44.63874815680839],[-0.31354882251562,44.63870559637514],[-0.313410398208503,44.63879606758577],[-0.313358120172722,44.638829892669136],[-0.313411304306087,44.638873711764006],[-0.313026066084245,44.63913656503422],[-0.312680759857526,44.639372449804895],[-0.312646161756027,44.639348527376235],[-0.312611232396481,44.63932326327651],[-0.312583337250713,44.63934680598585],[-0.312460295789451,44.63944997038411],[-0.312483584416564,44.63946828481],[-0.312457482763429,44.63948798928701],[-0.312498802096675,44.63951675628183],[-0.312465241328534,44.63954911892114],[-0.312477209946178,44.639561645389065],[-0.312419731062071,44.63963797565608],[-0.312383991457092,44.63966977282252],[-0.312227044169304,44.63979945299541],[-0.311829845457575,44.64009735102927],[-0.31156142067405,44.64029299389764],[-0.311496609487239,44.64031331722477],[-0.311462427295179,44.64031794553161],[-0.311399609701763,44.640322800961876],[-0.311276906465514,44.64032656699672],[-0.311110949244953,44.6403330703064],[-0.310984215347887,44.64033911929854],[-0.31075340310867,44.640401718400426],[-0.310681283549741,44.64042009760085],[-0.310643518228557,44.640417444289554],[-0.310633913060251,44.64046017185121],[-0.310563779006548,44.64049516109196],[-0.310426924499998,44.6405695424921],[-0.310278440132344,44.64065220132439],[-0.310050434887931,44.64078409636015],[-0.309768823987042,44.640950935216],[-0.309714087454048,44.6409086025376],[-0.309688525284969,44.640888102956964],[-0.309552146082786,44.64078153644475],[-0.30922430182712,44.64096273339117],[-0.30913514821188,44.640886649975045],[-0.309087545866818,44.640914205756594],[-0.308927060914945,44.640775381432626],[-0.308877626334043,44.640730907320844],[-0.308842982002842,44.64069328901411],[-0.308786380437318,44.64062992698063],[-0.308462454006407,44.64026532369291],[-0.308335300069252,44.64012450981617],[-0.308167023154791,44.63995393023216],[-0.308051641476454,44.63983303754363],[-0.308316841353467,44.63972201924452],[-0.308555922635602,44.63961971140201],[-0.308588757959842,44.6396071949986],[-0.308533422097834,44.63954172258424],[-0.308440053511151,44.63942819081447],[-0.308337028353401,44.639304946278635],[-0.308303647392007,44.6392737776593],[-0.308062642652486,44.63936695175554],[-0.308010981480373,44.639299567017865],[-0.307945975376815,44.63921338912827],[-0.308088320306993,44.639152993111345],[-0.308121511519835,44.63913794323228],[-0.308110403179863,44.639120705081794],[-0.3081647660096,44.63909438906079],[-0.307995846075344,44.63887625282387],[-0.307900527435707,44.63891433684258],[-0.307551609296353,44.63905462082656],[-0.307477169303268,44.63894746005964],[-0.307357533147089,44.63877767662336],[-0.307327930997595,44.63874206959717],[-0.307308598000776,44.638726609275786],[-0.307241974309835,44.63867949519699],[-0.306997803174013,44.63849938117691],[-0.306954038818995,44.63846329673486],[-0.306856717474895,44.638366191207126],[-0.306708295983454,44.63820690970803],[-0.30707605303316,44.63799632290971],[-0.307260050049452,44.63789521539414],[-0.307452492997986,44.637796107461945],[-0.3075665485222,44.63773971228537],[-0.307765158810388,44.637642491654546],[-0.308131177825579,44.63745186653079],[-0.308520312223053,44.637248744359994],[-0.308774982995079,44.637117675975155],[-0.308925754766079,44.63702251599702],[-0.3089846101934,44.636986784138145],[-0.309194067376062,44.6368530135894],[-0.309245186683134,44.63682093722154],[-0.309374572602477,44.63675489030266],[-0.30945656318841,44.63671341954558],[-0.309615736600074,44.636632423918954],[-0.310033617976993,44.63641185589388],[-0.31024446830958,44.636295431929256],[-0.310593041556951,44.63611315994519],[-0.310667754631002,44.636070284327964],[-0.310866276289938,44.63595026375646],[-0.310986910574791,44.635889973470036],[-0.311018066740239,44.63588543589042],[-0.311076742517608,44.635891787625084],[-0.311101357695296,44.63589834877117],[-0.311152134113577,44.63591845297861],[-0.311187587508854,44.63593550209984],[-0.311235742323475,44.63596253284884],[-0.311284312108328,44.63599018188653],[-0.31134514730416,44.636026834431085],[-0.311465327449557,44.63611342962712],[-0.312061368453211,44.63656024557074],[-0.312061489141741,44.636560151848336],[-0.31227219863035,44.6367247682092],[-0.313046987537203,44.63735679643203],[-0.313659379967531,44.63787519937011],[-0.314239150732568,44.63831726659261],[-0.314249585272138,44.63833803851115],[-0.314184569354161,44.63837413818076],[-0.314063808847581,44.638449483439686],[-0.313695267318965,44.6386849869713],[-0.313637259889619,44.63872439031905],[-0.313598903802786,44.63874815680839]]],[[[-0.312387084836707,44.64664776408502],[-0.312336343541066,44.64668424568944],[-0.312294081754624,44.64671038130363],[-0.312241306658369,44.646742328385734],[-0.31208129980761,44.64683533645657],[-0.312029861038679,44.64686210734219],[-0.311971513442088,44.64688944561751],[-0.311363484607814,44.647123104410284],[-0.311058773097895,44.64724098960432],[-0.310286003159454,44.64754958887025],[-0.309257741345482,44.648019191544684],[-0.308970577388771,44.64815231402572],[-0.308917832535518,44.64811821078749],[-0.308908604818492,44.64810938627728],[-0.30890221015604,44.648095070603944],[-0.308863498848704,44.6480033299423],[-0.30882137032149,44.647898536070954],[-0.308773450221811,44.64773381480285],[-0.308733831698017,44.64754280441641],[-0.3087187441159,44.64744495030629],[-0.308715714936195,44.64740197028555],[-0.308713668017745,44.64730264459534],[-0.308714604753534,44.647279909838375],[-0.309606986644072,44.647015587082485],[-0.30984768354715,44.646944585560604],[-0.309842309829949,44.646936907226205],[-0.309770534727916,44.64682164800682],[-0.30972092986979,44.64675933808782],[-0.309500799016243,44.64681945155611],[-0.309302332600514,44.64687450083219],[-0.309161688433485,44.646912590942314],[-0.309110001963322,44.646926572784665],[-0.308728746098541,44.647028541292556],[-0.308737419746352,44.646886094381586],[-0.308747620393992,44.64674170954537],[-0.308756187980054,44.64662539656338],[-0.308774528618038,44.64638750838024],[-0.308795646230754,44.64623558831909],[-0.308813413524948,44.64615342047613],[-0.308848983622055,44.64595745651846],[-0.308885986706924,44.645747212917364],[-0.308897479281576,44.64569145372969],[-0.308921692343742,44.64556431026191],[-0.30896634016461,44.6453295092031],[-0.308974191165323,44.64529341201419],[-0.30898661975198,44.645270783801664],[-0.308996130404272,44.64526509275076],[-0.308998926106542,44.64517301086463],[-0.308977075030507,44.64515555365621],[-0.308976171159789,44.64503916380132],[-0.308983550244732,44.64483386174281],[-0.308995347535741,44.64463716771948],[-0.3090010054853,44.6445766273636],[-0.309023084550529,44.64450126860183],[-0.309045103187666,44.64446141338895],[-0.309082155672957,44.64441750389138],[-0.309152815466751,44.64435483744529],[-0.30923811430062,44.64428569560698],[-0.309309498397767,44.644237514429115],[-0.309415561702021,44.64417378790669],[-0.309734111146981,44.6439930492226],[-0.309762741796648,44.64397552237186],[-0.30995420958861,44.64417748361549],[-0.309984482371658,44.64421153826542],[-0.310022961999908,44.64426282772564],[-0.310080606080296,44.644348144010934],[-0.310129067832062,44.6444318430115],[-0.310235180430709,44.64460311067328],[-0.310314058389078,44.64473617793667],[-0.310398147323871,44.644876297591054],[-0.310456870972739,44.644967077874476],[-0.310479558379453,44.645000909053365],[-0.310546313387245,44.64508874559972],[-0.310597503625226,44.6451522690966],[-0.310636583696987,44.645192277158905],[-0.310764762095446,44.64530512561691],[-0.310843568653305,44.64537250741988],[-0.311336092076242,44.645785218188976],[-0.311413746597171,44.64584371364293],[-0.311439432350322,44.6458641191418],[-0.311544351815737,44.64593981898734],[-0.311625385732059,44.64599352755454],[-0.311688041685693,44.646026611697245],[-0.311722935065748,44.64604475895911],[-0.311808175551356,44.646088429706914],[-0.311884704692084,44.646127765971],[-0.311953843323223,44.64617020700566],[-0.312051895622106,44.646229983157355],[-0.312151164184452,44.646297562023946],[-0.312316113260756,44.646421741817996],[-0.312444723117118,44.64652250141021],[-0.312450849708652,44.64653439205739],[-0.312457095445518,44.64655474911563],[-0.312456058815597,44.64657361237083],[-0.312444570566103,44.64659504146035],[-0.312421286084316,44.64661763497211],[-0.312387084836707,44.64664776408502]]],[[[-0.311329315872605,44.63385053455612],[-0.311293729033354,44.63386340461881],[-0.311224676532577,44.63389088327139],[-0.311025211579544,44.633981828755296],[-0.310726772703505,44.63412151241052],[-0.310382457053681,44.634260046392974],[-0.310049351126747,44.63439824353749],[-0.309903996162622,44.634456569998804],[-0.30983193925406,44.63448233560889],[-0.3096983462385,44.63452607285952],[-0.309541598242499,44.634564466235084],[-0.309369324660028,44.63460494616786],[-0.309295102813804,44.634527244885746],[-0.309173979477759,44.63439868661297],[-0.309126165180876,44.63434947887844],[-0.308933931290106,44.63443470751037],[-0.308940390690149,44.63444370489201],[-0.308425629249624,44.63466041110125],[-0.308362066866817,44.634547158862816],[-0.308199752172125,44.634269356316686],[-0.308041642187909,44.634018008891516],[-0.30792114279242,44.6338312225439],[-0.307715972026856,44.63349613360526],[-0.307611222331513,44.6333282483352],[-0.307988960591944,44.63313781307803],[-0.307662478260817,44.632847082834104],[-0.307653158950333,44.63283880172587],[-0.307509762602422,44.63271117884595],[-0.307491707875119,44.63269811324564],[-0.307334886187313,44.632771737013925],[-0.307317013614131,44.63272307427776],[-0.308312067563517,44.632255469778805],[-0.308392132759004,44.63221784177727],[-0.308544774303017,44.63214614368833],[-0.308630611712395,44.63210581975037],[-0.309041492869909,44.63191267640707],[-0.309066545432461,44.6319009334215],[-0.309064649868772,44.631898737539984],[-0.309392094923046,44.63174386290572],[-0.309830573238183,44.63153727532986],[-0.310336983932707,44.63129927673427],[-0.31064767142899,44.63115138775743],[-0.310752349334095,44.63110103661782],[-0.31106569595065,44.63131628235692],[-0.311307347283692,44.63148817213551],[-0.311258923268753,44.63151232962707],[-0.311582255630903,44.63177503085698],[-0.31181260639308,44.63196284655991],[-0.311795114539758,44.6320173440116],[-0.311787297101895,44.63204965588233],[-0.311780911044875,44.632078410739275],[-0.311781102954445,44.63214823686833],[-0.311784191317947,44.6322286987768],[-0.311788091402225,44.63226714712725],[-0.311808033587884,44.63233593089268],[-0.31176524401713,44.63235505404946],[-0.311761679777539,44.63250482635885],[-0.312046630967996,44.63287869572905],[-0.312209698831987,44.632967248374236],[-0.311954326879581,44.633077351644836],[-0.312185708749043,44.63336632467808],[-0.312455848547122,44.633664137442146],[-0.312260714504618,44.633676293123905],[-0.312070019191307,44.633684530999076],[-0.311758778871183,44.63375233640099],[-0.311438945442463,44.63381994784633],[-0.311396875164455,44.63382985850181],[-0.311329315872605,44.63385053455612]]],[[[-0.309077781454618,44.63683054472127],[-0.308884762857251,44.63696057911097],[-0.308884636880495,44.63696058288238],[-0.308859195914461,44.63697864480666],[-0.308791864571001,44.63701832466929],[-0.3087534125284,44.63704047040642],[-0.308682410286043,44.63707566470195],[-0.308416219006646,44.63721041162477],[-0.308327619556102,44.637255413301695],[-0.308226146152011,44.63730683731799],[-0.308002988047282,44.63742011148362],[-0.307898974124686,44.63747341333386],[-0.307815495953178,44.63751537792882],[-0.30777243405059,44.63753639978953],[-0.307764115715235,44.63754088369776],[-0.307377730795898,44.637739325427766],[-0.307233970331194,44.637812107408486],[-0.307082286277518,44.63789395662361],[-0.306659114854691,44.63813872940865],[-0.306645809564868,44.638127053304856],[-0.306626155015862,44.63813836386693],[-0.306322018049349,44.637833083689515],[-0.3063506473277,44.63781772027695],[-0.306336737978308,44.63780435020523],[-0.306314963085851,44.63778382676159],[-0.3064525358788,44.63771096079713],[-0.306432818163706,44.63768893414734],[-0.306289160706959,44.6375462693383],[-0.306120123326926,44.63763133947106],[-0.305875683420509,44.63738842775785],[-0.306004605572376,44.63731654193435],[-0.306095787798762,44.63726605858631],[-0.306128037846966,44.63724788375666],[-0.306296897809757,44.63715335781258],[-0.30626388088042,44.63700576140212],[-0.30618987447276,44.63692525828064],[-0.306543555505413,44.63675663288599],[-0.306590324122879,44.63680307978728],[-0.306909206659194,44.63663288116478],[-0.306939708973017,44.63661719122644],[-0.306970919615341,44.63660066913571],[-0.307211849144076,44.63646983533396],[-0.307324982706136,44.636410674676526],[-0.307470795847204,44.6363342268566],[-0.307510932369986,44.63631067957968],[-0.307661190346887,44.6362325666879],[-0.307705520858877,44.63620952456355],[-0.307833063570693,44.63614002051917],[-0.308251728985595,44.63591556136227],[-0.308493209324605,44.63578560919624],[-0.308837391846764,44.635603744608254],[-0.308969891504041,44.63553273920195],[-0.309043693134719,44.63549367642994],[-0.309072199792315,44.63547840604582],[-0.30922645468839,44.63560164748122],[-0.309418534971465,44.63575439205892],[-0.309489826183555,44.635795057565566],[-0.309527379113007,44.63581348602421],[-0.309600135800213,44.635842574056646],[-0.309647203079838,44.63585540133942],[-0.30969436911435,44.635865612580815],[-0.309742421442981,44.63587372483116],[-0.309795459094157,44.63587862417625],[-0.310116176820751,44.63589028437296],[-0.310720359547769,44.63591102354899],[-0.310736501741417,44.635928020527636],[-0.310552631927528,44.63602678757015],[-0.309457908583418,44.636620300073716],[-0.309163250556066,44.636783834021806],[-0.309110103444453,44.636811465778095],[-0.309077781454618,44.63683054472127]]],[[[-0.308941882212716,44.6437204084692],[-0.309037224223764,44.643796487211354],[-0.309014369539474,44.64381780562633],[-0.308881935800676,44.643935393520415],[-0.308804297270297,44.64397808495848],[-0.308940175702245,44.64411899806345],[-0.309080114608611,44.64426456509275],[-0.308966821091659,44.64434058190719],[-0.308939852235622,44.64436706939132],[-0.308884005273157,44.64443911384254],[-0.308878874730128,44.64459244752197],[-0.308874627220067,44.644891906634705],[-0.308872354316346,44.64494991280059],[-0.30867447201844,44.645021252781945],[-0.308714997165139,44.64512672525458],[-0.308866208340927,44.64511174686272],[-0.308865354920803,44.64523260450829],[-0.308856496952623,44.645285942068284],[-0.308809704694429,44.64548638677178],[-0.308792560277901,44.645491044816985],[-0.308265759213837,44.645678553784585],[-0.308184399693913,44.64556979788197],[-0.30811789573848,44.64558935875763],[-0.307860752005883,44.645683285113996],[-0.307103444825026,44.64595418563575],[-0.307140860790057,44.64600028176836],[-0.307016517321826,44.64606662527675],[-0.305946922744615,44.646621231846595],[-0.30569319068249,44.6467562293052],[-0.305593292929873,44.6468219302258],[-0.305535840787598,44.646868881315896],[-0.305283632692032,44.64689435360064],[-0.305062013355237,44.646998023709685],[-0.305049865932214,44.64700181090961],[-0.304939046377304,44.64701260286175],[-0.304859468907745,44.64700299784034],[-0.304800991597069,44.64697654292077],[-0.304687217464527,44.647081133011824],[-0.304845297880528,44.647176695022736],[-0.304952736074915,44.64726962599173],[-0.305014503426114,44.64732418561582],[-0.304973835998667,44.64737541019072],[-0.30487727293014,44.64752165546693],[-0.304741336949713,44.64773260231389],[-0.304618981349229,44.64792331973327],[-0.304595294456717,44.647964935864096],[-0.304505706636245,44.6480924104729],[-0.304372779846043,44.648279388827454],[-0.304293942555865,44.648385727456485],[-0.30408203035562,44.64857110161278],[-0.303888976316932,44.64868418748359],[-0.303760499024964,44.64875984144828],[-0.303622455660522,44.64883596133621],[-0.303305766932527,44.649004010934135],[-0.303197985137327,44.649062376235655],[-0.303148174844886,44.64905674617657],[-0.302799408430327,44.64889515448934],[-0.302472183066216,44.648827529347926],[-0.302134006186286,44.64875824806064],[-0.302026578352332,44.64874298521138],[-0.301864530961987,44.64871971231878],[-0.301570320479725,44.64867263376404],[-0.301377735964466,44.64863873862713],[-0.301183075656085,44.64859526383708],[-0.300928030348129,44.64853800349935],[-0.300467425435308,44.648430023119616],[-0.300089163682561,44.64833787426233],[-0.299771908219346,44.64826363632562],[-0.299510847598176,44.648198442860085],[-0.299451836802674,44.64817578549718],[-0.299322268414555,44.648120813573584],[-0.299267209983519,44.64809236150575],[-0.299219384720598,44.64805594446331],[-0.299153092630066,44.64800809447452],[-0.299087231588633,44.647935272336774],[-0.298874472543643,44.647694732205025],[-0.298755832292156,44.64756122193669],[-0.298703872915052,44.64748005549538],[-0.29850928101965,44.647174637339994],[-0.298303974677242,44.64683277557044],[-0.298288976089374,44.646807272685],[-0.298068814380537,44.646491894326196],[-0.297878366516639,44.646218339189396],[-0.297907309291965,44.64618665966478],[-0.297958947477386,44.646154573363226],[-0.298150367922725,44.64604803438233],[-0.298321590181582,44.645965164714774],[-0.298350036783912,44.645920704890905],[-0.298250348988792,44.64573139416723],[-0.298295970689599,44.64570219037103],[-0.298662899508424,44.64563132156391],[-0.299407252185074,44.64545331487056],[-0.299588119351802,44.64539295197733],[-0.299636252104615,44.64537646763673],[-0.299957095259544,44.64526227769753],[-0.300398858262646,44.645081402749675],[-0.300572051369836,44.645012887490594],[-0.300639242820287,44.64498348917988],[-0.300953708554249,44.64484668994943],[-0.301043028251566,44.64482014471632],[-0.301071092491869,44.64481444094859],[-0.301374019394081,44.644799537496546],[-0.301426519583787,44.64480806137657],[-0.3016847530789,44.644896311205436],[-0.301928742025376,44.64497408316659],[-0.301996039257909,44.644993878524055],[-0.302051162939805,44.64499547572232],[-0.302072997007606,44.64499545424671],[-0.302123928549771,44.64498582332411],[-0.302207736303494,44.6449621449611],[-0.30238551103416,44.64487709069529],[-0.30258014159993,44.64478891947895],[-0.302837891069293,44.644664351549245],[-0.30294186089658,44.64461429997243],[-0.303224460241857,44.64444645871646],[-0.303342961423051,44.64437948317514],[-0.303384170196545,44.64435257159323],[-0.303484515621303,44.64427947063213],[-0.303629077871471,44.644161887495954],[-0.303831932878263,44.64398804798231],[-0.303976625529062,44.64387271310581],[-0.304079695113163,44.64382241699145],[-0.3042858901857,44.64373569906721],[-0.304528257648118,44.64363951956324],[-0.304656777299061,44.64359062460506],[-0.304755323785537,44.643551455951034],[-0.30481137974373,44.643532389652194],[-0.304955831483113,44.643535639750354],[-0.305050945314296,44.643534778283446],[-0.305396360412951,44.64336433218383],[-0.305552877679467,44.64328927923204],[-0.305696345589154,44.64321984242721],[-0.305748178520985,44.64319549558247],[-0.305770180776694,44.643198351710375],[-0.30580087180471,44.64320302041814],[-0.305852870598885,44.643222369852815],[-0.305977412156081,44.64326703195005],[-0.306046158012102,44.6432878627559],[-0.306137243134358,44.643297933526576],[-0.306204944652942,44.64330311706749],[-0.306238380494341,44.643305090492376],[-0.306362418091993,44.643283088967024],[-0.306440646638347,44.64324398586388],[-0.306562433068461,44.64317717876318],[-0.306700146425003,44.643093585929684],[-0.307274213708208,44.64272472855694],[-0.307725268919889,44.64242766912236],[-0.308049975177265,44.64221215040258],[-0.3081608990468,44.64213881848664],[-0.308291146902076,44.64203778624483],[-0.3087883064715,44.64164914638867],[-0.30883987935379,44.641667696191945],[-0.309518585000096,44.64299905593367],[-0.309369441003562,44.643079210174974],[-0.309388317615349,44.64310405490279],[-0.309231456834109,44.64318606188433],[-0.309395631592599,44.64340046463519],[-0.309310759351634,44.643511222785214],[-0.308941882212716,44.6437204084692]]],[[[-0.309185372711391,44.650343482687155],[-0.309131844394925,44.650495922657996],[-0.309099026901451,44.650573314991846],[-0.309019376303034,44.650736628692755],[-0.308925949986221,44.65091900662472],[-0.308884516654048,44.65099800836002],[-0.308798886733589,44.65112401668704],[-0.308472838892168,44.65114557848469],[-0.308157048392482,44.65093985502584],[-0.3078659101398,44.65116896610461],[-0.30829053645948,44.65147613696233],[-0.308011225619893,44.65163154807011],[-0.30786635077999,44.651709589725876],[-0.307796085564382,44.65174476102901],[-0.307753563608032,44.65176441492454],[-0.307689142295584,44.65178517454001],[-0.307446836264883,44.6516098687923],[-0.307295454986576,44.65168675273747],[-0.307252219087408,44.65170714864271],[-0.307192978265501,44.65173874593666],[-0.307255999133444,44.65179948443761],[-0.307314037088156,44.65185920059471],[-0.307234853547042,44.6518714810499],[-0.306879861570851,44.651929045242824],[-0.306795592754139,44.65194931671682],[-0.306655032424933,44.65198262515352],[-0.306150283429249,44.65211900351721],[-0.305968479270405,44.652167961409184],[-0.305835958925867,44.65220922800818],[-0.305479277821434,44.65231765792751],[-0.305305733106077,44.65237186422029],[-0.30518790569322,44.652405392153085],[-0.305162827376029,44.65241686450775],[-0.305084175512216,44.652455438456236],[-0.304309370406966,44.652860197422136],[-0.303976845870125,44.6524637573008],[-0.303820512791013,44.652279837387866],[-0.303613272764433,44.65204148270398],[-0.303468968723269,44.6517720528324],[-0.303440032116103,44.65172849524853],[-0.303232028121525,44.65158468394306],[-0.302913850322504,44.651361626871676],[-0.302731093320774,44.651239316597625],[-0.302421215111834,44.65103718518787],[-0.302150670656383,44.650860008824566],[-0.302100594658276,44.65082618305467],[-0.302300341828345,44.650728038392614],[-0.302026835076795,44.65049598573646],[-0.301782792452094,44.65027341468233],[-0.301593621275992,44.65008894111959],[-0.301960439517514,44.649959766831664],[-0.302048479356428,44.649928483581576],[-0.302247192448389,44.649780451225126],[-0.302727415253675,44.64941541374829],[-0.302759610615919,44.649398322959755],[-0.30290073168269,44.64931652569531],[-0.303042135423148,44.649233097890495],[-0.303287021912567,44.649095487831],[-0.303558040409277,44.648949347200485],[-0.303831720000548,44.64880555920202],[-0.304122617600067,44.64863899973146],[-0.304271792196649,44.648533171971664],[-0.304318848743798,44.648494011102514],[-0.304407678518996,44.64839232959281],[-0.304564714339308,44.648188141144395],[-0.304742547711228,44.64794044033974],[-0.304956798606947,44.647584154188436],[-0.30507259030568,44.6474128251567],[-0.305123505258108,44.64735985246968],[-0.305339873579747,44.6471623588475],[-0.305598239595112,44.64692774680941],[-0.305684966351922,44.64686559344943],[-0.30656475387675,44.64640163702059],[-0.307052385373397,44.64614655746541],[-0.307084450626473,44.64614235438249],[-0.307108978602857,44.64614306228735],[-0.307145029505075,44.646157301768696],[-0.307555369587281,44.64659807760284],[-0.307581147856891,44.64661577802531],[-0.307615294105837,44.64663196658197],[-0.307650336714608,44.64664407354048],[-0.3076807204329,44.64664992236613],[-0.307750405126882,44.646654415011156],[-0.30781662752063,44.64665153241877],[-0.307858142889456,44.646647046344256],[-0.308216381561969,44.64654432794977],[-0.308595656676849,44.64643016602462],[-0.30864244124157,44.64643588413276],[-0.308649505964548,44.64647450836926],[-0.308652200879599,44.6465225443143],[-0.308645879519889,44.64660833421781],[-0.308626630645662,44.64684796157906],[-0.308618107004497,44.64705744285875],[-0.308613280537506,44.647284744597144],[-0.308613072974785,44.647392968149774],[-0.308617677086858,44.64746491517634],[-0.308637876328672,44.647572437863865],[-0.308665640614862,44.64770775711355],[-0.308701356250628,44.647864553941126],[-0.308782943486945,44.648024393008185],[-0.308773688844266,44.648028003930285],[-0.308840464301852,44.64819783754542],[-0.308345839943856,44.64833401396646],[-0.308394649000103,44.6484322105617],[-0.308438692503744,44.64850513985547],[-0.308783877579404,44.648397043742726],[-0.30887200100366,44.648367284195736],[-0.308881348990365,44.64847486137367],[-0.30889009232326,44.648522716320926],[-0.30889939672749,44.64855433537988],[-0.308904858973259,44.64857426554338],[-0.308892596032416,44.64857823683496],[-0.309016546689258,44.64891774086501],[-0.309053844815789,44.649004748208085],[-0.309145598174304,44.64920438008024],[-0.309287133479226,44.64954020389371],[-0.309300230092124,44.64964496571669],[-0.309262476417067,44.650055177754936],[-0.30924488012648,44.65011877878887],[-0.309185372711391,44.650343482687155]]],[[[-0.308007797920263,44.64139921655526],[-0.307968157352925,44.6413947262127],[-0.307894815721743,44.6413923256734],[-0.307570379547822,44.64138878876858],[-0.307523794652591,44.641386398285526],[-0.307285695839522,44.641363697600404],[-0.307161834524635,44.64134992302403],[-0.307136046587172,44.641342765277656],[-0.307092365652899,44.641327492713884],[-0.307015287238601,44.64129582892314],[-0.306618753355469,44.64112612876953],[-0.306487425097645,44.64107112820396],[-0.306443681206634,44.64105477601193],[-0.306420030678619,44.64104962660072],[-0.306335354704186,44.64104332911818],[-0.306185353948992,44.6410357417046],[-0.306026490620763,44.641023373245005],[-0.305913959905015,44.64101340327366],[-0.305782103176115,44.64099455008199],[-0.30570173390895,44.64097776116542],[-0.305647077039531,44.640962545987286],[-0.305594314597899,44.64094520169901],[-0.305518345034586,44.64091305322139],[-0.30545421821804,44.640880550546186],[-0.305398283842244,44.640841405350436],[-0.305345691794573,44.640796843949396],[-0.305317440071789,44.64076489031272],[-0.305293431638794,44.64073857654454],[-0.305269337492004,44.64070649857426],[-0.305245655649641,44.640666388869334],[-0.305217447023619,44.640602896951926],[-0.30517384341444,44.6404921093888],[-0.306085378758252,44.640095505813136],[-0.305591759352855,44.63963892654424],[-0.305650285901449,44.63961041485374],[-0.305596264106439,44.639556525396515],[-0.305142047822438,44.63974139911462],[-0.30512687447531,44.63973230163445],[-0.304749572373832,44.639928930235186],[-0.304187173907553,44.63960559514872],[-0.305182694872556,44.63904880348901],[-0.306110702801675,44.638528982809326],[-0.306636889112998,44.6382331041674],[-0.306869103168331,44.63846971244588],[-0.306929473106388,44.63852854735649],[-0.306988139190581,44.6385777018076],[-0.307051770690679,44.63862544618762],[-0.307116703615419,44.63867170990536],[-0.307252278074797,44.63877118477511],[-0.307279214361096,44.638793626055374],[-0.307307514458543,44.638828551210025],[-0.307357474714469,44.638899230926135],[-0.3074470071515,44.639024862341664],[-0.307504752859825,44.639112068698914],[-0.307550065074199,44.63918955525885],[-0.307619584577806,44.639320380833354],[-0.307649120004395,44.63937419115337],[-0.307668048914718,44.63940426064562],[-0.307723836931691,44.63950540178715],[-0.30779712316315,44.63961223655199],[-0.307864800789402,44.63971167024713],[-0.307919623060405,44.639781303216154],[-0.307964529728373,44.639836815996176],[-0.308027562288998,44.63990656363127],[-0.308083493102091,44.63996282770872],[-0.30817796547232,44.64006506355285],[-0.308260671066153,44.640158190406694],[-0.308564341791015,44.6404895207448],[-0.308694870955595,44.64064050544776],[-0.308454573129718,44.6408016890052],[-0.308372454518005,44.64085613795081],[-0.308627966270589,44.641044289919286],[-0.308119459195795,44.64141155320335],[-0.308007797920263,44.64139921655526]]],[[[-0.307423245028719,44.64255447477666],[-0.307087103178502,44.642777361938265],[-0.306639182426743,44.64307846972828],[-0.30648587746483,44.64317811716851],[-0.306406524283792,44.64321310908018],[-0.306338873433146,44.643234595460086],[-0.306266668247347,44.64324729754771],[-0.306209496114286,44.64325378318173],[-0.306146683976899,44.64325449049396],[-0.306069447375347,44.643243825332156],[-0.305992434847699,44.643211167610104],[-0.305895623975562,44.64317234401878],[-0.305794222767454,44.64312626895557],[-0.305781010804042,44.643114049269926],[-0.305690488327867,44.64315658314537],[-0.305288310018914,44.64335981401306],[-0.305124450358694,44.64344310552349],[-0.305024798712664,44.64348924570207],[-0.304805601131549,44.64348336469589],[-0.304633193032369,44.64354573618173],[-0.304408819416925,44.64363236746391],[-0.30415504836732,44.64346523832905],[-0.30378768023428,44.64369400418686],[-0.303688771933931,44.64375715087475],[-0.303525995824953,44.64386113184368],[-0.303461253254262,44.64381170644798],[-0.303156380345227,44.64400859724275],[-0.302897889331035,44.644174276325096],[-0.302790311922446,44.64419722376021],[-0.302952961227466,44.644241741827585],[-0.303029036438052,44.644264878476456],[-0.303122757100082,44.64431127569999],[-0.303157840638002,44.64432842869318],[-0.30319528931028,44.64435578304693],[-0.303211646724386,44.64437214401275],[-0.303213526567775,44.644393442882325],[-0.303208869405032,44.6444108823368],[-0.303185218239061,44.644427267467705],[-0.303028589037603,44.64451989086228],[-0.302785524543062,44.64464519187607],[-0.30247897314543,44.644792032071024],[-0.30220751832985,44.644908899039706],[-0.302117487915743,44.64494699997812],[-0.302076971823437,44.644955598927965],[-0.302020651491639,44.64495511875655],[-0.301926876889726,44.644925031312184],[-0.301824401896262,44.644888625956725],[-0.301647190585822,44.64483039454438],[-0.301602185233848,44.64481407804567],[-0.301533671086944,44.64479720218504],[-0.301433617146526,44.6447848724747],[-0.301356338687519,44.64477997198748],[-0.301256387462961,44.64478016372815],[-0.300880789849897,44.64478263979024],[-0.300809279501672,44.64481802408147],[-0.300808756377157,44.64482632941438],[-0.300485471212189,44.644965554081594],[-0.300297539006901,44.64504532191448],[-0.299865949565402,44.645223189592876],[-0.299538561223854,44.645344152334104],[-0.29944373432441,44.64537797902452],[-0.299327523536198,44.64540658700737],[-0.299115701391156,44.64545994402074],[-0.298596122155406,44.64558159365011],[-0.298477390187418,44.645608113416294],[-0.298390922267883,44.6456252004513],[-0.298280506918562,44.64562777411036],[-0.298250020950189,44.64562877381727],[-0.298178880033138,44.64560152201295],[-0.298149623440429,44.64554806131035],[-0.298152342551489,44.64548670846683],[-0.298224262191176,44.645406531330806],[-0.298274245588021,44.64534403859039],[-0.298428285298524,44.645159591889254],[-0.298513257108486,44.645060913894454],[-0.298580772314725,44.64498744563251],[-0.29860519690311,44.644943285966384],[-0.298623426223619,44.644896788210495],[-0.298637505407022,44.64483545678645],[-0.298644408517509,44.64477659213631],[-0.298642861091947,44.64469842677102],[-0.2986383043382,44.64464215672942],[-0.298623403513997,44.6445752024963],[-0.29861232660857,44.64454769045072],[-0.29857864296042,44.644485441552916],[-0.298551745974917,44.64444425502075],[-0.298480522821589,44.64436168117527],[-0.298406150423129,44.64428136379263],[-0.298440371381505,44.64426871907714],[-0.29864129079936,44.64432669852402],[-0.29874531596712,44.644359456250825],[-0.298943926405215,44.64441894576031],[-0.299032137782804,44.64444244377541],[-0.299121693032215,44.64446518077079],[-0.299172181088354,44.644469530795085],[-0.299322337527014,44.64447964628176],[-0.299433655536518,44.644197267037825],[-0.299449286773779,44.64415814522326],[-0.299407126919424,44.64392530958778],[-0.299390880849275,44.643828931119984],[-0.299329867218288,44.64347672788565],[-0.299309637234134,44.643355419026044],[-0.299207401012963,44.64317429494384],[-0.299086211895531,44.64295399996878],[-0.299000895992926,44.64279669922902],[-0.298784012755482,44.64240562686007],[-0.298655007947429,44.64217249954201],[-0.298738728713539,44.642147384661655],[-0.298992965308334,44.64206419881235],[-0.299108816489567,44.642029564688904],[-0.299151451671672,44.6420205431175],[-0.299170907024827,44.64202302602265],[-0.299297254015332,44.642079265094395],[-0.299444795033216,44.6421418095241],[-0.299487680853435,44.642152153006045],[-0.299549163476298,44.642150317757434],[-0.299635504993802,44.642133323548855],[-0.299723981676329,44.64210968783715],[-0.299904361060648,44.642054114322946],[-0.299920407695969,44.64204795863271],[-0.300116296827148,44.64240370362214],[-0.300245909964947,44.642627710638166],[-0.300650878696759,44.64249776108842],[-0.301119974954953,44.64234652222142],[-0.301182732942595,44.642342755765966],[-0.301104888644196,44.6422592100095],[-0.300921356150983,44.64206492705195],[-0.300864753515732,44.6420100311025],[-0.300629765418818,44.64176250017952],[-0.30076622330623,44.64169832510165],[-0.301002709113079,44.641581514588445],[-0.301093782988491,44.64153545402509],[-0.301277327951181,44.64142626099862],[-0.301356730972918,44.641377034657275],[-0.301548773136112,44.641242718257665],[-0.301671790417569,44.64115812909345],[-0.30195656014565,44.64094787648589],[-0.302312076510143,44.64068288789029],[-0.302423690042304,44.64078704914107],[-0.302846154929363,44.64054465731148],[-0.302717406291396,44.64041731073306],[-0.302797111331115,44.64036897532759],[-0.302766247224229,44.64033763978645],[-0.302953375501725,44.64020788279394],[-0.303207126448749,44.640032703650135],[-0.303459637663005,44.63986008389509],[-0.303535204330622,44.639810069497564],[-0.303987831275836,44.64018985143306],[-0.304283430379821,44.64002675443584],[-0.304558285831491,44.63987581029031],[-0.304642405856602,44.63992645763967],[-0.304743323246942,44.63999237119678],[-0.304824761481836,44.6400618405646],[-0.304885406623468,44.64012967894604],[-0.304946632282975,44.64020741155953],[-0.305024235861697,44.6403190747806],[-0.305076260956552,44.640418527579826],[-0.305122608306361,44.640524457530816],[-0.305189756422565,44.640673016192736],[-0.305236240782544,44.64076191205634],[-0.305297658916449,44.64082999746999],[-0.305368071665655,44.64088790226405],[-0.305427852259961,44.64092161622556],[-0.30551167711806,44.640960738306426],[-0.305616000869906,44.640998616556296],[-0.305700928761783,44.641022117234144],[-0.305781928022328,44.641038887312156],[-0.305835021745679,44.641057573193216],[-0.305961434164938,44.64107397609517],[-0.306053475397946,44.64108104473494],[-0.306188095387924,44.64108891217179],[-0.306268328149424,44.64108831442765],[-0.306356823907015,44.641088730939664],[-0.306412701208018,44.64109462838272],[-0.306472066707916,44.64110835075658],[-0.306520041393142,44.64112367532295],[-0.306610580829227,44.64116106394962],[-0.306767669132587,44.6412334951029],[-0.307016751602194,44.64134227967583],[-0.307061080470144,44.641364290815076],[-0.307140646334601,44.64139317698298],[-0.30730753098186,44.64141746815613],[-0.307469449589004,44.64142595895604],[-0.307665431468835,44.64143207862829],[-0.30794208872184,44.64144082957348],[-0.308070992895797,44.641448054855445],[-0.308145470018671,44.64145474637547],[-0.308257416635839,44.64147194006259],[-0.308688821199694,44.641558324172465],[-0.308724316404558,44.6416104241227],[-0.308341062057303,44.64191203636378],[-0.308111187717783,44.6420853416915],[-0.308047017585007,44.642131684309206],[-0.307771249070942,44.6423187068549],[-0.307423245028719,44.64255447477666]]],[[[-0.306057893951634,44.63572332390194],[-0.306100792878442,44.63570383936992],[-0.306112092452083,44.63571575571578],[-0.306134371294005,44.63570616884277],[-0.306121931985636,44.635692033954456],[-0.306142830379184,44.63568257847842],[-0.306051502556908,44.63557997702133],[-0.305962272548756,44.635620670592814],[-0.305909528489948,44.63556268851074],[-0.305881288034262,44.63557605787557],[-0.30548439275385,44.63578021374611],[-0.305416003862366,44.63581478712292],[-0.305341185568089,44.63585162515846],[-0.305174897552977,44.63593832368175],[-0.305332584741746,44.63608363366124],[-0.305463521524551,44.636016013250476],[-0.305641279492377,44.636204423734945],[-0.305040788380894,44.636491887319636],[-0.304924268893441,44.63629326494508],[-0.304827419269774,44.63611585985951],[-0.304778715311286,44.6360320763902],[-0.304593529496515,44.63575783602896],[-0.304441713366232,44.63552107277497],[-0.304427830165536,44.635503827190746],[-0.304412370746804,44.63548122240539],[-0.304384606562561,44.63543600861933],[-0.304317690772356,44.63533646041384],[-0.304298033359919,44.63531758533974],[-0.304202906278528,44.63535241670296],[-0.303743529692436,44.635524103926876],[-0.303830124941515,44.63564937497566],[-0.304061379565251,44.635988376674554],[-0.304246377706104,44.63625514475608],[-0.304270232079928,44.63624659243599],[-0.304714001325815,44.636071224915426],[-0.304977000146987,44.63652100660455],[-0.304430179169208,44.63675324909501],[-0.302665338110528,44.63749440389235],[-0.302537356731135,44.6375479661827],[-0.302428301349743,44.63759285335271],[-0.302155604953779,44.63770732515371],[-0.301975834177139,44.63778162646532],[-0.301407655289732,44.63796637517661],[-0.301104086009339,44.63806446619918],[-0.301083047886196,44.638067257057564],[-0.301061246639543,44.6380613304847],[-0.300827350549997,44.637651218206194],[-0.300778601894655,44.637581671038255],[-0.300746871986577,44.63753981858073],[-0.300684387086325,44.63747275401266],[-0.300602545290605,44.637389778185614],[-0.300504659536765,44.63729358539819],[-0.300411760545078,44.63719634257756],[-0.300334724370309,44.63712214350902],[-0.300291662334947,44.637080719426685],[-0.300175487368887,44.63704715502682],[-0.300254006762385,44.63698939578794],[-0.300137079134062,44.636846015515054],[-0.300103902065649,44.63680744991042],[-0.299838384561114,44.63691737653678],[-0.299809522266378,44.636954640750716],[-0.29996230853529,44.63700999917499],[-0.300087996653123,44.63705301112058],[-0.300008122234449,44.637083328587124],[-0.30005521417453,44.63714400508377],[-0.299960686293416,44.63718485181426],[-0.299637697001303,44.637334878636175],[-0.299916096493565,44.63759571154273],[-0.299981119910802,44.63765657357481],[-0.300128130600409,44.63779428030987],[-0.300705556282844,44.637564840202245],[-0.300787911531296,44.63766519096378],[-0.300827313355098,44.63771951915104],[-0.300875983227518,44.63781141478077],[-0.301019165611305,44.63806898474678],[-0.300914772099491,44.63810300860212],[-0.30081067881274,44.63814215939401],[-0.30065863056207,44.63821364826693],[-0.300604296692126,44.638240500277206],[-0.30041702505446,44.63833331432746],[-0.300134164198413,44.63847475563093],[-0.299953932533505,44.63860376121013],[-0.299758720574724,44.63874204401757],[-0.299657361348408,44.63881282911955],[-0.299608679792583,44.6388392415617],[-0.299371555050679,44.63897300809606],[-0.299245858471422,44.63903983379604],[-0.298969492236054,44.63913926925595],[-0.298719800514293,44.639230879713516],[-0.29850977661766,44.63934905824092],[-0.298245398430437,44.63951535259455],[-0.29797216936881,44.63968785731235],[-0.297733973587293,44.63983363611181],[-0.29745388420355,44.63999679299831],[-0.297013557757555,44.640240507335925],[-0.296908631559304,44.640300042913985],[-0.29684833802902,44.64030706738736],[-0.296784644528316,44.640290495562354],[-0.296611039192695,44.64016844483619],[-0.296497467792662,44.64009100763083],[-0.296282645453453,44.63993098991381],[-0.296223903408809,44.63988255310169],[-0.296158189782899,44.63975593265935],[-0.296057005132642,44.63954287782763],[-0.296004192603899,44.63943614628198],[-0.295886524066289,44.63920664312982],[-0.295785467701639,44.638995746852544],[-0.295716012024554,44.63885905595201],[-0.295666624689383,44.6386835620868],[-0.295653858529711,44.6385645534639],[-0.295658820515629,44.638496195949216],[-0.295679837069867,44.63840672566896],[-0.295721111072963,44.63828385310555],[-0.295804781837124,44.63803789424489],[-0.295837487220835,44.637943299825594],[-0.29587599829854,44.6377732044209],[-0.295861009068151,44.637752116270015],[-0.295774937407047,44.63735290427357],[-0.295756530589096,44.637288487381205],[-0.295725024098188,44.637239598746895],[-0.295593818941548,44.63705257834306],[-0.29555928530631,44.6369735046388],[-0.295416882084268,44.636640307189914],[-0.295325585075008,44.63663933491919],[-0.295112978941801,44.636482403234076],[-0.294602609365765,44.636114941814704],[-0.294542277129054,44.63606727258325],[-0.294437087631426,44.63597759990827],[-0.294183279978066,44.635752604016986],[-0.294035134998058,44.635621051020856],[-0.293870822825691,44.635478446243184],[-0.29370499873927,44.63532507372212],[-0.293719238225246,44.63531608940827],[-0.293845666070983,44.63528339799928],[-0.293832205075289,44.63525604685314],[-0.29380477418483,44.63520343213676],[-0.29378739709677,44.63517169244849],[-0.293837769747348,44.63515910834975],[-0.293830566701278,44.63514382497215],[-0.29375500202607,44.634971543744975],[-0.293570003273981,44.63501472064987],[-0.293543950191539,44.63498567230484],[-0.293825751789305,44.6349168140239],[-0.293896741301344,44.63489856959148],[-0.29395269834463,44.63488437732516],[-0.293963891350817,44.6349074710103],[-0.294019706638366,44.634893012619884],[-0.29400916451022,44.63487025996093],[-0.294035796740036,44.634863879713805],[-0.294251447207773,44.63481185917528],[-0.294270048667363,44.63480625886434],[-0.294179567117995,44.63459684879542],[-0.294514888438327,44.63452612317967],[-0.294791124007214,44.634467880433185],[-0.294735759618641,44.63433680634587],[-0.294940485220105,44.63429006584231],[-0.295052266576573,44.63426375654982],[-0.295607850046202,44.634137984058384],[-0.296015776143846,44.63404652714651],[-0.296003877758043,44.63401354314673],[-0.295893840277444,44.63365757621133],[-0.296189701733299,44.633570361485134],[-0.296591792413007,44.633450422973205],[-0.297049689068577,44.63331593314599],[-0.297306466661077,44.63324015325484],[-0.297448747937036,44.63319815428177],[-0.297704999525521,44.63312202871038],[-0.297833062260578,44.63308504883698],[-0.297936022064395,44.63305899975909],[-0.29809776101671,44.6330260605403],[-0.298249722382679,44.63299854886095],[-0.298649522356061,44.63299697893719],[-0.299057133190233,44.63299949945359],[-0.299167992046753,44.63300276788335],[-0.299642322378023,44.6330197837849],[-0.299738752861265,44.633024473569535],[-0.29999891677343,44.633051846649956],[-0.300391642322641,44.6331255392547],[-0.300809757140764,44.63319964358631],[-0.301158390647512,44.633253025142515],[-0.301477335214143,44.63329503819117],[-0.30170088161827,44.63332629443377],[-0.301994009099838,44.633349794761074],[-0.302570102360745,44.63339349254999],[-0.302675953672636,44.6334124953386],[-0.302755580682851,44.63342543371062],[-0.302835771283901,44.63344583392129],[-0.303223477183047,44.63356724227649],[-0.303587190712884,44.63368188774823],[-0.303715981912505,44.63374561695096],[-0.30422635459691,44.633916607337675],[-0.304313876894529,44.633947960387225],[-0.304577665895791,44.63403702680351],[-0.304673250060739,44.63406597600316],[-0.305717455650861,44.63435372175326],[-0.305783134224364,44.63436977837165],[-0.30656635059477,44.634560169386575],[-0.306755859111443,44.63460261590944],[-0.306819301023907,44.63461495441984],[-0.307122955213323,44.63466714044565],[-0.307243523483521,44.63468741062288],[-0.307787885710567,44.634796456758686],[-0.307905453044666,44.634819339000074],[-0.307993184694194,44.634839149473564],[-0.308093094981286,44.63486219958018],[-0.308175919896131,44.63488440941728],[-0.308263694758699,44.634907101767645],[-0.307229665152626,44.63541452646366],[-0.306632607688443,44.635702166669226],[-0.306366487705924,44.6358251927834],[-0.306216609458371,44.635894732499295],[-0.306057893951634,44.63572332390194]]],[[[-0.304789223177362,44.639169776627114],[-0.304307036986782,44.63943937143749],[-0.304182915034381,44.63950714699249],[-0.304153025091307,44.639524710028994],[-0.304138622687735,44.63953090731703],[-0.304122560794521,44.63953463125489],[-0.304106245713305,44.639534037692805],[-0.303810992459044,44.6392703841342],[-0.303675974196978,44.639152326813296],[-0.303615656225132,44.63910078718676],[-0.303559929391234,44.63906082402643],[-0.303569161211103,44.63905469124708],[-0.303687011975607,44.63899404195025],[-0.303723499696977,44.63897493025182],[-0.303634333185385,44.63888983261149],[-0.303597909831405,44.638856230641665],[-0.303491804206057,44.6387512753463],[-0.303463020164126,44.638723121663254],[-0.303239948229277,44.63884242031756],[-0.303182850793437,44.63879844320135],[-0.303118607143663,44.63874666023183],[-0.30300295029498,44.63864667541983],[-0.302940753747433,44.638593209287805],[-0.302883266620371,44.6385425758774],[-0.302798666521418,44.638468604361414],[-0.302563798400895,44.63825531454886],[-0.302241095410853,44.637970942338306],[-0.302454179486346,44.637862126034435],[-0.302304766634341,44.63771368133599],[-0.302881046012545,44.637473451186814],[-0.30308933084111,44.63739045704637],[-0.303274319802037,44.63760325401616],[-0.303336945033614,44.63767265576805],[-0.303537907331078,44.63757023663774],[-0.303301812775331,44.6373015703133],[-0.304172101494935,44.63693180452097],[-0.30418572246577,44.63694887778339],[-0.304394055942915,44.63714007057366],[-0.304418869794532,44.63716293635465],[-0.304491253626829,44.63723087434585],[-0.304562691858683,44.63729559677079],[-0.304576784039267,44.63730779020899],[-0.30464719818616,44.63737011035707],[-0.304654265395653,44.63737656686225],[-0.304872248820579,44.63758161692129],[-0.304972745226698,44.637674844651976],[-0.305068695528661,44.637765865500555],[-0.305121632756817,44.63781636353332],[-0.305175147212404,44.637865943228185],[-0.305217483289807,44.63790567525029],[-0.305290835316069,44.63797502553111],[-0.305370285372648,44.637935345905184],[-0.305433683276175,44.63799850617691],[-0.305524926140014,44.638088856508176],[-0.305749761263691,44.63797607801812],[-0.305814384427792,44.63794395985263],[-0.305822761027927,44.637940465515385],[-0.305843691565385,44.63796380758044],[-0.305930783042764,44.63792101561128],[-0.305963575058986,44.63790561790027],[-0.305944325121116,44.63788510896873],[-0.305961187751988,44.637875684149414],[-0.306063656928964,44.63782612472462],[-0.306119767335917,44.63779948712397],[-0.306175347385631,44.63777241482991],[-0.30644906558741,44.638049681445494],[-0.306519369758583,44.63813588178533],[-0.30650644805416,44.63814149446746],[-0.306517859751604,44.638157462198485],[-0.306532844637784,44.638152598744504],[-0.30656426845866,44.63819130515097],[-0.306207060024717,44.638388148899175],[-0.305970796393516,44.6385169485185],[-0.30575614490244,44.638635550036696],[-0.305583096504679,44.638731912317276],[-0.304789223177362,44.639169776627114]]],[[[-0.30303405006006,44.640055536475224],[-0.302764652827955,44.64024154485356],[-0.302604159820431,44.64035203405942],[-0.302380792714674,44.64052026691129],[-0.302118214413472,44.640723640461594],[-0.301815360789014,44.640950472486075],[-0.30156279953996,44.641131019039605],[-0.301446238594593,44.64121379334356],[-0.301336101633659,44.64129205059091],[-0.301158993606175,44.641403394228185],[-0.301019237809044,44.641480192965616],[-0.300710217592623,44.641634220515144],[-0.30060360505916,44.6416821864221],[-0.300553308607569,44.64167891267127],[-0.300401033211674,44.641522621225874],[-0.300150570649382,44.64126077420521],[-0.300122522299393,44.641234399780444],[-0.300037054319304,44.64115423470116],[-0.299975409178925,44.6411015613375],[-0.299935957631908,44.64106795845547],[-0.299899137838142,44.64104265679481],[-0.299801714973305,44.640976003843996],[-0.299569180377223,44.64082408969163],[-0.299494392228197,44.64077541263681],[-0.299359529749439,44.64070086637695],[-0.299323376958152,44.64072789584485],[-0.299596168091973,44.64090347785999],[-0.299713383185797,44.640980532994895],[-0.29941891984579,44.64116547899746],[-0.299751278386722,44.64148966857728],[-0.299796082213171,44.641537078094196],[-0.30014569472773,44.64133913128114],[-0.300406332409206,44.6416066214791],[-0.300515131778241,44.641716635416685],[-0.300354543669013,44.64179117193175],[-0.300194967390015,44.64186144303822],[-0.299867610708841,44.64198691152706],[-0.299600234732486,44.64206337332548],[-0.299544745204819,44.64208133879039],[-0.299516885871593,44.642081900075915],[-0.299493891827483,44.642077180118704],[-0.299348812757206,44.64201357111486],[-0.299156570477208,44.64194199864779],[-0.298977277625144,44.641998890081865],[-0.298730605900852,44.64208194025001],[-0.298666890335372,44.64210168254458],[-0.298568807655704,44.64213155100778],[-0.298385947488118,44.64217926705258],[-0.298110231853801,44.64225345106898],[-0.297434806742486,44.6424569660359],[-0.297199569166904,44.64253705853189],[-0.29713929421518,44.64257679077493],[-0.297003605181903,44.642662833871334],[-0.296575335176239,44.64294042644513],[-0.296121890465282,44.64323003110199],[-0.295894233170958,44.643191676533505],[-0.295720433866444,44.64316351953583],[-0.295457941958681,44.64305610078656],[-0.295213368622632,44.642952922866534],[-0.295093056324852,44.642902716544164],[-0.294878029534717,44.64280190094585],[-0.294734538834702,44.6427351750489],[-0.294436213105287,44.64254583519794],[-0.294690449943502,44.64230281285019],[-0.294993552880597,44.642017065060344],[-0.294979850603422,44.64200936404274],[-0.294957449054475,44.64199534465839],[-0.294900009766525,44.641962726754],[-0.294862772111848,44.64194104012103],[-0.2947549454966,44.64202444775595],[-0.29464346289809,44.642090664053676],[-0.2942060233322,44.6423518510228],[-0.293922621389616,44.64211764333416],[-0.293682806764878,44.64191655639974],[-0.293565889746405,44.6418164192415],[-0.293375552943177,44.64165638708544],[-0.293167000019463,44.64148049822637],[-0.293096809355775,44.641426183590276],[-0.292976020506281,44.64132886439096],[-0.292803914353853,44.641182705076744],[-0.292669198762667,44.641073816481594],[-0.292534819102505,44.64095770933273],[-0.292439094667325,44.6408810880174],[-0.292315665926366,44.64076014919775],[-0.292259838943424,44.640698918706704],[-0.292255903357881,44.640646684912575],[-0.292265472799292,44.6404972760891],[-0.292286863410389,44.64026939413511],[-0.292327674371047,44.639868472780414],[-0.292337812700061,44.63982167662435],[-0.292393031135898,44.639686766588945],[-0.292475773371537,44.63950670501116],[-0.292492288527682,44.639378984825576],[-0.292532359417297,44.63900646858157],[-0.292545015234686,44.63893580970845],[-0.292514506794793,44.638871572609204],[-0.292457509529563,44.638792446284924],[-0.292368621988632,44.63869669938924],[-0.292229995076873,44.638557471600976],[-0.292041193731584,44.63837378456436],[-0.291793745147798,44.63812156207215],[-0.291557401677867,44.637884416342864],[-0.291330351871745,44.63765942791454],[-0.291242058228883,44.63760619207504],[-0.291013619165963,44.63747405245052],[-0.290912694508965,44.63737523899266],[-0.290358991876124,44.63686830495926],[-0.290325522581806,44.636837584436186],[-0.290298021464978,44.63680533466535],[-0.290203405533994,44.63676697337171],[-0.290052398940563,44.63672677650713],[-0.289850744200641,44.636681509356116],[-0.28969617224169,44.63657591198809],[-0.289465126386029,44.63641843750209],[-0.289413181221172,44.63638682492851],[-0.2895163478634,44.6362517510667],[-0.289609241730319,44.63611797400462],[-0.289687438334458,44.63599833022817],[-0.289727744018829,44.63594730264437],[-0.289939560231268,44.63572141260975],[-0.290090625586263,44.63556166536319],[-0.290141235008451,44.63553150550915],[-0.290197870615157,44.63551378090156],[-0.290504925588872,44.63542561792145],[-0.290568184824221,44.635400307331544],[-0.29071971901124,44.63533722761269],[-0.29076782426759,44.635309574845316],[-0.290962291289837,44.63518646817636],[-0.291036913101896,44.63514396938252],[-0.291263786525155,44.63503557542553],[-0.291459576551847,44.63495243495939],[-0.291698264000221,44.6348497252626],[-0.291991113396391,44.63474098666495],[-0.292135889891587,44.63469189223782],[-0.292144262357272,44.63469912154672],[-0.292158298954669,44.63471474209387],[-0.292354360478215,44.634930019047985],[-0.292644893866256,44.63481621170599],[-0.292783822317036,44.63476206455895],[-0.292845956006352,44.634857887059205],[-0.292932127798393,44.63499146811859],[-0.293010423964871,44.63497084405528],[-0.293035785117104,44.635013969491126],[-0.293061601028001,44.63503464526338],[-0.293154004079775,44.63510857130916],[-0.293342223116553,44.63526082674433],[-0.293429970919949,44.63533281889007],[-0.293509298884133,44.63539677222726],[-0.293566033282076,44.63543689025977],[-0.293650824515611,44.6354885165427],[-0.293672965527838,44.63549812869354],[-0.293711273137121,44.63550581738674],[-0.293735664873319,44.63550427954871],[-0.293764717238166,44.63549827777739],[-0.293784696317908,44.635514081468656],[-0.294137709681323,44.63581496326622],[-0.2942502104617,44.63590667090538],[-0.294476238629255,44.63610762575034],[-0.29471355067832,44.63628139254742],[-0.294968324409699,44.636471037441055],[-0.295161129344013,44.636617386708664],[-0.295338705900469,44.636749322380794],[-0.295386287578045,44.636822781012626],[-0.295494797269468,44.63703174309252],[-0.295679725676616,44.63736916895359],[-0.295731585862682,44.637556753140494],[-0.2957757388632,44.6377312315898],[-0.295781546125993,44.637821884352334],[-0.295715630417291,44.63800460062781],[-0.295664746425422,44.63813577907675],[-0.295612593859155,44.63828195277191],[-0.295604193394127,44.638308784246824],[-0.295585394067765,44.63841458752521],[-0.295558731050178,44.63855855951316],[-0.295591981047357,44.63876886460482],[-0.295616073269253,44.638874380195155],[-0.295680016211856,44.6390052885864],[-0.295777814498191,44.639192854762555],[-0.295892752143314,44.63941667271671],[-0.295905129524637,44.63945135454424],[-0.296085312204409,44.63978729996876],[-0.296150512157099,44.63992024313252],[-0.296231735089806,44.639990535873636],[-0.296409769883351,44.64011497799283],[-0.296711111672832,44.64033008239949],[-0.296866469236451,44.64044222506387],[-0.297071779942842,44.64031454915977],[-0.297066844111725,44.64030568586553],[-0.297128371956874,44.64027015119905],[-0.297224858616771,44.64022167978583],[-0.297321465831519,44.64017311458289],[-0.29747846082526,44.64008679579945],[-0.297556832157443,44.640043640083746],[-0.297801398032938,44.6399053305861],[-0.297835725182186,44.63988376241519],[-0.2981101308244,44.63970761874446],[-0.298377396224221,44.639534570793764],[-0.298672373790026,44.63934771997098],[-0.298823928546264,44.639274176270916],[-0.2990675687035,44.639186981149244],[-0.299244751688115,44.63912438559919],[-0.299309780167054,44.63909910727478],[-0.29940128687067,44.63905186378211],[-0.299494997455232,44.639001310630356],[-0.299588576622467,44.63895067121296],[-0.299697917373375,44.63889118138616],[-0.299839364615228,44.638791627220854],[-0.299980690644356,44.63869216658777],[-0.300112363966664,44.638598129968464],[-0.300201746741687,44.63854265950299],[-0.300283372610267,44.63849480920921],[-0.300500981464049,44.638383428870334],[-0.300726405021131,44.63826974229078],[-0.300774986892367,44.63824810789201],[-0.300823563456972,44.6382263835241],[-0.300881499881836,44.638207172874594],[-0.301222783720222,44.638100116896574],[-0.301237511818306,44.63809517173763],[-0.301344476912681,44.63805980928708],[-0.301448681369804,44.6380268719279],[-0.301708879666706,44.63794458248425],[-0.301918999132868,44.63787991732985],[-0.301984567378436,44.637861739566546],[-0.302045058000379,44.63787966550644],[-0.302097549833625,44.637922609364495],[-0.302280533436774,44.63807969264496],[-0.302498806516275,44.63827041184487],[-0.302498927224363,44.63827031813283],[-0.302648867358178,44.63839973465836],[-0.302680979598825,44.638430852669515],[-0.302873628964133,44.63858269048055],[-0.30239351378945,44.63883815842919],[-0.302371191278731,44.6388276522967],[-0.302173963943062,44.63894653697433],[-0.302120182526562,44.63897850924194],[-0.302107045661268,44.638986921089234],[-0.302356759755313,44.639177872793894],[-0.302428920628243,44.63923554683057],[-0.302592320035689,44.63912947627356],[-0.302696868427995,44.639061476461634],[-0.302953357796729,44.63889648804513],[-0.303064025106257,44.63882524143036],[-0.303130232363056,44.6387792013166],[-0.303130353071184,44.638779107603845],[-0.303320226229871,44.638924449993596],[-0.303379718715555,44.63897268053183],[-0.303439337284753,44.639020907273775],[-0.30350533122737,44.639078855047984],[-0.303571571995785,44.6391367053055],[-0.30373882869959,44.6392837141873],[-0.303425645874169,44.63948265663088],[-0.303375848644854,44.63951369949809],[-0.30304557456401,44.639724685099566],[-0.303264120343554,44.63990052761854],[-0.30303405006006,44.640055536475224]]],[[[-0.303671193606321,44.65317977269092],[-0.30361119842376,44.65321148062578],[-0.303440912598868,44.653295501683395],[-0.302497920007765,44.6537559121542],[-0.302102971543534,44.65384276713881],[-0.301790819789181,44.653864794738475],[-0.301730999138207,44.65355922993851],[-0.301707142346484,44.653436497297434],[-0.301749383639174,44.653371080394216],[-0.301709768176723,44.653285311275404],[-0.301598451382065,44.65324691654786],[-0.301457744675695,44.653198136114185],[-0.30143284569527,44.65319545561387],[-0.301357546572929,44.65319437021443],[-0.301093469574259,44.653134135412955],[-0.301067624798265,44.653128239260624],[-0.301066144264043,44.65312882410194],[-0.301062815697491,44.65313018496904],[-0.300951568661346,44.65309512144915],[-0.300908594695572,44.653081266738106],[-0.300871669875083,44.65306939394563],[-0.300870509401374,44.65306897806399],[-0.300836829317488,44.65305646774889],[-0.300809629114831,44.65304682756036],[-0.300760877767472,44.65302485554513],[-0.300661375266458,44.65298340401539],[-0.300615868272937,44.65295863190594],[-0.300570135170392,44.65293215451851],[-0.300549755111821,44.6529204184396],[-0.30051918240476,44.65290276934001],[-0.300459049950875,44.65286536844378],[-0.300370311739641,44.65282449638265],[-0.300306694664836,44.65279440789883],[-0.300306563382234,44.652794321711994],[-0.300284581225037,44.65277893907447],[-0.300239760283353,44.6527443248087],[-0.300213596826273,44.65272005639278],[-0.30018409864032,44.652692733811406],[-0.300139827472764,44.65265026389397],[-0.30011972530306,44.65261094707148],[-0.300102253609723,44.652571281410296],[-0.300098279431385,44.652548693376474],[-0.300096208757648,44.6524896457806],[-0.300097443692128,44.65246978564234],[-0.30010887941139,44.652445205828286],[-0.300203446284706,44.65239381594985],[-0.300227875967556,44.652315235290324],[-0.30021740962363,44.65228094709446],[-0.300239736703716,44.6522160351737],[-0.300370617678509,44.65210147821937],[-0.300378873903462,44.65203986970201],[-0.300330565455402,44.65185091828369],[-0.300184458070453,44.65166677852617],[-0.300174367633525,44.65167122460075],[-0.300058642592994,44.65152303102924],[-0.299964747490044,44.65126479737685],[-0.299779288746871,44.65099280734417],[-0.299837091118914,44.65097107859049],[-0.299970786916695,44.650919692312385],[-0.300016962535026,44.650962375694746],[-0.300508057551651,44.65074371605471],[-0.300615302778427,44.65084413589255],[-0.300728677659344,44.650788489645],[-0.300846350947114,44.65072649763792],[-0.300877487344788,44.650710700526865],[-0.30088696146248,44.65072159076686],[-0.300916360087237,44.650706296059475],[-0.300906907049012,44.6506957656157],[-0.301048640201963,44.650624314739844],[-0.301176670783773,44.65055813855296],[-0.301465354552106,44.650394445849315],[-0.301718287167147,44.650602875794384],[-0.301901251306641,44.65075248346313],[-0.302015301888433,44.65084621114315],[-0.302073857850605,44.650882576948455],[-0.302154537650839,44.65093459106401],[-0.30224378833636,44.65099499927597],[-0.302354201385993,44.6510675703171],[-0.302453696125012,44.65112830311686],[-0.302716477153903,44.651304359161486],[-0.302857455159467,44.65140088586814],[-0.302783673400715,44.65145147696061],[-0.302604885678108,44.65157557758909],[-0.30265254264316,44.65161118744592],[-0.302761033152296,44.65169399754905],[-0.302783982012862,44.65171079251031],[-0.30280075526859,44.65172344687813],[-0.302857208516476,44.651764830965945],[-0.302913520015074,44.65180594894519],[-0.302689959113121,44.65196517703141],[-0.302896121920934,44.65213571573611],[-0.302980916028401,44.65208993161147],[-0.303164494575223,44.651991547637],[-0.303195971557863,44.65197294640743],[-0.303296572844265,44.65190182050197],[-0.30341332255054,44.65182408478005],[-0.303509186639644,44.65202089507517],[-0.30382633233368,44.65240058569351],[-0.303944796722805,44.65253932283614],[-0.304201919565292,44.65284899186836],[-0.304220387476478,44.65287330917951],[-0.304221535215827,44.6528842678103],[-0.303941486871288,44.65302094817502],[-0.303671193606321,44.65317977269092]]],[[[-0.302225403002467,44.64905989530331],[-0.302264458087883,44.64907584878844],[-0.302406273599868,44.64914585967732],[-0.302675510884541,44.64922981461391],[-0.302820376879913,44.649276486569015],[-0.302657241019512,44.64937678236499],[-0.302458917348284,44.64951849647013],[-0.302271544080129,44.64965754034861],[-0.30199173486132,44.64986701428845],[-0.301782806580508,44.64993984259748],[-0.301565252873747,44.65001842454359],[-0.301181489256762,44.650119089431215],[-0.300723869354856,44.650226012832285],[-0.300433058880324,44.6502974086573],[-0.299911397229302,44.65042732523292],[-0.299887539668308,44.65042731651243],[-0.299859291132966,44.65041914912569],[-0.299797577694043,44.65038918385626],[-0.299710922288241,44.650319145124385],[-0.299559058730903,44.65020041315683],[-0.299183870382852,44.64990227764559],[-0.29909614648066,44.649837676716835],[-0.298959153075666,44.649740035517226],[-0.298750130227096,44.649606518899866],[-0.298711824922605,44.64958180157051],[-0.298557948271806,44.64954287192866],[-0.298246821334779,44.64947421334087],[-0.297943570300112,44.649404237682816],[-0.297569517316123,44.64931501813662],[-0.297332222634097,44.64925262464455],[-0.296985654782968,44.64915204105327],[-0.296894192349335,44.6491291787571],[-0.296802462848643,44.649110379100755],[-0.296669001489374,44.64910534850913],[-0.296377765265982,44.64913277487003],[-0.296204951669221,44.649151984116365],[-0.296051319565814,44.64915169904458],[-0.296070647141973,44.64908723800092],[-0.296002093990511,44.64904170619917],[-0.296012623653585,44.64902535348604],[-0.296001188214207,44.64902190999775],[-0.295969076607911,44.649012415147375],[-0.295951559685771,44.64903447260883],[-0.295941795962298,44.64904665762779],[-0.295850943389802,44.64902557841483],[-0.29580892771706,44.64907765051296],[-0.29544844558379,44.64901964640134],[-0.295424383969509,44.64906145175109],[-0.295415444835044,44.64907694604176],[-0.294807462675148,44.64883808711037],[-0.294733082343059,44.64883102303989],[-0.294663912518257,44.648843987247],[-0.294532476952802,44.64887142178149],[-0.294405092512994,44.64892928116474],[-0.294279697352668,44.64898446805982],[-0.294169704479869,44.64902459877795],[-0.294091946283596,44.64905043328742],[-0.294048559689258,44.649061817880074],[-0.293950551420005,44.64908888640945],[-0.293910960253984,44.649096103116044],[-0.293873920078444,44.64909729684557],[-0.293700652619489,44.649100116501096],[-0.293402179980539,44.64906855136007],[-0.293219147172743,44.649012281753976],[-0.29304893602617,44.64895941435361],[-0.292757357785056,44.64886006314432],[-0.29194022902767,44.64856488510916],[-0.291806309777385,44.64851526023035],[-0.291766008378689,44.64849735795089],[-0.291737152042649,44.64847442939493],[-0.291703044953734,44.64844156538891],[-0.291680639928005,44.648399432517536],[-0.291613711584929,44.648409715016],[-0.290724288560902,44.648538373352665],[-0.290389287451346,44.64844319202905],[-0.290303288946169,44.648418720092],[-0.290051321032174,44.648344764086836],[-0.289867251435316,44.648188503241805],[-0.289860205511589,44.6481802430383],[-0.289962703316337,44.64799445945544],[-0.289871532717977,44.64791598793744],[-0.289617978848501,44.64771322789367],[-0.289816673619237,44.64734184864734],[-0.289752269148236,44.647267806639334],[-0.289688820729118,44.64720797275967],[-0.289382402147109,44.64696659862419],[-0.28927280109693,44.646881556823026],[-0.289164506791532,44.64674754898621],[-0.288859582354198,44.64636952986593],[-0.288739303506073,44.646144782055366],[-0.288641600673594,44.645969460936435],[-0.288621461683107,44.64593365762632],[-0.288385072080735,44.64555116582755],[-0.288048666563722,44.64476761796979],[-0.28734545404053,44.643016439548916],[-0.287267976998548,44.642542990000926],[-0.287254654927532,44.6424574261615],[-0.287229894951644,44.64231859009328],[-0.28715377761914,44.642227505077486],[-0.286946844618294,44.641983888079274],[-0.286479143286357,44.641380667077016],[-0.286566047434059,44.64124562918353],[-0.286663293048263,44.641095326332746],[-0.286733201592749,44.6410454020188],[-0.286841143148918,44.64096380121099],[-0.286923781753606,44.64089412570574],[-0.286930286289896,44.640873658710206],[-0.286949758130756,44.64080072555296],[-0.286970516260936,44.64071739209427],[-0.286989105393451,44.640676922896276],[-0.287033601281085,44.64059594709169],[-0.287060001694232,44.640544433020075],[-0.287111904396706,44.640458461366016],[-0.28728915527373,44.64018693047804],[-0.287353241126723,44.640099965639365],[-0.287425179926837,44.64000700049794],[-0.287507344383021,44.63990327901982],[-0.287702519607206,44.63946100641006],[-0.287790415361675,44.639308457661585],[-0.28787161259357,44.63914709761647],[-0.287972725182546,44.63897018769966],[-0.287997417896933,44.63893701545231],[-0.288106476976682,44.63882708716471],[-0.288133237845105,44.638721228928496],[-0.288143431949752,44.63866668260722],[-0.288158612804746,44.63862622448644],[-0.28822595531302,44.63852807933554],[-0.288326882003411,44.63837180858921],[-0.288340808133238,44.63835094050114],[-0.288390014059361,44.63827721257385],[-0.288436128061684,44.638200242736715],[-0.28850325959091,44.63809849949057],[-0.288549997918332,44.63801709589456],[-0.288614666976875,44.63789046682544],[-0.2887379520129,44.63764378611021],[-0.288839149149988,44.637531117509795],[-0.289002620641267,44.637352441143896],[-0.28913841296533,44.637199006596546],[-0.289360408560678,44.636952811593545],[-0.289498340569222,44.63679931289192],[-0.289649005651534,44.63663047763809],[-0.289719402042839,44.63667766968607],[-0.289782223843713,44.636714004262],[-0.290027257643394,44.63678032628187],[-0.290134324037104,44.63681146913993],[-0.290230656179871,44.636842480917316],[-0.290271211617242,44.63687136863538],[-0.290332218673758,44.636930643559396],[-0.290532111201016,44.637107785673514],[-0.290645952998266,44.63721171125918],[-0.290830718925789,44.63737614795365],[-0.290965155154012,44.63749991388153],[-0.291018493455893,44.63753589945275],[-0.291123112002774,44.637596398385064],[-0.291291116707105,44.6377006929196],[-0.291438148816564,44.63784778084872],[-0.291833216512352,44.638244190676296],[-0.292001827499469,44.63841712615067],[-0.292163058103465,44.638576044655466],[-0.292354002693026,44.638766155246934],[-0.292415318836971,44.63883064607248],[-0.292435835645794,44.63886643733592],[-0.292452399728258,44.63890153539428],[-0.292462958894571,44.63893969568259],[-0.292469493369413,44.63899752863537],[-0.292422729279106,44.63944124693916],[-0.292422603295709,44.639441250691824],[-0.292417232748272,44.63950484457243],[-0.292389316043901,44.639564875096205],[-0.292313958888949,44.63973958064751],[-0.292313832904878,44.639739584400076],[-0.292276426987699,44.639825126934525],[-0.292270770080848,44.63985142587488],[-0.292264829664883,44.63987719262953],[-0.292239290574584,44.64008375312003],[-0.292197052516781,44.64043218573822],[-0.292169844029705,44.640644742894644],[-0.292116479978823,44.64066885853423],[-0.292252920708359,44.64077922812751],[-0.292516265396558,44.64099871915791],[-0.292642171417417,44.64110156298952],[-0.29271752706104,44.64116004906657],[-0.292863704162728,44.64128796876636],[-0.293003224499224,44.64140347190157],[-0.293426524724721,44.64175758821928],[-0.293560865652058,44.6418686496993],[-0.293800396108685,44.64206920471221],[-0.293971163072847,44.64220963586081],[-0.294106598212351,44.64232210583692],[-0.294208522823882,44.64240755163364],[-0.294364056114374,44.64253564130532],[-0.29438603289904,44.642553187576276],[-0.294511402360258,44.64263162703043],[-0.294643344965983,44.64271239338571],[-0.294721910715432,44.64275663606331],[-0.294864374277037,44.64283816985015],[-0.294977405321595,44.642891206503855],[-0.295151199026265,44.6429689226756],[-0.295193229858741,44.64298623141162],[-0.295041359971968,44.64317979936905],[-0.295247436195727,44.64326781627711],[-0.295474987928989,44.643099383753444],[-0.295743694305675,44.64319652539558],[-0.295773470990516,44.64320068349062],[-0.295922050173664,44.64322274439303],[-0.296154022903899,44.643261510859624],[-0.296342860031539,44.643305077291046],[-0.296497341060144,44.64336759893588],[-0.296609462792626,44.643430933133814],[-0.29670720522719,44.64349010070051],[-0.296919721674338,44.64371614413871],[-0.297144489882279,44.6439574100289],[-0.297180160612148,44.64398247661276],[-0.297266910203565,44.644032780886675],[-0.297333458893283,44.64405061900112],[-0.297450389902875,44.64407100891834],[-0.297784274349323,44.64413439438443],[-0.297912777533074,44.6441627282862],[-0.298061010326874,44.64419605993525],[-0.298127243905225,44.644210663192865],[-0.298178705042939,44.644227329070944],[-0.298232140754437,44.644247540227504],[-0.298258849636286,44.64426611597452],[-0.298321414675602,44.64431506864388],[-0.298381130136785,44.644369242318845],[-0.298410355698671,44.644398465486866],[-0.298455403345474,44.64445217574102],[-0.298482106992763,44.64449868428515],[-0.298524151077115,44.64457654229715],[-0.2985625818749,44.64467460163591],[-0.298573153023128,44.64474952425088],[-0.298572448733936,44.644802166855705],[-0.298564031218641,44.64484810150258],[-0.298538270468641,44.64490608716461],[-0.298514925556096,44.64494066341832],[-0.298388103157264,44.64510276293573],[-0.298307073023875,44.64519762889459],[-0.298190199703317,44.645339968532724],[-0.298080817130445,44.64548091317937],[-0.298080117218736,44.645501297895656],[-0.298081781922541,44.64553404661743],[-0.298101181812699,44.64563258383024],[-0.29813546546407,44.64567273916379],[-0.298255634090786,44.645899283200436],[-0.298239639732664,44.64594084851564],[-0.29806185425712,44.64601940859188],[-0.297806428873042,44.646171017370854],[-0.297784537415646,44.64620672146945],[-0.297807128205761,44.64623902614053],[-0.298208158533881,44.646813107964014],[-0.298299191042047,44.64694509966995],[-0.298486818988785,44.64724802273396],[-0.298682221701026,44.647565130470056],[-0.298721170601408,44.647613796624846],[-0.298927060973141,44.64785129818654],[-0.299033376220794,44.647964001311166],[-0.299149289554983,44.648078940868295],[-0.299247899240577,44.64814195527475],[-0.299491462412737,44.64824245235211],[-0.299545128065224,44.64826220564203],[-0.300043574209257,44.64837626860644],[-0.301208047820149,44.648650924305294],[-0.300934787272684,44.64890966800495],[-0.301446125509707,44.64920048788385],[-0.301627930609957,44.649033139313026],[-0.301660764289349,44.649042069357556],[-0.301852941128475,44.64914220396787],[-0.302034320642975,44.64918517328728],[-0.30208475190522,44.649154022142056],[-0.302225403002467,44.64905989530331]]],[[[-0.301758948888622,44.64891253837205],[-0.301627930609957,44.649033139313026],[-0.30162792732283,44.649033138419],[-0.301758948888622,44.64891253837205]]]]}}]}
