{"type": "FeatureCollection","name": "aoc_geojson","features": [{"type":"Feature","properties":{"dt":"Dijon","type_prod":"Vins","categorie":"Vin tranquille","type_denom":"appellation","signe":"AOC","id_app":138,"app":"Bourgogne","id_denom":362,"denom":"Bourgogne","insee":"71193","cvi":"1B309, 1R309, 1R309 GA, 1S309","nomcom":"ETRIGNY","insee2011":"71193","nomcom2011":"ETRIGNY","id_aire":1781,"crinao":null,"grp_name1":null,"grp_name2":null},"geometry":{"type":"MultiPolygon","coordinates":[[[[4.805944522724301,46.57824178963415],[4.805815652254494,46.57826687951046],[4.805745387483501,46.57828284882371],[4.805734262637436,46.57829004952667],[4.805642626418202,46.57833508728891],[4.805577731188901,46.57839087160633],[4.805542735648525,46.57842267682238],[4.805532176665285,46.57845481720839],[4.805498165201803,46.578496604354896],[4.805477282457518,46.57853647318287],[4.805472448052909,46.57856005696832],[4.805453536000254,46.578588456174806],[4.805455841639349,46.578618592343076],[4.805495917425871,46.57870451499799],[4.805515735262608,46.57876643894478],[4.805534482159558,46.57884333093832],[4.805560978597637,46.57896090117848],[4.805580047784048,46.57903175357636],[4.805595147787477,46.57907744973912],[4.805620734311359,46.57915576499844],[4.805651290488385,46.57921851031311],[4.805672186597969,46.57931293149942],[4.805692277570378,46.57935944961031],[4.80569112235053,46.57941125648895],[4.805682013431775,46.5794398613901],[4.805679188571099,46.57945314582363],[4.805685972943889,46.579460784610696],[4.805697827932939,46.579467712958525],[4.805716846675949,46.57946615207243],[4.805770832241687,46.57949096981013],[4.805828522297787,46.579536894896016],[4.805854756622587,46.579603220945394],[4.805890586500412,46.5797107365035],[4.805921079740436,46.579767628371755],[4.805925655001456,46.57979529691498],[4.805940149716371,46.57981092012461],[4.807942776467207,46.57935311685649],[4.80789158157897,46.57925503135382],[4.807823159155055,46.579153435019975],[4.80778099840905,46.57909924973134],[4.807729982319574,46.57902620004464],[4.807658024996424,46.578869268042844],[4.807598314889151,46.57870745914282],[4.807586957056856,46.57870763845694],[4.807540527800942,46.57863109371742],[4.807509823320514,46.57856393791432],[4.807482607771807,46.57850744503254],[4.807458190942103,46.57841722279322],[4.807455992987236,46.57837069269851],[4.807456472454136,46.578255308919076],[4.807452572240329,46.57822438733899],[4.807416295985453,46.57819397686166],[4.807418094146594,46.57815765135316],[4.806774130953663,46.578180604918465],[4.806510327243044,46.578181885471125],[4.806443448756193,46.57817393395985],[4.806333295994749,46.57816477373755],[4.806283279726504,46.57817294834262],[4.806197707011489,46.57822356513773],[4.806011502336228,46.578209479775175],[4.805944522724301,46.57824178963415]]],[[[4.809983105058367,46.58865743359991],[4.809961694559994,46.58870109432004],[4.809937460438573,46.588750203694175],[4.80986805200859,46.588866946946766],[4.809807307611882,46.58900066598636],[4.809681417349997,46.589143610609675],[4.809601342778708,46.58936788228698],[4.809467725151029,46.589581020997365],[4.80907130844107,46.59001213074785],[4.808979752098624,46.590284138716136],[4.808885092422801,46.590529625800215],[4.808877874244467,46.59056009243476],[4.808901712715938,46.590943221681385],[4.808932245930401,46.591036409187424],[4.808985379569394,46.5911885038463],[4.809002306235829,46.59124966223843],[4.809122756997107,46.591693591693],[4.809230223656612,46.59193552548954],[4.809332748346704,46.5919462449386],[4.81042881543211,46.59151551471961],[4.810875379838794,46.59144108399989],[4.811084555203943,46.5913823848863],[4.81127162264328,46.59133070001781],[4.811683641272535,46.59122330748681],[4.811674564482886,46.59113509517269],[4.811670034689102,46.59108535967988],[4.811666587888788,46.59107208426385],[4.811670271677213,46.591037530255576],[4.811680265209806,46.59100413736873],[4.811731879065693,46.59089055671558],[4.811753518471602,46.59084986427043],[4.811764091535266,46.59083780812959],[4.811743804439233,46.59080138166762],[4.811732525563775,46.59076868557876],[4.811726203044007,46.59075536559139],[4.811710329970638,46.59072202164429],[4.81170345483853,46.5906881750783],[4.811694923685194,46.59066345149659],[4.811692027453611,46.590654940931735],[4.811670692851855,46.59061844096172],[4.811655035594037,46.59059157843095],[4.811652192044065,46.5905807252847],[4.811647690402739,46.59056323339652],[4.811642357327027,46.590469737949334],[4.811652580088805,46.59046678414548],[4.811641799181014,46.590366619839976],[4.811636521821841,46.59034544746749],[4.811625588947103,46.590327066578375],[4.811615473765269,46.59031362644867],[4.811561587297315,46.59024116419247],[4.811551829664181,46.590222764705516],[4.811537170228135,46.590178773607356],[4.811499849957361,46.590023097375465],[4.811512268479061,46.59001938831137],[4.811510411850113,46.58994790432395],[4.811527720382932,46.58902345089152],[4.81153400807617,46.58896507793584],[4.811538903327189,46.58887664455479],[4.811561902333959,46.58887682112993],[4.811568164931876,46.588786294568465],[4.811551038788918,46.588785935023324],[4.811565897021352,46.588690679054295],[4.811599666750933,46.58855522412429],[4.811629357172575,46.58844244058817],[4.811685485618906,46.58833896603771],[4.811796860309538,46.588168327893456],[4.811841659627642,46.588069896127884],[4.811856449552648,46.58794906207986],[4.811814102076391,46.58787389548425],[4.811592522198987,46.587849930575764],[4.811299703944807,46.58790328894917],[4.811054074802536,46.58794572267087],[4.810870123102979,46.58796898695427],[4.810801883126808,46.58797547008824],[4.810553311046587,46.58806298286544],[4.810461509654324,46.58810343338492],[4.810267906449075,46.58816647884592],[4.809952337346834,46.5882664879092],[4.809931477937076,46.58827564418562],[4.809929319208879,46.5882814426051],[4.809927692889409,46.588291465767504],[4.809953783467358,46.588455335945675],[4.809962071867833,46.58849636564733],[4.809987987444893,46.58863925292645],[4.809983105058367,46.58865743359991]]],[[[4.810457599806592,46.59155604022254],[4.809928895417816,46.59176524696822],[4.809395478150781,46.5919782184136],[4.80938277703923,46.59202453344445],[4.809556559831512,46.59217832428079],[4.809574130001169,46.59219200705676],[4.809609087375868,46.59223351602837],[4.809662862468135,46.59230264844159],[4.809735596863153,46.59239579934936],[4.80992619148121,46.592642543441116],[4.809969376587139,46.59269572106817],[4.810005493018014,46.592740634156634],[4.810125027729739,46.59289348018816],[4.810242238385937,46.59304321048755],[4.810466173565072,46.59333373973607],[4.810752547159159,46.59368659855676],[4.81083066275067,46.59384712398909],[4.810867525901786,46.59392228756208],[4.810877894383101,46.593947252341245],[4.810949274060281,46.5940898707811],[4.810831152815268,46.59467861576259],[4.810728923202018,46.59521099746907],[4.810693623206769,46.59537133457282],[4.810658084208035,46.59539882649294],[4.81122787143047,46.59598335910079],[4.811893180777807,46.595857459741275],[4.812835283573553,46.59567844925385],[4.812797347937272,46.595637889033185],[4.812795587294508,46.59563602549119],[4.812695456055273,46.59552871918214],[4.812650332514258,46.595480256705464],[4.812606168155391,46.59543313003823],[4.812552648401458,46.595375793694835],[4.812953555250757,46.59524776747271],[4.812926593386529,46.59521892244572],[4.813321751119551,46.59502820909585],[4.813236033403661,46.59489860858394],[4.813111242072946,46.59471387502975],[4.813049124394909,46.594621999172794],[4.812988521359196,46.5945324410528],[4.81331805967149,46.594427249365296],[4.814015247496279,46.5942040102943],[4.814012335437629,46.594120564133014],[4.81399244025924,46.594001900495186],[4.813974261951178,46.59390338471065],[4.81394606003969,46.59380989131296],[4.813904313167298,46.593807850508874],[4.813874186921572,46.593727177114566],[4.81384927741715,46.59368542018567],[4.813833925798296,46.59366386706188],[4.813809020616319,46.59363399892597],[4.813638398974647,46.593469716467126],[4.813584015370634,46.59341779830834],[4.813463322718079,46.593277583473125],[4.813482464855007,46.593267823305965],[4.813459905963044,46.593241700766534],[4.813420697103521,46.593206024541736],[4.813351491967222,46.59315235948788],[4.813327250588472,46.59312671389957],[4.813308916894355,46.59310583839602],[4.813279445752157,46.59304478912952],[4.813260198685193,46.593051398573536],[4.813221505781843,46.59298806348663],[4.813195357505698,46.59294047166836],[4.813183025024077,46.59291148515138],[4.813167465830197,46.59287192179065],[4.813147227408372,46.59280955544302],[4.813126127560332,46.59274486098281],[4.813111077940055,46.59268529463],[4.813072510803906,46.592555127645596],[4.813064047444031,46.592540310478725],[4.813000438941963,46.59244674692155],[4.812956591085445,46.5923816019457],[4.812918046515957,46.592307006013414],[4.812896188021447,46.592313656740146],[4.812798152918664,46.59218280982405],[4.812768467389221,46.59214274948184],[4.812743334897759,46.59208640496837],[4.812710954511666,46.592028193694894],[4.812701613558006,46.59200663535392],[4.812675951859964,46.59193832026575],[4.812654380293115,46.591941814055296],[4.812632923282471,46.59189775054868],[4.812611543242846,46.591808922423574],[4.812589017349586,46.5918072974763],[4.812505096646039,46.5916529895886],[4.812371189318478,46.59153946256107],[4.812195443738862,46.59140930454626],[4.811887474172403,46.59147119002821],[4.811881363899627,46.59144462681532],[4.811863977547429,46.5913854575498],[4.811705518950994,46.59137031129404],[4.811570080509512,46.59137164323489],[4.81125670415189,46.591455588930685],[4.81089350726155,46.591491144896864],[4.810875140362545,46.591492786334726],[4.810457599806592,46.59155604022254]]],[[[4.812335057431609,46.59887420063088],[4.812151790378112,46.598887728271166],[4.811873535195041,46.59889753440132],[4.811126666397354,46.600476512898084],[4.811202323051902,46.60059816796772],[4.811249000211616,46.60066966359685],[4.811388554963234,46.60088550891979],[4.811416172075002,46.60093397855159],[4.811680720101532,46.60084576200875],[4.811728474061545,46.600949574477106],[4.811767166533137,46.60103632745911],[4.811802844983085,46.60111889495466],[4.811823801746971,46.60119494028346],[4.811871721482211,46.601378279238155],[4.811911088070568,46.60144601737101],[4.811936169639379,46.601481107009185],[4.811976846711731,46.60155287740523],[4.812067111394694,46.60168537908365],[4.812215734544931,46.60178489354748],[4.812478881713664,46.60186638363931],[4.812542478078419,46.601884741706655],[4.812685182745828,46.602183127134204],[4.812720985265043,46.602257586364274],[4.812759260095106,46.60233957208602],[4.812807640933597,46.60239149560741],[4.812928459006715,46.60252315282051],[4.813258485395807,46.60242723141825],[4.813445287547924,46.602354742397665],[4.813934377133901,46.60214614863286],[4.814213839813984,46.60207408230135],[4.814617127855703,46.60196907060196],[4.814681225115701,46.60195148279942],[4.814689399211506,46.601949732091306],[4.814827339845465,46.601650415350974],[4.81484801753883,46.60152597529266],[4.814866354752811,46.60142931297155],[4.814886191589294,46.60134235412861],[4.814886113558517,46.60126949109269],[4.814865039884745,46.60120966018506],[4.814751205238176,46.60101709902511],[4.81461777771409,46.60087960894955],[4.814350860117504,46.60060661081954],[4.814139073338183,46.60038020426941],[4.814031630617526,46.600269502236635],[4.813879435085338,46.600113754759626],[4.813752211630062,46.59998192976397],[4.813587443054415,46.59980566558481],[4.813498719181664,46.599684128832905],[4.813246547314171,46.59934352459906],[4.813042473971087,46.59906988892113],[4.8129748843394,46.5989354979163],[4.812886980220988,46.59876396050919],[4.812417876579881,46.598861721819574],[4.812376562290085,46.5988688603957],[4.812335057431609,46.59887420063088]]]]}}]}
