{"type": "FeatureCollection","name": "aoc_geojson","features": [{"type":"Feature","properties":{"dt":"Colmar","type_prod":"Vins","categorie":"Vin de sélection de grains nobles, Vin de vendanges tardives, Vin tranquille","type_denom":"appellation","signe":"AOC","id_app":1224,"app":"Alsace grand cru Schoenenbourg","id_denom":40,"denom":"Alsace grand cru Schoenenbourg","insee":"68277","cvi":"1B038D10, 1B038D11, 1B038D12, 1B038D13, 1B038D14, 1B038D20, 1B038D21, 1B038D22, 1B038D23, 1B038D24, 1B038S 1, 1B038S 2, 1B038S 3, 1B038S 4, 1B038S00","nomcom":"RIQUEWIHR","insee2011":"68277","nomcom2011":"RIQUEWIHR","id_aire":52,"crinao":null,"grp_name1":null,"grp_name2":null},"geometry":{"type":"Polygon","coordinates":[[[7.301484626191841,48.16712282603078],[7.301123225892532,48.16721071373008],[7.300951486284079,48.1672522126298],[7.300854782360865,48.167275564939985],[7.30078212737483,48.167293173866625],[7.300424058241121,48.167377333245724],[7.300407540515282,48.167323416176124],[7.300387554568704,48.167283142801864],[7.300349636313644,48.167206305972385],[7.300310391074346,48.16715285725405],[7.300227634975216,48.1670398974151],[7.300134733194707,48.16706527324311],[7.299712289291454,48.16718268734122],[7.299652261141602,48.16720812571331],[7.29950209407726,48.16727136456526],[7.299373541391769,48.1673254344912],[7.299337218073024,48.16734090683101],[7.299082932286819,48.16744894334866],[7.298905219525961,48.16752463017622],[7.298814535489823,48.16755740357149],[7.298666015530524,48.16761111918788],[7.29860344258006,48.16762682725209],[7.298563547020787,48.16763152568011],[7.298832469259584,48.16821575826908],[7.298840128357658,48.168237016458676],[7.298964075331098,48.16855961408824],[7.298753855578913,48.16859350086587],[7.298736570473059,48.16859629371681],[7.298645487853176,48.168610968382865],[7.29867301008041,48.16870242270205],[7.29835822998617,48.16873768710614],[7.298194720724078,48.16840896137996],[7.298189820445551,48.16839841635391],[7.298053633760598,48.168408426531556],[7.298000755676944,48.168412516550184],[7.298000351942335,48.16839432812182],[7.297998351189588,48.168348262382324],[7.29798391651675,48.168103226251866],[7.297957163488101,48.167787989204186],[7.29795206035442,48.16772698738059],[7.297652796032092,48.167800524000846],[7.297563015320747,48.16782290028492],[7.297468479795131,48.16784644103795],[7.29741354995936,48.16786006761573],[7.29704823970635,48.16793150377653],[7.296998269828823,48.16794152506258],[7.29695690377188,48.16794636663068],[7.296860828211399,48.16795761730369],[7.296805723081535,48.167964130927615],[7.296612029672802,48.16797596451033],[7.296369824857205,48.16799091694571],[7.296178040884859,48.16800304069918],[7.296012560109112,48.16801393555687],[7.295733521423414,48.16803149014851],[7.295738288862617,48.16804537433391],[7.295987734869062,48.16812432902863],[7.296144333149889,48.168317056061404],[7.296242716109375,48.168433414135094],[7.296247648709147,48.16845594327321],[7.29633954940805,48.168644899342965],[7.296484833615632,48.168799559290164],[7.296568347647014,48.168943403067246],[7.296715478639483,48.169276241834545],[7.296912788664796,48.16963798106359],[7.296959916804253,48.16967906819716],[7.297195028158998,48.16977377225618],[7.297268981847086,48.16980514066628],[7.297651189955154,48.16998072309874],[7.298222163811572,48.17017150246424],[7.298323229101786,48.17011230829086],[7.29844724901332,48.17003722821009],[7.298502600041954,48.17000394093013],[7.298598768158692,48.169945826139625],[7.298715294337189,48.169909407682795],[7.298856233075926,48.16988822968727],[7.298941227102839,48.16987485827853],[7.299229405450021,48.169858585303906],[7.299236121288946,48.169858340467165],[7.299454656573842,48.16985866374188],[7.29968497259175,48.16985972857146],[7.299840896859044,48.16986044153465],[7.29999262070433,48.16986085687935],[7.299968997433718,48.17005699658679],[7.299979628683062,48.17018249902193],[7.300096105237352,48.17044138649628],[7.300237632176367,48.17044559775583],[7.300392947460253,48.17045038741602],[7.300484789068836,48.170453256187066],[7.300633874502188,48.170457641912314],[7.300770696138086,48.170445443039675],[7.300908540992724,48.17043257588641],[7.301009279714166,48.17042394555284],[7.301113664466707,48.17041707456079],[7.301260580993939,48.17042955880136],[7.301354034296126,48.17043732441853],[7.301381034578291,48.170439673843426],[7.301649054429475,48.17046693479099],[7.301778358425638,48.17048150267696],[7.301899232218471,48.17049511634227],[7.302009109099369,48.17050768921586],[7.3021452903029,48.17052894465963],[7.302247161905888,48.17054577440226],[7.302252488224097,48.17054666146526],[7.302467326318532,48.17058090716546],[7.302578595606477,48.17057585634904],[7.302699677433051,48.170570537526075],[7.302911111447101,48.17056138121137],[7.3030444675259,48.170571113913766],[7.303054763634877,48.170571819600866],[7.303175107980348,48.170580585100254],[7.303311597440432,48.170590743857055],[7.30343696294075,48.17059995667012],[7.303645605979785,48.170616042912854],[7.303798958692315,48.17062648685916],[7.30387253350205,48.1706300196549],[7.304081340059136,48.17063159068398],[7.304221209499233,48.17063198275405],[7.304351788993262,48.17063244339322],[7.304442090059844,48.170632932233005],[7.304588599736812,48.17063380241575],[7.304672834497765,48.17063424216415],[7.304779185409462,48.170634955922935],[7.304873933645959,48.17063546232645],[7.304991872581029,48.17063620345851],[7.305085277639658,48.17063675872523],[7.305105479402354,48.17047651790391],[7.305130941362051,48.170479823784795],[7.305230191533083,48.17050909242376],[7.305329292834605,48.17053818618781],[7.305546613177581,48.17060117250382],[7.305678518322648,48.170639341422095],[7.305863424216751,48.17069305732264],[7.305963615422806,48.17072229101074],[7.306077597853393,48.170755436675016],[7.306388862013311,48.17084535992187],[7.306603627818855,48.17090672547006],[7.30684834301063,48.1709438373338],[7.306971256345034,48.17096259807079],[7.307100294789855,48.17098212624236],[7.307254847014724,48.17100558862403],[7.307418516100085,48.17103015965197],[7.307482069571856,48.171039643388504],[7.307680728297825,48.171068703389274],[7.307786035261485,48.17102196199105],[7.307959324162619,48.17094489158747],[7.308167382589062,48.170853123575775],[7.308686113426318,48.17064105560785],[7.309173185991437,48.170457086423134],[7.309205088529443,48.17044357490501],[7.309528194519335,48.170313897229725],[7.309698660867396,48.17027819995936],[7.309803607027948,48.170279861656816],[7.309987405204609,48.170283687879994],[7.310050038673195,48.17028356151988],[7.310155139670779,48.17020465424493],[7.310008045231593,48.17015208625256],[7.310017237647363,48.17013598012609],[7.309868777692523,48.17007823519468],[7.309722643238179,48.17002256786413],[7.309766412370852,48.16999600637403],[7.309939090364804,48.16967402191656],[7.310159467135385,48.169155915036875],[7.310166722305379,48.16915402778543],[7.310168183694888,48.16914388145994],[7.310173133083352,48.169103869603696],[7.310199810279267,48.16889445787125],[7.309845232664955,48.168851455731364],[7.309851073319833,48.16880915843287],[7.31000095146966,48.16872762334303],[7.310200554147421,48.16874853400378],[7.310198334788539,48.16873455713434],[7.310198533691914,48.16863803636392],[7.310198700899345,48.168559269463955],[7.310198697351808,48.16844707601469],[7.310198783320436,48.16824197037178],[7.310171421736833,48.167903686170526],[7.310170024484643,48.16788328105464],[7.310068217102534,48.16787051105794],[7.309944217807156,48.167848278920985],[7.309829654824822,48.16782777443113],[7.309680360665207,48.167800969465205],[7.309538734797529,48.167775686379436],[7.309438800160254,48.167757800953254],[7.309390657064315,48.167748926717096],[7.30917827233503,48.167710008274575],[7.30903003131148,48.167682893677885],[7.308892994057116,48.167652756168316],[7.308661448897093,48.16760354288248],[7.308378010333493,48.167474760937964],[7.308023188709011,48.167273520204766],[7.30794868386935,48.16722884145047],[7.30792537128321,48.16721554502037],[7.307861665921508,48.167179393094905],[7.307728037819722,48.16710353143268],[7.307431836916163,48.16691240324394],[7.307278953908697,48.16679371879275],[7.307253226020308,48.16677393205024],[7.307107187402782,48.16666977628927],[7.307010969921757,48.166621474407535],[7.307010552332082,48.16662130942953],[7.306812784577215,48.16652372871844],[7.306676363010235,48.166473020008354],[7.306595363432338,48.16644281586684],[7.306564479349417,48.16643412123987],[7.306442926071234,48.16640053184567],[7.306376909512196,48.16639050687523],[7.306253562124462,48.166364642606474],[7.305925724794214,48.16632551905073],[7.305707113490543,48.16632079541947],[7.305628363456829,48.16637593768394],[7.305533718150509,48.16637659990208],[7.305489418788857,48.166332258647245],[7.305271005175254,48.16632500376637],[7.305158570167908,48.166322260013935],[7.304918473535987,48.16629029353582],[7.30467740957805,48.16624151036466],[7.304557235436841,48.16621489771698],[7.304323888093649,48.16614510568103],[7.304261790849333,48.16645727816556],[7.304185418584158,48.16682566267995],[7.304066623450156,48.1668143187269],[7.30398438972271,48.166806956988104],[7.303974743894156,48.16680595732683],[7.303877470041276,48.166797522393765],[7.303819582852564,48.16678972250807],[7.30382074290932,48.16667180970124],[7.302958214712874,48.1666735490327],[7.302932363770653,48.16658780172733],[7.302848296283079,48.166306826894484],[7.302845617448453,48.166297102109596],[7.302841637051099,48.166284631253355],[7.302826159969361,48.16629637026862],[7.302770202622418,48.166315533971115],[7.302432607104116,48.16636651140078],[7.302147654949461,48.16639402974541],[7.302063683132499,48.166411601837666],[7.301946077788643,48.166452839514456],[7.301837688153555,48.16649806638342],[7.301690728703768,48.16660390567075],[7.301739289216494,48.16662619486365],[7.301830408049168,48.16666819859654],[7.301805589921375,48.16668928972391],[7.301745014028651,48.166707990590005],[7.30168101931023,48.16672771728988],[7.3015462481489,48.1667765195708],[7.301552802522715,48.16687675857841],[7.301554555288494,48.16690156634857],[7.301618799033695,48.1670071804511],[7.301663688542456,48.16707862609138],[7.301638899772532,48.167085207602],[7.301484626191841,48.16712282603078]]]}}]}
