{"type": "FeatureCollection","name": "aoc_geojson","features": [{"type":"Feature","properties":{"dt":"Colmar","type_prod":"Vins","categorie":"Vin de sélection de grains nobles, Vin de vendanges tardives, Vin tranquille","type_denom":"appellation","signe":"AOC","id_app":1228,"app":"Alsace grand cru Sporen","id_denom":44,"denom":"Alsace grand cru Sporen","insee":"68277","cvi":"1B042D10, 1B042D11, 1B042D12, 1B042D13, 1B042D14, 1B042D20, 1B042D21, 1B042D22, 1B042D23, 1B042D24, 1B042S 1, 1B042S 2, 1B042S 3, 1B042S 4, 1B042S00","nomcom":"RIQUEWIHR","insee2011":"68277","nomcom2011":"RIQUEWIHR","id_aire":56,"crinao":null,"grp_name1":null,"grp_name2":null},"geometry":{"type":"Polygon","coordinates":[[[7.303418196391985,48.15980286937457],[7.303732023169971,48.159868913765614],[7.304124927972422,48.16000118917479],[7.304456491391175,48.16009145609862],[7.304608568278169,48.160096537606925],[7.305149276057312,48.16000641528133],[7.305371136379441,48.1599802909682],[7.306042534319423,48.15993856030814],[7.307020168493779,48.15989456085219],[7.307363053895305,48.159879241189834],[7.307826469181586,48.159840592511365],[7.308127503437843,48.1598191398698],[7.308213787425919,48.15980364121878],[7.308287158521567,48.159798256734554],[7.308626424427645,48.15978315573933],[7.309557649784848,48.15979435981449],[7.310341332355582,48.15982960453248],[7.310866678904952,48.159879696764165],[7.310892822463076,48.15978916567901],[7.310916313971269,48.15971233904899],[7.310940901085404,48.15964727753364],[7.310958383279259,48.1595842781082],[7.311062195904237,48.15926561721591],[7.311138133703104,48.159054222105475],[7.311149679961955,48.159022439553965],[7.311143190483786,48.158916610349685],[7.311139452721749,48.15887250008024],[7.311133101940202,48.158763421619156],[7.311123497859422,48.158693662563785],[7.311090750996357,48.15855328775344],[7.311063082504516,48.15844210504995],[7.311061909841902,48.158437642128874],[7.311037793176587,48.1583369632294],[7.311020324349465,48.15826325627656],[7.311001690257882,48.15818517624266],[7.310974756896879,48.158104425836775],[7.310910488590337,48.1579062676464],[7.310891347090843,48.157845057836084],[7.310848074350422,48.15771101544877],[7.310817763022207,48.157618583310466],[7.31065239482004,48.157605705322815],[7.310517810141115,48.157595396381545],[7.310397166886346,48.15758592932734],[7.310282391084638,48.157579041237504],[7.310192863713058,48.157574564285795],[7.309994601211103,48.157564600153556],[7.309752582730989,48.15754659278196],[7.309624331757983,48.15753632165349],[7.309574279686021,48.157533645435166],[7.309487176908104,48.15752916944199],[7.309379205841364,48.15752149105583],[7.309163964566297,48.157506468837994],[7.309159313564902,48.157487444136926],[7.30915809498087,48.157424677866864],[7.309156415010814,48.15738265512482],[7.308613257936512,48.15742918049713],[7.307003804272139,48.15766227124882],[7.307471335343138,48.15909686581821],[7.30699704213399,48.15764377419417],[7.306957426651764,48.15744219050567],[7.30700053428561,48.15743899364226],[7.307023972152219,48.15736640523554],[7.307044571103272,48.15730194083715],[7.307091445029291,48.157168298865194],[7.307117818697007,48.15708217590603],[7.307146867896514,48.15699253078542],[7.30649742195768,48.15708330139653],[7.306487255170332,48.15700986792549],[7.306474762899043,48.156919487507984],[7.306447026587881,48.15676937643217],[7.306445770884233,48.156687957603786],[7.306448310529637,48.156659658586406],[7.306443129406764,48.156620917805206],[7.305496613941694,48.15681120771932],[7.305244283049426,48.15685493668999],[7.304856356702618,48.156887485559444],[7.304839891660156,48.15677643339589],[7.304825404863386,48.156679727506024],[7.304809401612233,48.156574335756055],[7.304797325057687,48.156487364461086],[7.304790164623745,48.156435899485714],[7.304792138137586,48.15639239164395],[7.304795674982196,48.15630530081759],[7.304798888902389,48.15626544242511],[7.304809812541961,48.15621277643238],[7.304834894977263,48.15611408498857],[7.304860588503599,48.15603609784021],[7.304886343350157,48.15596712001663],[7.30493105168275,48.15584815676898],[7.304955817664603,48.15578191849661],[7.304977947107652,48.15572298575124],[7.30497755335034,48.1557065990567],[7.304986021661644,48.15556273537772],[7.304994172859867,48.15542654310535],[7.305007745436237,48.1552660018128],[7.305025163510364,48.15511297991963],[7.305034278163401,48.1550166737283],[7.30501307471554,48.1547946816553],[7.304999054473881,48.15475653392794],[7.304954996737417,48.154640721803894],[7.304579747402846,48.15473769087613],[7.303708404462204,48.15497415575527],[7.303251036264951,48.15518063492139],[7.302951247681882,48.15535748017596],[7.30269246389742,48.15545911345344],[7.302758048579655,48.1555433209849],[7.302789968188085,48.155637498380784],[7.302766632712426,48.155643666877076],[7.302839534916938,48.155822589192105],[7.302884223774338,48.15593297190678],[7.302896946419446,48.15598991122269],[7.302939936489508,48.15617361992361],[7.302954959145059,48.15623398979222],[7.302979137548061,48.156327368270965],[7.302994885411878,48.15638672039089],[7.303005720944521,48.15642876936948],[7.30301026465408,48.156448158620876],[7.303053226396277,48.15667115869],[7.303074394610451,48.15673256584772],[7.30315818407432,48.15697065696606],[7.303181457157483,48.15703640293894],[7.303223022719863,48.157161317989626],[7.303252065736936,48.157274704720514],[7.303301382191217,48.157509548177536],[7.303135684330356,48.157528933138586],[7.302842522936459,48.15759559450142],[7.302562818381573,48.157726557071655],[7.302493929610508,48.15777367822496],[7.302318666171058,48.157892177645756],[7.30215306089838,48.15800194360431],[7.302060653683611,48.158086058951085],[7.301969225265486,48.1581689669946],[7.301861808822673,48.15826723724364],[7.301764903101947,48.15836061810523],[7.301688164923241,48.158437042270705],[7.301617686567427,48.15852251987137],[7.301535824927149,48.158622020151846],[7.301438685512345,48.15873568516484],[7.301323981933744,48.158894958421925],[7.301234337000084,48.1590196142144],[7.301182054215346,48.159196165080026],[7.301158973312602,48.159283157343864],[7.301143984309117,48.15935705802443],[7.301071196132654,48.15945388384531],[7.300759512943491,48.15960745545714],[7.300694018214515,48.15967148333436],[7.300626369656639,48.159738833878684],[7.300634045196437,48.15976360595198],[7.301304875045131,48.159728140951394],[7.301692530800398,48.15972670432289],[7.302010533139917,48.159758086676014],[7.302182329905225,48.1597754283508],[7.302618115818505,48.15977124119826],[7.303280714068917,48.15978184395352],[7.303334093441303,48.15978070672827],[7.303418196391985,48.15980286937457]],[[7.305253046891323,48.159280620278494],[7.30485704947933,48.156933959966814],[7.304856356702618,48.156887485559444],[7.305253046891323,48.159280620278494]]]}}]}
