{"type": "FeatureCollection","name": "aoc_geojson","features": [{"type":"Feature","properties":{"dt":"Dijon","type_prod":"Vins","categorie":"Vin tranquille","type_denom":"appellation","signe":"AOC","id_app":138,"app":"Bourgogne","id_denom":362,"denom":"Bourgogne - blanc exclusif","insee":"71057","cvi":"1B309, 1R309, 1R309 GA, 1S309","nomcom":"BRAY","insee2011":"71057","nomcom2011":"BRAY","id_aire":1780,"crinao":null,"grp_name1":null,"grp_name2":null},"geometry":{"type":"MultiPolygon","coordinates":[[[[4.720204186900021,46.48842493416697],[4.719972293970765,46.4884152740578],[4.719773988936693,46.48850310050909],[4.719397501711579,46.488609818977004],[4.719101177268196,46.48867831325957],[4.718692175638004,46.48901951109631],[4.718507400376191,46.4892140407544],[4.718408033573524,46.489425029238355],[4.718306708067161,46.48963595699457],[4.718594293971444,46.489687204536544],[4.718630483442995,46.489693505477184],[4.718626689910133,46.4897717402124],[4.71862395824594,46.489834017215564],[4.718653228123954,46.490030372373916],[4.718694399603933,46.49030643752992],[4.718721907810957,46.490508943670086],[4.718769478857317,46.49086390085099],[4.718862182045995,46.49082621013273],[4.718866429437419,46.49082443500206],[4.719722637435297,46.49069537124439],[4.719707186826526,46.49061481405216],[4.7196352418587,46.49016943681589],[4.719653269260236,46.48981070096315],[4.719726820562125,46.48962477796343],[4.719962945715931,46.48903669358819],[4.720204186900021,46.48842493416697]]],[[[4.721352361852173,46.49738529700471],[4.721350023929658,46.497385602405856],[4.721074100579191,46.4974201090019],[4.720872231161305,46.49744557439574],[4.720307451830554,46.49751396860146],[4.720242709335311,46.4975205269271],[4.720138258845827,46.497533446928024],[4.720385111243437,46.4981523614435],[4.720746267885288,46.49887196056816],[4.72077344782392,46.49886533689373],[4.720821232816727,46.49895369330981],[4.720890735464138,46.49908549507065],[4.72094359467117,46.49918584395497],[4.721051807979008,46.49939118754866],[4.721097164929155,46.499476968481034],[4.721209183424739,46.4996912612882],[4.721378105281468,46.50000998484976],[4.72146146497527,46.500159230654674],[4.721467261509377,46.50016932087718],[4.721951600144609,46.49965927644412],[4.722020660127344,46.499615905063685],[4.722786985846446,46.499250939323694],[4.722715063767851,46.499166550047185],[4.722492466973484,46.498895291452655],[4.722246185833141,46.498567827520795],[4.722244136573312,46.49856488619946],[4.722086318223162,46.49838713067252],[4.72198351611702,46.49826645899864],[4.721799806101318,46.498061712882965],[4.721768125265478,46.49800013424473],[4.721747220928615,46.49795766751759],[4.721745611126678,46.4979562506987],[4.721668475962075,46.49788013535017],[4.721621480801643,46.49781680583769],[4.721610301997701,46.49779733969965],[4.721531242397168,46.49768504654014],[4.721360942761184,46.49738444727106],[4.721352361852173,46.49738529700471]]]]}},{"type":"Feature","properties":{"dt":"Dijon","type_prod":"Vins","categorie":"Vin tranquille","type_denom":"appellation","signe":"AOC","id_app":138,"app":"Bourgogne","id_denom":362,"denom":"Bourgogne - blanc exclusif","insee":"71057","cvi":"1B309, 1R309, 1R309 GA, 1S309","nomcom":"BRAY","insee2011":"71057","nomcom2011":"BRAY","id_aire":1780,"crinao":null,"grp_name1":null,"grp_name2":null},"geometry":{"type":"MultiPolygon","coordinates":[[[[4.719707186826528,46.49061481405216],[4.719635239019697,46.490169346792115],[4.719653269260236,46.48981070096315],[4.719726690222332,46.48962477992438],[4.719963073214829,46.489036601603196],[4.720204186900021,46.48842493416697],[4.719972424307661,46.48841527209658],[4.71977385859958,46.48850310247009],[4.719397504550106,46.4886099090008],[4.719101049768684,46.48867840524361],[4.718692178475388,46.489019601120134],[4.718507400376192,46.489214040754405],[4.71840816391289,46.48942502727892],[4.718306841243815,46.48963604505906],[4.718594293971444,46.489687204536544],[4.718630355940315,46.489693597460686],[4.718626817413002,46.48977164822892],[4.71862395824594,46.489834017215564],[4.71865336130213,46.490030460438],[4.718694529945394,46.490306435570155],[4.718721777469013,46.49050894562987],[4.718769476019708,46.4908638108272],[4.718862182045995,46.49082621013273],[4.718866559780112,46.49082443304211],[4.719722637435297,46.49069537124439],[4.719707186826528,46.49061481405216]]],[[[4.72195173050831,46.49965927448063],[4.722020529763749,46.49961590702724],[4.722787116209141,46.49925093735928],[4.722715194130346,46.49916654808283],[4.722492336611629,46.49889529341675],[4.722246319037971,46.49856791558058],[4.722244006212239,46.49856488816328],[4.722086448583816,46.49838712870889],[4.72198338575665,46.49826646096215],[4.721799939304191,46.498061800943276],[4.721767994905737,46.49800013620799],[4.721747220928615,46.49795766751759],[4.721745738643422,46.49795615871185],[4.721668606321531,46.49788013338703],[4.721621611160951,46.497816803874585],[4.721610435199621,46.49779742776017],[4.721531372756164,46.49768504457716],[4.721360942761184,46.49738444727106],[4.721352361852174,46.497385297004726],[4.721349893571372,46.49738560436865],[4.721073970220812,46.49742011096437],[4.720872234002727,46.49744566441939],[4.720307582189186,46.497513966639865],[4.720242709335311,46.4975205269271],[4.720138389204511,46.4975334449666],[4.720385111243439,46.4981523614435],[4.720746140364716,46.49887205255387],[4.720773317462076,46.49886533885587],[4.720821363178782,46.49895369134762],[4.720890602260234,46.49908540700932],[4.720943725033775,46.49918584199265],[4.721051938342099,46.499391185586205],[4.721097164929157,46.499476968481034],[4.721209316630639,46.499691349349185],[4.721378235646027,46.500009982886944],[4.72146146497527,46.500159230654674],[4.72146713114444,46.50016932284011],[4.72195173050831,46.49965927448063]]]]}},{"type":"Feature","properties":{"dt":"Dijon","type_prod":"Vins","categorie":"Vin tranquille","type_denom":"appellation","signe":"AOC","id_app":138,"app":"Bourgogne","id_denom":362,"denom":"Bourgogne","insee":"71057","cvi":"1B309, 1R309, 1R309 GA, 1S309","nomcom":"BRAY","insee2011":"71057","nomcom2011":"BRAY","id_aire":1781,"crinao":null,"grp_name1":null,"grp_name2":null},"geometry":{"type":"MultiPolygon","coordinates":[[[[4.718692178475388,46.489019601120134],[4.718507400376192,46.489214040754405],[4.71840816391289,46.48942502727892],[4.718306841243815,46.48963604505906],[4.718594293971444,46.489687204536544],[4.718630355940315,46.489693597460686],[4.718626817413002,46.48977164822892],[4.71862395824594,46.489834017215564],[4.71865336130213,46.490030460438],[4.718694529945394,46.490306435570155],[4.718721777469013,46.49050894562987],[4.718769476019708,46.4908638108272],[4.718862182045995,46.49082621013273],[4.718866559780112,46.49082443304211],[4.719722637435297,46.49069537124439],[4.719726235415876,46.49073089337633],[4.719818153861735,46.49106113526809],[4.719849473661743,46.491156945119904],[4.719883621923911,46.49125973759247],[4.719766764110115,46.492214399013406],[4.719788631356207,46.49292838711849],[4.719789125411716,46.49294405124863],[4.720706039042265,46.49292764116573],[4.72108748702016,46.4929193769242],[4.72109178849161,46.49291931216189],[4.721126704770352,46.49311242940605],[4.7211282895715,46.49312132212701],[4.721276634732583,46.49334245341206],[4.721560487452897,46.49350191986351],[4.72157435965244,46.49351585138884],[4.721575841812199,46.49351736019792],[4.721599426405777,46.493574557499755],[4.721606841670419,46.49359876377672],[4.721937661706954,46.493560546547975],[4.721998529924718,46.493567735652995],[4.722057825439177,46.49357467821778],[4.722077770204691,46.49369416621043],[4.722131669917044,46.49369542576672],[4.722133710714282,46.49372700836422],[4.722140624635282,46.493830300548844],[4.722020595248093,46.493832829235835],[4.722021556029721,46.49383434589329],[4.722027907077298,46.493841365475674],[4.722036287295685,46.493850696219454],[4.722040827229534,46.49385405035722],[4.72206403977697,46.49387054311782],[4.722098209819406,46.49388299794688],[4.722118661418377,46.49389052563907],[4.722324157344396,46.493881215154516],[4.722392613314607,46.49387676122274],[4.722546700115618,46.493866603708774],[4.722677561840673,46.4938560754465],[4.72274234235748,46.493850866092906],[4.722813563056154,46.49383898478906],[4.722893409061645,46.493823550917725],[4.722932726187152,46.49347061811651],[4.722916594217574,46.493471851985376],[4.722605666169192,46.49349572193957],[4.722660013952763,46.49342861400552],[4.722672561991303,46.49340888047833],[4.722758662283689,46.49328185008782],[4.722772824489152,46.4929912621811],[4.722738150886966,46.49281426360057],[4.722920689649516,46.49280079462205],[4.722955815121149,46.492983820803396],[4.722984857057389,46.49298257247608],[4.722992988702782,46.49302117852116],[4.723055640474132,46.49301879312195],[4.723089115468402,46.49318671296481],[4.72309918251605,46.49327005289586],[4.723105023098819,46.493318690851794],[4.723013263440828,46.49332025407586],[4.723011617865198,46.49328055953989],[4.722984483144817,46.49328439105469],[4.722966822407831,46.49350550036322],[4.722953022590681,46.49364657239643],[4.722932270344399,46.49382350561691],[4.722929898623047,46.49384749905667],[4.722928896656152,46.493857061208914],[4.723231971498073,46.493832227989955],[4.723444775809461,46.49380659334001],[4.724243530385835,46.49371943284823],[4.724348377269409,46.49370281025597],[4.724350712170278,46.49370241476973],[4.724330658107662,46.49350952450288],[4.724204902196247,46.492452508761616],[4.724181294522547,46.49242764619971],[4.72408649684939,46.49231658285287],[4.724069009858225,46.49229144782194],[4.724067428037806,46.49228678821746],[4.724053656710393,46.49224718649305],[4.724025579673985,46.49217582689046],[4.724024528369033,46.492175572546266],[4.723974794320754,46.492165784822895],[4.723916045936075,46.492151359493754],[4.723897875501948,46.492141726194504],[4.723873602719229,46.49212056633148],[4.723844332415013,46.492085701642324],[4.723332863789862,46.49217204164285],[4.723087429833292,46.49136712394946],[4.72325757373031,46.49134123187324],[4.72304159345487,46.49065115521995],[4.722970545823594,46.490375361504746],[4.722948194119268,46.49027464371688],[4.722875956867529,46.48992402254707],[4.722864928694555,46.48985150503974],[4.722850444521075,46.48971500228338],[4.722239806228685,46.48981517151326],[4.721717433346584,46.48990247949239],[4.721611664336897,46.48992685939174],[4.721581063554795,46.48993650706121],[4.721519864800213,46.489955892399315],[4.721501532654498,46.48996175261364],[4.72148647808564,46.49010860766517],[4.721480991827681,46.49016200967917],[4.721480994669729,46.49016209970291],[4.721472303776874,46.49024617260005],[4.721467846995166,46.49036936067229],[4.721465967628073,46.490421357365264],[4.721375954250376,46.49044090635621],[4.721366146360406,46.49039872278376],[4.721375327639911,46.4903756175572],[4.721405534322695,46.49029977698075],[4.721395278997061,46.49007818760949],[4.721432933194939,46.489895415948304],[4.721635455743715,46.48988326911909],[4.721720167615126,46.489873436879954],[4.721727810072638,46.48979334267212],[4.721810039810273,46.489841190343185],[4.722565739028997,46.48971379899265],[4.723061204724075,46.489625181424614],[4.723122446769594,46.48952878766174],[4.723141885678165,46.48947130234265],[4.723151562047591,46.48942675364438],[4.723208223348533,46.48925144047813],[4.723284434754166,46.48898504540269],[4.723375211062508,46.48875454736803],[4.723384588064878,46.48874179666559],[4.723402344878843,46.488717751358735],[4.723418524626108,46.48868094036855],[4.723441635667683,46.488628263211666],[4.72346929992921,46.4885752471963],[4.723479867529458,46.48856716199692],[4.723502378864235,46.48856565170325],[4.723821847080814,46.48854471233233],[4.723881908932626,46.488415191387844],[4.723912180502984,46.48834979680538],[4.723949763329302,46.48827231308226],[4.724026986749917,46.48812470001784],[4.724054531235844,46.48807204591707],[4.724137937720092,46.48789317644718],[4.724175553014756,46.48782911207395],[4.724186913615969,46.48780074984858],[4.72419500848468,46.48778045281466],[4.724212094071996,46.48774344789679],[4.724280058206126,46.48758759810122],[4.724288918221211,46.487471908937266],[4.724294285776637,46.487402476646295],[4.724318162862899,46.48713488869243],[4.724320654866633,46.487106480102774],[4.724318552269901,46.4870276134326],[4.724310711782189,46.48690749272641],[4.724243970842739,46.48654526071092],[4.724241917874679,46.48653394328118],[4.724223947738641,46.48650584336517],[4.724025363866372,46.48670815634953],[4.723698001341083,46.48693690918646],[4.723554472785162,46.48702058386289],[4.723446860320236,46.48706895109035],[4.723090057396869,46.487183220994446],[4.722817472809744,46.487259833495],[4.722646146641975,46.48729330853585],[4.72256575703383,46.48730361679003],[4.722453327002427,46.48730684222517],[4.722338107843941,46.487300202250914],[4.722281224837273,46.487295114973804],[4.722178364721819,46.48728756808157],[4.722077184339661,46.48732908208466],[4.721653207888862,46.48763286880267],[4.721150992768886,46.48798637786615],[4.721047185903183,46.488085212801536],[4.720955210147954,46.4881746827183],[4.720625837890097,46.48834455311478],[4.720453740095795,46.488390915922764],[4.720284769490743,46.48842894528149],[4.720204186900021,46.48842493416697],[4.719972424307661,46.48841527209658],[4.71977385859958,46.48850310247009],[4.719397504550106,46.4886099090008],[4.719101049768684,46.48867840524361],[4.718692178475388,46.489019601120134]]],[[[4.720946288271462,46.51172050929589],[4.721017407821659,46.511969102459865],[4.721202872650811,46.512380885768465],[4.721210922369139,46.51240445201655],[4.721411385317349,46.51269207818015],[4.721675937610401,46.51307159738158],[4.721797061850051,46.51335843589298],[4.722020554190229,46.513313550180506],[4.722050402704087,46.51330445435347],[4.722298032248232,46.51323488674203],[4.722668973698983,46.51302178691978],[4.72297097100703,46.51290996833934],[4.723302762428671,46.512820396648465],[4.723360505193084,46.51275693043461],[4.723347589498109,46.512728033680986],[4.723326686466587,46.5126610692096],[4.723063308726489,46.51238916511197],[4.723043822862506,46.51236288917764],[4.722966318331198,46.51227579204274],[4.722917236667749,46.512068478534005],[4.722858131417885,46.51180817693706],[4.722827876450086,46.51170532677845],[4.722815627475473,46.51167687025399],[4.72270399793353,46.511393312194805],[4.722602310594553,46.511135363207124],[4.722290632268881,46.51020147757871],[4.722221093192274,46.50997411691],[4.722157658319875,46.50993994644667],[4.72141911751797,46.5099338641677],[4.720420750542829,46.50994114352176],[4.720547594067169,46.51031868399656],[4.720615077530733,46.510514193064814],[4.720872928233148,46.51145051404868],[4.72092119047403,46.511619742662695],[4.720946288271462,46.51172050929589]]],[[[4.720307582189186,46.497513966639865],[4.720242709335311,46.4975205269271],[4.720138389204511,46.4975334449666],[4.720385111243439,46.4981523614435],[4.720746140364716,46.49887205255387],[4.720773317462076,46.49886533885587],[4.720821363178782,46.49895369134762],[4.720890602260234,46.49908540700932],[4.720943725033775,46.49918584199265],[4.721051938342099,46.499391185586205],[4.721097164929157,46.499476968481034],[4.721209316630639,46.499691349349185],[4.721378235646027,46.500009982886944],[4.72146146497527,46.500159230654674],[4.72146713114444,46.50016932284011],[4.721494710311323,46.50021249970433],[4.721293135443367,46.50034676142767],[4.721120930078394,46.50056028939122],[4.720864048193076,46.501053937071475],[4.720736920085209,46.50136513833465],[4.720690481357049,46.5015137261887],[4.720735519178016,46.50173812415856],[4.720789224144326,46.5018941213743],[4.720909078711018,46.50195986717213],[4.720996677302027,46.50214417536329],[4.72104516325041,46.502271159595395],[4.721124764644909,46.502421092663994],[4.721300347928346,46.50266550136852],[4.721406679939997,46.502819264937244],[4.721921905294477,46.502766023100634],[4.722007120587468,46.50315139456071],[4.722055460151492,46.503364484028616],[4.722154563374785,46.503338853570334],[4.722231330302505,46.503287440233805],[4.722298903681655,46.50324228984346],[4.722488203398079,46.50308254255181],[4.722508655673254,46.50306521188786],[4.722638116643497,46.5029807606322],[4.722749816877058,46.50290801526542],[4.722806943569019,46.50287076767295],[4.722920629381113,46.50281546509019],[4.723064582787085,46.5027521406736],[4.723186149347382,46.502715092595174],[4.723281350584534,46.50268573715188],[4.723292859685704,46.502682591491656],[4.723607321095817,46.50266569240418],[4.723788188144705,46.502540565414776],[4.723861653149749,46.50236418854112],[4.723870599691293,46.50233775425724],[4.723995637000868,46.50200217285322],[4.72406320377563,46.50181255492001],[4.724094908559694,46.501730386578],[4.724116163496627,46.50168485271131],[4.724159970058636,46.50158529916448],[4.724363842836699,46.50132994842702],[4.72448427391415,46.50113755140695],[4.724586127502813,46.50096813121484],[4.724664905967895,46.50085679160441],[4.724710805957149,46.50079872686482],[4.724891207435091,46.50068801561682],[4.724972621560809,46.500618787115634],[4.724998341700665,46.500537159102045],[4.724749069512193,46.500091127904625],[4.724743115741817,46.5000760865556],[4.724175243459597,46.49909473148342],[4.723961724326112,46.498735433864695],[4.723936285505254,46.49868574050611],[4.723716505519439,46.498256194948034],[4.723548603241998,46.49799474152666],[4.723533738944998,46.49797010727332],[4.723522457525676,46.49795154352367],[4.723494153201703,46.497914322444174],[4.723490074517135,46.49790907001055],[4.723251068429358,46.49759726012173],[4.723228914092951,46.49756066680984],[4.723081191467594,46.49739699094664],[4.723000118392776,46.49743153744603],[4.722776646540727,46.49716542638725],[4.722753837276052,46.49717000323137],[4.722726991952799,46.497121141411284],[4.722885202597091,46.497063726612396],[4.723057997911934,46.497273859390106],[4.723104570622088,46.49725775607669],[4.723152687471676,46.497307017727934],[4.723099324733441,46.497322863135444],[4.723265584049591,46.49751183843934],[4.723267317287204,46.49752541235027],[4.723581879596154,46.49787156931373],[4.723674600095761,46.49775164391289],[4.723722987350088,46.49765679489113],[4.723739650057807,46.49754855394564],[4.723746678171372,46.497403711138475],[4.723740119978235,46.49727465468181],[4.723727380340954,46.49716046232889],[4.723699694706369,46.49700254287633],[4.723680615457407,46.49692708462541],[4.723639726432641,46.49678467553218],[4.72359129394582,46.49666354578053],[4.723492112098908,46.496446990097446],[4.723401577272499,46.49629767371436],[4.723329382309673,46.49618392726373],[4.723248718468621,46.49607868461273],[4.723170348833246,46.49598412523915],[4.723073791653617,46.49586291006479],[4.722837942110948,46.495572217423884],[4.722802734451606,46.49551870811883],[4.722668211152196,46.49526899948717],[4.722564447567191,46.49505170148602],[4.722543288723424,46.49500941885892],[4.72250275297442,46.494869796117584],[4.722457054665899,46.494657567487465],[4.722421629274004,46.49447328480127],[4.722393790458836,46.49431860974049],[4.722342116089486,46.49392129437291],[4.722039355732567,46.493927206517874],[4.721652385951508,46.49404579836756],[4.721370765174764,46.49412236273952],[4.721320511092767,46.49414158308038],[4.720901643750369,46.49431568323905],[4.720592654835327,46.494459036619716],[4.720826106510715,46.49498006970258],[4.720987021273245,46.49534313699749],[4.721141070093694,46.495653888775095],[4.721799598119489,46.49656012837029],[4.721654314196479,46.49660149530985],[4.72146880223209,46.49665751819195],[4.721386425668936,46.496692083180726],[4.721398111381812,46.49671109137471],[4.721038837421948,46.496786392122864],[4.721098654458794,46.49691716871807],[4.721114622380709,46.49693962506222],[4.721229131301235,46.497142081669566],[4.721253053797712,46.49719341962098],[4.721310857297906,46.49729756676464],[4.721352361852174,46.497385297004726],[4.721349893571372,46.49738560436865],[4.721073970220812,46.49742011096437],[4.720872234002727,46.49744566441939],[4.720307582189186,46.497513966639865]]],[[[4.721663798826386,46.504212232354156],[4.721740302345883,46.50423089495194],[4.721977036050824,46.504325592249266],[4.722214918806802,46.50442360421433],[4.722338348677471,46.50448668281849],[4.722379938300279,46.50451082456741],[4.722425173710849,46.50454301735128],[4.722471886439756,46.50458068190945],[4.722508993639516,46.50461569910045],[4.722596699508594,46.50473704813811],[4.722639438223081,46.50479341623546],[4.722670379625828,46.504839694497534],[4.722697901048987,46.50491808789744],[4.722768446504747,46.50516092465425],[4.722832647941888,46.50517824077249],[4.722847777845434,46.50518233598332],[4.722885075166356,46.505190330290716],[4.722917681272205,46.5051943422899],[4.72295436270491,46.505195230614135],[4.722995232763271,46.505192453153995],[4.723263666526286,46.50515913621758],[4.723240004559868,46.50499241974826],[4.723228312436587,46.504919642214894],[4.723357239223851,46.504908962621414],[4.723363096750197,46.504945711475685],[4.723451695160186,46.504938431671604],[4.723456532511169,46.50497591643006],[4.723483216972484,46.50497416321129],[4.723502073147086,46.50507961689097],[4.723509617586425,46.50514083836058],[4.723691230666839,46.50514629668916],[4.7238252961181,46.50515373251486],[4.723901709445513,46.505161226824704],[4.723973957012951,46.505173107079635],[4.724086550953149,46.50520689552091],[4.724682182571883,46.50537741495843],[4.724738728996254,46.505391873294656],[4.724790354646625,46.50540334357489],[4.725278919891229,46.50547559134302],[4.725420038072274,46.505499761312564],[4.725446498248425,46.505511520983674],[4.725464662014165,46.505520793921356],[4.725494920201678,46.505549518817375],[4.725522859369111,46.50559151846361],[4.725575611548229,46.5057086192851],[4.725641277791807,46.505862812674586],[4.725705499555308,46.5060208106177],[4.725798566975749,46.50624529248758],[4.725879624150409,46.50636232622045],[4.725937884915534,46.50643088801223],[4.725984389384556,46.506470085456826],[4.726024780211653,46.506493343350805],[4.726219843428098,46.50655677759868],[4.72652910094613,46.506667303281674],[4.726614273272324,46.506695919230516],[4.726691334859566,46.506715560889866],[4.726789137603083,46.50673110648029],[4.726880419771683,46.506738464355514],[4.726968301896344,46.50673731720057],[4.727239434488074,46.50672313440651],[4.727613793356926,46.50668982840393],[4.727666957136847,46.50668803440432],[4.727780147207155,46.506686954561566],[4.727877142461978,46.50668936172615],[4.727774732833511,46.50645439475],[4.727732532844443,46.506349384466915],[4.727698787952092,46.50623127684453],[4.727639038263719,46.50596351142948],[4.727595377041766,46.50577944483081],[4.727548781551232,46.50578267070181],[4.727267556361959,46.5058034014833],[4.727266870924485,46.50567884994508],[4.727264014249936,46.50563809299907],[4.727260751352053,46.50559274880052],[4.727215858676248,46.5053656489094],[4.727209351132133,46.50533728621414],[4.727182898681398,46.505280493604864],[4.727125669134317,46.50518273532239],[4.727100785466471,46.505146634281594],[4.727078507329144,46.505114546869756],[4.726721942329843,46.50485684809531],[4.726640588141896,46.504800434137685],[4.726579031540277,46.50475957286469],[4.726507731071729,46.50471993948945],[4.726444090192782,46.50468739573115],[4.726383338926015,46.50464724272761],[4.726176115139672,46.50447555243926],[4.726093805217145,46.50440951542634],[4.725969000318619,46.504319621771195],[4.725685218021096,46.50413161339138],[4.725373291274331,46.50392799721763],[4.725289338092797,46.50387180168409],[4.725233315542312,46.50382851447783],[4.725187086832864,46.50377733375715],[4.725083654202785,46.50366613121242],[4.725030268833969,46.50361136568597],[4.724938470899801,46.50353394251926],[4.724850661960145,46.503463033953196],[4.724627217417907,46.503281318095645],[4.72457467902628,46.50323680716118],[4.724362882555047,46.50309751652686],[4.724273379809656,46.50304311523284],[4.724098927651827,46.50294216962377],[4.724019269340568,46.50289383427075],[4.723840187951962,46.502778457390384],[4.723758653112862,46.50272438590444],[4.723721263982939,46.50271756414948],[4.723689965854835,46.50271362274664],[4.723688140661671,46.50271365026301],[4.723525540179597,46.50271934387932],[4.723391607587968,46.5027282978711],[4.723241923878868,46.50274649574545],[4.723173443658405,46.50275878615354],[4.72310859155165,46.50277444436441],[4.723071460090964,46.50278815365037],[4.722962076235103,46.50283924850481],[4.722817783564118,46.502912485199786],[4.72274919885415,46.50295449882712],[4.722629506985626,46.50303438977447],[4.722407372065171,46.503203458464874],[4.722186816854455,46.50336890024952],[4.72215479817138,46.50338757593112],[4.722129237493908,46.503395976835066],[4.7220498248092,46.50340906168184],[4.721989788845216,46.50341618046559],[4.722072395961338,46.50372719633633],[4.721322873559918,46.50383332260516],[4.721355615480988,46.503936676149344],[4.721352258628139,46.504016255251436],[4.72134853255305,46.50402630870957],[4.721332534461397,46.50406906086439],[4.721352589357781,46.50406803840817],[4.721635107480802,46.50420825112698],[4.721663798826386,46.504212232354156]]],[[[4.721710654773172,46.506302956665415],[4.721693420715315,46.50631897776885],[4.721676682168902,46.506330037762154],[4.721674319091769,46.50633781904502],[4.721672542518666,46.5063435199719],[4.721653221549928,46.50638019767334],[4.721650860497996,46.50637978289228],[4.721518953579818,46.50635817157172],[4.721479995231932,46.50635542566388],[4.721430972063991,46.50635202067349],[4.721296972214915,46.506346742606226],[4.721091036172183,46.506335341894996],[4.721087116254633,46.50633513069918],[4.721094143707693,46.506380058061666],[4.721097303501508,46.50643882378107],[4.721075457109416,46.506577314285195],[4.721074581758966,46.506582641371246],[4.721064370599425,46.50662692754379],[4.721061865672766,46.506634350682106],[4.721027136610954,46.506736648301356],[4.721008006206393,46.50678764355174],[4.720997657462889,46.506815179459686],[4.720960952212447,46.50687967896284],[4.720916956547915,46.506940505393075],[4.720882588063873,46.50698812730589],[4.720749318492274,46.50716306017326],[4.720654747693888,46.50728706349667],[4.720628096223074,46.50732709369821],[4.720581901027012,46.50739677957462],[4.72054034297384,46.5074687373773],[4.720517092641205,46.507509076637206],[4.720437048447017,46.50765114462494],[4.720410490709775,46.507698288591094],[4.720407520624931,46.50770337698796],[4.720374571841972,46.50775881313048],[4.720345631009275,46.507854448570775],[4.720342916301261,46.50786349603795],[4.720297713926286,46.50799360128836],[4.720265884501105,46.50808864969504],[4.720247407970828,46.508143868064245],[4.720192920437038,46.50832698182372],[4.720191744431126,46.50833105249548],[4.720184719346564,46.50835232374207],[4.720166860478185,46.50840645200659],[4.720119426252245,46.508573337754875],[4.720065298339967,46.50876374138099],[4.720009161695758,46.50897317915587],[4.720009164536356,46.50897326917936],[4.72001194835096,46.50902015180253],[4.720025625475897,46.509238626833074],[4.720029059554136,46.50926064139905],[4.72053337100969,46.50923161866174],[4.720539229888943,46.50945030135736],[4.720539006697602,46.50945976166861],[4.720538727319676,46.50947570759304],[4.720541247466946,46.509588612711404],[4.720548009499224,46.509902031461415],[4.7208755081373,46.50990007550779],[4.720963284991885,46.509899565094486],[4.721101255623219,46.509898119014636],[4.721402492174017,46.50989484556643],[4.722101740737753,46.50987945346006],[4.722118803192939,46.509866226958245],[4.722135355464192,46.509853368402275],[4.722137898363655,46.509776953922504],[4.722130917077531,46.5097252709665],[4.722111336654035,46.509543181683796],[4.722099663850887,46.5094338369082],[4.72208337132395,46.509302135204344],[4.722080230437623,46.50927291097142],[4.722068112559306,46.509161861633146],[4.722060942184427,46.50906289672921],[4.722056398366614,46.508981004858306],[4.722050996994631,46.50888435503329],[4.722045073924823,46.508651442799575],[4.722104151998416,46.50867162858608],[4.72209706352385,46.50870325853517],[4.72210002460662,46.50880111597489],[4.722103488856935,46.5088859962928],[4.722112874818488,46.50905508945105],[4.722150557382403,46.509380741938756],[4.722200968948845,46.50987804910836],[4.72231742921154,46.50988530168433],[4.722821562020914,46.50991238290542],[4.723257669142091,46.50993751489693],[4.723382164819936,46.50993897112227],[4.723586578840443,46.50993066633742],[4.723946852159183,46.50990082741944],[4.72421695636143,46.50987423840216],[4.724379494295688,46.50985764705028],[4.724635643083507,46.509827034366445],[4.724861739060877,46.50979074991949],[4.725167848041881,46.509739477757165],[4.725233116779467,46.50972849567662],[4.725180767749837,46.50966957149867],[4.725178871095268,46.50966734845514],[4.725143977506058,46.50962824570232],[4.725089333647801,46.50957512035089],[4.725085585937038,46.50957211463431],[4.725030977705205,46.509528355617064],[4.724953750798777,46.50947061723427],[4.724887888962942,46.50942162393206],[4.724698456495049,46.50927668242703],[4.724560286092579,46.5091645622513],[4.72455546686743,46.509160672014985],[4.724553578800398,46.50915871903101],[4.724509852651048,46.50911254399622],[4.724508231055803,46.50911076712544],[4.724498948717404,46.509077132242986],[4.724492069940038,46.50906174457515],[4.7244786593353,46.509000701721014],[4.724627332540082,46.50897477203658],[4.724673794213202,46.50896722623597],[4.726243401779135,46.508713602034575],[4.726259495419797,46.508711017349505],[4.726277716289717,46.508684983290486],[4.726366689368722,46.50855754711473],[4.726332210507573,46.50841621311332],[4.72631869822729,46.50841380518776],[4.72633053563893,46.50837156547497],[4.726331441865611,46.50836722860705],[4.726355047238029,46.508259963429495],[4.726363216729641,46.50821723868989],[4.726369308619193,46.50817481551557],[4.726374498661443,46.50814510531671],[4.726377689620834,46.50812641339834],[4.726392844856268,46.50807772886974],[4.726437847575584,46.5080035552361],[4.726439459877157,46.508000918967596],[4.726452687479468,46.50798198544153],[4.726534145510974,46.507872675841746],[4.72651512097257,46.50787332336324],[4.725814029863389,46.507895615719804],[4.72578275498235,46.50789662814582],[4.725872366708059,46.50727435799317],[4.725931518961892,46.50686429353944],[4.725932523994764,46.50680951800147],[4.725980248854866,46.50652058514199],[4.725943708182752,46.506503573764135],[4.725912020091223,46.50648738979286],[4.725873817941,46.5064508590635],[4.725820057863181,46.50639672999937],[4.725773763725793,46.506343569023954],[4.725738147258277,46.506293939597654],[4.725713672239303,46.50625837249885],[4.725699821382855,46.50622876956569],[4.725615157772737,46.50600190913308],[4.725562497855014,46.5058794930202],[4.725525731415,46.505781154963515],[4.725467725152923,46.505617569079035],[4.725454086908294,46.50558643178008],[4.725435909643438,46.5055643696152],[4.725417572057697,46.50554960524537],[4.725395190616954,46.50553895488262],[4.725378438905917,46.50553308314954],[4.725299651048111,46.50551652893945],[4.724963573312775,46.505460894833064],[4.724702503450342,46.50542601448778],[4.724595431980716,46.50540601356909],[4.724440667264686,46.50536277419924],[4.724305126816763,46.50531285000005],[4.724178869010972,46.505263596264236],[4.724178075359697,46.505263247966546],[4.724176131093549,46.505263637550456],[4.723714116289328,46.50536679440434],[4.723446806659402,46.50541918950874],[4.723446250996667,46.505418117087984],[4.723429577737368,46.505381711396474],[4.723420091498771,46.50538284511064],[4.723374346667487,46.50538821805304],[4.723370174592381,46.505388280936],[4.723352179672437,46.50538846209359],[4.722847087865414,46.50540814269711],[4.72284644451364,46.50540842258999],[4.722763817116228,46.50543956959231],[4.722745139086921,46.50546353845926],[4.722658515514152,46.505570491378606],[4.722649006563683,46.50562044132193],[4.722663086149582,46.505925644121],[4.722651022316033,46.506039219378],[4.722630859815163,46.50619371668671],[4.722629819625544,46.506193822424144],[4.722228145960353,46.506221308966076],[4.722101111817691,46.50623006733658],[4.721890274512604,46.506236935279425],[4.721754104773268,46.506241417588306],[4.721725178007724,46.50624653661005],[4.721728909069166,46.50625728838461],[4.721721875910048,46.50627414661926],[4.721720782106274,46.50627668494572],[4.721713947971298,46.506299844823744],[4.721710654773172,46.506302956665415]]],[[[4.722619547587699,46.510962536619786],[4.722670339648749,46.51112497150701],[4.722749512903474,46.51131859205748],[4.72288992469251,46.5116914224148],[4.723060071260865,46.51224961122511],[4.723110772440962,46.51232243138098],[4.723140153269044,46.51236458999426],[4.723388457956699,46.51262600319636],[4.723393457185241,46.512573689435584],[4.723409063941251,46.51243601314536],[4.723435285657379,46.51227097686461],[4.723451289244615,46.51219949327124],[4.723477404793778,46.51213425197708],[4.72349763878162,46.512093417207915],[4.723510476671036,46.51207034689191],[4.723567146874641,46.51198537088021],[4.723605741717562,46.51193110967511],[4.723665929945639,46.511850133563925],[4.723691894148842,46.51180074615369],[4.724070817055757,46.511708480199346],[4.724547785470321,46.51156087475807],[4.72474342553503,46.51143588433483],[4.72473128828127,46.511402742867766],[4.724776053972335,46.51135802525972],[4.724821543151408,46.51133617355947],[4.724883005574424,46.51131615242748],[4.724936367903043,46.51130399914872],[4.725023074695946,46.511298458081484],[4.725098113110983,46.51130345060059],[4.725147295489458,46.511315858315314],[4.725187840710154,46.511327405585256],[4.725387869343533,46.511407068536535],[4.725404678553641,46.51138997251291],[4.725420925598847,46.511367480990195],[4.725461660720895,46.51131084510057],[4.725478789747524,46.5113079747168],[4.7256239410857,46.51127363074292],[4.725935675823043,46.5112061498859],[4.725975520624402,46.511199694184185],[4.726059191717385,46.51118068819707],[4.726095974773711,46.51117229720824],[4.726138758658307,46.51116390569176],[4.726147162805973,46.51116152717308],[4.726228488839279,46.51113850347382],[4.726230427598308,46.511137933808804],[4.726296076046079,46.51111829904602],[4.72637955872129,46.51109335128671],[4.726404348561391,46.51108523132502],[4.726417654677598,46.51107287148211],[4.726424998339639,46.511053486414724],[4.726428694450313,46.51102190739327],[4.726424528738553,46.51099747224015],[4.726407611290036,46.51093287988358],[4.726409270615519,46.51092348793253],[4.726382832629211,46.51086309229238],[4.726378776616357,46.51083388196507],[4.726302530073054,46.51068363152171],[4.726288476106344,46.51065178006827],[4.726236179300887,46.51053278131243],[4.726229181452195,46.51050541671643],[4.726145398120698,46.510351947492914],[4.726115190826626,46.51029196895743],[4.726102523630422,46.51026270847291],[4.7260554698856,46.51019803056726],[4.725952219087853,46.51005593321941],[4.725922882936088,46.51001521568483],[4.725914316411721,46.50999598071815],[4.725855540883679,46.50989067960002],[4.725843116918554,46.50987321410838],[4.72581524724796,46.50982112605498],[4.725787380480803,46.50976912801764],[4.725641432405638,46.509794657792],[4.725535183397637,46.50981328368097],[4.72552870105189,46.509814552362],[4.72548889710564,46.5098222682363],[4.725419070429852,46.50983349936927],[4.725399053382489,46.50983578286436],[4.725382686505254,46.5098338682283],[4.725380792686248,46.509831735211534],[4.72536862318023,46.50982642478628],[4.725353939263838,46.50981998143602],[4.725322126894913,46.509799926306925],[4.725294348022476,46.50977954011321],[4.725280992967123,46.509769744249745],[4.724506138331488,46.509877533246645],[4.72425001710641,46.50990490283293],[4.724014033018571,46.5099585377999],[4.723378752335418,46.50996307024969],[4.7222813991799,46.509934029804874],[4.722451793919817,46.510459161461476],[4.722484898992466,46.51056142839166],[4.722619547587699,46.510962536619786]]],[[[4.72253691569442,46.494811818937045],[4.722555806811787,46.49489790805165],[4.722579326201645,46.4949653737252],[4.722591898852296,46.49500832612569],[4.722698747371799,46.495240708786746],[4.722807525398588,46.4954391972741],[4.722844635760468,46.495503395815476],[4.722908746697472,46.49559249610616],[4.722988283322015,46.49569100098712],[4.723100818770914,46.49582674630086],[4.723144205121787,46.495879051443694],[4.723268101414595,46.496031737991785],[4.723347424680584,46.49613582997383],[4.723439857511701,46.4962833164544],[4.723524920315782,46.49643280537262],[4.723625015939799,46.49663700814277],[4.72365937290445,46.49671718971569],[4.723683385125617,46.49678780007056],[4.723732277820326,46.49695647795385],[4.723749090392607,46.49705511746185],[4.723780702284864,46.49726296460352],[4.723787207623423,46.4974398471602],[4.723784632877708,46.49755228895475],[4.723766282997868,46.49765253943036],[4.72374651793175,46.497703905139744],[4.723642188773714,46.49785678982268],[4.723579429792077,46.4979467216858],[4.723584484640977,46.4979828521993],[4.723664718075774,46.49812800056803],[4.72374379692271,46.498261367583964],[4.723789163429065,46.49835147056111],[4.723874951686011,46.49851139600207],[4.724005253652938,46.498734417196054],[4.72413323885334,46.49890064124483],[4.724174402893373,46.49896504844278],[4.724176735771956,46.49896870598557],[4.72432137261717,46.499199526566265],[4.724361996335589,46.49926745444188],[4.724478120108185,46.49946682135483],[4.724527458905916,46.49955461247556],[4.724600156655979,46.49966754002724],[4.724711560910762,46.49988670246477],[4.724733304591878,46.499930867282835],[4.724747997523219,46.49995829603406],[4.724842958721936,46.50011529034311],[4.724992904337713,46.50034882208696],[4.725041535965863,46.50043482233757],[4.725104052517265,46.50054330981235],[4.725159165756704,46.50062804135115],[4.72520396247677,46.500708245081725],[4.725278939584819,46.50077358273272],[4.725356601221589,46.500824829454736],[4.725421800569576,46.500869689349],[4.725514905519407,46.500939076463396],[4.725548284293007,46.500967574099874],[4.725596427930848,46.501058715281104],[4.725639534421819,46.50115965964993],[4.725700276322852,46.50135211555458],[4.725737469042756,46.50153817189826],[4.72622869279449,46.50151418402109],[4.726202677006424,46.50130220004487],[4.726185560438726,46.501152948105606],[4.726189623989308,46.50100941083612],[4.726197525933879,46.50095002777949],[4.726217715763285,46.50088739693274],[4.726245338863721,46.500853565192806],[4.726333044774336,46.500670036384626],[4.726337181651015,46.500557660993906],[4.72641785081787,46.50054734617351],[4.7263788085877,46.50025350831523],[4.726373436712191,46.50015388580737],[4.726343654345762,46.4996787843417],[4.726269787807215,46.49939312791472],[4.726263045516097,46.49928316843423],[4.726317167470769,46.49916769653443],[4.726321408226252,46.499112151521885],[4.726277353982703,46.49875471222777],[4.726263575633679,46.49869439556852],[4.726263300659264,46.49869394938788],[4.726128830633699,46.4984466755962],[4.726116880205802,46.498448207025874],[4.726027633082267,46.49845937172201],[4.725782651205757,46.49849495362447],[4.72558290423172,46.498529852248254],[4.725422376400266,46.498567671216904],[4.725271838400452,46.49860795113046],[4.725270715747055,46.49860544621015],[4.725139029887377,46.49830174767417],[4.724985883678427,46.49795865347071],[4.724956471720474,46.49789469969816],[4.724775131127754,46.49755491275617],[4.724575477429788,46.49730817030123],[4.724435505889468,46.49686598362804],[4.724185136168541,46.49612887283334],[4.723758900618009,46.49487382895121],[4.723607936645146,46.49443829181955],[4.723300184048039,46.49385308587632],[4.723253808508223,46.4938588287006],[4.722948503862224,46.49388738830978],[4.722744077794429,46.49388515528127],[4.72238216481072,46.493921681702055],[4.722411069286267,46.49413074088284],[4.722414464027099,46.49415563815468],[4.722459285679278,46.49443921268626],[4.722477098169519,46.494536576379616],[4.72250021864086,46.49463683228487],[4.72253691569442,46.494811818937045]]],[[[4.724220631904326,46.50161041354842],[4.724199876827654,46.50164288026617],[4.724174022210696,46.5017079378639],[4.724139763217295,46.501804195110466],[4.724608101524636,46.501741110254244],[4.724650596365313,46.501946451193014],[4.724674166622807,46.50199473152165],[4.724707042196657,46.50204854566127],[4.724782875734573,46.502182141082116],[4.724841260121464,46.502263040630446],[4.725401882197205,46.502140197275196],[4.725524266463994,46.502112591300694],[4.725642331320516,46.50208450998794],[4.725876119722568,46.50202856246632],[4.725866577007743,46.50199493158996],[4.725862456438414,46.501980132823284],[4.725843346904217,46.50193682911164],[4.725793904810973,46.501850030820066],[4.725731206575881,46.50174001531561],[4.725718558670359,46.501711294886356],[4.725702633029069,46.501640833087954],[4.725687713323083,46.50151973874793],[4.725683689010372,46.50148737556031],[4.725678259864616,46.5014435951347],[4.725613520040465,46.50122372928804],[4.725590107467675,46.50115572220167],[4.725587388292811,46.50114810759175],[4.725583937500111,46.50113798216273],[4.725555665085551,46.50107302061209],[4.725550967620947,46.501064715327175],[4.72552886946664,46.50102586992809],[4.725477988149051,46.50096773436649],[4.725409960541682,46.500907695951206],[4.725331049308324,46.500841697219656],[4.72531178151648,46.50083045947525],[4.725137252603845,46.500871191201334],[4.72514173332837,46.50088913688459],[4.725184354634389,46.50104484914499],[4.725126564563379,46.50102392506453],[4.725110678926897,46.50096706262249],[4.725069958269404,46.50096209292001],[4.724984152660385,46.50097086307652],[4.724966067171875,46.50092691331098],[4.724871159372764,46.50094068430132],[4.724729012638553,46.500986691101836],[4.724684175915283,46.500938191191395],[4.724655716762682,46.50097861000116],[4.724611245858066,46.50102413392018],[4.724481293123492,46.501274227163634],[4.724440175232785,46.501343297841565],[4.724220631904326,46.50161041354842]]]]}}]}
