{"type": "FeatureCollection","name": "aoc_geojson","features": [{"type":"Feature","properties":{"dt":"Angers","type_prod":"Vins","categorie":"Vin tranquille","type_denom":"appellation","signe":"AOC","id_app":1028,"app":"Fiefs Vendéens","id_denom":2344,"denom":"Fiefs Vendéens Vix","insee":"85303","cvi":"1B712S, 1R712S, 1S712S","nomcom":"VIX","insee2011":"85303","nomcom2011":"VIX","id_aire":1689,"crinao":null,"grp_name1":null,"grp_name2":null},"geometry":{"type":"MultiPolygon","coordinates":[[[[-0.88244060584151,46.37421295668048],[-0.882433998725403,46.37428124922853],[-0.882404063672055,46.37460403428268],[-0.882401083740218,46.374607922313224],[-0.882276173311724,46.374771030796666],[-0.882160395724623,46.37491787053504],[-0.882109659702626,46.374988387164116],[-0.882044718094893,46.375078951314734],[-0.88198427287064,46.37516314155857],[-0.881740118201845,46.375303443782215],[-0.881680412275171,46.375337572310706],[-0.881567241545771,46.37540201052483],[-0.881369268394588,46.37549385843883],[-0.881251129138627,46.37554521262184],[-0.880931802704723,46.37568536776289],[-0.880627485917893,46.37578930939586],[-0.880383493090121,46.375847651622024],[-0.880328218648775,46.37585800779811],[-0.880161144787558,46.37588064411102],[-0.879913819855972,46.37587193288537],[-0.879614806456581,46.37579754400145],[-0.879612818986731,46.37579707070981],[-0.879170448108711,46.375635420738526],[-0.879094754680697,46.37559670536948],[-0.879050421651148,46.375574052328275],[-0.878876511061564,46.375480258292214],[-0.878785097475523,46.3754347750592],[-0.878733034596434,46.37540048440859],[-0.878607856883966,46.375317924009394],[-0.878478082705546,46.37523299552441],[-0.878079733719356,46.37495561687846],[-0.877793772754479,46.37479161574321],[-0.877661787419566,46.37471586732206],[-0.87764806959053,46.3747079495157],[-0.877476519729056,46.3746216462553],[-0.877245042108425,46.374511326243734],[-0.877207980631149,46.37449383452681],[-0.8772032731215,46.374491740761805],[-0.87676842161256,46.374274290608696],[-0.876733445853244,46.37425681796823],[-0.876161440115299,46.37396775871791],[-0.875498274644461,46.37364212785239],[-0.875425736985518,46.37360375370437],[-0.87541720628817,46.37359917534999],[-0.875308124179095,46.37354139802229],[-0.875299197307705,46.37353674297335],[-0.875294724299371,46.37353428054118],[-0.875293510190021,46.3735336907308],[-0.87524641573388,46.37350878616012],[-0.875167829853942,46.37346042993714],[-0.875029606776247,46.373375604760504],[-0.874937798253857,46.37329875806453],[-0.874765641346195,46.37315053500235],[-0.874676757667584,46.37305799184174],[-0.874591422017716,46.37297506478218],[-0.874505133573778,46.37286034526143],[-0.874415439396112,46.372706794394894],[-0.874398105861352,46.37267727172055],[-0.874374059838781,46.372633912986934],[-0.874338081365733,46.372569232421675],[-0.874334186241243,46.37256206224278],[-0.874276838980444,46.37245871014679],[-0.874248290708233,46.37241063603775],[-0.874199639932589,46.37233439551058],[-0.874075679445294,46.372140267222065],[-0.873817110639788,46.371754265446306],[-0.87364557998322,46.37149539923817],[-0.873526735682992,46.37131642297448],[-0.873414304437227,46.37114705559354],[-0.873355382357781,46.3710581814685],[-0.873604445401449,46.370862194795706],[-0.873826294428104,46.37066082155251],[-0.87402519031323,46.37042966533275],[-0.874059438758978,46.37038919361296],[-0.874132873224911,46.37041825199856],[-0.874161143328776,46.37042937192227],[-0.874352754804195,46.370510489918196],[-0.874353423595118,46.3705107376511],[-0.874491295003005,46.37055951325372],[-0.874492359966072,46.37055983767438],[-0.874811294420944,46.37066953356138],[-0.875271851276663,46.37083310478466],[-0.875587998801486,46.370940188696586],[-0.875640033610792,46.37095581939769],[-0.875977802324321,46.37108858262234],[-0.875979295398254,46.37108943340383],[-0.876106158893191,46.37114822809124],[-0.876348938658374,46.37126204221701],[-0.876697849526191,46.371417774743],[-0.876860609303943,46.37148499439468],[-0.877061223505297,46.371568055772876],[-0.877062697454738,46.37156863672554],[-0.877766326067378,46.37185717995395],[-0.878041029774672,46.371954578214],[-0.878047445388702,46.37195688429118],[-0.878088360907261,46.37197181037003],[-0.878370027070528,46.37206085700355],[-0.879019895998551,46.37223230702137],[-0.879074450818133,46.3722448753396],[-0.879307226974569,46.37230754517762],[-0.879843334492813,46.372512974251585],[-0.879904030713838,46.3725349797892],[-0.880136189172031,46.372610921896964],[-0.880377247688847,46.37265996468705],[-0.880906095083634,46.37270263488025],[-0.880997245485792,46.37270962886167],[-0.881326711496039,46.37272888335068],[-0.881536311858941,46.372753120253755],[-0.881572050579784,46.372762992391976],[-0.881626798290015,46.37277825762679],[-0.882032052462267,46.37290536988962],[-0.881976689696981,46.37305186499674],[-0.882085897150906,46.37323774305174],[-0.882262642271505,46.37347586497182],[-0.882509414819016,46.37351542280144],[-0.882574365461978,46.373853728447145],[-0.882575437162975,46.3738596422173],[-0.882525143137149,46.37402246342723],[-0.882518655604349,46.374042969417516],[-0.88244060584151,46.37421295668048]]],[[[-0.881516253596849,46.369879641853025],[-0.881534376683462,46.369936724297176],[-0.881550874532603,46.36998926414796],[-0.881591572902133,46.37011842355681],[-0.881591909464406,46.37011949396304],[-0.881598679065305,46.37014144171494],[-0.881595474174205,46.37017148253146],[-0.881573608342602,46.37037327425088],[-0.881571981358982,46.370387033314536],[-0.881617015929675,46.37056986797192],[-0.881661820947626,46.370676168293286],[-0.881688887931388,46.37071798029943],[-0.881715073098251,46.370758379840645],[-0.881776962951041,46.37085400086168],[-0.881782229005793,46.37087861432464],[-0.881821079149621,46.3710623807883],[-0.881825902604001,46.37125118275746],[-0.881820762522891,46.37131446676062],[-0.881811291489227,46.37143226211048],[-0.88180618541672,46.371494192617504],[-0.881798044377105,46.37156839749285],[-0.881799374194082,46.37159260407256],[-0.881799553187328,46.371595122334774],[-0.881800086007812,46.371606283488724],[-0.881799878359633,46.37164550826403],[-0.881799874814529,46.37167111258663],[-0.881805229300367,46.37173178529334],[-0.881808181622188,46.371734840197576],[-0.88181354735939,46.37174069789175],[-0.881873343746839,46.37180501602259],[-0.881873132946636,46.37180754755963],[-0.881836222995075,46.37216050171101],[-0.881835007081314,46.3721727141306],[-0.881774390854438,46.37236257261726],[-0.881667266221181,46.37263659740376],[-0.881618110074071,46.37270733055196],[-0.881611954359969,46.37271601480256],[-0.88155745823467,46.372707953444724],[-0.88150641295517,46.37270446264375],[-0.881362839090731,46.37269474637679],[-0.881304719836753,46.37269068496255],[-0.881265309084583,46.37268778960294],[-0.881116299328712,46.372676725477035],[-0.881014040607584,46.372669208253626],[-0.880719906615493,46.372646766564124],[-0.880550708215394,46.372633864682165],[-0.880386867038323,46.372623034067026],[-0.880336181886696,46.37261177711091],[-0.880281924621237,46.372599740178366],[-0.880160836344977,46.37257284865784],[-0.879982526098334,46.372514186643286],[-0.879866226641238,46.37247586237365],[-0.879826737391628,46.37246269146745],[-0.879341172231559,46.37227384376971],[-0.879333060997362,46.37227150531474],[-0.879213022045526,46.37223736467633],[-0.879041672585371,46.37218865193607],[-0.878993126716603,46.37217632989343],[-0.878555177602232,46.37206366276535],[-0.87847938244117,46.37204361279268],[-0.878355582844901,46.37200968940204],[-0.878199466779908,46.37196271101181],[-0.878110433900973,46.37193598892061],[-0.877948706059573,46.37187784154756],[-0.877805965460564,46.371826621058965],[-0.877631490664228,46.371754031271905],[-0.877450302596586,46.37167860431772],[-0.877416753089553,46.371664689628275],[-0.877390709693269,46.37165376518948],[-0.877221599306567,46.37158333637062],[-0.877191926499343,46.37157082239266],[-0.877156624154585,46.371556065700275],[-0.877101992248553,46.37153322141108],[-0.877035004385287,46.37150511758279],[-0.876991780740277,46.37148702406089],[-0.876955121720824,46.37147150205656],[-0.876780572576073,46.37139783170618],[-0.876673971918992,46.371352953741116],[-0.876550438247925,46.371300717899395],[-0.876512708105687,46.37128478141287],[-0.876498209459517,46.371278693161685],[-0.87644785721019,46.37125741598063],[-0.876406220927149,46.371237825779694],[-0.87599378731725,46.3710440432577],[-0.875992852267016,46.371043714432766],[-0.875891066339144,46.37100426168418],[-0.875721103260244,46.37093827737411],[-0.875678655520699,46.370923763212716],[-0.87532751746582,46.370802632963226],[-0.874463124580241,46.37049105128514],[-0.87440165556366,46.37046726616202],[-0.874261433576265,46.37041289057806],[-0.874093843846415,46.370338078240536],[-0.873895904035036,46.37024852002255],[-0.873842193026127,46.37022393001151],[-0.873665786361885,46.37013129554441],[-0.873399925204773,46.369991213868836],[-0.873323402682265,46.36994981856599],[-0.87326651085592,46.36991893537488],[-0.873323239469811,46.369826311508085],[-0.873383047898725,46.3697330420134],[-0.873383028763076,46.36973277219811],[-0.873738474808657,46.369180302216414],[-0.874334685235542,46.36814624178551],[-0.874518104807209,46.367832937933734],[-0.874744972019506,46.367474882115076],[-0.875182047713117,46.36679025845494],[-0.875330080168457,46.36656019746139],[-0.875608248399654,46.366128721639015],[-0.875733988640785,46.36592592369814],[-0.875734815108348,46.365924723573585],[-0.875734346488017,46.36592546075238],[-0.87693681992409,46.36579386681653],[-0.87703335840156,46.365783370433626],[-0.877543550463977,46.36572751748802],[-0.877555581796968,46.36572638691444],[-0.879508738270928,46.3655420864043],[-0.879509264330332,46.36554215865317],[-0.880166516321645,46.365439095058],[-0.880242490384212,46.36542695198698],[-0.880589133340412,46.365373317488434],[-0.880560914611683,46.36556820309073],[-0.880458076043003,46.36585479324083],[-0.879727632622314,46.36725047628688],[-0.879726997443335,46.367298370519016],[-0.879949908812733,46.36739662502673],[-0.879992510171601,46.36746098836161],[-0.879991623621962,46.36756217311103],[-0.879993099012702,46.36768193965951],[-0.87999585067079,46.367711507174555],[-0.880017617695438,46.36779425024703],[-0.880017986158779,46.36779577034863],[-0.880019615492472,46.367802206084384],[-0.88005990168494,46.36796230329535],[-0.880101604618639,46.368083675520104],[-0.880108816391337,46.3681045264174],[-0.88014798923508,46.36821778060344],[-0.880109878594985,46.368310135148505],[-0.880146288820598,46.36854032502233],[-0.880159042589215,46.36862085055935],[-0.880157715634728,46.36862783771295],[-0.880149704905749,46.368672737436206],[-0.880124362620203,46.368849493697674],[-0.880123239818294,46.36896934868469],[-0.880109933794136,46.36908087332529],[-0.880169819051618,46.36910984819194],[-0.880170338756588,46.36910983049969],[-0.880235265664039,46.36911077562673],[-0.880993873242636,46.36912849262988],[-0.881124212779485,46.36913171770714],[-0.881263298014352,46.3694962590868],[-0.881428914921945,46.36970996801804],[-0.881491550326638,46.3697886144996],[-0.881500597210801,46.36982977801281],[-0.881513884898043,46.369871969131744],[-0.881516253596849,46.369879641853025]],[[-0.880120700940941,46.368968443403205],[-0.880123109892382,46.368969353107694],[-0.880123239818294,46.36896934868469],[-0.880120700940941,46.368968443403205]]],[[[-0.880304068284008,46.37919359117065],[-0.880061696324034,46.379170466608606],[-0.879983176692643,46.379154386713],[-0.879792280450108,46.37910038939678],[-0.879388720980084,46.37902153352882],[-0.879367720307867,46.37901746993867],[-0.879103774222184,46.37896568687778],[-0.879012411482253,46.378948510707666],[-0.878987331313997,46.37894386461731],[-0.878890172020808,46.378927606830224],[-0.878870398466745,46.37892431279616],[-0.878696535297798,46.37889551859093],[-0.878674237251432,46.37889519538858],[-0.878662756965969,46.3788949549011],[-0.878639547088392,46.37889646582323],[-0.878619956634697,46.37889758313039],[-0.878431704117837,46.378910118479276],[-0.878435000565145,46.37875845515889],[-0.878373743520916,46.378754318484546],[-0.878306080643422,46.37874985877508],[-0.878288058210759,46.378749209730174],[-0.878213733795885,46.378746328924095],[-0.87810901225841,46.37873546661079],[-0.878106511284961,46.378735100913985],[-0.878083254766382,46.37873228585477],[-0.877969423826587,46.37872705246828],[-0.877928764445302,46.37873231227202],[-0.877797250570723,46.378756890563515],[-0.877771918791177,46.37876153877014],[-0.877763489028555,46.37876389908723],[-0.877665441217004,46.378810328453476],[-0.877526775653626,46.378875449111185],[-0.877513494963413,46.37888103968659],[-0.877509698655309,46.37888261129697],[-0.877509068066073,46.37888290321139],[-0.877496645929079,46.3788877433399],[-0.877487300100748,46.37889004463856],[-0.877361468988057,46.37892128092185],[-0.877356711934892,46.37892216396138],[-0.87732352557758,46.37892626781646],[-0.877315643341749,46.378927166991716],[-0.877159589898299,46.37894554703758],[-0.877157393522181,46.37894580204748],[-0.877150550879787,46.37894666585433],[-0.877137336541237,46.37894585310164],[-0.877082084857542,46.37894006900253],[-0.877059516367846,46.37893777126566],[-0.8769878230169,46.378929751477685],[-0.876980371176833,46.37892937381838],[-0.876972523101803,46.37892891947874],[-0.876935306697347,46.37892396443746],[-0.876907301725128,46.37892031891663],[-0.876792638180897,46.378905195581936],[-0.876716620505812,46.37889497864684],[-0.876700270484368,46.378892198906286],[-0.876503043528545,46.37885905706411],[-0.876387283557274,46.378837659746026],[-0.876383983738966,46.378837050709514],[-0.876209762374774,46.37880501935959],[-0.876187196242673,46.37880091826828],[-0.876173289781883,46.37879769474755],[-0.876167333518727,46.378796364631384],[-0.875929558778765,46.3787370130057],[-0.875928629981082,46.37873677411875],[-0.875820097041157,46.37870890981468],[-0.875803644983694,46.37870469093456],[-0.875733427164168,46.37868625235902],[-0.875688727784499,46.37867496999501],[-0.875677978469504,46.37867218001205],[-0.875577383172968,46.3786460290403],[-0.875570875227761,46.37864426687327],[-0.875557691090326,46.37864020732669],[-0.875555690785906,46.37863955408815],[-0.875474794535937,46.37861381519422],[-0.875453006428938,46.378605991149406],[-0.875443784614997,46.37860269844107],[-0.87510204980132,46.37848259862028],[-0.875101517240781,46.37848243641299],[-0.875037254893802,46.37845613179441],[-0.87481616481977,46.378358345621116],[-0.874813073889959,46.37835700819924],[-0.875039035468652,46.37781488760113],[-0.875039595854351,46.377813606379675],[-0.875085045493353,46.377699637907156],[-0.875088037099265,46.37769223364342],[-0.876528451547106,46.377930675713145],[-0.876565298802577,46.37793411077707],[-0.877052042428268,46.377939014645584],[-0.877108748380197,46.37793961041292],[-0.87743808352698,46.37794193239545],[-0.87757315531811,46.37796014736954],[-0.877769537835092,46.378001610293296],[-0.878028385566888,46.37807890333844],[-0.878049818128858,46.37808538666224],[-0.878169349407774,46.37811954618141],[-0.878548980412691,46.3782339300261],[-0.878556832602139,46.378236277377404],[-0.878618870453348,46.37825508269613],[-0.878880050457261,46.378275316324924],[-0.878880749270612,46.378272317419096],[-0.878997726141665,46.37780656112981],[-0.879000252889809,46.37779628759043],[-0.879081312771391,46.377470412310046],[-0.879134742453622,46.377445063622865],[-0.87961653284511,46.377492137400786],[-0.87966622291615,46.37734448462219],[-0.879772647249323,46.377019999315706],[-0.879794016330858,46.37695408962823],[-0.87979775926955,46.376942602649905],[-0.87986437564696,46.37673802648645],[-0.87999367800272,46.37648073943089],[-0.880224477640601,46.376088190028334],[-0.880481398261476,46.37614760198703],[-0.880497183032809,46.37612227188681],[-0.880735081346297,46.376187109075545],[-0.880474252953677,46.3765713056529],[-0.880747489337486,46.3766201544285],[-0.880741224577654,46.376649307623644],[-0.880687141928974,46.376889069166005],[-0.88063918314212,46.377108697822926],[-0.880624746863814,46.37717500278348],[-0.880606740796893,46.37733221585696],[-0.880586934680591,46.37751175860602],[-0.880574076883358,46.37760027822616],[-0.880572415446224,46.37763188920854],[-0.880551587620997,46.37801702124742],[-0.880537513869286,46.37823324242007],[-0.880529768280151,46.37826722423625],[-0.88047437087498,46.37851784895281],[-0.88040438693388,46.378867510063465],[-0.880362641454729,46.37901696630962],[-0.880313222317853,46.37919409098682],[-0.880304068284008,46.37919359117065]]],[[[-0.872762383850174,46.36248996732118],[-0.872502556861295,46.362517097959376],[-0.872308816998265,46.36253594211361],[-0.872022548174987,46.36257217420106],[-0.871735825850347,46.36264610582941],[-0.871440993670377,46.36274158882207],[-0.871288932854166,46.36279913439642],[-0.870813478861622,46.36298468548256],[-0.870414609035968,46.36314103787794],[-0.870212492600366,46.363227328387296],[-0.870012136962407,46.363312747328344],[-0.869792725586291,46.3634343340345],[-0.869502638726443,46.36362999318423],[-0.869358012420139,46.36375210507427],[-0.868602618132876,46.36354505908653],[-0.868563409817461,46.363486076304575],[-0.86876629228695,46.363197274691196],[-0.868783484818451,46.363169734717935],[-0.868928161645189,46.36298766873557],[-0.869008172715293,46.3628928140618],[-0.86904820749932,46.362847639582625],[-0.869179513827542,46.362690098526826],[-0.869343583256594,46.362432544838676],[-0.869358978103151,46.36240353315695],[-0.869604005728654,46.361902786716946],[-0.869634677663744,46.36184494756563],[-0.869574292212293,46.36158996582239],[-0.869469676516237,46.36116465028433],[-0.869755232776047,46.36112763720523],[-0.869922133866187,46.361116019492314],[-0.870616993657,46.36106276039072],[-0.870735029893928,46.36105253064451],[-0.870916022272666,46.361028442214845],[-0.871076133548654,46.3610422968669],[-0.871113205830495,46.36104356193328],[-0.871203199755093,46.36105474946932],[-0.87138425732036,46.36107384240657],[-0.871652545210321,46.36110187209871],[-0.871932223053012,46.36112707999965],[-0.872089791695496,46.36114363413561],[-0.872268147255095,46.36119256872083],[-0.872378247137624,46.36122101306721],[-0.872638273378795,46.361294128365024],[-0.872751639632061,46.36131353599754],[-0.872807522584206,46.36131930013364],[-0.872854312711265,46.36131987377814],[-0.873118437779032,46.361309364942485],[-0.873204164480403,46.36130627110844],[-0.87325392852241,46.36123308665022],[-0.873856032068528,46.361203155024405],[-0.8741526247314,46.36100230406615],[-0.874304517232364,46.36100859009418],[-0.874449705592524,46.36103601988821],[-0.874645633370887,46.36103341562081],[-0.875034654043676,46.361142439184476],[-0.875083215855022,46.3615920156326],[-0.875133093602368,46.3620748146501],[-0.874403561127481,46.36226361117923],[-0.873976145735377,46.36234593779708],[-0.873851786740522,46.36237171214387],[-0.873528423693,46.36241921619658],[-0.873229177000744,46.362446876934584],[-0.872762383850174,46.36248996732118]]],[[[-0.873893430390303,46.37213429030335],[-0.874075425283668,46.37237170425835],[-0.874080479968722,46.372371352152776],[-0.874101989659851,46.37240650286317],[-0.874136594787913,46.37246284573439],[-0.874229352851549,46.37261737451046],[-0.874253417287266,46.37266650257781],[-0.874270117877157,46.3726981203542],[-0.874311458461992,46.37277596165723],[-0.874341681055881,46.37282560164119],[-0.874351368739168,46.37284465573258],[-0.874358775607602,46.37285909927621],[-0.874387465176108,46.37290365251024],[-0.874443349615603,46.37298821184981],[-0.874450358602965,46.37299888239382],[-0.874498083949166,46.373052885957414],[-0.874636469117596,46.373202437664446],[-0.874673388009787,46.373243645832055],[-0.874683671012679,46.373254565694545],[-0.874717193038793,46.37329011938222],[-0.87471740999825,46.37329317728486],[-0.874720402608543,46.37329496881866],[-0.874806681408009,46.37334712080865],[-0.874913282413299,46.37343419322426],[-0.874930415639064,46.37344803563372],[-0.875008460093971,46.37349794305726],[-0.875161537644164,46.373595696406255],[-0.875196459124365,46.373614253206945],[-0.87536403160004,46.37370150629711],[-0.875564490202105,46.37380431977567],[-0.875613759803589,46.37383050260199],[-0.876633206496007,46.37434199788529],[-0.876678225526431,46.37436516940322],[-0.877147427728163,46.37459127848103],[-0.877269315973695,46.37465141340898],[-0.877529299387697,46.37477428704215],[-0.87768363163863,46.37486207749455],[-0.877877350317521,46.374968902986815],[-0.87797304796642,46.375021543740786],[-0.87806091918766,46.37508319575338],[-0.878360978632153,46.37528611452992],[-0.878534051894718,46.37540482068676],[-0.878665332418085,46.3754962792142],[-0.878703274558719,46.375522485604726],[-0.878788142212213,46.37556566729023],[-0.87888126225187,46.375613166036125],[-0.878970597145793,46.375658719938144],[-0.879083195787534,46.37571637435847],[-0.879311476710646,46.37580173649453],[-0.879378752222515,46.37582829675728],[-0.879543360478571,46.37589013102232],[-0.87965930061698,46.37592513232016],[-0.879880617843825,46.37596745574711],[-0.879887223601898,46.37596876355622],[-0.880090010634116,46.37597394213091],[-0.880160671555413,46.376038973272436],[-0.880157348319329,46.376091196266835],[-0.880157209851997,46.37609291393445],[-0.880090989735254,46.37621137836981],[-0.879956929695897,46.37644385444869],[-0.879937814921906,46.376488320608175],[-0.879849995043514,46.37665845787711],[-0.879824240121901,46.37670846918282],[-0.879809724462475,46.376737001574305],[-0.879776391798206,46.37683252881743],[-0.879773601108045,46.37684091810018],[-0.879695242091535,46.377069063791254],[-0.879577541487454,46.37741268509768],[-0.879523587947863,46.37744165804608],[-0.879047089583362,46.377397559256764],[-0.878834145802082,46.37823423475656],[-0.878640451397777,46.37821963861116],[-0.878356126157819,46.37813762405152],[-0.878312615576179,46.37812107325577],[-0.8781673483751,46.378082199781524],[-0.87793489209127,46.37801518853504],[-0.877778642058532,46.3779683939028],[-0.877602015828636,46.377928152255876],[-0.87740745016367,46.37789942931528],[-0.877168177111942,46.37789783070928],[-0.876857228677633,46.3778957842111],[-0.87679780026361,46.3778953710605],[-0.87655421344382,46.377893557248434],[-0.876476205572915,46.37788097368674],[-0.876234393984066,46.377841774552515],[-0.87507568940793,46.37765406695407],[-0.87470631074497,46.37759404764436],[-0.874694975774749,46.377592179035204],[-0.874436487149865,46.377549215570745],[-0.87418763092863,46.377458412415905],[-0.873808925490181,46.37727789938169],[-0.873637496844796,46.377176800751414],[-0.873473246156735,46.377037322372665],[-0.873369493953515,46.376924367334865],[-0.873362224783062,46.37691370556058],[-0.873274129789823,46.37682131473793],[-0.872811405964846,46.37633577374533],[-0.87275933386551,46.37628110573653],[-0.8727407652988,46.37626172214293],[-0.87273498236677,46.37625732069812],[-0.872739370944705,46.37625491772759],[-0.872752790185545,46.376247610047386],[-0.872822706827418,46.37621043486907],[-0.873022322234145,46.37610294974332],[-0.873243917803639,46.37598398894855],[-0.873264488505317,46.37597283200832],[-0.873336596700472,46.375933508457834],[-0.873342214484798,46.375930071989295],[-0.873334719122816,46.37592356503748],[-0.873320844497932,46.37591159507063],[-0.87304681744508,46.37570083715342],[-0.872992681937514,46.37565931185518],[-0.872965149848543,46.37563842974076],[-0.872955777972006,46.37563117512631],[-0.872965761123727,46.3756231727609],[-0.872912579999383,46.37558224608891],[-0.872740627975819,46.375449790136955],[-0.873291451765239,46.37497930800397],[-0.873337228387819,46.37493420763541],[-0.873884314220907,46.37446258709845],[-0.873638587458932,46.37433489356365],[-0.873703238005651,46.374293298773416],[-0.873755148709695,46.374246547265784],[-0.873737810066894,46.374240825627766],[-0.874330206673205,46.37372321621832],[-0.874303673939331,46.37370356264336],[-0.874271515625203,46.37368355933508],[-0.874194276639077,46.37374965377545],[-0.874173529418742,46.373767488404745],[-0.87401877347608,46.37390311241981],[-0.87397407265738,46.373941324761574],[-0.873791953498841,46.37410068763292],[-0.873691360651933,46.374184614661395],[-0.873656179827477,46.37421565155392],[-0.873627309226701,46.37424016313854],[-0.873597456502685,46.37426551948567],[-0.873561095713716,46.374294613029136],[-0.873508637968011,46.37426754596728],[-0.873462570446337,46.37424242546206],[-0.87346013585654,46.374241155864055],[-0.873402828175054,46.374211819372306],[-0.873331961299176,46.374173116681106],[-0.873281944743822,46.37414740905374],[-0.87326612315639,46.3741392016098],[-0.873135878806235,46.37406951960427],[-0.872921300266667,46.37395672373272],[-0.872933371463549,46.37392674272118],[-0.872930924143519,46.37392529323503],[-0.872902897970059,46.37391028800087],[-0.872789690144715,46.37384940292828],[-0.872788476055397,46.37384881309128],[-0.872564188808741,46.3737294946652],[-0.872408902617535,46.37364461503228],[-0.872234716996208,46.37355586947161],[-0.872168430675251,46.37352296074308],[-0.872150460291415,46.3735138344439],[-0.872106689840311,46.37349170067324],[-0.872096016672976,46.37348629330791],[-0.871983728130996,46.37342916277802],[-0.87197265242324,46.37342358876538],[-0.871923791468358,46.37339946412258],[-0.871856627847377,46.373367035800214],[-0.871855277465352,46.37336636042838],[-0.871827249465051,46.37335315811191],[-0.871825651962543,46.37335267144378],[-0.871816054195313,46.37334957155755],[-0.871794881694106,46.37334488141467],[-0.871768948573233,46.373339180953515],[-0.871740495645315,46.373332844834415],[-0.871705288415348,46.3733249350233],[-0.871735394307418,46.37329028461059],[-0.871632682351112,46.373267177554176],[-0.87183018923738,46.37303454041962],[-0.87185975601639,46.372999637811596],[-0.87200363942772,46.37283003704725],[-0.872273861531847,46.37251162563306],[-0.872019856070719,46.372404765602674],[-0.871797726073091,46.372310255424935],[-0.872181434686384,46.371755479251235],[-0.872266903820264,46.371616261225185],[-0.87240027529434,46.37139950512803],[-0.872583006721928,46.37110741510241],[-0.872774110340893,46.370760766849564],[-0.872856852961373,46.37074109647172],[-0.872948061527771,46.37077469053441],[-0.873031129574549,46.370838582803266],[-0.873057589764345,46.37087744213268],[-0.873108902422859,46.370952691061696],[-0.873123166463192,46.37097384361199],[-0.873142371199158,46.37100222099964],[-0.873243274466632,46.371148630154714],[-0.87336852643813,46.371329823119744],[-0.87341935447062,46.37140373607445],[-0.87357458476699,46.371627455070545],[-0.873675277838873,46.371787394330674],[-0.873807915876838,46.37200106222125],[-0.873893430390303,46.37213429030335]]],[[[-0.873112493294407,46.37071131382969],[-0.873086116453588,46.370524867678064],[-0.873051283218985,46.370277944285355],[-0.873221041461914,46.369975655463534],[-0.873284154792888,46.37000795005362],[-0.873526722162922,46.37013178427494],[-0.87369686074723,46.37021868172856],[-0.873788480614743,46.37026542379154],[-0.873808884625237,46.370275819427846],[-0.873985144195305,46.37035718929326],[-0.873957029204875,46.37038681421378],[-0.873833276484877,46.37051687686068],[-0.873745058536251,46.37060624371301],[-0.873549689479787,46.37079166099773],[-0.873427020062486,46.37089662317857],[-0.873402586240128,46.3709175581034],[-0.873358010984845,46.37095567586496],[-0.873274462621988,46.370945622774705],[-0.873174585621388,46.37080449793515],[-0.873112493294407,46.37071131382969]]]]}}]}
