{"type": "FeatureCollection","name": "aoc_geojson","features": [{"type":"Feature","properties":{"dt":"Dijon","type_prod":"Vins","categorie":"Vin tranquille","type_denom":"appellation","signe":"AOC","id_app":138,"app":"Bourgogne","id_denom":362,"denom":"Bourgogne","insee":"71039","cvi":"1B309, 1R309, 1R309 GA, 1S309","nomcom":"BLANOT","insee2011":"71039","nomcom2011":"BLANOT","id_aire":1781,"crinao":null,"grp_name1":null,"grp_name2":null},"geometry":{"type":"MultiPolygon","coordinates":[[[[4.731021677778824,46.49117663702815],[4.731023537372964,46.4911900288151],[4.731023682005361,46.49119047695869],[4.731023687721069,46.49119065700566],[4.731057666481648,46.49133262806538],[4.731063873834175,46.4914336790335],[4.731063879550041,46.49143385908046],[4.731072216099876,46.49160197753616],[4.731072221815786,46.49160215758312],[4.7310891768788,46.49182814850728],[4.731095245525204,46.49190839614812],[4.731086601529443,46.49192365826393],[4.731065843916429,46.49195990924045],[4.730878563144785,46.492246995798155],[4.730813521394428,46.49234660370063],[4.730841573951742,46.49238815005037],[4.73085976154793,46.49241471455227],[4.730908760032929,46.49250809237308],[4.730940118719506,46.49256751191955],[4.730947260786459,46.49258298531865],[4.730979675991958,46.49265103526357],[4.730987775606664,46.49267613130146],[4.730991498992168,46.49268661272812],[4.733124731726037,46.492542877571225],[4.733269763511959,46.492600843232125],[4.733270160274487,46.49260101734979],[4.73331750298009,46.49265037664335],[4.733416589219688,46.49273984162806],[4.733664515638729,46.49295368325135],[4.73367115013239,46.49296547145077],[4.733702114003109,46.493020573066104],[4.73373031118979,46.49316091982589],[4.733730829718327,46.49316082189487],[4.733781248737665,46.49315105052862],[4.733852391688422,46.49313682173921],[4.733902024567291,46.49311463302394],[4.73395996547683,46.49308304138604],[4.734007893812061,46.49305646520494],[4.734035486387714,46.49303425048635],[4.734067251570369,46.49300791945845],[4.734128624441556,46.49289152280083],[4.734128621578487,46.49289143277745],[4.734141219895081,46.49286521235192],[4.734157340581087,46.492830832476386],[4.734157607001186,46.492831008568366],[4.734157728758782,46.49283073652083],[4.734178877667402,46.49284374557353],[4.73439109887662,46.49300093489653],[4.734638816839628,46.493068689252404],[4.734713554435882,46.493093674510654],[4.734776429065584,46.49311469667486],[4.734776420473135,46.49311442660477],[4.734776156913804,46.493114340537616],[4.734743703138878,46.492938662326495],[4.734690322845151,46.492720069586426],[4.734686426907684,46.49270418687821],[4.734679173681696,46.492664757606924],[4.734673990147813,46.49263709568262],[4.7346739844199,46.49263691563587],[4.734685698416863,46.4926361974767],[4.734716660727563,46.49263383621889],[4.734716805394138,46.4926342843577],[4.734717654744254,46.49264048607999],[4.734718660217305,46.49264749603453],[4.734794609262279,46.49307127876906],[4.734820585443259,46.493104839752036],[4.734838389998802,46.49311519743506],[4.734908516812827,46.493155113568235],[4.734909049661043,46.493155465748664],[4.735061559325074,46.49314504503633],[4.735227473223776,46.493113254944255],[4.735327667477647,46.49309399083303],[4.735311020340425,46.49261598860885],[4.735294877443995,46.492616864130994],[4.735180967594453,46.492623096595445],[4.73518096186487,46.492622916548726],[4.735144741352933,46.49250511851178],[4.735072160499038,46.49222413083582],[4.734980617355069,46.4919496455296],[4.734907928600276,46.491804570260385],[4.734808103249278,46.49160172359837],[4.734778128860798,46.491540842970046],[4.73475587766205,46.49149317502224],[4.734628517970056,46.49130200442122],[4.734585563519474,46.4911569280763],[4.734562194329603,46.49107820399428],[4.73451838176183,46.49097583233281],[4.73435284539265,46.49058880492209],[4.734352460094575,46.49058899090174],[4.734331613908542,46.490597773474036],[4.734317717401875,46.49060365852792],[4.734206725757795,46.49064821428746],[4.734130372166335,46.49067891456853],[4.734069600906579,46.490703434001674],[4.734069470564725,46.49070343597897],[4.733956754101539,46.49074297391145],[4.733947614329113,46.490746715226436],[4.733904224390698,46.49076421589805],[4.733751624746216,46.49079210949902],[4.733636496338516,46.49081321999105],[4.733370072793116,46.49085815066095],[4.733369554285825,46.49085824859034],[4.732570961329986,46.49099392722574],[4.732201530065447,46.491055727724884],[4.732118416507535,46.49109535561737],[4.731842998582204,46.491226702952815],[4.731829931132721,46.49122996319999],[4.731829800789527,46.49122996517474],[4.731759854640366,46.491170950317915],[4.731726620396056,46.491142812566906],[4.731726353992054,46.491142636469206],[4.731688955299288,46.491147616304005],[4.731648309459827,46.49115300558379],[4.731613847444178,46.491151906432826],[4.731583171094872,46.49115093005918],[4.731378599431364,46.491139708146555],[4.731377947716388,46.49113971801767],[4.731327635319659,46.49114048005729],[4.731317989937743,46.49114062614525],[4.731182106193081,46.49114880867995],[4.731019826759136,46.49116351531157],[4.731021677778824,46.49117663702815]]],[[[4.732047251395255,46.49590392691239],[4.732097674912502,46.495890103265715],[4.732195926225366,46.49586285550221],[4.732287535879535,46.49584822756838],[4.732492540114913,46.495815038664475],[4.732697216717641,46.49576744367759],[4.732701093007533,46.49576630412526],[4.73274737065316,46.49575335362543],[4.733051753505297,46.4956956002897],[4.733024270161707,46.49566386309996],[4.732847073736208,46.49545993607409],[4.732753409681123,46.49536885725618],[4.732702820606816,46.49531999726186],[4.732702551318413,46.49531973114317],[4.732652175649995,46.49527347982829],[4.732579285385862,46.495216401444345],[4.732545717267502,46.49519016036834],[4.732445503869926,46.495122778051986],[4.732108885324588,46.49489235437931],[4.732107955701996,46.49489182806431],[4.731990833645822,46.49482172935473],[4.731869920235964,46.49487039591246],[4.731737708729487,46.49490004927633],[4.731737448025548,46.494900053225585],[4.731734722071071,46.494900454786496],[4.731637497288131,46.49491480709056],[4.731444248733142,46.49493205478519],[4.731293619430128,46.49498954699505],[4.731408511469961,46.49529745629669],[4.731408650399006,46.49529772439267],[4.731437501960928,46.49537258318594],[4.731437504819684,46.49537267320935],[4.731480000767353,46.495487044755414],[4.73149897303711,46.49553827555504],[4.731597724995354,46.49580193617966],[4.731673668325652,46.496004426661436],[4.732047251395255,46.49590392691239]]],[[[4.731090784593317,46.47413772720213],[4.731051814489378,46.47413390425554],[4.730995459894553,46.474128633360586],[4.730925855737722,46.474108431874654],[4.730925215653311,46.47410880183816],[4.730873792497871,46.474760134717556],[4.730873484431853,46.474762751326686],[4.730873495858834,46.474763111421616],[4.73087327920863,46.4747686087901],[4.730871957558829,46.47480501587631],[4.730869242095356,46.474830365832844],[4.730867323382555,46.47484795795932],[4.730867326239296,46.474848047983066],[4.730864224281902,46.474889976120856],[4.730864238565586,46.47489042623949],[4.730858935527199,46.47495337332553],[4.730857323019371,46.47504634688905],[4.730857470464335,46.475046885057765],[4.730882646566511,46.475191151323166],[4.730886086204888,46.475225594883156],[4.730891420256143,46.47527865361661],[4.730891425969747,46.47527883366405],[4.730902536911452,46.475398904805466],[4.730902548338759,46.47539926490035],[4.730942781915609,46.47538946865694],[4.731000999357591,46.47537534697529],[4.731001146804863,46.475375885143805],[4.731012984334155,46.47541614591457],[4.731030682650666,46.47547676311416],[4.731030821527378,46.47547703121146],[4.731077194891971,46.475586750885135],[4.731172707786378,46.47579885284798],[4.731172849521901,46.47579921096883],[4.731277373752045,46.47602000290184],[4.731345114436045,46.476166236160516],[4.731396338972267,46.47627678288416],[4.731396463564374,46.47627660086252],[4.731398955406318,46.47627296042969],[4.731427223500389,46.47623119139461],[4.731446461490708,46.476192441312385],[4.731470568804652,46.47614280941001],[4.731492843202668,46.4760929350721],[4.731529317479918,46.476009881052875],[4.731553909869686,46.475963213990205],[4.731609575018511,46.47587689694434],[4.731694584761778,46.47581148107957],[4.731706799780142,46.47580201907773],[4.731707057534637,46.475801925104825],[4.731707312430958,46.475801741108214],[4.731908454092907,46.47569853840193],[4.731936675497015,46.47568406023914],[4.73199603573095,46.47564434170027],[4.732040799959322,46.47560889737055],[4.73207077502251,46.4755757487211],[4.732095404656666,46.475542591016996],[4.732098774252598,46.47553785645889],[4.732110043610313,46.47551093574312],[4.732129790356866,46.47545128226994],[4.732131811147734,46.47544512708262],[4.732131808288876,46.47544503705895],[4.73213425716084,46.47544004625426],[4.732181249685277,46.475343412580166],[4.73220972258856,46.47520139562431],[4.732219572763958,46.475174946741674],[4.732231565425935,46.475142070622454],[4.732253268122884,46.47507833445498],[4.732252743370036,46.475037181776734],[4.732252249630548,46.47500521546525],[4.732248874463804,46.47498103859654],[4.732244880876223,46.474953808822946],[4.732227652232077,46.47492443792886],[4.732200389742204,46.47490341522697],[4.73207916667192,46.47480545840981],[4.732071006585858,46.47479891713256],[4.731998578076936,46.474743182615775],[4.73188830930844,46.474653525876406],[4.731811769137278,46.474591458801],[4.73178766569615,46.47457137886689],[4.731683503032611,46.474485142015915],[4.731629088596221,46.4744301250298],[4.731592465844301,46.47439348229755],[4.731522210034821,46.474324024380536],[4.731478208751717,46.47428902455456],[4.731462435810192,46.47427674422876],[4.731422252824792,46.47425114356499],[4.731358541116667,46.474223557629955],[4.731270951544926,46.47419119959695],[4.731150974517342,46.47415293738717],[4.731090784593317,46.47413772720213]]],[[[4.731913519442909,46.49698612296185],[4.731892700025897,46.49709848132872],[4.731883124986108,46.49715014453039],[4.731879863687249,46.49726097596549],[4.731878898922401,46.497296296723],[4.731910971237643,46.49760798199287],[4.731910988395573,46.497608522133056],[4.731829252151507,46.497634348549504],[4.731785089882012,46.49764825733568],[4.731613553158828,46.49770471553817],[4.731345726072779,46.49779280409646],[4.731379527986261,46.497974226856144],[4.731398984120457,46.49797906600148],[4.731794181946423,46.4980905271314],[4.731862875923221,46.498109841598186],[4.731863403080979,46.4981100137458],[4.731886780950908,46.498172616206524],[4.731911877616976,46.49824005622496],[4.731998757685594,46.49850749900075],[4.732047848197737,46.49859943388912],[4.732086955141455,46.49867269607895],[4.732305546099059,46.498615254039244],[4.732362891401913,46.49859754263641],[4.732407184653589,46.498583631653915],[4.732411637340562,46.49860472985135],[4.732415096185862,46.49861917817415],[4.732415243709942,46.49861971633875],[4.732243958811849,46.49866365235712],[4.732094164852701,46.4987025790504],[4.732027503909636,46.49873907524782],[4.731967645000583,46.498817259292444],[4.731967517499069,46.49881735129069],[4.731967265355852,46.49881762531052],[4.732056364168999,46.49906044622201],[4.732140440155283,46.49929703849932],[4.732213911821185,46.49950361905424],[4.732213653955525,46.49950371302792],[4.732003632793963,46.49954364213517],[4.732062074486851,46.499687674011135],[4.732062928167644,46.49968991274432],[4.732099301238777,46.4998125728744],[4.732099445902886,46.499813021015974],[4.732115507237653,46.49987519387417],[4.732136644518652,46.499957554824135],[4.732179779407899,46.50005903688593],[4.732229027065869,46.50021743850776],[4.732229166011484,46.50021770660252],[4.732167438494839,46.50022890943524],[4.73216691989628,46.50022900735905],[4.731815542281436,46.500286298900676],[4.731412184898754,46.50035374347906],[4.731412054533734,46.50035374545331],[4.731351210661792,46.500364033791996],[4.731198772110082,46.500389669408676],[4.731195677650816,46.50039079706511],[4.731192971428163,46.50039182877612],[4.731090032087308,46.50040725771438],[4.730966453226952,46.50042579111209],[4.730966064989573,46.50042588705669],[4.730938133648411,46.50042937220365],[4.730955399531833,46.50051719595006],[4.731005219782827,46.50077178051477],[4.731005358723839,46.500772048611],[4.731018217855573,46.50080734016363],[4.731097593335378,46.50111776883293],[4.731311110132583,46.50192288357638],[4.731488135469736,46.50191560938765],[4.73158752676187,46.50191158226538],[4.731812020031922,46.50191223504827],[4.731812411138113,46.50191222912413],[4.731845437323248,46.50191307986564],[4.732071649475141,46.50191856969996],[4.732071652335288,46.501918659723245],[4.732219770072636,46.50220435872787],[4.732219772933043,46.502204448751165],[4.732273244930454,46.50230280195563],[4.732282523194626,46.502319774037765],[4.73237699360438,46.50249334211181],[4.732383080949379,46.502491988943845],[4.732377240041171,46.50249288804469],[4.732613918410634,46.50244183654961],[4.732735293939824,46.50241540896663],[4.732689971210049,46.50228621974431],[4.732673780254466,46.50224053112992],[4.732673635579196,46.50224008298926],[4.732639928409689,46.502152148369234],[4.732638168182956,46.502141907448],[4.732638817168112,46.50214180754645],[4.732638808584828,46.50214153747662],[4.732926452522739,46.502085389744856],[4.732851809945193,46.501879097591356],[4.732852328558215,46.50187899966447],[4.732852189605302,46.50187873157055],[4.733047867156529,46.50183865820213],[4.733178227969305,46.50181182372352],[4.733169005769624,46.50178431306139],[4.733126829819878,46.501659759754325],[4.733761443027985,46.50147730011762],[4.734008036939928,46.501406010408985],[4.734008813417936,46.50140581849916],[4.734052746062605,46.501392813050046],[4.734135943836479,46.5013676834956],[4.734305810512713,46.501307644344955],[4.73435442912607,46.50129024449406],[4.734777776851377,46.50110900223461],[4.734840745519794,46.5010876016306],[4.734976687862106,46.50108049503998],[4.735046984156829,46.50106393679213],[4.735060960606645,46.50106048228726],[4.735196246697127,46.501016367973335],[4.735277535143632,46.500988654613074],[4.735291210710989,46.50098394371215],[4.735291726445701,46.500983755750966],[4.735355242022747,46.500963157157514],[4.735530293546243,46.50090627984833],[4.73562875412698,46.50087308168858],[4.73566844816995,46.50084167627105],[4.73588546666562,46.500669146065356],[4.735942666657904,46.50063864561774],[4.735973948408353,46.500621598361796],[4.736004714283527,46.50059654299005],[4.736080006784668,46.50051163763544],[4.736157347923071,46.500441922397194],[4.736179718342787,46.5003989811146],[4.736201469323999,46.50032839874103],[4.736227049239441,46.500242897200295],[4.736261503969296,46.500161674144614],[4.736276006966746,46.50014199947353],[4.736282374581402,46.5001330762281],[4.736282502078713,46.50013298422508],[4.736282754206327,46.5001327101958],[4.736356382978711,46.50007340886252],[4.736446035847062,46.4999930586801],[4.736517800347933,46.499928471611796],[4.736638760515341,46.49981143889952],[4.736674360319216,46.49977847409604],[4.736689805835028,46.49976382878947],[4.736739297701988,46.499700210367436],[4.736774872632018,46.49965418622539],[4.736779087608292,46.49961863588487],[4.736779703454379,46.49961340265634],[4.736778700455717,46.49960648275137],[4.736762431693935,46.4994888324819],[4.736755553407784,46.499420306085625],[4.736751162899512,46.49938074339941],[4.736736970034223,46.49921361492565],[4.736734379288283,46.499189606450926],[4.736733506665194,46.49918268456473],[4.736730317046667,46.49915625338417],[4.736712588035859,46.499013226451865],[4.736609882996148,46.498794303097355],[4.736610140850877,46.498794209113754],[4.736631880935262,46.49878883513949],[4.736582063102324,46.49857604352256],[4.736463716349084,46.49860305982804],[4.736414902971797,46.49861424898043],[4.73641477547826,46.49861434098364],[4.736227373597964,46.4986640218808],[4.736227115743191,46.49866411586354],[4.736174112158405,46.498678881151065],[4.736064355968403,46.49870945931538],[4.736051156617222,46.49871272202048],[4.736050638040058,46.49871281996193],[4.736021794006404,46.49872037323398],[4.735973819708545,46.498622748794574],[4.735966429034838,46.49860772980039],[4.735958479659572,46.49859154842125],[4.735958349298931,46.498591550400704],[4.735954568840331,46.49859160780452],[4.735951440184934,46.498591655311],[4.735951049103008,46.49859166124933],[4.735931769479268,46.49855142394835],[4.73590829530659,46.498502333723785],[4.735907773864871,46.498502341641334],[4.735598265254326,46.498510103055786],[4.735597743812487,46.49851011097193],[4.735506002975378,46.49850844140459],[4.73544999814603,46.498514965774376],[4.735092284619824,46.4985571425194],[4.734875394513175,46.49859006597047],[4.734777146872656,46.498605246970506],[4.73477649793351,46.49860534688426],[4.73477451247512,46.49860033327411],[4.734772983981106,46.498597384265004],[4.734683179636058,46.498615589400714],[4.734632393285398,46.49862626732231],[4.734532797369999,46.49865236664226],[4.734481119756282,46.498676027627354],[4.734457987008968,46.49868682632261],[4.7344045671005,46.49872951778486],[4.734386158582603,46.49875762767364],[4.734370738388535,46.49878127895525],[4.734242007289454,46.49879349939487],[4.734223195329785,46.498784327751345],[4.734185330751477,46.498766618572844],[4.734138988355557,46.49875300091327],[4.734103720787686,46.49874723118997],[4.734081830228536,46.49874378042367],[4.734065181233611,46.498745203820256],[4.734027856363554,46.49874856201723],[4.733970657640298,46.49876266936847],[4.733924613839307,46.49878714531578],[4.733921020986896,46.49878900114113],[4.733808861399831,46.49885888265567],[4.733731101760463,46.4989072568487],[4.733680600771669,46.498943328824666],[4.733577819328951,46.499016940756],[4.733480588073466,46.49915846879453],[4.733436843929979,46.49924298415491],[4.733396934254039,46.49938247210921],[4.733390284430513,46.49942355327805],[4.733387272542076,46.49944368381607],[4.73338203692727,46.499475917006116],[4.733367255601704,46.49956890980661],[4.733329505270168,46.49968197544484],[4.733305676005589,46.49972421772928],[4.733274513290545,46.49976963345467],[4.733161193633153,46.49990978387832],[4.73310284950745,46.499982271342716],[4.732919681246989,46.50014896918715],[4.732830283860674,46.50025804391477],[4.732763368112155,46.50029067150555],[4.732706512023486,46.50031972406451],[4.732663787163984,46.5003419875692],[4.732621609478348,46.50036505336501],[4.732399574436235,46.50054828112622],[4.732399441210172,46.50054819307829],[4.732399313705339,46.500548285076995],[4.73238213532436,46.50052485784466],[4.732373553290834,46.50051336928576],[4.732373278257249,46.500512923119935],[4.732524906064227,46.500392007697265],[4.732566114428709,46.500358959228244],[4.732596804091252,46.500339670215034],[4.732614575781045,46.50032841276051],[4.732767242408103,46.50024431852056],[4.732797830537861,46.50021773558972],[4.732859635639632,46.50016383963718],[4.732893167694724,46.500135500791764],[4.733007856350666,46.50003838177624],[4.733081784875091,46.499947374588096],[4.733138363995902,46.49987680529049],[4.733282733893229,46.49971231647923],[4.733337554150016,46.499574133653645],[4.733345816294066,46.49951402397304],[4.733339666685838,46.49946007719328],[4.733369322109277,46.49937136221698],[4.733383276936004,46.49931801128969],[4.733396101407243,46.49926602849843],[4.733417062432153,46.49922382967592],[4.73345547240555,46.49911922026062],[4.733466028324435,46.49909023886348],[4.733498332262168,46.499043815034604],[4.733586260147677,46.49895835947174],[4.733644571453405,46.49892180883626],[4.733732287537276,46.49886661877984],[4.733732672895956,46.49886643280252],[4.733808037304565,46.498816563797924],[4.733942530523004,46.49872715934624],[4.733934412442489,46.49872205860069],[4.733835649042604,46.498659519029616],[4.733633603010713,46.498544055241474],[4.733578266299276,46.49852237767806],[4.733528585838216,46.49848170031251],[4.733528050084495,46.498481258102665],[4.733502471307879,46.49846435314558],[4.733460923003247,46.498437422717885],[4.733447795101963,46.49839781228332],[4.733382691706983,46.49810995544622],[4.733413532546884,46.498107776566634],[4.733413538271208,46.498107956613275],[4.733414059709518,46.498107948707094],[4.733480576141957,46.498382814496786],[4.73349325181847,46.498408201244445],[4.733498139176848,46.498422447745355],[4.7336692707391,46.498525501025966],[4.733752635713399,46.49857548478113],[4.733966781256209,46.49869409732092],[4.73398678795212,46.498699828349615],[4.734022190047269,46.498709829203825],[4.734081731849732,46.49872018443462],[4.734087731319804,46.49872018350173],[4.734235348664882,46.49871947548591],[4.734302093629402,46.49871026692259],[4.734377123141669,46.49868679216284],[4.734391372691324,46.49867964085079],[4.734458120760917,46.49864593399673],[4.734450431064004,46.49863380158291],[4.734412996877634,46.498572223451376],[4.734372259433971,46.49850520134969],[4.73436814529233,46.49849886902522],[4.734359911284428,46.498486024329225],[4.734330063847727,46.49843333775092],[4.734320032334961,46.49840088577278],[4.734313643568963,46.498380447475526],[4.734285657661965,46.49829197615334],[4.734282486200033,46.49828247718997],[4.734275851060119,46.498262492961736],[4.734255257736462,46.4982219150579],[4.73418654234967,46.49806254856689],[4.734186539486235,46.49806245854359],[4.734226267756942,46.49805266909085],[4.734326256540206,46.49803485020097],[4.734275235641476,46.4978741345259],[4.734275232777904,46.497874044502595],[4.73426505672398,46.49784114437759],[4.734239007871096,46.49775615625951],[4.73422516477898,46.49771457528436],[4.734220992083387,46.4977022994382],[4.734196820358581,46.49759431581623],[4.734191436016051,46.49756854833731],[4.734179424043494,46.497510727566144],[4.734170630661467,46.497467989183626],[4.734137108048449,46.49734483604516],[4.73413944876089,46.49734462040587],[4.734203557630368,46.49733869426192],[4.734213997700891,46.497338896159185],[4.734234617126752,46.49733930390579],[4.734275863071853,46.49734444248416],[4.734329677775983,46.497351101642764],[4.734463221159327,46.49736726913332],[4.734486785793852,46.497370063953326],[4.734487179731071,46.49737014804331],[4.734483309743815,46.49720340312877],[4.734483092088928,46.497196561357555],[4.734466703536508,46.49714466134945],[4.7344320056452,46.497033775193586],[4.734394182312737,46.49691483043562],[4.734387631835643,46.49689340385859],[4.734354630269206,46.49678663501513],[4.73432668234041,46.49669933398227],[4.734326676613219,46.49669915393565],[4.73415860906726,46.49676610123113],[4.73411444944816,46.496784153969124],[4.73407827455011,46.496799023304675],[4.734026912431333,46.49681205145348],[4.734011205150789,46.49681436123518],[4.734003415256717,46.49681547012496],[4.733958245554141,46.49670744467293],[4.733920137782772,46.49661642477767],[4.733806114894445,46.49633228225206],[4.733752901086067,46.496340384696225],[4.73368853240946,46.4963545106197],[4.733645096306475,46.496374803876826],[4.733625072633095,46.49639312087844],[4.733615329857473,46.4964107415718],[4.733535045768416,46.4965847070226],[4.733534631802366,46.49658399276594],[4.733534385401912,46.496584446835996],[4.733531850084859,46.49657854087587],[4.733529351977894,46.49657380521912],[4.73352573946755,46.496566834792176],[4.733588706318859,46.49639376241893],[4.733592456690486,46.496388661809526],[4.733607310640221,46.496367721207356],[4.733671058192068,46.496334060265106],[4.733698374458001,46.49631950553131],[4.733703667499107,46.49631780405949],[4.733763452329737,46.496298974106665],[4.733763973750698,46.4962989661989],[4.733764101243294,46.496298874198615],[4.733820699850466,46.49629468335083],[4.733951291358223,46.49629603515488],[4.734008326995503,46.49628508257848],[4.734238146751065,46.4962407061409],[4.734188337622448,46.496113927195665],[4.733960313819235,46.496067128741004],[4.733923162921177,46.49605949614967],[4.733923029703618,46.49605940810345],[4.733922899348956,46.49605941008058],[4.733899909975155,46.496045978550235],[4.733704474222021,46.49593302665809],[4.733615251954443,46.49592429223774],[4.733450430182174,46.4959086881611],[4.733408328072387,46.49592580877009],[4.733376273376174,46.495938994216075],[4.733376006943413,46.49593881812237],[4.733375621604203,46.49593900409858],[4.733256932276507,46.4958443421818],[4.73322442344878,46.495818625637064],[4.733111323354744,46.49574387365235],[4.733088130524723,46.49574044245606],[4.733072407931814,46.49573815894156],[4.73299546763975,46.49573833459004],[4.732802831717401,46.49577493960189],[4.73280218280832,46.4957750395045],[4.732759230171522,46.4957818150908],[4.732659063158956,46.495798014172124],[4.732575617826671,46.49583152275187],[4.732425520509722,46.49585244127196],[4.732156601989914,46.495893533628355],[4.732007780726763,46.49593820987251],[4.731939962320586,46.49595869174791],[4.731834599574989,46.49599199142061],[4.731713097938043,46.496034542136655],[4.731688208249401,46.496043385431605],[4.731724506940943,46.49613506388791],[4.731758962452464,46.4962220867856],[4.731878816394977,46.49650127925493],[4.731972048595938,46.49673476077627],[4.731972051455648,46.49673485079965],[4.732042640468915,46.4969534540351],[4.732042643328754,46.49695354405847],[4.731913519442909,46.49698612296185]]],[[[4.732255858412496,46.49493326935498],[4.732357736782272,46.49500792200572],[4.732415679746916,46.49505018589792],[4.732415946172233,46.49505036199388],[4.732689428190776,46.49523508717789],[4.732903668764787,46.49517662887946],[4.732966695532331,46.49516135285152],[4.732975626909989,46.49515923599054],[4.733097507464608,46.4951328000863],[4.733168194724581,46.49512056014629],[4.733181424856616,46.495118288029055],[4.733092867114832,46.4949991213066],[4.733020661598387,46.49490204318029],[4.732920671482388,46.4947678283606],[4.73290323399522,46.494744405135606],[4.732813808907329,46.494770258826485],[4.732813669972719,46.49476999073219],[4.732677666581754,46.494569492062105],[4.732655363737549,46.49453659546868],[4.73257883221657,46.494410040750395],[4.732578310813498,46.49441004865277],[4.732066625654716,46.49446112469084],[4.731673241628235,46.49450040905078],[4.731673377697452,46.49450058712304],[4.731739414774394,46.49458010642713],[4.731776478230775,46.494613770318885],[4.731805341538436,46.494639722619304],[4.731879549709944,46.4946931788431],[4.732095050485383,46.494822221882785],[4.732255858412496,46.49493326935498]]],[[[4.73164642006292,46.476791059050825],[4.731668138047275,46.476867376969636],[4.73171828247098,46.477050623982464],[4.731740452125711,46.47712063035403],[4.731744515245698,46.47713362849665],[4.731744656988442,46.4771339866167],[4.731750643973045,46.477158304046135],[4.731790402818195,46.47731829098824],[4.731790405676588,46.477318381011926],[4.731803387072049,46.4774028472589],[4.73181037170479,46.47745858294412],[4.731821189338378,46.477544703183376],[4.731826035728266,46.477582367806505],[4.731844847477657,46.4777272707045],[4.731827818186675,46.4778930718766],[4.731813850528726,46.47805675510412],[4.731819461373884,46.47819240100828],[4.731819857525203,46.47820077123357],[4.731669802071627,46.47820916961035],[4.73154395318636,46.47821621029066],[4.731543822874252,46.47821621226507],[4.731419699450279,46.47822421740139],[4.731430127895192,46.47825702391459],[4.731432886754501,46.47826589874589],[4.731432041089866,46.478424069142264],[4.731432049663443,46.478424339213255],[4.731393392062137,46.47855777364891],[4.731364248849697,46.478666475646875],[4.731349788653901,46.47870380229956],[4.731342445381616,46.47872300774129],[4.731218630287516,46.47906524641326],[4.731162831862935,46.479217314051944],[4.731065967371923,46.47947628267273],[4.731066488632469,46.479476274777234],[4.73113198112267,46.47947762448916],[4.731179209494197,46.479478620359664],[4.731179991385024,46.479478608515656],[4.731297959734552,46.47947375920414],[4.731298220364796,46.479473755255874],[4.731162007185063,46.479840319548615],[4.73116188829901,46.4798406816172],[4.731674053346552,46.479895248694966],[4.731762926740287,46.479906151144554],[4.731763057056425,46.47990614916988],[4.731765944484374,46.47996834167682],[4.7317729633203,46.48012369086767],[4.731776732211821,46.48019721845053],[4.731777253479153,46.48019721055179],[4.731844395233247,46.48019709380642],[4.731998498333396,46.480196920103324],[4.73199862865022,46.48019691812839],[4.732228799599216,46.480194420419956],[4.732229320866457,46.48019441251915],[4.732225293905552,46.480248243526624],[4.732220020067832,46.480320286956335],[4.732221791275042,46.480351423275856],[4.732223203425633,46.480375359681254],[4.732208998679294,46.48051103567146],[4.732205100021245,46.48054838247862],[4.732198741268927,46.48058216389393],[4.732198316767086,46.48059342869634],[4.732197172371295,46.480623078067026],[4.732179540812915,46.48067549406014],[4.732165417286907,46.480789102403264],[4.732162869614417,46.480815620697584],[4.732158731484691,46.480857744677905],[4.732142388231575,46.48099588486346],[4.732125624601274,46.48112079157359],[4.732108020312203,46.481219231339075],[4.732102343549796,46.481270385325764],[4.732092365772123,46.4813298005862],[4.732057951038097,46.48141210292411],[4.732048627851032,46.48144286697384],[4.732049024528499,46.48144304109605],[4.732058547647553,46.48144731005271],[4.732191188419065,46.4815060949783],[4.732218712427984,46.481518827588076],[4.732251778514901,46.48153363779824],[4.732294141879476,46.48154560507172],[4.732318080306165,46.48155217738648],[4.73231834380575,46.48155226345948],[4.732342772063749,46.481557837608314],[4.73237625532274,46.48156525597108],[4.732497069811858,46.481580087009156],[4.732682868854567,46.48161302693447],[4.732953471014529,46.481639456854005],[4.733140543178925,46.48164679772288],[4.73314042144122,46.481647069769835],[4.733140942722209,46.4816470618649],[4.733276623701499,46.48167427601557],[4.733373200390141,46.48169361679432],[4.733466122453486,46.48171283278938],[4.733474389866257,46.481714508734015],[4.733476376147665,46.481715469343925],[4.73353143643563,46.48174129403126],[4.733555641220305,46.4817562382778],[4.73356376901793,46.48178223441413],[4.733563913646253,46.481782682555206],[4.733574468896775,46.48180711073247],[4.733630882600131,46.48193703225537],[4.733735344223855,46.48215106797585],[4.733748402600505,46.482188607943094],[4.733748793565064,46.4821886020123],[4.733772632073637,46.482200219294356],[4.733841749472387,46.48215143528167],[4.733876669133962,46.482121994032596],[4.73387679659323,46.48212190203197],[4.733901303488353,46.48208892599835],[4.733930993610342,46.48203443538412],[4.733952903142638,46.481977180661076],[4.733968818047856,46.481911820786614],[4.733981940101152,46.4818570411171],[4.733988887058946,46.4817966809136],[4.733984859874783,46.48167001777907],[4.73398484270133,46.48166947763777],[4.733974744605626,46.48149129822902],[4.7340046106623,46.481360338048354],[4.734004602075524,46.48136006797768],[4.734007743230156,46.48133173928747],[4.734015662779181,46.48125686353508],[4.73404019563207,46.48105248959259],[4.73404550687408,46.48099809861426],[4.734051495791967,46.48092811576383],[4.734076999136916,46.48065995964209],[4.734082803598553,46.48057187611778],[4.734087874635768,46.48049353095551],[4.734082590161349,46.48042984370359],[4.734067052157874,46.48022409623676],[4.734064562287749,46.480129383531136],[4.734063537587488,46.48009715509245],[4.734072249858597,46.479969307891295],[4.734080601114309,46.479846509916236],[4.734001688257627,46.479853651671824],[4.733958144041989,46.47985782495159],[4.73381844095184,46.479863907406916],[4.733751384139873,46.47986258295757],[4.733568101347445,46.47985941884663],[4.733567840715523,46.47985942280008],[4.733540972979186,46.47985091371358],[4.733527679444965,46.47984697227386],[4.733528197847304,46.47984687434353],[4.733527540544856,46.47984670417976],[4.733542168957002,46.479843420012074],[4.733585250708063,46.47983700223131],[4.733587715264331,46.47983660457879],[4.733587845580238,46.47983660260204],[4.73358810621205,46.47983659864854],[4.733826470959247,46.47984171916939],[4.733884448754938,46.4798363362248],[4.733886658401176,46.47983612256715],[4.7338979758499,46.47983532039485],[4.734048858914982,46.479824114523346],[4.734064796172747,46.47982099056317],[4.734082103932241,46.479815864331684],[4.734088241737541,46.479812078453975],[4.734103052103314,46.479802216561524],[4.734113238439567,46.47979044335568],[4.734119881838003,46.47978205638719],[4.734131460830392,46.47973207363652],[4.734148419505313,46.479629860454786],[4.734157774642881,46.47957144514471],[4.734167435264891,46.47940782692585],[4.734175989425723,46.47921351263778],[4.73418164549711,46.479157675327166],[4.734183709423559,46.47913647825921],[4.73419464280979,46.479062097128164],[4.734213026448908,46.478935003799535],[4.734213012136531,46.4789345536816],[4.734214133577543,46.47892471935872],[4.734215832303892,46.47890433843404],[4.734216512922026,46.47888064047884],[4.73421645459546,46.478858304742126],[4.734214064856705,46.478758546742775],[4.734210917650421,46.47865546775623],[4.734207621250257,46.47848619176622],[4.734207430826308,46.47848430324824],[4.734192106859853,46.47832628801274],[4.734202874273454,46.4781523853157],[4.734208198594994,46.47806151694971],[4.734209487827521,46.47803645875003],[4.734228398196315,46.477901341432464],[4.734230339390593,46.47785168503663],[4.734218053127242,46.47775640041949],[4.734201342995573,46.477690094451916],[4.734189730396603,46.477644696748506],[4.734170453285389,46.477550959281984],[4.734164445142747,46.47752601181562],[4.73415297436887,46.47748097222426],[4.734110004953752,46.4773309420939],[4.734106237731972,46.47731496732457],[4.734093206355856,46.47726184537395],[4.73408432201527,46.477207939958475],[4.734074335111191,46.47715215986434],[4.734041382968914,46.476993241201875],[4.734029173825403,46.47693317160437],[4.734006890383379,46.47682687033749],[4.733986003391644,46.47671118090394],[4.733981596331917,46.47668738000522],[4.733967620246518,46.4766291385514],[4.733946984350905,46.4765623517081],[4.733923658015253,46.47648885065375],[4.733864777433513,46.47630988011961],[4.733861099263567,46.47628849996743],[4.733861997496609,46.47627164380038],[4.733866173665718,46.47618565646936],[4.733866467896399,46.47609648562112],[4.733862669217994,46.47596468508581],[4.733862597674467,46.475962434494875],[4.733862594812726,46.475962344471235],[4.733862574780539,46.47596171430577],[4.733868378918509,46.475820311028485],[4.73387591840284,46.47568428544123],[4.733881732588822,46.4755390991868],[4.73387249983849,46.4753429831372],[4.733852278115806,46.47534662243384],[4.733672477649804,46.47537871217047],[4.733577206863836,46.475396009274846],[4.733543638045833,46.47540219273495],[4.73346589103935,46.475421205387896],[4.73342519779111,46.475445240093066],[4.733398713790788,46.475461043283865],[4.733372467767355,46.47546792622044],[4.733367686517246,46.475469259682164],[4.733367295600802,46.475469265611665],[4.733367165295321,46.47546926758816],[4.733363256130882,46.47546932688302],[4.733336543506978,46.47546973206097],[4.733276198046358,46.47546200092313],[4.733243087728246,46.47545799976299],[4.733161226312759,46.47544600147808],[4.733138370094056,46.475440583831094],[4.733085317661581,46.475428508834526],[4.733017030018519,46.475404685941825],[4.732950210115691,46.475381921556014],[4.732903640322937,46.47536461434852],[4.73285788099149,46.47534819550322],[4.732799410941522,46.47532152159991],[4.732693733196148,46.47526566119967],[4.732679014821088,46.47525786839746],[4.732634949611313,46.47524142377836],[4.732455958355563,46.47517586666361],[4.732402799315281,46.47515631740842],[4.73239137988152,46.4751538785806],[4.732375388345275,46.475151148794815],[4.732360947390923,46.47515208824913],[4.732354967668004,46.47515262923351],[4.732332625086281,46.4751592726239],[4.732314119736866,46.47517180226505],[4.732290425410127,46.47520566638089],[4.732280735372702,46.47523715659603],[4.732258488891605,46.475320715755366],[4.732231737955168,46.47542253672697],[4.732209100727893,46.47552663707602],[4.732197879128423,46.47557148041549],[4.732196617303253,46.47557690356339],[4.732196492715413,46.475577085585925],[4.732196370986547,46.47557735763215],[4.732192755079885,46.47558254626185],[4.732185279806585,46.475593467613315],[4.732185152359717,46.47559355961215],[4.732167947028699,46.47560597945357],[4.732032907106703,46.47568467329196],[4.731983775292398,46.47572216528666],[4.731983392949874,46.475722441282485],[4.731965043362753,46.475735779104255],[4.731906661873629,46.47576116213667],[4.73187447406465,46.47577389906199],[4.731863671260153,46.47577856612883],[4.731824085733709,46.47579645890379],[4.731808854860134,46.47580947923547],[4.731807588955073,46.47581066929066],[4.73175317902449,46.475866704904305],[4.731607997620394,46.475999682168606],[4.731586688568457,46.47602657481977],[4.731569907102247,46.47605646114127],[4.731564395976704,46.476071765969984],[4.731561893881906,46.47607918937611],[4.731510605320204,46.4762171385339],[4.731502552041501,46.47623860643229],[4.731495048564708,46.47626096666951],[4.731455296890875,46.476314708488395],[4.731452930793241,46.47632230996491],[4.731443863034637,46.47635288999487],[4.73144348354273,46.47635325601255],[4.731478392997894,46.476418025659335],[4.731510816956029,46.476478419672894],[4.731563019393797,46.47657868387204],[4.73158161817968,46.47661424872255],[4.731604057741116,46.47666812903927],[4.73164642006292,46.476791059050825]]],[[[4.732618879136829,46.50260613297014],[4.732679118084318,46.50271627224312],[4.732695877188757,46.50274700118523],[4.732696016143114,46.5027472692793],[4.732768185502312,46.50287983442902],[4.732768188363658,46.50287992445229],[4.732873273797848,46.503067291591506],[4.732934298860632,46.50317750888909],[4.73325924185801,46.50376513174239],[4.733259514053044,46.5037654878826],[4.733308285322716,46.50375691273727],[4.733361078105451,46.50374764613765],[4.733361353163437,46.503748092300846],[4.733550526245786,46.504073427041554],[4.733836981300948,46.504566071186815],[4.733876220170819,46.50455304696207],[4.733946810842818,46.504529189612214],[4.734058882710975,46.50447669239474],[4.73418886903505,46.504405099424744],[4.734222944693369,46.50436918639625],[4.734232072968886,46.50433221068642],[4.734237751635484,46.50427700377001],[4.734202729790153,46.50410685868],[4.734194940579687,46.50376769576874],[4.734211726400329,46.50356551173934],[4.734215113933868,46.503524389964916],[4.734216445360843,46.503496539174535],[4.734220398179487,46.503407583432],[4.734230383685298,46.503331956116334],[4.734233417025263,46.503308402709635],[4.734235163826098,46.50328540921687],[4.734238733383085,46.50323770981232],[4.734249760711394,46.50322763521673],[4.734269641993874,46.50320886998839],[4.734349713089122,46.5030197763612],[4.734368021571454,46.50297617657192],[4.734399258641372,46.502904369926156],[4.734487591077838,46.50270028985685],[4.734507023886776,46.50266333791701],[4.734534049843839,46.50261086937824],[4.734625615596409,46.50246744506696],[4.734643128524858,46.5024275500271],[4.734656968083227,46.50239518625053],[4.734693029442392,46.502335645448206],[4.734720638090696,46.5022892024843],[4.734774776339415,46.5022156972433],[4.734803028055949,46.50217717036785],[4.734869026759983,46.50211159111704],[4.73500796477476,46.50197312183186],[4.735008092278523,46.50197302983028],[4.735179348057739,46.5018213704865],[4.735230946595566,46.501725476941964],[4.735268044033091,46.50163295579559],[4.735300677322368,46.501539511656006],[4.735309623913816,46.50151325652018],[4.735373249574099,46.5012789279442],[4.735507458466357,46.50098381366472],[4.735521597998953,46.50095270614281],[4.735324745070826,46.50102126274934],[4.7351805239478,46.50106740422379],[4.73515149087772,46.501073158787264],[4.735111323630568,46.5010815141202],[4.734988973787876,46.501097691474264],[4.734963502137347,46.50110059987622],[4.734835381696322,46.50111578383253],[4.734765823040893,46.50113503275687],[4.734747726377918,46.50114017094203],[4.734616793119146,46.50120223201318],[4.734616407746972,46.501202417993404],[4.734593271090362,46.50121312668817],[4.734559477225284,46.501229130864935],[4.734258804687754,46.501342942981445],[4.734071068757852,46.501411178952964],[4.734052198323148,46.501416598961285],[4.734013173810848,46.50142808890365],[4.734012527700032,46.501428278836286],[4.733757161841333,46.50149853070685],[4.733751083230034,46.50150015401796],[4.73351468612135,46.50156399315489],[4.733176419624555,46.50166468222421],[4.733226985765608,46.501811084586855],[4.73322685539717,46.50181108656317],[4.733067952177922,46.50184682001684],[4.732880695464544,46.501889197588476],[4.732907857402174,46.50197227768398],[4.732948972970783,46.502096306733684],[4.732948323986736,46.502096406637],[4.732948471525487,46.50209694480061],[4.732666858869665,46.50215408198535],[4.732680287903079,46.50219494885874],[4.732694269907613,46.50223679808337],[4.732694411721853,46.50223715620075],[4.732767278016607,46.502436810432215],[4.732767425554491,46.50243734859601],[4.732547813936047,46.50246724633533],[4.732575491342281,46.50252140730009],[4.73261874018321,46.502605864875974],[4.732618879136829,46.50260613297014]]],[[[4.73631783319875,46.500177571099066],[4.7363096777542,46.50018769236601],[4.736279784492743,46.500272899166994],[4.736262212062321,46.500323153081034],[4.736261968534666,46.500323697179894],[4.736248557468084,46.500361278548915],[4.736213468285821,46.5004594437795],[4.736185565192144,46.500500667751645],[4.736057333454402,46.50061060500996],[4.736004899876246,46.500647427881056],[4.735920082803892,46.50070356637276],[4.735801829136587,46.50078281920102],[4.735716589103045,46.50084616929416],[4.73570257843831,46.50085673967192],[4.7356539593945,46.500894585263694],[4.73558371394248,46.500949601611644],[4.735553907614505,46.500988422505486],[4.735529610970317,46.50102004448299],[4.735531797193097,46.50103135970344],[4.735540702522453,46.50107346581395],[4.735498645951947,46.50111670578511],[4.735490700822586,46.501129345663244],[4.735463534645,46.50117326025655],[4.735461421619583,46.501184730804184],[4.735452880716652,46.50123601834507],[4.735442356918329,46.50125779409979],[4.73543565956627,46.501272756767804],[4.735394452744873,46.501420551253325],[4.735386643714014,46.501449761332076],[4.735372466819117,46.5015042867439],[4.735269031323355,46.50174183145975],[4.735252725318728,46.501770449954435],[4.735213859884923,46.501840211048744],[4.735189201641759,46.50186868609397],[4.735182416752418,46.501876805002595],[4.735112950328092,46.501944058273814],[4.735004178163943,46.502038567714905],[4.734944129433702,46.50209847262564],[4.73494387729027,46.50209874665186],[4.73491134503673,46.50213391598434],[4.734842895074766,46.50220853912294],[4.734673915424925,46.50247688980497],[4.734548729304762,46.50268279008448],[4.734506484041912,46.50276115851266],[4.73442413306396,46.502952358390516],[4.734342981998958,46.503148493659026],[4.734301289920977,46.50326477166734],[4.734265023380038,46.50336709709489],[4.734262068888971,46.50347513182867],[4.734261740506502,46.503493510407075],[4.73426076162585,46.50351604191832],[4.734251065508259,46.50376477294792],[4.734235594824129,46.503975493361146],[4.734245075128742,46.504043890282865],[4.734245089447974,46.504044340398906],[4.734267515680539,46.50418756647044],[4.734277199134461,46.50427874716736],[4.734284706743479,46.50434663360589],[4.734276780776749,46.50436809962147],[4.734270322059408,46.50437828505109],[4.73426352090218,46.50439000680728],[4.734227501233223,46.50441811353631],[4.734197123509052,46.504443162481266],[4.734003822726709,46.504558227128584],[4.733982190236809,46.50457116452432],[4.733973937509379,46.504590563938756],[4.733973983324219,46.50459200431005],[4.733974938723009,46.50460153688388],[4.733977359746064,46.50461203796393],[4.733977651994063,46.50461302426481],[4.733994110580737,46.504621961459684],[4.734088757742462,46.504665469299276],[4.734289858691258,46.50470538094941],[4.734626481284469,46.50477385899209],[4.734735949250137,46.50479120226571],[4.734779208078365,46.504797931402564],[4.735033245440626,46.504812540450715],[4.735045234260654,46.50481217839211],[4.73508197724251,46.504810900291716],[4.735082107618052,46.504810898313266],[4.735290174047985,46.50479504132606],[4.735300972289218,46.50479415690973],[4.735418570981923,46.50479237206859],[4.735426704394129,46.50478972675358],[4.735452504365526,46.50478068875959],[4.735497678884247,46.504802519748836],[4.735712438945487,46.50480844659172],[4.735732998147824,46.50480687355811],[4.735794533906443,46.50480179632176],[4.735794672881273,46.50480206441197],[4.735795064007761,46.504802058474205],[4.735796586998102,46.504804827420216],[4.735800270524556,46.504809905300114],[4.735941556303763,46.50482694452156],[4.736144501369312,46.50485097320481],[4.73667616620887,46.50490819739455],[4.736751294408386,46.50491624305996],[4.736813223129728,46.50492349844442],[4.736961297665787,46.50494070349319],[4.737117909539274,46.504951564043985],[4.737118564286939,46.50495164416328],[4.737408695747672,46.50496912211594],[4.737564865015549,46.504978367581835],[4.737727571589542,46.50498400087913],[4.737870274930227,46.504992279717044],[4.738128094927167,46.50500682442258],[4.738658950821995,46.50503856285694],[4.738857949864554,46.505049226812865],[4.73904531393137,46.50505907665284],[4.739038134636324,46.50505891564628],[4.73911862430652,46.50506327554924],[4.739134438275307,46.505060152878464],[4.73913326201941,46.50506008070297],[4.739300713995312,46.505026370483044],[4.739476529924242,46.50499316323848],[4.739489316482986,46.50498918590737],[4.739525853759726,46.50497737169764],[4.739581083363466,46.504946359066714],[4.739702666714848,46.50487731938971],[4.739755431165789,46.504854900522396],[4.73975428364335,46.50485572858385],[4.739765607289387,46.50485087281264],[4.739760577233024,46.504852660618106],[4.739799702844709,46.50483612346235],[4.739828772990791,46.504827394977745],[4.739826970719879,46.504828142936134],[4.739932918879327,46.504796448427676],[4.740192821628724,46.50473322914506],[4.740204080930693,46.504730445844686],[4.740203301553425,46.504730547773434],[4.740237467704272,46.504722101889875],[4.740345523364491,46.50469514845519],[4.740373325130599,46.50468346693149],[4.740373583006693,46.5046833729395],[4.740591211020825,46.50459936030567],[4.740818584516743,46.504538706305006],[4.74104765138068,46.50448207906504],[4.741249957492151,46.50442072509325],[4.74165728227345,46.504313556295045],[4.741657928391825,46.50431336631929],[4.741977603047381,46.504218609685395],[4.742086090205152,46.50419705201174],[4.742232920485575,46.504167164230836],[4.742482013149642,46.504120946874],[4.742499446716943,46.504062407933986],[4.742486948835794,46.50399378732658],[4.742486798320314,46.503993159152465],[4.742485405386205,46.50399038830828],[4.742456808545879,46.50393228066511],[4.742370788772965,46.5037875031163],[4.742340428263489,46.503727260717596],[4.742334309199514,46.50371537507292],[4.742116759463931,46.50345470410681],[4.742083407906644,46.50342738161867],[4.741974730613419,46.50333680898549],[4.741895555207361,46.503271455847546],[4.741706120016842,46.50313536859301],[4.741387260055056,46.50297369187647],[4.741386729944629,46.50297342974988],[4.741247435699147,46.502904308335445],[4.74117964215813,46.50287264651063],[4.741005003764319,46.50279136362988],[4.740910876824063,46.50274380053762],[4.74070023157383,46.5026377566779],[4.740548053801276,46.50255315895376],[4.740414071576605,46.502474678801605],[4.740413805089181,46.50247450272449],[4.740226690817196,46.502361885209744],[4.73993756069421,46.502113828309064],[4.739900679597715,46.502086198653096],[4.739879306305916,46.50207040194707],[4.739824495097209,46.502032687437165],[4.739640875206573,46.50190686606726],[4.739368669697185,46.50171898509409],[4.739368536457007,46.50171889705429],[4.739286957958712,46.50166798942388],[4.739243685469722,46.5016444197328],[4.73906980506721,46.50154988263237],[4.739027139802923,46.50152080955034],[4.738968763870923,46.50148170779607],[4.738814313823658,46.50137066275971],[4.738404360269306,46.50103491322075],[4.738384540737277,46.501018732353145],[4.738384537866756,46.50101864233],[4.738384271393001,46.50101846624812],[4.738400305967493,46.50101002636427],[4.738143270220361,46.50074130213995],[4.738053963274386,46.50064835989672],[4.738006918855769,46.500600529061394],[4.73787996800478,46.500472312351526],[4.737616116475714,46.50022692783126],[4.737429386604179,46.50007683227624],[4.73739927147791,46.50005270169412],[4.737395387641366,46.50004951831077],[4.737244068813649,46.49992599443689],[4.736984424539922,46.499767459032036],[4.736889895944661,46.499698823214516],[4.736846509777299,46.499667508632086],[4.736787926555903,46.499715953861376],[4.736779036284743,46.49972347439146],[4.7367833513014,46.499727912179694],[4.736795595785662,46.49973970505091],[4.736795216166915,46.49974007108492],[4.736795349398103,46.49974015912774],[4.736747411527247,46.499791144619195],[4.736729997779691,46.499809512570266],[4.736689637854342,46.49985272724451],[4.736596160686285,46.49993583772135],[4.736596033189965,46.49993592972474],[4.736498153366053,46.50001595465351],[4.736498025869381,46.50001604665679],[4.736387242936051,46.50011274968241],[4.736386860444792,46.50011302569186],[4.736336789983494,46.50015440624321],[4.73631783319875,46.500177571099066]]],[[[4.738168730362509,46.497784381740786],[4.738014803927525,46.49781212077239],[4.73801415500375,46.497812220704525],[4.738136326084054,46.4981629749849],[4.738170673473594,46.498262607095775],[4.738171061682894,46.49826251112668],[4.738274602780301,46.4982293234002],[4.73842482397249,46.498195786034344],[4.738489955659137,46.49818101539262],[4.738502305371234,46.49817974679229],[4.738511271475334,46.49817870977827],[4.738527566420448,46.498178461982754],[4.738553133447788,46.49819086267469],[4.73855604728924,46.49819225943282],[4.738558868089837,46.49819482847471],[4.738630711884111,46.49825966483665],[4.738668873778733,46.49829484100732],[4.738759440700877,46.4983987517569],[4.738791541882615,46.49843609160275],[4.738807640443564,46.498454220391785],[4.738817632791871,46.49846082342775],[4.738837328063875,46.49847313323072],[4.738861412526731,46.49848402526907],[4.738880137311471,46.498486352405834],[4.738883798884258,46.49848665698077],[4.738896300270111,46.49848196349173],[4.738917814892582,46.498473620300565],[4.738996033330733,46.49844387935669],[4.739013886352815,46.49843523157605],[4.739040366693196,46.498435369177706],[4.739044798938489,46.49843530175705],[4.739049512004468,46.498435860532496],[4.739080669812101,46.49843952964771],[4.739101652647823,46.498447226410406],[4.739158288335842,46.498513644798855],[4.739199729336276,46.49856165047574],[4.739265611740078,46.498639907036875],[4.739346243596248,46.498734871733696],[4.739393797054326,46.498794583106644],[4.73940339733583,46.498805245066585],[4.739431900142892,46.49883606460722],[4.739437069275503,46.49884274097447],[4.739443428892493,46.498849939629665],[4.7394567504644,46.49885460055416],[4.73947254139585,46.498854900696685],[4.739482839926125,46.49885474400363],[4.739526011785739,46.49884661158071],[4.739536249995811,46.49884456439662],[4.739601564220882,46.49883141155657],[4.73969900974642,46.49881155512661],[4.73976422225852,46.49879930440878],[4.739863263600127,46.49878041428794],[4.740002918212059,46.498754961551775],[4.740088887762046,46.49873924238794],[4.740202625153445,46.498641409837475],[4.740209636949238,46.498636349429],[4.74022289848752,46.49862687067856],[4.740335267501802,46.49857607372855],[4.740462161943132,46.49852271379424],[4.740529469584292,46.49849439882965],[4.740474407263642,46.498420121322994],[4.740458598655424,46.49839883600499],[4.740458323566352,46.49839838985846],[4.740559222874504,46.49836010645199],[4.740559492216263,46.498360372552014],[4.740567525455899,46.498370968208114],[4.740579233614213,46.49838637152573],[4.740680164431121,46.498349078266955],[4.740718565519774,46.498314088021104],[4.740684790385545,46.49828154772924],[4.740654936553602,46.49825336100173],[4.740588737900922,46.498193843941586],[4.740553702433473,46.49816267380463],[4.74052156261734,46.49813641325192],[4.740520893577021,46.49813588303632],[4.740410217352458,46.4980517342168],[4.740372410836708,46.49802772149587],[4.740162831213165,46.49789725250577],[4.740162564748921,46.497897076427925],[4.740092993589194,46.497854452933915],[4.739972347790935,46.49778072307442],[4.739755273583508,46.49764829588809],[4.739717580073711,46.497615544750495],[4.739645561292381,46.497553413726806],[4.73958199185501,46.497494486566],[4.7394985580459,46.497417938314044],[4.739449937140416,46.497377877808155],[4.739397159225757,46.497338330864956],[4.739395960160095,46.49733753850661],[4.739385220266333,46.49733202769822],[4.73934930751019,46.49731420045197],[4.739299794527927,46.497295229105866],[4.739279949736257,46.49729048727723],[4.739207574918547,46.497282581662915],[4.739195927163816,46.497281317791625],[4.739182477379321,46.49728080186829],[4.739104782640602,46.497277840731904],[4.738998342098086,46.497277298279705],[4.738962838947483,46.49727639725476],[4.738879060497031,46.497274879507586],[4.738809647202982,46.49727395381222],[4.738807819328528,46.49727389154673],[4.738759262053957,46.49727670161446],[4.738739632634337,46.497278711431846],[4.73872417177941,46.497280567779576],[4.738698494772871,46.497289244447856],[4.738669938938699,46.49730580070956],[4.738661979047153,46.49731384765054],[4.738642654433913,46.49733359598643],[4.738598399127217,46.49738542699644],[4.73856880645012,46.497430820393085],[4.73855743814994,46.49745468085906],[4.738554870001832,46.497460033858346],[4.738554330166596,46.49746355467515],[4.738541757743492,46.497543725233804],[4.738528819369582,46.49756742943874],[4.738514802489372,46.49759412224889],[4.738478061514239,46.497664843039416],[4.738475603613319,46.49766956389204],[4.738473082561152,46.49767230423424],[4.73846011492607,46.49768691212327],[4.738442139125557,46.497699884896626],[4.738431569103664,46.49770788144333],[4.738415989729185,46.497718295899936],[4.738393534601006,46.49773394871687],[4.738368602165318,46.49774144311548],[4.738368086471875,46.49774163109064],[4.738362266263383,46.49774316066032],[4.738274710990148,46.49776637820359],[4.738168730362509,46.497784381740786]]],[[[4.738213221782134,46.492266388207675],[4.738183862036393,46.492257647818455],[4.738128172082889,46.49224111168938],[4.737690142380552,46.49233153337992],[4.737051285392766,46.49246301347825],[4.736987411985608,46.49247614308885],[4.736974454816097,46.492478771779545],[4.736667016055457,46.49254225656485],[4.736710086477447,46.492653915620295],[4.736789559593826,46.49286031234872],[4.73682880014258,46.4929663553358],[4.736925526228325,46.49322716043296],[4.73703531203372,46.49347623844609],[4.737057802496186,46.4935272348157],[4.737057944316431,46.493527592928196],[4.737114152274021,46.493621759366135],[4.737170683315745,46.49369331408227],[4.73727450634807,46.49382476508232],[4.737421109847195,46.494013658939565],[4.737497000855433,46.494119775141044],[4.737496873374231,46.49411986714551],[4.737455061695213,46.494133742468186],[4.737416477189865,46.49414657799183],[4.737409812806867,46.49416253104951],[4.737409566449621,46.4941629851281],[4.737427426004548,46.49416685676789],[4.737419160469911,46.494189859377364],[4.737397605032355,46.49425008145454],[4.737381646006933,46.49430994827143],[4.737371170876126,46.49434955676209],[4.737398964704347,46.4944319058052],[4.737426789347064,46.49456433155305],[4.737462137352233,46.49483462538973],[4.737513750419819,46.49495642193825],[4.737529262463604,46.49499302351781],[4.73733295142392,46.49500825619849],[4.737288464093554,46.495007761412616],[4.737252979658798,46.49500739999599],[4.737252985395473,46.49500758004256],[4.737216897396523,46.495221586904286],[4.737205065177203,46.495292289056316],[4.737190818347907,46.49537725846093],[4.737179119282317,46.495448048650836],[4.737178582246412,46.4954516594856],[4.73717846623451,46.49545211158274],[4.737177801713657,46.49545581442161],[4.737168359454358,46.49550738607597],[4.737168889471931,46.495507648222464],[4.737261399129171,46.495554067921915],[4.737393932592111,46.495620504592246],[4.737420056868838,46.49563406792089],[4.737449624856062,46.49564929017565],[4.737493622296141,46.49567122826383],[4.737523175979954,46.4956860003832],[4.737506177416098,46.49576236523271],[4.737481781578829,46.49587261757477],[4.737482181247372,46.49587288170097],[4.737513487017218,46.495889428531974],[4.737529509999291,46.495876575642455],[4.737538028559542,46.49586969115562],[4.737555000769458,46.49587843987977],[4.7375785997097,46.495890510420395],[4.737578220123005,46.495890876457274],[4.737561889283678,46.49590634597159],[4.737555558052938,46.49591229654617],[4.737672972887931,46.495974909687504],[4.737754280263863,46.49601762640349],[4.737791432165396,46.49597617130544],[4.737791698612597,46.49597634738886],[4.737791965059798,46.49597652347227],[4.737835297185163,46.49600621729721],[4.737835294315812,46.49600612727397],[4.737868093214127,46.495971313202844],[4.737924102484151,46.49591182821981],[4.737925991798201,46.495909727960026],[4.737936942356089,46.49589731239214],[4.737937475250659,46.49589766455829],[4.73800413017063,46.49594303565589],[4.738039460336355,46.49596717684613],[4.738039726784312,46.495967352928965],[4.737966646849343,46.49599863636181],[4.737879417223342,46.49603607926224],[4.737879159383843,46.496036173248754],[4.737947268411629,46.496082152743114],[4.737947534859851,46.496082328826176],[4.738317565888559,46.496328890065506],[4.73852029968105,46.49646586116859],[4.73845770451366,46.49651103589155],[4.73838580280847,46.49656292697663],[4.738347385430353,46.49659332328313],[4.738326523717455,46.49660985253602],[4.738261310827277,46.49665065367343],[4.738261716245476,46.49665109784331],[4.738265651552275,46.496655901617004],[4.738273661134234,46.496665777251586],[4.738386356814173,46.496629387897144],[4.738412327035766,46.49661764456194],[4.738433024417426,46.49660823307423],[4.738484188415568,46.49658493831699],[4.738565946437147,46.49654766824353],[4.738625593222762,46.49652046160794],[4.738727202816586,46.496643568805005],[4.738751243300086,46.49667355570287],[4.738759391941294,46.49668369939037],[4.738759530910009,46.496683967477345],[4.7387870956215,46.49671813390946],[4.73878723171948,46.49671831197321],[4.738811895339572,46.49674738871254],[4.738833440209763,46.49677273007455],[4.738892035480437,46.49684749499603],[4.739076194437015,46.497101204150994],[4.739121925780345,46.49716517648846],[4.739128889863514,46.49717497790347],[4.73916917156621,46.497231647642025],[4.739169432280755,46.497231643675825],[4.739280039551161,46.49722788943251],[4.739336582516302,46.49723828754381],[4.739375686343494,46.49724985162793],[4.739386082218131,46.49725275573173],[4.739448552443465,46.49729359627854],[4.739519588112983,46.497357633783786],[4.73961493281233,46.497447781009306],[4.739691838538405,46.49752001524215],[4.739826955937516,46.49762630949686],[4.740100351689708,46.497798949802174],[4.740144904971074,46.497821869180214],[4.740197267260542,46.497848362417955],[4.740264869797601,46.49788651247204],[4.740321847267485,46.497922752691956],[4.74041396375558,46.497981154806844],[4.74052741739417,46.49807877137107],[4.740679078706712,46.49820886064255],[4.740739014462348,46.49826829287906],[4.740750460070277,46.49827955710024],[4.741079299949433,46.4981788084628],[4.741371844083478,46.49808914954673],[4.741371960066225,46.49808869744552],[4.741377046987836,46.49807646092845],[4.741434278775953,46.497936886109876],[4.741436718326731,46.49787443257416],[4.741438458119005,46.49783090375013],[4.74141640994037,46.497540773772556],[4.741432179760441,46.497360759973674],[4.741450035053226,46.49726645811566],[4.741443849073312,46.4971258677996],[4.741432949007567,46.49708676465514],[4.7414396436702,46.49683087258422],[4.741454015505178,46.4967908440736],[4.741480590004744,46.49673270635476],[4.741502968134683,46.496682018042584],[4.741538554328104,46.49663653253389],[4.741602772666649,46.496564671545286],[4.741607431913851,46.49655946674886],[4.741629518525974,46.496540486413444],[4.741762660893544,46.49642569414846],[4.74190255689049,46.49626513486599],[4.742044671194215,46.496129129872884],[4.742190435910329,46.496013514259936],[4.742245069311704,46.49598458075998],[4.742309955502962,46.49594999688849],[4.742381876576257,46.495894770487965],[4.742463188941414,46.495851830140005],[4.74259579102655,46.495781448096075],[4.742869133330323,46.49563011168686],[4.742983157815628,46.49558649209798],[4.74323004614629,46.49550112690044],[4.743230561801782,46.49550093890328],[4.743415204901674,46.495443002147134],[4.743637546581413,46.495364945554236],[4.743737331090271,46.49532874774895],[4.743860696438452,46.495283633777206],[4.744116706867738,46.495181825333596],[4.744198308425199,46.4951439230511],[4.744341629218011,46.49507850919393],[4.74437222096501,46.49506453234365],[4.744372736612436,46.4950643443413],[4.744372991556055,46.495064160317064],[4.744512136319003,46.49500682592756],[4.744571501199555,46.494975026994965],[4.744600985957874,46.494946836381935],[4.744632359707055,46.494916545390225],[4.744662271475792,46.494881323013765],[4.744747707841279,46.494775811511715],[4.74482534731876,46.49467933558194],[4.744835751608316,46.49466620712435],[4.744852445104979,46.494633618254944],[4.744938900236883,46.494462161956655],[4.744974350359557,46.49442478340837],[4.745001329145764,46.4943957302634],[4.745052490353652,46.494360273472786],[4.745028548350282,46.494349740833464],[4.744845487573015,46.49426949326732],[4.744557521831114,46.494142750595266],[4.744311225155291,46.49403437555326],[4.743959142492183,46.49379890807436],[4.74393662116755,46.493783850186645],[4.743936221483058,46.49378358608289],[4.743808699574375,46.493682314595276],[4.74335266199622,46.49338907685981],[4.743352395543707,46.49338890078929],[4.743098205191869,46.49321291318351],[4.742908203165052,46.49308665412533],[4.742544857577435,46.49284522960482],[4.742377309331818,46.49271961815299],[4.742164331056203,46.49255984290758],[4.742048709781272,46.492504322337744],[4.741963038671046,46.4924637467178],[4.741904511307076,46.492435997269574],[4.7419035988871,46.49243601117315],[4.741492718503497,46.492424978615844],[4.740946142803749,46.492403582026306],[4.74094561854678,46.49240349994362],[4.740857318205814,46.49238674123696],[4.740757075998466,46.49236764243994],[4.740593808627148,46.49231059430125],[4.740496611842747,46.492276587855464],[4.740034666672201,46.49207925847505],[4.739987950028105,46.49206195618588],[4.739955352670763,46.492049842984876],[4.739925095427698,46.49204976313011],[4.739891709908062,46.492049730881746],[4.739753330597629,46.492081919384475],[4.739426733232904,46.49215786229793],[4.739426084378998,46.49215796223818],[4.739414355072277,46.49216228379681],[4.739089865675727,46.492165329496544],[4.739050495692744,46.492165748314186],[4.739023577407038,46.49216813929799],[4.738913308820274,46.49217810291927],[4.73883729973401,46.492190967848785],[4.738767645952528,46.49220274532211],[4.738467335097507,46.49226063250325],[4.738358719818823,46.492281558606564],[4.738358325912391,46.49228147452983],[4.738314141193171,46.49227404042131],[4.73826184016426,46.4922574528219],[4.738213221782134,46.492266388207675]]],[[[4.739764023023625,46.48358050986439],[4.739733064168267,46.48361142378974],[4.739726247764514,46.48361846271226],[4.739694674575248,46.48365055684963],[4.739684139048866,46.48365954378802],[4.739661419709944,46.483678983823665],[4.739466577799365,46.4838207427151],[4.739415859763332,46.48385763149225],[4.739351002858778,46.48390500306139],[4.739350747950374,46.48390518707479],[4.739146868883336,46.484045731913774],[4.739125306036687,46.484060560818094],[4.739108232811852,46.48407306972733],[4.738978926045262,46.48416834666764],[4.739095435907373,46.48448135831979],[4.739237715539287,46.48486233862251],[4.739284667526746,46.484989429307326],[4.739332347149153,46.48511479762646],[4.739362239964985,46.485193511668385],[4.739362242836287,46.48519360169175],[4.739388605861034,46.48525976005483],[4.739434672554482,46.48537542563639],[4.739521667354217,46.4856009805927],[4.73988013794873,46.48561389807395],[4.740021905552561,46.48561894531696],[4.740022296541025,46.48561893936472],[4.740039534502655,46.48561975774473],[4.740084839265328,46.485621589906145],[4.740341695691953,46.48561695866548],[4.740571364939234,46.48561436207468],[4.740614926584642,46.48561468943063],[4.740690951758729,46.485614882641755],[4.740807953968719,46.485620216004314],[4.740897058941067,46.48562984704519],[4.740915898233638,46.485631811775235],[4.740924667669944,46.4856328490763],[4.741009868546385,46.485642719629105],[4.74113527974999,46.48567863744998],[4.741156556977958,46.48568344714999],[4.741160101745836,46.485684203754616],[4.741174047013241,46.48568399131824],[4.741177605168031,46.48568925107327],[4.74118483743762,46.485699318481004],[4.741201357608198,46.48571032520313],[4.741214421210484,46.48571516995056],[4.741246479370489,46.48572684063073],[4.74142477123372,46.485781316956064],[4.74154367228379,46.48581751365852],[4.741615438095601,46.4858394773309],[4.741692466043597,46.48586289191486],[4.741800010481043,46.48589052489885],[4.741855620301624,46.48590471865129],[4.741925831948059,46.48592292299817],[4.742141457105852,46.485978630595675],[4.742178990402117,46.48598616454659],[4.742220972195444,46.48599417108096],[4.742255278892681,46.48600274492759],[4.742267760938317,46.48600570701207],[4.742284923372754,46.48600823748236],[4.74237714189086,46.48602142260682],[4.742433705469346,46.48603280946207],[4.74244900788667,46.48603834047821],[4.742480522167124,46.4860492985729],[4.742493832242513,46.48605368908374],[4.742505552465857,46.48605729322652],[4.742499132426386,46.48604000814594],[4.742467710456534,46.48599113038957],[4.742460301557871,46.48597962467796],[4.742451821256038,46.48596723462793],[4.742394957637806,46.48588523973089],[4.742345493512484,46.48581853348878],[4.742340241846949,46.48580924656334],[4.742309032817495,46.485754781357954],[4.742262823789521,46.48565118800864],[4.742243029424098,46.48560708664347],[4.742218768322124,46.48555377644688],[4.74219233921295,46.48546933606599],[4.742158025080825,46.485366642171726],[4.742117356482297,46.485252786731536],[4.74210904395725,46.48522931584357],[4.742104198669361,46.48521642002877],[4.742067946632898,46.4851550964572],[4.742043422484817,46.48511394929658],[4.742019691845128,46.48507315030544],[4.741998036938223,46.4850361024927],[4.74199270201376,46.485024204874414],[4.741980500793622,46.48499737069424],[4.741925758557713,46.48490417492123],[4.74187763173421,46.484834385824726],[4.741853613871987,46.48479683359485],[4.741832346358025,46.48476374280224],[4.741827959163219,46.484736609389],[4.741819309363226,46.48468216052896],[4.741808952950638,46.48464367955775],[4.741804548585461,46.484628255131824],[4.741804542834853,46.48462807508522],[4.741822899759246,46.48462311184342],[4.741852885474579,46.484614819028224],[4.74184800458255,46.484555899441894],[4.741846713541598,46.48451547897528],[4.74184406640568,46.484453012727705],[4.741839482294414,46.48433806685987],[4.741838488428832,46.48431511488703],[4.741835513590961,46.4842546351086],[4.741839878479498,46.48424024791383],[4.741840701626755,46.48423744328796],[4.741857686432066,46.48411604414124],[4.741894867685859,46.48412484447274],[4.741974297185482,46.483970429700506],[4.741974413133212,46.48396997759761],[4.742004563697246,46.48389746434965],[4.74204806922908,46.48378178550929],[4.742048185175799,46.483781333406306],[4.742060661634473,46.48375556417154],[4.742154094973044,46.483578328947],[4.742202837118607,46.48348373599354],[4.74219577539361,46.48346267785549],[4.742130917790059,46.48326912141898],[4.74213077883895,46.483268853335495],[4.742110801397787,46.48321899043739],[4.74210670855676,46.48320923550246],[4.742104043525692,46.483199278669694],[4.742088426158762,46.483143044608326],[4.742082719823403,46.48305828832299],[4.742079592616499,46.483017535565736],[4.742077252550286,46.48301775136806],[4.742041664769366,46.48302207662281],[4.742041786465744,46.48302180456644],[4.742041268048519,46.48302190253532],[4.742062723857735,46.48296294178335],[4.742087240982883,46.482877364551584],[4.742097613880794,46.48285513998821],[4.742134443580071,46.48277540956759],[4.74217405911766,46.48272166607836],[4.742199668022927,46.482686599853665],[4.742236381830819,46.48263181976648],[4.742269937101827,46.482572044053455],[4.742301405902693,46.48249185488766],[4.742333495839988,46.482431110751456],[4.742361353406375,46.48238889489808],[4.742373900405662,46.48236942924308],[4.742389502315567,46.48235171835731],[4.742415787508984,46.48232150539475],[4.742448996967521,46.48229172726317],[4.742476239480879,46.48226699378841],[4.742481120674345,46.48226061466694],[4.742487493815326,46.48225196111934],[4.742485568645791,46.48224883811933],[4.742484202153729,46.482246877475],[4.742429727832295,46.482247707981834],[4.742250601054288,46.482244314168994],[4.742157553576225,46.48224987564008],[4.742102950884962,46.48225485103771],[4.742051742290993,46.482259954809685],[4.741990731853853,46.48227250339691],[4.741963145917587,46.48227832788166],[4.74194496037229,46.48228454948841],[4.741894287478462,46.48230234449471],[4.741857046295901,46.48232020497337],[4.741817253286158,46.482339815605975],[4.741779374820344,46.48235813610656],[4.741734061299713,46.48238044278865],[4.741653872392959,46.48244570254661],[4.741596702370464,46.482505027316186],[4.741510859421937,46.48259739327009],[4.741460932535926,46.4826426471902],[4.741444218671834,46.482658213273645],[4.741377561531941,46.48270219092882],[4.741371820623802,46.48270615128597],[4.741317223979609,46.48274400071552],[4.741257360657603,46.48278841519083],[4.741199675360758,46.482831625578676],[4.741174225875691,46.482851287658214],[4.741116725376901,46.48289620646204],[4.741077474869338,46.48293283124902],[4.74106595747891,46.48294372468855],[4.741065705454781,46.48294399872917],[4.741043748727213,46.4829627969667],[4.740979801689885,46.48301817161919],[4.740946143808343,46.483017603508884],[4.740894430339332,46.48302325484243],[4.7407950308834,46.48303818884824],[4.740743516665784,46.48304599868916],[4.740725505168892,46.483049515430494],[4.740657745462301,46.48306306675202],[4.740592026769555,46.48307928896332],[4.740562892603356,46.483089730102435],[4.740534525193402,46.48309151311372],[4.740446568672623,46.48312590718204],[4.740397510103305,46.48314529812818],[4.740377261896072,46.48315227142372],[4.740325811488493,46.48317025768584],[4.740293442113312,46.48318146855376],[4.740265851610717,46.48319125564069],[4.74013347458019,46.48325965064745],[4.740092945021879,46.4832889090513],[4.740044930240177,46.48332467616286],[4.740001767181849,46.483357217041764],[4.739968396692323,46.483386096207404],[4.739961676204905,46.48339205287971],[4.739931280153154,46.483420166215],[4.739878341173765,46.48346915801158],[4.739764023023625,46.48358050986439]]],[[[4.740098271721537,46.48155566639076],[4.740124427834008,46.48173387127093],[4.740166434504978,46.48202063589422],[4.740186961548108,46.482153172361045],[4.740232703768509,46.48245483121508],[4.740248731815427,46.48256077630161],[4.74024873756068,46.48256095634838],[4.74025156883456,46.48257613458147],[4.740254070522223,46.48258915622205],[4.740254082012774,46.482589516315564],[4.740405779713779,46.482599545591256],[4.740592104816154,46.482611929464696],[4.740672121673165,46.482614763847515],[4.740983006272551,46.482624349290994],[4.741013793947364,46.482624871041835],[4.741268705261724,46.48262918377723],[4.741319044161134,46.482629497642016],[4.741321803924598,46.48263017613203],[4.741347290535991,46.482636182587754],[4.741372735939748,46.482644981747306],[4.741433084838331,46.48260353202401],[4.741433594628919,46.482603163987854],[4.741433979846441,46.48260297798408],[4.741444117199476,46.4825978698297],[4.741452059195431,46.48259342559502],[4.741533026660656,46.4825198679457],[4.741545053657257,46.48250860642168],[4.741639238926136,46.48242025640172],[4.741706775115004,46.482354829203366],[4.741731312912902,46.48234337700247],[4.74176302507854,46.482327942572866],[4.74188438856119,46.4822659280935],[4.74193433412869,46.48224985545256],[4.742012629330109,46.482231459278395],[4.742045754870488,46.48222762189027],[4.74209160875887,46.482222239471845],[4.742178661417626,46.48221676943545],[4.742313022652627,46.48221472123257],[4.742345342327436,46.482214228527795],[4.742360700104359,46.48221336392916],[4.742509710850737,46.48220460732485],[4.74258770887286,46.482193240524],[4.742649673605241,46.48218608109505],[4.74267304799762,46.48218311274216],[4.742704198507983,46.48217867480646],[4.742744808668496,46.48216832831815],[4.742760911822506,46.48216222840265],[4.742786152700219,46.482152386458765],[4.742916793855409,46.482074737826906],[4.742999445620088,46.48202132845757],[4.743113732782417,46.481941947519374],[4.743198992231672,46.48188039217856],[4.74329376203051,46.48179005033472],[4.743388758858782,46.4817068202528],[4.743473787398031,46.48163806283946],[4.74347391483998,46.48163797082812],[4.743609019402334,46.48151648060685],[4.74360952916808,46.48151611256091],[4.743698216304616,46.48143946330503],[4.743787129794785,46.48137397885808],[4.743914486903981,46.481279356426256],[4.74399211760808,46.481211702224336],[4.744094888296667,46.48112700188126],[4.744095015736375,46.481126909869225],[4.744095143176082,46.481126817857195],[4.744097054771636,46.48112543767672],[4.744151621955943,46.48108677669968],[4.744189111426923,46.48106449836149],[4.744282108142444,46.48100849831952],[4.744225369675958,46.480967032652735],[4.744190782332445,46.48094144100792],[4.744178983246077,46.48093126334472],[4.744166932164909,46.48092135972785],[4.744166796088782,46.48092118167003],[4.744140419603878,46.480891411676964],[4.744083366998662,46.48082788426212],[4.744075356581233,46.480813865947596],[4.74406999781591,46.48080530126915],[4.744023404011175,46.480734498908184],[4.743928160716645,46.48057752400204],[4.743906625633442,46.480552363578454],[4.743884209756924,46.4805445095013],[4.743872701542243,46.48054342416103],[4.743864734920826,46.4805430053177],[4.743820818017125,46.48054367542161],[4.743749124685453,46.48055233496251],[4.743671729031016,46.480562072197834],[4.743630843944178,46.48056377677899],[4.74359843235626,46.48056544213875],[4.743549665720562,46.480561232429245],[4.743428751004696,46.48055145835298],[4.743428620687439,46.480551460340955],[4.743425475806704,46.48055096791213],[4.743368867963184,46.48054210417853],[4.743303233719338,46.48053229729707],[4.743228837427746,46.480517580262216],[4.743166395826056,46.48050160003405],[4.743013104126875,46.48045377057742],[4.742937275073235,46.48042277304008],[4.742762461694789,46.48034608969105],[4.742648271543659,46.480297843621734],[4.74259344713608,46.48027949525837],[4.742501711313445,46.48024846977581],[4.742464547874074,46.480236066714866],[4.74242970138774,46.48022272764531],[4.742305115236409,46.4801755404116],[4.742164014692001,46.48013788171158],[4.742071380597125,46.48011137294357],[4.741916374772854,46.48005879461142],[4.741830745438119,46.48003524117176],[4.74183035161477,46.48003515710681],[4.741696779447582,46.48000458847509],[4.741643023105396,46.479991087015655],[4.741431073867231,46.47992316370924],[4.74140248777238,46.479913962097605],[4.741267720367147,46.479870441509505],[4.741189382630735,46.479838400253485],[4.741147203649184,46.47981589559431],[4.741109381698951,46.479786929771876],[4.741098433411028,46.47977070433841],[4.741087380678952,46.47975529109976],[4.741086697489269,46.479754310768826],[4.741080505675465,46.47974413743933],[4.74107073322156,46.479715735020406],[4.741050120952782,46.47965408281267],[4.741034294793973,46.479607579043225],[4.741029751122276,46.47959593952817],[4.741020264218448,46.479572396382885],[4.741013233073181,46.47956043449263],[4.741007061411127,46.479550891322674],[4.740990789406553,46.47953943047392],[4.740955081374533,46.47952358220905],[4.740952041027628,46.47952227751628],[4.740921565727167,46.47950697999889],[4.740870558322052,46.47948154744246],[4.74081123465781,46.47946515819014],[4.74076442394212,46.47946091751683],[4.740763769495066,46.47946083741806],[4.740757647575219,46.47946102073297],[4.740650569072653,46.47946391261647],[4.740546574796537,46.47947765555502],[4.740410883152447,46.47949908648609],[4.740320079278422,46.47951352901478],[4.740248015907531,46.47952282247842],[4.740156567181486,46.479533401807245],[4.740144934683954,46.47953249812258],[4.740133577178074,46.479532040585454],[4.740090807286199,46.47952368508725],[4.740061060281298,46.47951486109071],[4.739996881782029,46.479493411508805],[4.739971585617216,46.47948515019502],[4.739952898179963,46.47947561738694],[4.739919377123252,46.47945883483592],[4.739918450560242,46.479458398606496],[4.739771486682756,46.47947387582156],[4.739771495297787,46.47947414589188],[4.739873982166031,46.480226447729464],[4.739888202397235,46.480308462546084],[4.739962731237195,46.48073604750367],[4.74001726701894,46.48105594629646],[4.740017272763272,46.48105612634328],[4.740059204665831,46.4813038030236],[4.740085140428866,46.481471023081056],[4.740098257359907,46.48155521627378],[4.740098271721537,46.48155566639076]]],[[[4.740311895955729,46.47893019849454],[4.740351217453897,46.47895716025591],[4.740390169202149,46.47898070508232],[4.740403994723984,46.478989050918976],[4.740486223989779,46.479016440000024],[4.740558549272823,46.47905622899886],[4.740562420307413,46.479059052192206],[4.740638789952689,46.47911526183953],[4.740694665138215,46.479162506676765],[4.740708735995081,46.47917445142823],[4.740768469850305,46.47922821236212],[4.740826055579225,46.47928002450923],[4.740993767462951,46.47925288138897],[4.740993906398241,46.479253149474026],[4.741092312561892,46.479517708798575],[4.74109245724606,46.479518156930276],[4.741056859181165,46.47952617482579],[4.741048443315047,46.479528014312265],[4.741048576503732,46.47952810235043],[4.741050192010729,46.47952969894866],[4.741057597855908,46.47953706170198],[4.741076493209051,46.479573521253556],[4.741086416963066,46.47961074795145],[4.741095519596316,46.479642673194036],[4.741117821865792,46.47974501001472],[4.741126868141916,46.47975883260943],[4.741146860922833,46.4797724884332],[4.741177911318282,46.47979354143113],[4.741217319179068,46.47981500749269],[4.741236953652121,46.479825606476],[4.741269592849842,46.47983924973381],[4.741269856355276,46.4798393357862],[4.741482275538738,46.47991382712837],[4.741549933399838,46.47993396193015],[4.741622971634426,46.47995518557371],[4.741689715459124,46.4799711911324],[4.741713619827849,46.479976681200604],[4.741765842072735,46.479987053655336],[4.741799951353256,46.47999364911877],[4.741791616651436,46.4799449597244],[4.741787278739916,46.47991935668559],[4.741824464680986,46.47990798187828],[4.74190296636662,46.47988390834079],[4.742069054838107,46.47989569744201],[4.742080855264536,46.47991001838633],[4.742090623320804,46.47992193849496],[4.742063747463757,46.48000710140752],[4.742064401919272,46.480007181498856],[4.742277629955516,46.48003347310158],[4.742277641458886,46.48003383319505],[4.74227821087587,46.48005165782165],[4.742279263435519,46.48008460637369],[4.742271966059493,46.480109215901635],[4.74226584242762,46.48012975451118],[4.74226637232027,46.48013001663472],[4.742339244471222,46.480158267602306],[4.742345883410258,46.48012529185764],[4.742353313763898,46.480088521223934],[4.742362934153997,46.48008765401777],[4.742380747207302,46.48008612150428],[4.742381268472031,46.48008611355719],[4.742369740922213,46.48000279699873],[4.742369729418241,46.480002436905295],[4.74240990988147,46.480003175326715],[4.742458572389266,46.48000414468181],[4.74254927811749,46.48010904101596],[4.742604270048188,46.48012855771766],[4.742679039587076,46.48015497819608],[4.742679436289109,46.48015515228146],[4.742656877027424,46.47991429626105],[4.742650404011079,46.47985044723663],[4.742622388299055,46.47957346737863],[4.742601333377324,46.47935519526747],[4.742593540733981,46.47927452378601],[4.742577044614038,46.47908059037026],[4.744127743083384,46.47901100081703],[4.744128003710483,46.4790109968395],[4.744122033269456,46.47899145329158],[4.744121451560003,46.47898957075656],[4.74411628603495,46.47897073546241],[4.744064520818696,46.478783014657004],[4.744173331585158,46.478769104906796],[4.744173192635476,46.4787688368256],[4.744177600245171,46.478768049019074],[4.744181741470974,46.47876708514333],[4.744169673936656,46.47872403702429],[4.744160748911278,46.478693640429704],[4.744098506809466,46.47845960481351],[4.744098364982174,46.478459246708866],[4.744086122550989,46.47842295629589],[4.744083676945444,46.47841578823644],[4.744076302709249,46.47839311375428],[4.744039590718615,46.4782806395799],[4.743987586272988,46.478122104182134],[4.743914570595514,46.477901742966736],[4.743844194681842,46.477690528287795],[4.743815722987366,46.47760332727559],[4.743752936374001,46.477413342682134],[4.743752927739585,46.477413072612045],[4.743737590300793,46.47736151794956],[4.743734690541484,46.477352375332245],[4.743645079393849,46.4770981316672],[4.743323828603597,46.47713851926858],[4.742960246127649,46.477184235094384],[4.742960390820972,46.47718468322391],[4.742971812119012,46.47722386842542],[4.742971551500364,46.47722387240031],[4.742699350468064,46.477265221399605],[4.742552220947267,46.47728754993501],[4.742522770117196,46.4772920520261],[4.742433505431046,46.477305572161676],[4.742432987068846,46.4773056701324],[4.742333410805932,46.47733105615193],[4.742258406368383,46.47735021310542],[4.742122973991352,46.47740406642238],[4.742068517159382,46.47742570209763],[4.741950238300728,46.47746965652325],[4.741925500552935,46.47747886018121],[4.74192524280812,46.47747895417712],[4.74185839206774,46.47751257747126],[4.741858264632704,46.47751266948086],[4.741780994748543,46.47754663167009],[4.741696577793333,46.4775690840579],[4.741581521576837,46.477599659027355],[4.741526539262445,46.47761301626078],[4.741442058864361,46.47763348794512],[4.741204279209958,46.47773627505028],[4.741187213283435,46.4777407682271],[4.741167564132525,46.4777460212966],[4.741163839727853,46.47774778931799],[4.741081624900034,46.47778614958759],[4.741045981874556,46.47780497624941],[4.741000210938862,46.47782918109025],[4.74100008350164,46.47782927309889],[4.740960582817171,46.477849779711605],[4.740933138806399,46.47786406813975],[4.740869613569757,46.47791205092981],[4.740868214436107,46.47800709314297],[4.740872906911568,46.47806016131141],[4.740874037471426,46.47806698919679],[4.740878412161611,46.478093762582596],[4.740867031661087,46.478117083214194],[4.740860301283867,46.478130875953006],[4.740769378268195,46.478202783565614],[4.740482825720086,46.47839926134861],[4.740247027574321,46.478568395704954],[4.740145766599085,46.478622807047465],[4.740145253964759,46.47862308505468],[4.740102478717358,46.4786267986534],[4.740081271133611,46.47863225539237],[4.740073124614496,46.47863436090934],[4.740061553360941,46.478643543809945],[4.740044261629732,46.478657317166544],[4.740208588161371,46.47884692834152],[4.740283930821289,46.478907747281745],[4.740311895955729,46.47893019849454]]],[[[4.742770054494695,46.48407223364738],[4.742552760567206,46.48398448885765],[4.742436008737932,46.483909351468306],[4.742384103280902,46.483876367582134],[4.742372977448512,46.48385870389551],[4.742346067535257,46.48381633222637],[4.742302311268011,46.483707837866426],[4.742233132471531,46.48353821515457],[4.74222111976964,46.483549926865656],[4.742218344661185,46.4835528513167],[4.742197251615498,46.48358235460216],[4.74213263942202,46.483674037101785],[4.742118628921537,46.48370892651034],[4.742104678793934,46.48374570640662],[4.742043334610539,46.48390705100691],[4.741986583717195,46.48402851588051],[4.741958623547651,46.484083882980286],[4.741929840180194,46.4841420546993],[4.741913358987194,46.484177161865496],[4.74189630953025,46.484214889636306],[4.74188891382268,46.484260936589145],[4.741894713618864,46.484303720155175],[4.741903018462128,46.484359615344594],[4.741907958766681,46.48441222932622],[4.741908895070361,46.48442113170287],[4.741904468764935,46.4845642257692],[4.741869999019233,46.484689313936386],[4.741870482014138,46.484692188723685],[4.741877466289213,46.48473531450505],[4.741982191480778,46.48491151095333],[4.742056267798694,46.4850466535045],[4.742092388504756,46.48511203210207],[4.742142807388929,46.485204573160296],[4.742169998133261,46.48528837147412],[4.74221954407294,46.485439289304765],[4.742252490895249,46.48554407556778],[4.742271380499796,46.48558026481595],[4.742311461671173,46.48565531022703],[4.742347585064422,46.485724831795046],[4.742367418742081,46.485761997375214],[4.742381717105826,46.48578915981548],[4.742396261761843,46.48581586816387],[4.742414012012642,46.48584495945544],[4.742426921721544,46.48586538802517],[4.742484016161884,46.48593828260835],[4.742578606553288,46.48605834109067],[4.742622058859487,46.48608379808298],[4.742676107127794,46.48610215833775],[4.742695087613311,46.486108533914496],[4.742788961566192,46.48612862863957],[4.742861586500279,46.486132565016234],[4.742864977973316,46.48613260336918],[4.742925205101113,46.486132135326706],[4.74291283444177,46.48602658514775],[4.742928535903579,46.48600788195583],[4.742966036715447,46.48597767801498],[4.742998011305155,46.48596223927714],[4.743027292104236,46.48594819261691],[4.743259109777799,46.485841440261275],[4.74331283532993,46.48580891719831],[4.743370501955855,46.48576507560256],[4.743469698725526,46.48567025295462],[4.743504115084238,46.4856373938622],[4.743710617736079,46.485574979481186],[4.743914938658441,46.4855748344207],[4.743922239974753,46.48557481308662],[4.744108706549197,46.48550973146179],[4.744182210959466,46.48548411153488],[4.744182726516975,46.4854839235331],[4.744126311852416,46.485375262723615],[4.744097542982172,46.4853196799372],[4.744145391804935,46.485299135007025],[4.744154396757136,46.485295304838985],[4.744154393877917,46.48529521481575],[4.744153878322097,46.48529540281739],[4.744127474552134,46.48519961398533],[4.744108651791927,46.48514108734443],[4.744098243196181,46.48510918225795],[4.744024327124738,46.48488135937934],[4.743962720301295,46.48468370127625],[4.743918303223561,46.48454243311903],[4.743907363595786,46.4845020698027],[4.743895465638196,46.48446028003236],[4.743509852864374,46.48437717661775],[4.743310816129936,46.484334458518504],[4.743152827907195,46.484299130017035],[4.742954533413383,46.48425513904503],[4.74295387602841,46.48425496893559],[4.742935685891433,46.484252904580636],[4.742930585909979,46.48425244194954],[4.742930583032837,46.48425235192626],[4.742930189177344,46.48425226786515],[4.742909821996419,46.48421880326508],[4.74290229956843,46.48418334144692],[4.742890506578604,46.48412849024324],[4.742770054494695,46.48407223364738]]],[[[4.743135450642046,46.48195242434781],[4.743064284603899,46.48200619905208],[4.742965762018451,46.48207705334079],[4.742959899601721,46.48208128583549],[4.74291653702018,46.4821115792261],[4.742916409576183,46.482111671236794],[4.742915899800194,46.48211203927961],[4.742781928604843,46.482187487007664],[4.742705094020973,46.482202619023546],[4.742702756868853,46.48220292486203],[4.742650458909178,46.4822106574629],[4.742584483189607,46.48223102785612],[4.742537797856948,46.48225119416749],[4.74253703893995,46.48225192627582],[4.742477593325213,46.48231344781274],[4.74239267215577,46.48241012363014],[4.74237229632238,46.48243349145963],[4.742338709792086,46.48250452608032],[4.74233040585424,46.48252212570298],[4.742287728635766,46.48261878789923],[4.742248761115453,46.48267648450873],[4.742190913387105,46.4827635605975],[4.742143726838238,46.48283336138472],[4.742112684648242,46.48297181744689],[4.742119355308199,46.4829928815512],[4.742132207897998,46.4830319549248],[4.742144975555566,46.48310102195594],[4.742150150468862,46.48312832349191],[4.742246708372177,46.48339993525749],[4.742338658593844,46.48364973086641],[4.74238333956168,46.48375451836362],[4.7424150183358,46.483827800424756],[4.742426654863136,46.48384104303125],[4.742444235675457,46.48386076991693],[4.742515716053049,46.4839065150786],[4.742570400717892,46.48394486056324],[4.742667027251635,46.483981845997405],[4.742696987988605,46.48399318797449],[4.742741483046879,46.484010522962016],[4.742752571357642,46.48401476717968],[4.742774130878936,46.48402434582745],[4.742848461356052,46.484057257791456],[4.742998893515455,46.484088738976645],[4.743281867130215,46.484146749744305],[4.743388914407169,46.48417114636668],[4.743399554264968,46.484173596019694],[4.743406598439344,46.484169615682255],[4.743412733209381,46.48416573928332],[4.74358286455506,46.484201602716006],[4.74378776569073,46.48424423086581],[4.743787896016796,46.48424422887742],[4.743810221149939,46.483878125413234],[4.743810528091012,46.48365529449705],[4.743810519455322,46.48365502442722],[4.743806916489762,46.48335884839165],[4.743806068160366,46.483283385022524],[4.743806062403293,46.48328320497597],[4.743805854689658,46.48321962070223],[4.743805396417077,46.48302994616805],[4.743813997745878,46.48302981493361],[4.743817125501795,46.48302976721185],[4.743790755209289,46.48284526158469],[4.743763907775314,46.48265806121219],[4.743763893383146,46.482657611095746],[4.743728717770274,46.482393440244984],[4.74372871201355,46.482393260198386],[4.743694534368236,46.48210727783914],[4.743694519976786,46.48210682772264],[4.743651261544188,46.48177333832789],[4.743650743141719,46.48177343630406],[4.743558172295598,46.481789799724226],[4.743505663138183,46.481799067089355],[4.743400440045548,46.48182751226326],[4.74336928609257,46.48183591340262],[4.74336928321483,46.4818358233793],[4.743351200361042,46.48177998734115],[4.743350818033577,46.48178026337472],[4.743304538289048,46.48181717632491],[4.743240607231691,46.48186885930883],[4.743186859990885,46.48191282128322],[4.743173776513156,46.48192364876589],[4.743173142174956,46.48192419884417],[4.743135450642046,46.48195242434781]]]]}}]}
