{"type": "FeatureCollection","name": "aoc_geojson","features": [{"type":"Feature","properties":{"dt":"Bordeaux","type_prod":"Vins","categorie":"Vin mousseux \"Crémant\"","type_denom":"appellation","signe":"AOC","id_app":31,"app":"Crémant de Bordeaux","id_denom":89,"denom":"Crémant de Bordeaux","insee":"33311","cvi":"1B119M, 1S119M","nomcom":"PAILLET","insee2011":"33311","nomcom2011":"PAILLET","id_aire":93,"crinao":null,"grp_name1":null,"grp_name2":null},"geometry":{"type":"MultiPolygon","coordinates":[[[[-0.371695596931329,44.685597145911395],[-0.371544258514063,44.68566645794311],[-0.371247663596942,44.68581174438949],[-0.370890276158935,44.68603872032954],[-0.370821951331507,44.686081081704174],[-0.370664591178968,44.68617643763919],[-0.370547597375393,44.68624136763617],[-0.370301511284516,44.68637592114768],[-0.370059370295451,44.68651098466652],[-0.36976199196711,44.686708734998014],[-0.369479624642667,44.68689773710046],[-0.369227106410304,44.68706420284016],[-0.368977332824969,44.68722589864443],[-0.368750552886938,44.68736869134828],[-0.368590130368123,44.68746575940667],[-0.368370696822845,44.68759625279933],[-0.368227509160929,44.68767738665048],[-0.368117863979643,44.6877343406996],[-0.368088608832164,44.687747846868625],[-0.368052370488188,44.687760754651244],[-0.368013702704448,44.68776472536155],[-0.367988603069595,44.68776323678922],[-0.367958313946203,44.6877552380489],[-0.367934815868808,44.68773829184856],[-0.367840958959195,44.68767699081919],[-0.367582993121572,44.6875329183208],[-0.367441999566241,44.68745647163986],[-0.367254762506386,44.6872826716312],[-0.367072109374931,44.68711368788797],[-0.367033518955004,44.68707881841517],[-0.36696526840713,44.687023225254585],[-0.366875429294793,44.686959368225985],[-0.366820592689985,44.686923190956634],[-0.366913654295014,44.68687196934247],[-0.367162768253287,44.68673507873065],[-0.36745047292668,44.68657817973666],[-0.367416135097658,44.68652993475264],[-0.367318084337928,44.68639847510283],[-0.367231569527569,44.686284596160704],[-0.367104546065354,44.68611220716323],[-0.366948701333216,44.685905642454095],[-0.366921784999699,44.68587798690771],[-0.366740430870877,44.685973526719074],[-0.366629655127208,44.68602844118906],[-0.366571510358196,44.68605309875931],[-0.366532818019721,44.68606508953217],[-0.366461092624694,44.68608232076718],[-0.366409965830705,44.686091265727555],[-0.36634221098756,44.686092516666136],[-0.366314697435701,44.68608866822568],[-0.366286220016108,44.686079262282284],[-0.366257845945703,44.6860610223943],[-0.366244681257928,44.68603520096332],[-0.366218967420435,44.68599173938838],[-0.366202292197053,44.685972692931635],[-0.366171677390512,44.68594866405412],[-0.366142482997495,44.68593360295749],[-0.36611749118499,44.685929677733995],[-0.366076894436929,44.68592460537584],[-0.366033802938092,44.68592005946688],[-0.365956059117494,44.68590845805539],[-0.365944817513723,44.68587888356449],[-0.366154379853596,44.685798796639794],[-0.366114693780947,44.68574557778695],[-0.366092026470579,44.68571292681132],[-0.366074097719186,44.68568770088837],[-0.365993032522526,44.68557617837029],[-0.365958546567203,44.685529649607794],[-0.365940188896467,44.68550569826125],[-0.365894423264307,44.68544374344115],[-0.365888716164122,44.68543490608886],[-0.366390648757443,44.685240132728154],[-0.366317403052733,44.685145313195775],[-0.365878290582601,44.685311231840664],[-0.365846865890522,44.68532435289171],[-0.36583424761157,44.68532879179152],[-0.365816841228851,44.685335539022205],[-0.365805201801978,44.685318321715],[-0.365727504310619,44.685187052583245],[-0.365699317468839,44.68514024198825],[-0.365680825031402,44.68510980678497],[-0.365675643830008,44.68510131386388],[-0.365592164360765,44.68499797448931],[-0.365513125446236,44.68489918568385],[-0.365488203104817,44.68486894608655],[-0.365509147969104,44.68486434399851],[-0.365528260776488,44.68486078885768],[-0.365567947980583,44.68485066046446],[-0.365661201327652,44.684825926396215],[-0.365739620182962,44.68480236449965],[-0.365791724106983,44.684786541724364],[-0.365857993189518,44.68476046590698],[-0.365914082017289,44.68473524048158],[-0.366030276155585,44.6848808369519],[-0.366099764161318,44.68485367182696],[-0.366122553614418,44.68487992124748],[-0.36622154306715,44.68484338794674],[-0.366274408135386,44.68482339671425],[-0.366350333781548,44.68479405309452],[-0.366435865300486,44.684762704989375],[-0.366523593230182,44.684727955895916],[-0.366603333278738,44.68469903666774],[-0.366819416509867,44.684616136700015],[-0.366810620599157,44.68460000438155],[-0.366852814538854,44.68458322118078],[-0.367021268628275,44.68451916174536],[-0.367110717888893,44.68448363889079],[-0.367171407883237,44.68456703566243],[-0.367171533962519,44.684567031824564],[-0.367211875152216,44.68462275342164],[-0.367233761643226,44.68465290484621],[-0.367316660234021,44.68461767134311],[-0.367702866019154,44.684452186070644],[-0.367756901122693,44.684502444398994],[-0.367823281197251,44.68456692469389],[-0.367893115469636,44.68464058113268],[-0.367972335852406,44.68472755838796],[-0.368198776452212,44.684640465575235],[-0.36810934961448,44.68454334647242],[-0.368047982430995,44.68447610051245],[-0.368040000287997,44.68446724242775],[-0.368006987776544,44.68443058154564],[-0.36806963604418,44.684401010203196],[-0.367991741327874,44.6843150739958],[-0.367981821927074,44.68430339136868],[-0.367971870245158,44.68429116906282],[-0.368675083795256,44.68397545579975],[-0.368698262292472,44.68399763790109],[-0.368851409359129,44.684161209522436],[-0.369163001929823,44.68401331005963],[-0.369502071214918,44.683845469329384],[-0.369636686746277,44.68394418439067],[-0.369774886151514,44.683872752125446],[-0.369874517751978,44.683937750113344],[-0.369984982389033,44.68403179392008],[-0.37002469513703,44.68407275561982],[-0.370220138263847,44.684269729316384],[-0.370318404834448,44.68433089379948],[-0.370387340428125,44.684366279264225],[-0.370376101971626,44.684372659081255],[-0.370476273793417,44.68441078726449],[-0.370503169054433,44.68442330407823],[-0.3705203514591,44.6844508048187],[-0.370536579450622,44.68446869283865],[-0.370561112502908,44.6844860574631],[-0.370615514221931,44.68450863944547],[-0.370970868301416,44.684659198289985],[-0.371187781735368,44.684748465118524],[-0.371286666838114,44.684796724182384],[-0.37134804860962,44.68482828434582],[-0.371381652221739,44.68484735477876],[-0.371440472429696,44.68489097764191],[-0.371469847467276,44.68491747586971],[-0.37155494346674,44.68500544310195],[-0.371618911412266,44.68506963436241],[-0.371497886781411,44.68511360247861],[-0.371646568712698,44.68526991768343],[-0.371673610973404,44.685299640836476],[-0.371681190811486,44.68530598785514],[-0.37174996861603,44.68527965175233],[-0.371851960644537,44.68523635363081],[-0.371904577873893,44.685273407079144],[-0.371962716826845,44.68531407682146],[-0.372111973054596,44.685420903356395],[-0.372049911961288,44.68545604597298],[-0.372028292786355,44.68546625670893],[-0.371998258501796,44.685477264624474],[-0.371865709251107,44.685522845986206],[-0.371695596931329,44.685597145911395]],[[-0.369090633956632,44.68539167754368],[-0.369052850203104,44.685435720798104],[-0.368956096807818,44.685572931811905],[-0.368949764359043,44.685578981837544],[-0.368896695965801,44.68561456962483],[-0.368844799916611,44.68565075245328],[-0.368814648114207,44.68566825099995],[-0.36879303365374,44.68567855105111],[-0.368726601782457,44.68569345993141],[-0.368588756161291,44.68572234795712],[-0.368544191667152,44.68573118419442],[-0.368512874944653,44.6857313268556],[-0.36846448488061,44.68572478059686],[-0.368355366450161,44.685706026338394],[-0.368351163508294,44.68575400284542],[-0.368353189289401,44.68577097199142],[-0.368619278944306,44.6860382460525],[-0.368757366542401,44.686178037028675],[-0.368785751188423,44.686162664855964],[-0.36885874580031,44.686122325216154],[-0.369390541548347,44.685829309499525],[-0.369254194573327,44.68569117838785],[-0.369398183160774,44.6854631389445],[-0.369488982176293,44.685416399369295],[-0.369318782931652,44.68521703336148],[-0.369221730539831,44.68524792364349],[-0.369196021316889,44.68527844308329],[-0.369090633956632,44.68539167754368]]],[[[-0.36774056164606,44.68418917834565],[-0.367580412255018,44.68400139861838],[-0.367580538333006,44.68400139478003],[-0.367740687724458,44.684189174507125],[-0.36774056164606,44.68418917834565]]],[[[-0.367153644617165,44.684187672133554],[-0.367153765316044,44.684187578349324],[-0.367378303780078,44.68447837685269],[-0.367153644617165,44.684187672133554]]],[[[-0.366537169691242,44.688212102406375],[-0.366728640584063,44.688365860501854],[-0.366769814990574,44.68839957015347],[-0.366869166961375,44.68848305220345],[-0.366873827501626,44.688487055428894],[-0.366851259714188,44.688500447830954],[-0.366605596652404,44.68864660401396],[-0.36658336934922,44.688659355224765],[-0.366210906351683,44.688873527758965],[-0.366202974113224,44.68887818453149],[-0.366177119931567,44.68889365921542],[-0.366158589051164,44.688904856094446],[-0.365254785396981,44.689441656770725],[-0.365031648771449,44.689603433943205],[-0.364739970208196,44.6898062229897],[-0.364200427865611,44.690186226582455],[-0.363744501675555,44.69050700568626],[-0.363598728900723,44.69060641406276],[-0.363428053889333,44.690766863031165],[-0.363086168471859,44.691133822677116],[-0.362743766797648,44.691443576936436],[-0.362595499845423,44.69137230101637],[-0.362459653836705,44.69152799522748],[-0.362434684564527,44.69156678061092],[-0.362681156749194,44.69167697298953],[-0.362681414313329,44.691677055270794],[-0.362680716844714,44.69167806768248],[-0.36265714397421,44.691731768959706],[-0.362552341727459,44.691861559180126],[-0.36232784065545,44.69219746477985],[-0.36223672004063,44.69233215535599],[-0.362223467826646,44.69235139112879],[-0.362021233081061,44.6926371488792],[-0.361965210322257,44.69274824507043],[-0.362051052732312,44.692810695918126],[-0.362153098759299,44.69288851366061],[-0.362152857307596,44.692888701218735],[-0.362093662174659,44.692908612307406],[-0.361869243963794,44.69298373560477],[-0.361727170118433,44.693344078004635],[-0.361695591370703,44.693424514714444],[-0.361687120567383,44.69345613044067],[-0.361641614713998,44.69362701036515],[-0.361601774548901,44.69374680588208],[-0.361523768807435,44.69395733052036],[-0.361519570401713,44.69396529766926],[-0.361472306666481,44.69405387025042],[-0.361299591103448,44.69438351441314],[-0.361178157979587,44.694584004307785],[-0.361077694839298,44.69478872294772],[-0.361000924022862,44.69487188401065],[-0.360993674730167,44.69487742073594],[-0.360931020115582,44.694926181379],[-0.360885504027511,44.69496153560088],[-0.360752467413949,44.69506505850038],[-0.360087808576879,44.69559157541968],[-0.35988257035239,44.695706751528355],[-0.359682423806596,44.695822583610834],[-0.359578885074708,44.69588276738253],[-0.359421845779394,44.69596521077856],[-0.359170633102039,44.69610602108072],[-0.358971293918064,44.69621849322005],[-0.358552388003803,44.69646441527397],[-0.358093601764453,44.696723801066454],[-0.358002595530577,44.696595993710915],[-0.357996741004524,44.696561388910986],[-0.357999856134455,44.6965437228992],[-0.357999120988669,44.69652292978401],[-0.357999711314956,44.696494707413585],[-0.358004151904989,44.69647384732045],[-0.358012791574571,44.69644925537783],[-0.358069593180272,44.696342553137775],[-0.358150255386304,44.696193225458416],[-0.358196911729433,44.69611341355182],[-0.358243004499404,44.6960368626928],[-0.358277940912744,44.69598083510614],[-0.358335900746337,44.695897796510316],[-0.358376594905709,44.69584510841026],[-0.35841986206007,44.69579108064952],[-0.35846807942246,44.6957374432647],[-0.358528056569112,44.695675519189926],[-0.358569241518253,44.695637413946464],[-0.358620385927424,44.69559260853235],[-0.358658002346193,44.695562451159745],[-0.358719632040519,44.69551552518895],[-0.358752923288712,44.695489103488164],[-0.358782369628376,44.69545964464979],[-0.358803852561749,44.6954279945902],[-0.358823030737684,44.695397946367386],[-0.358854386843683,44.695332745938856],[-0.358875109992147,44.69527354524719],[-0.358894741041939,44.695210863414445],[-0.358914731415478,44.69513726735035],[-0.35895158613269,44.69498215032358],[-0.358997710216935,44.69480665731708],[-0.359005573341448,44.69475424485734],[-0.359007882712343,44.69471038125113],[-0.359012156464213,44.69469096794206],[-0.359018292334323,44.69467735525109],[-0.359035570660739,44.69465358226446],[-0.359053592277612,44.69463591419188],[-0.359086437408562,44.69460626196126],[-0.359125088575556,44.69457652354691],[-0.359154137351852,44.694557349217575],[-0.359184691323975,44.69454011159986],[-0.359221518175652,44.69452214284957],[-0.359253926151936,44.69450845332137],[-0.359287337560831,44.69449464320538],[-0.359360969932543,44.694471051348195],[-0.359427513693658,44.694447224135224],[-0.359476596394487,44.69442717105645],[-0.359522333254206,44.69440397559129],[-0.359563433781243,44.69437929891266],[-0.359588575894224,44.69436240573544],[-0.359656172987304,44.694307548524726],[-0.359688411321072,44.69428043761263],[-0.359726554670617,44.694244316580566],[-0.359770519727503,44.694195673658506],[-0.359797120707648,44.694160894330835],[-0.359811068977247,44.69413848388262],[-0.359828781019178,44.69410082063749],[-0.359848826483654,44.69403875680337],[-0.359862886106984,44.693975883539586],[-0.359868543192708,44.6939330896706],[-0.359869626489435,44.69391314244414],[-0.359868762104497,44.693898660972046],[-0.359864817616314,44.69388337193947],[-0.359855061631435,44.69386384400312],[-0.3598407258338,44.693845896911746],[-0.359760754455796,44.69377596714404],[-0.359649638430688,44.69367949954125],[-0.359639681531822,44.69366718649675],[-0.359636531067788,44.69364403377224],[-0.359636871320404,44.693626451978204],[-0.359642939758997,44.69360959733545],[-0.359679676613574,44.693566850882696],[-0.359728405760534,44.69350490723159],[-0.359790562524313,44.693424533766446],[-0.3598190787147,44.69338798417827],[-0.359850379527017,44.69334305988961],[-0.359864643928568,44.69331325080901],[-0.359879136421645,44.69328514689052],[-0.359887820486422,44.69326343696444],[-0.35989365258243,44.69324262464183],[-0.359899570301695,44.693214781134074],[-0.3599006881286,44.69318483064684],[-0.359897757569338,44.69316113059263],[-0.359900354028517,44.69314113741624],[-0.359905405422603,44.6931220608943],[-0.359925083450897,44.693077129125],[-0.359960350992688,44.69299919416258],[-0.359991932555369,44.692935698632866],[-0.36001019391032,44.692892431853934],[-0.360027905866874,44.6928674740983],[-0.360061634453452,44.69282725184304],[-0.360079799978897,44.69280777701604],[-0.360094799842188,44.692794525816396],[-0.360122224047362,44.69277143570653],[-0.360148459811124,44.69275171575715],[-0.360180104269962,44.69272948866355],[-0.360202729030691,44.692716997070434],[-0.360330452679422,44.69264093950794],[-0.360459592500941,44.69256321679201],[-0.360473242903887,44.692554872471206],[-0.360497938424383,44.69253474866895],[-0.36054349834523,44.69249804160351],[-0.360627519544455,44.692436917795966],[-0.360724780170616,44.69236268621754],[-0.360884279222985,44.69224123844254],[-0.360963730757504,44.69218187516719],[-0.360989338263161,44.69216433673384],[-0.36104468263796,44.69213706408188],[-0.361081365342383,44.69212306388583],[-0.361115950151629,44.69211201093679],[-0.361225942305801,44.69207965371639],[-0.361276288879085,44.69206388665967],[-0.361344924040178,44.69203494849651],[-0.361396080081198,44.692007352367],[-0.361456520905571,44.69196812022721],[-0.36149583964773,44.69193691887562],[-0.36160849905223,44.69183500533187],[-0.361707531793,44.69173548816097],[-0.361878844260003,44.691562317130625],[-0.361969235452879,44.69147675904662],[-0.362050110458708,44.69139473404663],[-0.362091884997568,44.69134967098979],[-0.362155144307338,44.69127304720345],[-0.362188757292793,44.691226700274946],[-0.362235111786906,44.69115257262427],[-0.362270408422508,44.6910921173232],[-0.362425997761203,44.69077209322346],[-0.362519677908393,44.690608399340476],[-0.362588633799011,44.69049393611587],[-0.362572559890636,44.6904807279562],[-0.362625603723514,44.690400179205774],[-0.36270663351463,44.69030598411479],[-0.362843363911276,44.69015035278714],[-0.363015441203961,44.690013380858396],[-0.363159423819364,44.689911504596324],[-0.363251875307153,44.689845706966075],[-0.363316370244784,44.68979193286172],[-0.363458917248042,44.68967027560625],[-0.363593431867524,44.689553728326715],[-0.363684566346157,44.6894743637268],[-0.363721209816636,44.68944071978438],[-0.363757455093728,44.68939618461239],[-0.363819071203566,44.68932384493508],[-0.363872333837987,44.68925968892285],[-0.363884358579908,44.68923895838842],[-0.363913277881825,44.689177525006535],[-0.363938446591617,44.689038530746735],[-0.363949247810251,44.688990984596416],[-0.363976884521695,44.688929229759054],[-0.364009304273834,44.68886507671264],[-0.364017455727074,44.68885140242538],[-0.364093731682013,44.68874960132638],[-0.364152012768491,44.68865952106279],[-0.364194556270693,44.688540723689165],[-0.364208686768214,44.68849604989902],[-0.364226205960434,44.688455237896704],[-0.364245373030888,44.6884208637045],[-0.364262470310794,44.6883983568792],[-0.364284130701113,44.688373999185394],[-0.364301159006763,44.68835879337011],[-0.364448996896928,44.688245444171784],[-0.364466532397824,44.68823238554633],[-0.364482809942757,44.688221527820055],[-0.36449789404275,44.68821395035291],[-0.364522359449036,44.68820482601637],[-0.364559642774451,44.68819459094136],[-0.364589205912525,44.68819044782034],[-0.364608255886966,44.6881900486353],[-0.364623652255739,44.68819192321519],[-0.364651899300184,44.68819746188951],[-0.364770358771579,44.68825197985505],[-0.364898874264294,44.68831412151368],[-0.364971319765079,44.68834480806825],[-0.364985273027909,44.688347897928296],[-0.365031755065797,44.68835630601362],[-0.365050705888262,44.688356360320824],[-0.365061248883026,44.68835522862144],[-0.365075177169498,44.68835156096912],[-0.365103275159397,44.68834403809496],[-0.365114952412667,44.68833863670981],[-0.36512830348943,44.68833165253356],[-0.365138620124427,44.68832250790915],[-0.365146723365693,44.68831225918303],[-0.365159394005424,44.688291779179224],[-0.365164006308687,44.68827595970676],[-0.365162269613279,44.688246906959286],[-0.365270717907952,44.68826072882854],[-0.365371391286727,44.68827127282552],[-0.365394323879342,44.68825552677191],[-0.365600258277682,44.68811670955021],[-0.365499404868599,44.688020746816385],[-0.365592358968645,44.6879655648076],[-0.365844013525084,44.6878097670325],[-0.365909959304447,44.68776766148918],[-0.365780973270908,44.68765750662302],[-0.365748286572111,44.687632639528815],[-0.365619242441531,44.68754474347248],[-0.365279553700515,44.68730763543496],[-0.365198216184938,44.687254962434245],[-0.365163032198084,44.68722845906354],[-0.365062560954829,44.68714518993355],[-0.365144012584507,44.68710468569775],[-0.365225287201553,44.6870654483256],[-0.365319241968278,44.68702068885762],[-0.365504191016905,44.686902784942596],[-0.365709220441424,44.68705315836797],[-0.365857065808382,44.68694214978964],[-0.365888103612141,44.686918317420684],[-0.36596527583006,44.68686118228096],[-0.366069298468768,44.68678412670371],[-0.366506461229616,44.68703322419089],[-0.366555692568906,44.6870622732772],[-0.366146466797703,44.68732054713686],[-0.366105795587176,44.68734593425706],[-0.366150636115738,44.68737971275572],[-0.366162481618509,44.68738980508189],[-0.366269920684766,44.68746493155407],[-0.36638182412257,44.68739502490424],[-0.366742922347622,44.68717263701418],[-0.366843702854548,44.687227240241825],[-0.36708914626854,44.68736052183844],[-0.367397868369577,44.68753170542466],[-0.367548021669528,44.68761346016217],[-0.367540422598731,44.68761945854846],[-0.366971717380802,44.68795684107815],[-0.366756009359536,44.688084244091826],[-0.366537169691242,44.688212102406375]],[[-0.360303019840179,44.694955709925146],[-0.36007133400107,44.69504681932234],[-0.35987797171516,44.69512387864082],[-0.359866370335663,44.69512846613384],[-0.359639711119405,44.69521915160917],[-0.359612242345469,44.69523305170024],[-0.359552271233495,44.69525694975335],[-0.359498822412947,44.695273711244454],[-0.359517446210958,44.695299998541245],[-0.359052097294044,44.69538144024262],[-0.359074359760247,44.69559360436946],[-0.359081471129003,44.695661962244984],[-0.359209978422402,44.6957216782777],[-0.359313103774143,44.69577099119579],[-0.359717178318568,44.695562461605284],[-0.359924667923792,44.69546172516328],[-0.360044019596823,44.69540403443966],[-0.360747583994734,44.69505943979156],[-0.360685295633084,44.69497257337493],[-0.36065033870721,44.69492452518872],[-0.360317993113264,44.69486793842706],[-0.360303019840179,44.694955709925146]]],[[[-0.363975380980462,44.688815286189914],[-0.363951640129414,44.6888555664616],[-0.363917501412216,44.68892689045885],[-0.363903399042414,44.688961471020946],[-0.363887510492218,44.68902746421438],[-0.363882460526409,44.689069789306856],[-0.363876279522974,44.689122781785635],[-0.363865557098905,44.689154736482614],[-0.363847569088545,44.68920673633392],[-0.363842502389743,44.68921707284346],[-0.363831520643803,44.68923200461052],[-0.36381574833521,44.6892555523958],[-0.363787027218212,44.68928859503671],[-0.363661652935936,44.68942279656437],[-0.363622530627535,44.68945723673741],[-0.363462877897425,44.689594913243894],[-0.3633137507653,44.68972271782728],[-0.363208035416324,44.68981387925674],[-0.36317503403734,44.68984083425552],[-0.363047726468457,44.689925803582106],[-0.362954788867501,44.68998981360802],[-0.362402083682074,44.68976899376116],[-0.362393008609079,44.68977990257886],[-0.362303100192627,44.68989040687175],[-0.362197487442235,44.69001715763873],[-0.3621687652951,44.69005443503265],[-0.362028713539532,44.69019466747992],[-0.362144607009313,44.69024638280668],[-0.362066591241681,44.69033183529274],[-0.362090944121534,44.69034407103229],[-0.3622314838397,44.69041504168845],[-0.362479969397745,44.69054211380916],[-0.362429802333761,44.69063699266199],[-0.362326809626471,44.6908351212253],[-0.362210312404188,44.69105672829893],[-0.362158043801412,44.69115239176935],[-0.36207574779262,44.69124022708755],[-0.361806984088497,44.6915351249476],[-0.361715965721186,44.69163557011401],[-0.361636546764307,44.691718722039106],[-0.361551834624174,44.69180843255543],[-0.361475623342278,44.691881845109194],[-0.361403885872031,44.69193709965601],[-0.361327573272053,44.69198131951063],[-0.361275872674059,44.69201037391449],[-0.361235903647908,44.69202645644683],[-0.361111357487286,44.692071060272276],[-0.361083254532661,44.692080654753404],[-0.361045804535914,44.69209449804151],[-0.361008408446004,44.69211347595301],[-0.360893178650582,44.69219140754418],[-0.360754312923723,44.69228816914811],[-0.360722440811209,44.69230869124097],[-0.360688591495056,44.69233206679855],[-0.360654935469278,44.692358680435916],[-0.360573860767197,44.69243106863121],[-0.360547531423117,44.69245133219114],[-0.360511224619664,44.692480098833435],[-0.360419382406326,44.692539297469196],[-0.360269439877612,44.692636755322305],[-0.360055402923964,44.69277788057544],[-0.360032791748976,44.692796949758026],[-0.360008251792487,44.6928239170891],[-0.359985862892062,44.69283189597463],[-0.359765504676411,44.69292428286156],[-0.359475743863402,44.693047612009124],[-0.359022499374309,44.693238440514506],[-0.35902099684737,44.69323443118332],[-0.35896206588878,44.69308519604446],[-0.358923885945696,44.69298732434023],[-0.358902134473715,44.692934008846734],[-0.358935974287352,44.692918924272284],[-0.358845588988624,44.692763345188],[-0.358802680089404,44.69271535775295],[-0.3587747285685,44.69266187004107],[-0.358717409116977,44.69255655958522],[-0.358703954038553,44.692540658167694],[-0.358688897265819,44.69252543614494],[-0.358670918788251,44.69250994238089],[-0.358646326872622,44.69249158565195],[-0.358622995989542,44.69247742580353],[-0.358569012571364,44.692451310784925],[-0.35853423901831,44.69243380378882],[-0.358486568588748,44.69240551466449],[-0.358447580156175,44.69237876416035],[-0.358403472714956,44.692346672333144],[-0.358354090664304,44.692306630712395],[-0.358326791834351,44.692278894546874],[-0.358299471583111,44.69225503375374],[-0.358256890896092,44.692221003220276],[-0.358214790516428,44.69219290534878],[-0.358168791906731,44.69216510601249],[-0.358134995234216,44.692147028589396],[-0.358117797758723,44.69213403411728],[-0.358104351000255,44.69212038513337],[-0.358076057024444,44.69208655164586],[-0.358035877811806,44.69203983275329],[-0.357990644073278,44.69199308705025],[-0.357649487528504,44.69177996915369],[-0.357520261089298,44.6917249592595],[-0.357379812424599,44.69166605462963],[-0.356919608459286,44.69153251002939],[-0.356915289638928,44.6915024542767],[-0.35691389229862,44.691481140641514],[-0.35691743167235,44.69144940468472],[-0.356963446765692,44.69139700622527],[-0.356999647645832,44.691353736319435],[-0.357044490413853,44.69128803713866],[-0.357304435583245,44.69096350273849],[-0.357324830894848,44.69094540247684],[-0.357429498147986,44.690855540327874],[-0.357442477904754,44.690844423334774],[-0.357498648481855,44.69086912079787],[-0.357633559243608,44.69075473178464],[-0.35758381687507,44.69072344149535],[-0.357627273858414,44.690689592898266],[-0.358178126320706,44.690957890413955],[-0.358184388064049,44.690935803630374],[-0.358256312403816,44.69083918513117],[-0.358289013595935,44.690821972659904],[-0.358333398566973,44.69080368461619],[-0.358371851756417,44.69078972168242],[-0.358429809201836,44.69077237322278],[-0.358499962837224,44.690756186343286],[-0.358587831243737,44.69073838029323],[-0.358687973656256,44.69072515757678],[-0.358750521367459,44.690714878376696],[-0.358836426997993,44.69078697131037],[-0.359034602730942,44.69073788167278],[-0.359174826373797,44.69070623050775],[-0.359285630045532,44.69068538461397],[-0.359341124467182,44.690677572001576],[-0.359382477666286,44.69067199098016],[-0.359414631502612,44.690671014576125],[-0.35943909100337,44.69067234434581],[-0.3594660643751,44.690675580189755],[-0.35949124297055,44.690680492509216],[-0.35952403023288,44.69069012981264],[-0.359543789557667,44.69069736933049],[-0.359688184913759,44.69076948760604],[-0.359692381080746,44.69077629863908],[-0.359804005397114,44.690834814187525],[-0.359887902224268,44.6908795739288],[-0.360006386667296,44.69092814906056],[-0.360050775198983,44.69087183379025],[-0.360084934242975,44.690824029207846],[-0.360114140754561,44.69077790690743],[-0.360151650056322,44.69071639393699],[-0.360175536451993,44.690672145298805],[-0.360193282456508,44.69064565460986],[-0.360223964160999,44.69059462153143],[-0.360252556081506,44.69054878818902],[-0.360270546390508,44.69052850765504],[-0.360312686314606,44.690476856180375],[-0.360350085897107,44.690432557477024],[-0.360454084333653,44.69033370162647],[-0.360560543156115,44.690248557759254],[-0.360654226743753,44.69017794914175],[-0.360781578666025,44.69009153957963],[-0.360834962909995,44.69006955292228],[-0.360893361149935,44.6900448007205],[-0.36090762243624,44.69003400480447],[-0.360979502966284,44.68998117918304],[-0.361055545954161,44.68995787323963],[-0.361093056174558,44.689942946766124],[-0.361201554352474,44.689896217256525],[-0.361227837208397,44.689885776920484],[-0.361344386098472,44.689836369684485],[-0.361496153655273,44.689771744895175],[-0.361567753017598,44.68974172524926],[-0.361424466357997,44.68967759556283],[-0.361426172301645,44.68967231734607],[-0.361458716343258,44.689656730651215],[-0.361492160647868,44.689622373707586],[-0.361519627484541,44.689585224756506],[-0.361543141198572,44.6895262991866],[-0.361526340678385,44.68951149099465],[-0.361566831848735,44.689466106694745],[-0.361753617600981,44.689253898532506],[-0.361787407249108,44.68921475516668],[-0.362133774971356,44.68884676236829],[-0.362321810453922,44.688613249221035],[-0.362358582372639,44.68850138634568],[-0.362448729894626,44.68839069450618],[-0.362682286773852,44.68810515520855],[-0.362879008727123,44.68814612246191],[-0.363057804650114,44.688183038734756],[-0.36335749732685,44.68824340220361],[-0.3635433279204,44.688279653281604],[-0.36366996066597,44.688306079873215],[-0.363628628747229,44.68842402917636],[-0.364142651038226,44.68851977464906],[-0.364115954902281,44.68859303502059],[-0.364099980901082,44.68863434067484],[-0.364069362451263,44.688682129042185],[-0.364036002245646,44.68873054143682],[-0.363975380980462,44.688815286189914]]],[[[-0.363679473374843,44.68779090169],[-0.363633322314636,44.687785907177265],[-0.363603219378413,44.68770067728521],[-0.36354152431274,44.687524315510096],[-0.363409421732895,44.68719699752466],[-0.363375772942115,44.68711160509021],[-0.363279338434464,44.68687385324474],[-0.36376913242002,44.686758848327734],[-0.363845876011215,44.687003145835504],[-0.363935120899992,44.6869831308379],[-0.36401838567589,44.68723930471911],[-0.364058162447892,44.68737226897279],[-0.364050844778042,44.68740412013975],[-0.364048956183433,44.68742958861136],[-0.364051673643554,44.687453925800256],[-0.364055931462141,44.68748290186992],[-0.364064867682607,44.687509843355734],[-0.36407514695786,44.68752755277099],[-0.364095667450435,44.687558106813036],[-0.364119315706888,44.68758604265183],[-0.364153081525332,44.687698734713415],[-0.364185157516666,44.68781273970489],[-0.364075643884772,44.68781066351654],[-0.363853318927039,44.6877999429483],[-0.363679473374843,44.68779090169]]],[[[-0.363248068192809,44.67902641390325],[-0.362997005172732,44.678677753988865],[-0.362878514246771,44.67872172585934],[-0.36261852643519,44.678815685108454],[-0.3627397073779,44.67899014780197],[-0.362790208010801,44.67897293332556],[-0.362952940981808,44.679206596123095],[-0.362918764189908,44.679249716505296],[-0.36300771534914,44.67938145568744],[-0.3632000943522,44.679663146426044],[-0.363317279439711,44.679836198287404],[-0.363118013438225,44.679910740777885],[-0.362824519747351,44.68002320046352],[-0.362483347198926,44.68014729119474],[-0.361982239609534,44.68032994765536],[-0.361509926973436,44.6798145479137],[-0.361307244172421,44.67951667752408],[-0.361174741426043,44.67933444751466],[-0.361197897310675,44.67932671528177],[-0.361099470437333,44.67918003419811],[-0.360858457267889,44.678834488563204],[-0.360648541319466,44.678580360014465],[-0.360571730400943,44.678484744703255],[-0.36028419281401,44.6781636797288],[-0.360043492088515,44.67789516690716],[-0.359925206201992,44.67774998942152],[-0.359708826060338,44.677486864644386],[-0.359572634817422,44.67731672976556],[-0.360147273845495,44.67703966789385],[-0.360521002802843,44.676860348958336],[-0.360548347254745,44.6768508676027],[-0.360940993731441,44.67672404691228],[-0.361494329423163,44.676543051125094],[-0.36168883291439,44.6764692868783],[-0.36176145880539,44.67644193882534],[-0.36179354878968,44.67645060515403],[-0.362056281362997,44.67669465542994],[-0.362409999752849,44.677022083948835],[-0.362593405195982,44.67718753618044],[-0.362909933469901,44.677522311585335],[-0.363234496801989,44.677864681454786],[-0.363644403364002,44.67829735828036],[-0.363825356900036,44.67856750077864],[-0.364128308058308,44.679017215786715],[-0.364341761220741,44.67932601747355],[-0.363771011361585,44.679442046921956],[-0.363451205903588,44.679505117413264],[-0.363336243613611,44.679233958715386],[-0.363248068192809,44.67902641390325]]],[[[-0.362694719145949,44.68503554154971],[-0.3626135166882,44.68505693311241],[-0.362574114216842,44.68508029792866],[-0.362464587221944,44.68514769545979],[-0.362345150714975,44.6851824138616],[-0.362148585367075,44.685192533583205],[-0.36210731166681,44.68519937487947],[-0.36202404534997,44.68521371004443],[-0.361859027822349,44.68523602644404],[-0.361749195856089,44.68525179954201],[-0.361614288713053,44.68525166422846],[-0.361435813738011,44.68525168126758],[-0.361409044312067,44.685298360653746],[-0.361399063404901,44.68531524416525],[-0.36139622004847,44.68531839430338],[-0.361116256381233,44.68530257169729],[-0.360870971783732,44.684822440098735],[-0.360827668417532,44.68473815144902],[-0.360728683787309,44.68454841393903],[-0.360213851121206,44.68468173771885],[-0.359945090789354,44.68475198720875],[-0.359560806001935,44.684852687522536],[-0.359431737905243,44.68488688427569],[-0.359516392760599,44.685035517458196],[-0.35955865908835,44.68502414149888],[-0.359597226115401,44.685012156997914],[-0.359612587424169,44.68504521128645],[-0.359617966307705,44.68505703252087],[-0.359676805525055,44.68504398174275],[-0.359762027688105,44.68502643510808],[-0.35990421600889,44.68498138672107],[-0.360192667204759,44.684902429332666],[-0.360198743466519,44.684909002989244],[-0.36025316975367,44.68497015620188],[-0.360257985223092,44.68497676815537],[-0.360309970386869,44.68503511198678],[-0.360679413396552,44.685652764997656],[-0.360603958721981,44.68568794744309],[-0.360376833664509,44.68569610884755],[-0.360216470341486,44.68569908796137],[-0.359975786914747,44.68569594612164],[-0.35988567013918,44.68569498883413],[-0.359867790003087,44.685676879188605],[-0.359821621111306,44.68563556944511],[-0.359772029474191,44.685600400999505],[-0.359747062095367,44.68558629120709],[-0.359717558397935,44.685570246662394],[-0.359689481938118,44.68555695216599],[-0.359669810281468,44.68555115183615],[-0.359601934766188,44.68553555179858],[-0.359545726086064,44.68552707650339],[-0.359481289892431,44.68551831039233],[-0.359400768905978,44.68551093382861],[-0.359310577203354,44.685504481661646],[-0.359227180569973,44.6854997153757],[-0.359165893698566,44.685484455652215],[-0.359092333833938,44.68546037739039],[-0.359053594217177,44.68544407248196],[-0.359026510531016,44.685430477348525],[-0.359006447220277,44.68541811078545],[-0.358987102773956,44.685400856463616],[-0.35897530184051,44.685387247795106],[-0.358952869575152,44.6853584630739],[-0.358908624725288,44.685296459426716],[-0.358870928242229,44.685240474499125],[-0.358848492335287,44.68513329440037],[-0.358890066233397,44.685084904625505],[-0.35885856668525,44.685031164495584],[-0.358701641501066,44.684786866103536],[-0.358375672702988,44.684275028030385],[-0.358261519729001,44.684186581870975],[-0.35821114365863,44.683852362641716],[-0.358246748435886,44.68376108192053],[-0.358239414421621,44.6837524738332],[-0.358319977415753,44.683542505378014],[-0.358644836003515,44.68349380471547],[-0.359386795489268,44.68332511571187],[-0.359428800405926,44.68331573012385],[-0.359581592082245,44.68350347385271],[-0.359660413243584,44.683548027026916],[-0.359983169474246,44.68347469618859],[-0.360050803507079,44.68347994062348],[-0.360164354664075,44.68343341883861],[-0.36047633977738,44.68330661819998],[-0.360697563416875,44.68321879835383],[-0.360746464267673,44.68320010165608],[-0.360997218818427,44.683118232294945],[-0.361118647293965,44.68307885913958],[-0.361423781545727,44.68297911661129],[-0.361562028161341,44.6829337351672],[-0.361585649628968,44.68292743049366],[-0.361643368666265,44.68293162361336],[-0.361678238977897,44.68298679237844],[-0.361805607956041,44.68318440693031],[-0.361955085896073,44.6832107715076],[-0.362107821311534,44.68317323911654],[-0.362239351669877,44.68313806315391],[-0.362380235847451,44.68310512577248],[-0.362431485529269,44.68315114588928],[-0.362582270935359,44.68342355989906],[-0.36264997614537,44.68351035001553],[-0.362747348011265,44.68363705799044],[-0.362799835229409,44.683716471113385],[-0.362930220277548,44.683922192903346],[-0.363005054076034,44.68403949360514],[-0.363063224563914,44.68412945692938],[-0.363086241228715,44.68416588242789],[-0.363167892388398,44.68425774500193],[-0.363289135772957,44.684382285057204],[-0.36335998019915,44.68439472880598],[-0.3634832711102,44.68440765031535],[-0.363561441021109,44.68441374371592],[-0.363613794496199,44.684450718814986],[-0.36364713696281,44.68451620607121],[-0.36333016338257,44.68470750589092],[-0.363047541602125,44.684879738381895],[-0.362952811788268,44.68496858325813],[-0.362694719145949,44.68503554154971]]],[[[-0.361018396523925,44.68038402008629],[-0.360930021425566,44.68039094063639],[-0.360882785623743,44.680399404484824],[-0.36073901308525,44.680432517976094],[-0.360639150702705,44.680469163072985],[-0.360544870102179,44.68050410662433],[-0.360498426285797,44.680532190148305],[-0.360388415047913,44.68060617842123],[-0.360276657562973,44.680686887743406],[-0.360197302196914,44.68075183461953],[-0.360160268424886,44.68079792438354],[-0.360054756692211,44.68093250951978],[-0.360015354306577,44.68098335688627],[-0.359976631945825,44.681077346104885],[-0.359953832905467,44.68111435285838],[-0.359923783588338,44.68115896883622],[-0.359905871019645,44.681172038196415],[-0.359895407165252,44.68117659120231],[-0.359871587639843,44.681179567486566],[-0.359835686254161,44.68117056573786],[-0.359753540211069,44.68106177553139],[-0.359679152010767,44.68095599358603],[-0.359596648239894,44.680788282459595],[-0.359498337038835,44.680590594364716],[-0.359447619127805,44.68048778787144],[-0.359405263449394,44.680434107449464],[-0.359332089511621,44.68034441807909],[-0.359227649540582,44.68021332673534],[-0.359104508255823,44.680052436338585],[-0.358961225656236,44.67986512462702],[-0.358891591179294,44.67977758027941],[-0.358859823825244,44.67973412096828],[-0.358792426015161,44.67959091105866],[-0.358790742376733,44.67944624625638],[-0.358797539014348,44.679420448752175],[-0.358809659997654,44.67939286759018],[-0.358826204144189,44.67936956747432],[-0.358859000338589,44.679345593599976],[-0.359023351365849,44.679244635839545],[-0.359164164954859,44.679157728883254],[-0.359202312028845,44.679132420967186],[-0.359208558767715,44.67911646207598],[-0.35921280417986,44.67908389369987],[-0.359203255687673,44.678972537966786],[-0.359193117773585,44.67889363957548],[-0.359175284437401,44.67881488479388],[-0.359095744595379,44.678540123541076],[-0.359033045896432,44.67833594722857],[-0.35906459088224,44.678278310321254],[-0.359258018650695,44.67814402964826],[-0.359366883879652,44.67806782453575],[-0.359478034611695,44.67801299595693],[-0.359772038486036,44.677866828650394],[-0.359798184950751,44.67786900801662],[-0.359811014495701,44.67788294570931],[-0.360028267772323,44.678128923045314],[-0.360272236897104,44.678409861885946],[-0.360451374807915,44.678615996668974],[-0.36055631578227,44.678736438620646],[-0.360656171965497,44.67886478441639],[-0.360799259210689,44.67905300098967],[-0.36083545356431,44.679098668099556],[-0.360922623712721,44.67922604753973],[-0.361032847578085,44.67938417465642],[-0.361145357402817,44.679542502554],[-0.361239176034608,44.6796754467909],[-0.361387292625567,44.67988648791497],[-0.361472140248572,44.67997915527605],[-0.361585782461578,44.680105639695846],[-0.361697045423174,44.68022399634931],[-0.361696321770197,44.68023302931428],[-0.361594341207442,44.680268027593236],[-0.36137292831281,44.68033765312216],[-0.361271085774731,44.68035381397214],[-0.361138289179708,44.6803761417195],[-0.361018396523925,44.68038402008629]]],[[[-0.3589797888319,44.67827944398827],[-0.358970951114892,44.6782985452721],[-0.3589673546989,44.67832929172711],[-0.358968422719149,44.67835989652692],[-0.35897958410476,44.67839244753671],[-0.359016048845799,44.678521007720455],[-0.359053897619525,44.678638892946196],[-0.359072266895427,44.678701231524116],[-0.359119572807661,44.678920473089555],[-0.359145075785549,44.679053691445446],[-0.359142056011497,44.67907928415915],[-0.359123100854629,44.67911085751809],[-0.359092354189288,44.67913530988933],[-0.358992718752464,44.67919690697141],[-0.358758438104947,44.67934297050059],[-0.358735993000868,44.67937744316129],[-0.358723660114731,44.67940782414449],[-0.358713754755994,44.67944290721663],[-0.358712491698785,44.67947042898054],[-0.358712709411623,44.67951007056712],[-0.358722833035141,44.67956121569806],[-0.358735123819041,44.67959787749338],[-0.358746349603163,44.679623037606746],[-0.358792559541465,44.67975616791918],[-0.358233676759787,44.67992740556433],[-0.357770566311482,44.680069691279485],[-0.357721672581284,44.680084241439346],[-0.357662430363549,44.680098925502335],[-0.357586270620188,44.68011160001304],[-0.357509467147378,44.68011771601712],[-0.357462735433482,44.68011769280163],[-0.357146426205736,44.680101882941564],[-0.357091719918057,44.680101560955585],[-0.357048362494238,44.68010729226748],[-0.356938782975787,44.68013774100701],[-0.356754604320105,44.680185862332515],[-0.356654943876136,44.68021321636228],[-0.356618155546609,44.680212620703806],[-0.356596198429962,44.68019175087283],[-0.35737715205771,44.67995539025144],[-0.357312838896146,44.679874441666705],[-0.357244462298471,44.67978676806934],[-0.357224940687583,44.67976438268808],[-0.357142029162665,44.6796595788669],[-0.356692211587947,44.67980875543893],[-0.356341663021665,44.6799261729709],[-0.356260576169153,44.67984348007699],[-0.35610416624502,44.679713332254494],[-0.355842839082855,44.679496888873395],[-0.355604650401347,44.679304162616376],[-0.355397559273196,44.679052552200616],[-0.355286631940503,44.678916247794874],[-0.355270505986628,44.678863932903745],[-0.35524193671541,44.67881686138919],[-0.355633475905076,44.678713432129946],[-0.356261353089288,44.67854290736945],[-0.356280367825751,44.67853773479349],[-0.356280493892281,44.678537730968024],[-0.356325481206133,44.67852546259041],[-0.356619261197279,44.67843256541137],[-0.35664194524473,44.67842538911778],[-0.357145576818507,44.67826601870891],[-0.357172477250921,44.678257542901264],[-0.357185987815472,44.678253258108434],[-0.357181633071592,44.6781759862943],[-0.357575058761606,44.6779772470127],[-0.357594918133255,44.67796718265257],[-0.357693002509291,44.67791770858926],[-0.357862023847613,44.67783156893049],[-0.35789561079211,44.677814509761106],[-0.358180369465864,44.67768691968909],[-0.358202634581332,44.677676962389185],[-0.358213827486014,44.67767193685042],[-0.358267246571304,44.67765283365098],[-0.358350487207312,44.677769520980604],[-0.358415333287015,44.67786153615405],[-0.35845878047782,44.677920860569174],[-0.358504375625066,44.67789974209383],[-0.359121254902994,44.67763194598847],[-0.359458706951649,44.677487974196524],[-0.359620154414354,44.677670768379656],[-0.359745472009702,44.67781104686336],[-0.359328585836105,44.678022851680836],[-0.359306916273209,44.6780343229839],[-0.359003960846253,44.67825275835646],[-0.358992397851426,44.678264283099196],[-0.3589797888319,44.67827944398827]]],[[[-0.359475567395224,44.68690410262756],[-0.359463219551006,44.68703162258969],[-0.359450128710693,44.68716574313672],[-0.359153894169905,44.68715680721946],[-0.358939495109686,44.68717512189854],[-0.358890122151453,44.687105524427615],[-0.35844558032992,44.68726995545668],[-0.358000453768728,44.68743521336979],[-0.358037152878656,44.68751258495112],[-0.358069873654192,44.68758043554638],[-0.358090948912273,44.68762458034048],[-0.358111568135291,44.68765260932438],[-0.358211826244269,44.68778752387663],[-0.358218922014263,44.68779424692132],[-0.357883022377866,44.68803944979187],[-0.357604366906158,44.68824272517356],[-0.357511327783713,44.68819283481016],[-0.357407989922573,44.68813758002592],[-0.357101837922534,44.687975122120015],[-0.357367082972275,44.68777784184741],[-0.357259423911336,44.687741190605905],[-0.357195602864929,44.68771312093694],[-0.356977460943903,44.687615754320994],[-0.356913991622697,44.68758722327733],[-0.356884648588643,44.6875738763745],[-0.356809579771263,44.687528756639615],[-0.356766166391058,44.687501869663514],[-0.356751546012734,44.68748969795053],[-0.356727536446959,44.687468349623444],[-0.356678261869197,44.68742578116047],[-0.356348109770389,44.68713609389417],[-0.356165744326842,44.68697771738372],[-0.356146385864965,44.68698776621989],[-0.356141500851477,44.68698421993059],[-0.355756798821678,44.68710582455039],[-0.355666158165076,44.68713425539838],[-0.355542635426516,44.6871726044611],[-0.355468380566117,44.68719621283753],[-0.355353487411961,44.68696397102317],[-0.355256179398586,44.68685086133304],[-0.354991659521801,44.68653683249573],[-0.354591617784977,44.68606606742971],[-0.354468605808164,44.68611296024621],[-0.354406491834935,44.68599689039605],[-0.354373796436158,44.68595057433162],[-0.354327358874084,44.68589196952247],[-0.354294223010243,44.68585521840772],[-0.354211197385853,44.68575915613096],[-0.354132146850388,44.6856746875112],[-0.354009873535941,44.6855664789461],[-0.353890569926988,44.685463586794874],[-0.353813758849157,44.68539761264188],[-0.353792103657518,44.68537970664392],[-0.353677658761185,44.6852799109259],[-0.353623661929254,44.685234330601595],[-0.353476726024632,44.68510434185539],[-0.353468864302052,44.685093226397186],[-0.353388440660194,44.68496446509873],[-0.353280730739977,44.68479958605143],[-0.353250308910526,44.68475536342986],[-0.353185240820181,44.68466172976855],[-0.353140721426218,44.68459711918959],[-0.35422343234009,44.684315140698025],[-0.354380810949586,44.684283335522146],[-0.354747719554738,44.68420678905377],[-0.354805437821268,44.68419188257319],[-0.354889694937838,44.684166619552904],[-0.355008484613791,44.684133731092366],[-0.355095957628541,44.68411368683245],[-0.355114379027514,44.684155749892305],[-0.355208165350422,44.68437304277423],[-0.355293599321158,44.684365405220525],[-0.355382558137205,44.684357570569375],[-0.35546688950996,44.68435050698359],[-0.355815736447995,44.68431847829629],[-0.355830198458109,44.68437462835909],[-0.355842496031556,44.684422013348644],[-0.355857588327179,44.68448237943997],[-0.35587294663373,44.68453237486057],[-0.355899800334476,44.6846353664008],[-0.35609040230635,44.6846036321624],[-0.356267693201834,44.68457320256468],[-0.356306169195082,44.684568160425194],[-0.356393161658335,44.68483666067142],[-0.356658720756574,44.684782556604176],[-0.356864881865971,44.684740617050075],[-0.356984108672389,44.68471717470971],[-0.357011647894331,44.68471300489143],[-0.357195119861097,44.68498533484823],[-0.357331305921714,44.68518908454657],[-0.357465577624773,44.685390369156174],[-0.357624773975864,44.68563469041627],[-0.357639906189937,44.685678745292925],[-0.357660384022383,44.68583572558484],[-0.358485255102181,44.685495841388374],[-0.358562087047612,44.68546467354373],[-0.358854922734687,44.68534692955779],[-0.358884431678119,44.68538000490281],[-0.358921529741514,44.685415372870295],[-0.358956248264783,44.68544261309547],[-0.359001681131028,44.68547160048639],[-0.3590410324138,44.685489689034505],[-0.359035562807316,44.685501749613245],[-0.358840573989998,44.68557642422704],[-0.358469421350697,44.685727994244],[-0.35866189112802,44.68606627967822],[-0.35875090498521,44.68621388005633],[-0.358605289769179,44.68627777373734],[-0.358705991967719,44.68641591820318],[-0.358720258458257,44.68643485863554],[-0.358701022011086,44.686504106353006],[-0.358692011234715,44.68652456453224],[-0.358671596765385,44.6865677161773],[-0.358639199003328,44.68662384702334],[-0.358620214276419,44.686663440967216],[-0.358616778038978,44.68668841559567],[-0.358615141803457,44.68670756854735],[-0.358626782105752,44.68673541948883],[-0.358676870698899,44.68680643707627],[-0.358932647479971,44.68672586213213],[-0.359156701348653,44.68665345868216],[-0.359364133173495,44.68659039031215],[-0.359448080622213,44.68656414204232],[-0.35950970056655,44.68654686189453],[-0.359506391029496,44.68658030303661],[-0.359495054526902,44.68670148458965],[-0.359492863524992,44.68673038627217],[-0.359481618000703,44.686844626609314],[-0.359478876864358,44.68686642632377],[-0.359475567395224,44.68690410262756]]],[[[-0.359794784881486,44.693315372368794],[-0.359770674203525,44.69335377058247],[-0.35969984943486,44.69345612378881],[-0.359608510901593,44.69357883399177],[-0.359586559563249,44.69360896657406],[-0.359578207829198,44.69362354768794],[-0.359570910578718,44.69364098030181],[-0.359563433651798,44.69366175244342],[-0.359593129665123,44.69368941556222],[-0.35962537718149,44.69371537921143],[-0.359745902454219,44.693810750109286],[-0.359775936608328,44.69383560950473],[-0.359798281272821,44.69385862988048],[-0.35981221479438,44.693882536458716],[-0.35982115523805,44.69390533312837],[-0.359823629457502,44.693921387693194],[-0.359818860151692,44.69395577436066],[-0.359811904305304,44.69399374172354],[-0.359802120670186,44.694035129034994],[-0.359789133426573,44.69407364000154],[-0.359777076936416,44.694104463344296],[-0.359757221138003,44.69414219168186],[-0.35974243845521,44.69416543845279],[-0.359714058537146,44.694197928926314],[-0.359691757933857,44.69421797980801],[-0.359643199216791,44.69425739074383],[-0.359608629366646,44.694285653763565],[-0.359323278285584,44.69420357771202],[-0.358942042340254,44.69409395493092],[-0.358941336561321,44.694084244474524],[-0.358921021009317,44.693915274178714],[-0.358915383479968,44.693877959563835],[-0.358882010396508,44.693737860480915],[-0.358868468579438,44.693682403399414],[-0.358911089775584,44.693634522518146],[-0.35893539981533,44.69360368769835],[-0.358976330504093,44.693548649313236],[-0.358998389424724,44.69351608062482],[-0.359014937571264,44.693488545189425],[-0.3591000775951,44.69340377981795],[-0.359258320973381,44.69335644310503],[-0.359826407787048,44.69318906892652],[-0.359827623735443,44.693207324340044],[-0.35982515609657,44.69322947624349],[-0.359817513280325,44.69326016554757],[-0.359808539539554,44.693285488666696],[-0.359794784881486,44.693315372368794]]],[[[-0.358259285960122,44.681076696236936],[-0.357672556105331,44.68122597843991],[-0.357654997438659,44.68118992697349],[-0.357555761571241,44.68099145439235],[-0.356872481619828,44.68123088905749],[-0.356832550213453,44.68116911437384],[-0.356700391466522,44.68095433925003],[-0.356599806099686,44.68070562580819],[-0.356544172276539,44.680564760902584],[-0.356527428258863,44.6804936319896],[-0.356621564912194,44.68031217830777],[-0.356634124567412,44.68027710501497],[-0.356687927603175,44.680255918480896],[-0.356775117874097,44.68022912309233],[-0.357011076990632,44.68015978631464],[-0.357061741161064,44.680153743141965],[-0.357113741105355,44.68014892093582],[-0.357189954437565,44.68014985166106],[-0.357412186280195,44.68015743362146],[-0.357576836413049,44.68015883344872],[-0.357605006377306,44.68015680690249],[-0.357672700696118,44.68014619155226],[-0.357707608726923,44.68013855386401],[-0.357805803966489,44.68011205433363],[-0.358145390651565,44.68001839338979],[-0.358282567760965,44.679974219846926],[-0.358483474013098,44.679912251793404],[-0.358755230515503,44.67982695616443],[-0.35883394578828,44.679808436214934],[-0.358985773791541,44.67999927316094],[-0.359249451570564,44.68033953889881],[-0.35938349803942,44.68051595726368],[-0.359432971351508,44.6806233070666],[-0.358973717992902,44.68075619933489],[-0.358565961271067,44.680873739226804],[-0.358605213531379,44.6809876172915],[-0.358259285960122,44.681076696236936]]],[[[-0.358969257358881,44.69468551213983],[-0.358958359266563,44.69471035294902],[-0.358949784686116,44.69473602431488],[-0.358944899279833,44.694762124335824],[-0.358939340803937,44.69481293494874],[-0.358927496374064,44.694891780415176],[-0.358889131185035,44.695053341101],[-0.358848608623831,44.695216859584264],[-0.358844246185796,44.695232671177365],[-0.358830316130883,44.695261749085404],[-0.358800889058033,44.69531905136621],[-0.35877196087007,44.69536777803609],[-0.358752490189568,44.69539504171683],[-0.358730094966784,44.69542410626878],[-0.358685049491381,44.695475845284776],[-0.358633615545094,44.695528499097506],[-0.358585892127184,44.695573470999015],[-0.358461840903334,44.695685819347375],[-0.358431892555066,44.69571745597453],[-0.358406585892438,44.69574642861279],[-0.35833619292592,44.695837053454184],[-0.35829887406821,44.69589126106588],[-0.358229739158243,44.69599662569808],[-0.358126759421081,44.696174204510136],[-0.358043776293407,44.69631639380785],[-0.358012748740297,44.69636806750272],[-0.357959950241881,44.696461402033535],[-0.357953373906677,44.69646763900362],[-0.357944398867329,44.69647178613328],[-0.357930245413857,44.69647383767691],[-0.357912925886375,44.69647364244771],[-0.35789468874135,44.696470771763394],[-0.357880277737165,44.69646427066078],[-0.357867503446259,44.69645555724104],[-0.357810122988425,44.696311140187646],[-0.35774589295187,44.696151432069],[-0.35768699984926,44.69600706089392],[-0.357676358936371,44.69597269146123],[-0.357661774034857,44.69591879773255],[-0.357651675262135,44.695868101929875],[-0.357644165727454,44.69581210116748],[-0.357641131568384,44.69575911843848],[-0.357643954592664,44.69570478652593],[-0.357656616734059,44.69561420211303],[-0.357668052619481,44.69553059338742],[-0.357767884290286,44.69555225375777],[-0.357934348208694,44.695310122062736],[-0.357940937810032,44.69531046272213],[-0.358224701417282,44.69538916648305],[-0.358252578130686,44.69527622342297],[-0.358284516787235,44.69513819657815],[-0.358376646209583,44.69489102158629],[-0.358442554017998,44.69471465799714],[-0.358473861497881,44.69459359094887],[-0.358652121943621,44.69459583884814],[-0.35895490964813,44.69458691678954],[-0.359047369446641,44.69458456016984],[-0.359031944964727,44.69459917575723],[-0.359015903417281,44.6946161529387],[-0.35899635525107,44.694639994836436],[-0.358981314551194,44.69466315922008],[-0.358969257358881,44.69468551213983]]],[[[-0.355773758227469,44.68200375689452],[-0.355589829424376,44.68206466406525],[-0.355468495763653,44.6821056501832],[-0.355037739781488,44.682255052180615],[-0.354980892336397,44.68227605986348],[-0.354988448214646,44.682286283381806],[-0.354910661063789,44.68231621621989],[-0.354533500131521,44.68246426093185],[-0.354492591659903,44.68248145092308],[-0.354311797697413,44.68255262340701],[-0.354148388787805,44.68261669042369],[-0.354040277311187,44.68265916627266],[-0.353939279822337,44.68269809225723],[-0.353768216603933,44.68276725668773],[-0.353632938214635,44.68282227003922],[-0.35362051526181,44.682827873030526],[-0.353606536528244,44.68283280231387],[-0.353657511418886,44.68290190260363],[-0.353587054071573,44.682929810052144],[-0.353361055998988,44.68302244580542],[-0.353346680035319,44.683029189284554],[-0.353277069909865,44.683058602703035],[-0.353187702399357,44.68309771606017],[-0.353183538997568,44.68309991478726],[-0.353075173335806,44.68314663249775],[-0.352977231915286,44.68319024072257],[-0.353067731563353,44.68330373853417],[-0.353221022024903,44.683495980749214],[-0.353265852450954,44.68355310273561],[-0.353414637941639,44.68374178682211],[-0.353481896213191,44.683713165509076],[-0.35355890242534,44.68385455545126],[-0.35358233074502,44.68389799878841],[-0.353601483810494,44.6839332816698],[-0.353641860522539,44.68400892088868],[-0.353665192526293,44.68405074516468],[-0.353823871168168,44.68434608880831],[-0.353703994186634,44.684375584771374],[-0.353093431236782,44.68453052007097],[-0.352987339464117,44.68455608309939],[-0.352811739857576,44.68458312207828],[-0.352520680924547,44.684631141353734],[-0.352233940368661,44.68467956963788],[-0.351926406718263,44.68472880746126],[-0.351845534040557,44.68474306237663],[-0.351646728598863,44.68477494767273],[-0.35162040448463,44.684776195826366],[-0.351593367210092,44.68477395131631],[-0.351166999513854,44.68469838167107],[-0.350364483274251,44.68455905270925],[-0.35032705996909,44.68455207634636],[-0.349145243631767,44.684348984984524],[-0.348847846585195,44.684298967383796],[-0.348442663809839,44.68422905375608],[-0.348394273603134,44.68422880648476],[-0.34828879368428,44.68422857520857],[-0.347917890502006,44.68422745667646],[-0.347913145315688,44.68422624865714],[-0.34800481652053,44.68308098003818],[-0.347703941923847,44.68307855238718],[-0.347698173507217,44.68312810676898],[-0.347305441398535,44.683159095128055],[-0.347305480452798,44.68315125445363],[-0.347318952721285,44.68304857292745],[-0.347319891975162,44.68303250508326],[-0.347329943532715,44.68283405098907],[-0.347349367508287,44.68270613903016],[-0.347387626547513,44.68240005206205],[-0.34739786998578,44.68231954498317],[-0.347417531602536,44.68215314925682],[-0.347425326048838,44.68207181520253],[-0.3474413672176,44.6819996029234],[-0.347466780127006,44.681802486173055],[-0.347482293887205,44.68163855881964],[-0.347486948039894,44.6815235289088],[-0.347477705403105,44.68146154326187],[-0.347481589566423,44.68141853379986],[-0.347509181894148,44.681340925831975],[-0.34751826997943,44.681325963013556],[-0.347545791700808,44.68128115687049],[-0.347597161893501,44.68122535652053],[-0.347602272850961,44.681219975512796],[-0.347618408007866,44.68120245657106],[-0.347678735304076,44.681157108071346],[-0.347967121400612,44.681083500988635],[-0.348208471781355,44.68102176958961],[-0.348366715546077,44.680979133549236],[-0.348891656314721,44.68083753913455],[-0.349038761900026,44.680794518459315],[-0.349620496567779,44.68062894390753],[-0.349685541364414,44.68060985337187],[-0.349751366940817,44.68058902707745],[-0.349760042109889,44.68058624129674],[-0.34990197867581,44.680534905720606],[-0.350220471237848,44.680419741556996],[-0.35043679766825,44.68034083137659],[-0.350652141690647,44.680262401063246],[-0.350657833889261,44.68026042644602],[-0.350798090023569,44.68020634719803],[-0.350892043731374,44.680170070387355],[-0.351012601658689,44.680126679844456],[-0.35119899143041,44.68008805280076],[-0.351253884172303,44.68007665785302],[-0.351500418371954,44.68002575531983],[-0.351566775589636,44.6800117601001],[-0.351730302608378,44.67997733917077],[-0.35178182872634,44.679966676738],[-0.351985701229034,44.679924725166536],[-0.351996430788665,44.67992250771062],[-0.352298038481659,44.67985903110974],[-0.352472872969128,44.67982787071972],[-0.352523360587043,44.67981886137705],[-0.352525219497129,44.67981826437771],[-0.352804570883434,44.68026971456521],[-0.353064913051679,44.6801304433056],[-0.353214587870576,44.68043813455564],[-0.353304904345355,44.680419266911954],[-0.353348847386679,44.680410635832445],[-0.353391234705989,44.68040133102653],[-0.35345673827182,44.68036240027134],[-0.353474938870398,44.68035202654328],[-0.353533424880223,44.68031826451383],[-0.353582903044829,44.68029018212443],[-0.353582018378725,44.680283811185454],[-0.353554602502902,44.68011190286246],[-0.35353811465296,44.6800725744468],[-0.3540361259108,44.67991600237713],[-0.353817583401639,44.67959291922369],[-0.353768234779375,44.679515029264635],[-0.354038310299138,44.6794162799625],[-0.354944406438353,44.679082157610914],[-0.355224981954075,44.67897740992259],[-0.355233562696888,44.678975167219335],[-0.35524155040811,44.67897780841026],[-0.355440177720168,44.67923364065968],[-0.35552124822419,44.67933516742901],[-0.355527081924711,44.679341928871104],[-0.355590757518475,44.67939316162636],[-0.355710306640507,44.67948550116845],[-0.356003410007457,44.679720174010676],[-0.356166740206857,44.6798477691419],[-0.356367757935334,44.6800630683565],[-0.356519152620737,44.680223464623495],[-0.356525683853741,44.68023344879476],[-0.356529406629132,44.68024505005254],[-0.356530575825537,44.68025618814493],[-0.356529239701378,44.68026767259263],[-0.356525982969957,44.68028083729365],[-0.356471766202921,44.68041584455046],[-0.356448443900376,44.68048224207464],[-0.356440481251569,44.68053087248572],[-0.356454350457854,44.680574965697154],[-0.356523781391461,44.68074388655175],[-0.35659216947904,44.68090590060233],[-0.356666218491556,44.68103998911657],[-0.356771513812836,44.68122575329406],[-0.356963560185708,44.68147051950161],[-0.356895144976895,44.68149449245801],[-0.356246291007304,44.68171197284009],[-0.35609453422741,44.68176379483922],[-0.35590225870592,44.68182874040708],[-0.355719146029455,44.68189061425354],[-0.355773758227469,44.68200375689452]]],[[[-0.354282589899777,44.683605717126966],[-0.35426394221957,44.68358952223883],[-0.354241000583236,44.68356273453095],[-0.354230121817328,44.683541257925825],[-0.354226657391403,44.68352126857047],[-0.354245594881553,44.68341724865898],[-0.354332702638773,44.683350809687106],[-0.354434332508721,44.68329492360531],[-0.354550815298536,44.6832360639214],[-0.354876733664171,44.68368204331197],[-0.355137006776531,44.68404161567311],[-0.354912928826199,44.68406264938376],[-0.354843713765827,44.68397788305961],[-0.35477806745202,44.683925447886125],[-0.354725586272781,44.68388621994151],[-0.354413144785548,44.68368763242095],[-0.354282589899777,44.683605717126966]]],[[[-0.353845328549982,44.687097923425284],[-0.353759187469625,44.68717433476685],[-0.353631402025719,44.68712630571993],[-0.353460482569847,44.68707300614363],[-0.353300951529677,44.68698611067692],[-0.353057791003447,44.68696689912333],[-0.352990469509304,44.68690757512045],[-0.352966592675283,44.68689054726622],[-0.352893092407886,44.68683988078617],[-0.352798883344057,44.68677659583002],[-0.352793110606372,44.68677298619667],[-0.3525840382749,44.68668560888848],[-0.352425576771729,44.686631479681],[-0.352379828624667,44.68661412332915],[-0.352252654189539,44.686569948964866],[-0.352208311602929,44.686554982906785],[-0.352156085062026,44.68653701180114],[-0.352098093696464,44.68651768350149],[-0.352047289194811,44.68649813739446],[-0.351995309571605,44.68648006862485],[-0.351886226713437,44.686442734624244],[-0.351794886388495,44.68641062992636],[-0.351702159239392,44.68637856717637],[-0.351541159265657,44.68632208072015],[-0.351530069696724,44.686318271675994],[-0.351438000044692,44.6862866393414],[-0.351428608485333,44.686283770046664],[-0.351340401788119,44.686253372240465],[-0.35132826073742,44.68624887415747],[-0.351221206822428,44.686211658281664],[-0.351113571339916,44.686171035768105],[-0.350873117828613,44.686078388506374],[-0.35062746947491,44.685981212412884],[-0.350080895462047,44.6858576466181],[-0.350083517738539,44.68579133684196],[-0.350082745327626,44.68569557401468],[-0.350090480100339,44.68548169055298],[-0.350107168289335,44.68538855276404],[-0.350126812824861,44.685275050842876],[-0.350147083530267,44.68515296957165],[-0.350187099586127,44.68505705275487],[-0.350240348053214,44.684926673836635],[-0.350340890413314,44.6846359096531],[-0.350934036132327,44.684735715856],[-0.351260679294617,44.684791059491815],[-0.351543144626596,44.68484053197037],[-0.351640522942446,44.6848531704211],[-0.351897045419411,44.68480845277201],[-0.352044111515636,44.68478372168683],[-0.352152786681411,44.68476547026946],[-0.352407006338219,44.684724515686426],[-0.35280635699955,44.684658166166976],[-0.353054502789331,44.684612798587786],[-0.353148643290529,44.68474709149607],[-0.353210940501739,44.68483873666127],[-0.35324526976411,44.68489554627896],[-0.353301394677063,44.684987468624094],[-0.353349583071233,44.68506701621859],[-0.353382394630387,44.68511954656132],[-0.353438582414378,44.68517010670272],[-0.353532407047908,44.68525241577224],[-0.353737224430217,44.685433814224226],[-0.353899038577666,44.68557605702506],[-0.353100206247187,44.6858785324408],[-0.353182705494092,44.6859615455831],[-0.353309951761124,44.686100241535755],[-0.353361716456358,44.686154990771094],[-0.353412513641728,44.68619985727032],[-0.353450199567115,44.68622818063171],[-0.3535050558607,44.68627121196059],[-0.353528028574537,44.686287906662784],[-0.353589078846026,44.68633525565503],[-0.353712175140232,44.68642758051393],[-0.353909075353844,44.68632122880698],[-0.35396879645609,44.68639078484776],[-0.353982563908895,44.68638865533977],[-0.354026329267391,44.68648933237684],[-0.354059684851775,44.686570050385576],[-0.354144841806125,44.68677607198339],[-0.354218455715022,44.68694522830207],[-0.354158863325973,44.687017771243106],[-0.354136657815765,44.687033042287965],[-0.354094028336411,44.68705956552509],[-0.353927011707099,44.687118424842026],[-0.353845328549982,44.687097923425284]]]]}}]}
