{"type": "FeatureCollection","name": "aoc_geojson","features": [{"type":"Feature","properties":{"dt":"Pau","type_prod":"Vins","categorie":"Vin tranquille","type_denom":"appellation","signe":"AOC","id_app":9,"app":"Béarn","id_denom":61,"denom":"Béarn","insee":"64461","cvi":"1B101S, 1R101S, 1S101S","nomcom":"PUYOO","insee2011":"64461","nomcom2011":"PUYOO","id_aire":75,"crinao":null,"grp_name1":null,"grp_name2":null},"geometry":{"type":"MultiPolygon","coordinates":[[[[-0.917906325635587,43.53822439156549],[-0.91794491115626,43.53824362673417],[-0.917960958133095,43.53825376694578],[-0.917689486096218,43.53849085409961],[-0.917056345736181,43.53903881918952],[-0.916654632762154,43.539379879308214],[-0.916394907083262,43.539609602409726],[-0.916067025285718,43.539775124124446],[-0.91603289462719,43.53978851774411],[-0.91588663742826,43.53990451101976],[-0.915637788095812,43.54009951774058],[-0.915205686118302,43.54043644447804],[-0.915179375472491,43.540459194437624],[-0.915070738885804,43.540544010889434],[-0.914519518381396,43.540962886431515],[-0.914430721731499,43.54102996037743],[-0.91387017030436,43.54142835994123],[-0.913706044402741,43.541540310581084],[-0.913574665621205,43.54162945933733],[-0.912777590275352,43.54207350158023],[-0.912383681523973,43.54230445183311],[-0.912181154344102,43.54206204628797],[-0.912049464803403,43.54212670165792],[-0.911938690947846,43.54201494008681],[-0.911870960921087,43.54205503775741],[-0.911825607262474,43.542268999812414],[-0.911885704301684,43.54233493525403],[-0.911773185002974,43.542401060845876],[-0.911728811550296,43.54243500111898],[-0.911894783700695,43.542604407263006],[-0.911684882393491,43.54273710331843],[-0.911258228373932,43.54300012879779],[-0.910976993406805,43.543169176990695],[-0.910529395179722,43.54343025216358],[-0.910259325709841,43.54361601165653],[-0.909285485981585,43.54331294326588],[-0.909231404662878,43.5432407540159],[-0.909219428249658,43.543290371097925],[-0.909200701885307,43.54332816031196],[-0.910215219122942,43.5436448069061],[-0.910200092159416,43.543655441575545],[-0.90977412930151,43.543957892457094],[-0.90956884914957,43.54409312011291],[-0.908968092597118,43.544469430367585],[-0.908495532395639,43.54480976872783],[-0.908054558878813,43.545124824528926],[-0.907955935331217,43.54520783133762],[-0.907677896829974,43.545493232980476],[-0.907570762355021,43.54557312287329],[-0.907436849080703,43.54567442624024],[-0.907314948975054,43.54575755028229],[-0.907240818625729,43.54568373998406],[-0.907266676399938,43.54567244894958],[-0.907189654769285,43.54555253008185],[-0.907158680896362,43.545528692764506],[-0.906949298653027,43.54560019395338],[-0.906815736606677,43.54563572311665],[-0.906754991109007,43.545563862664736],[-0.906726308996066,43.54557732721451],[-0.906658530704838,43.54561318927888],[-0.906834906973325,43.54581727097968],[-0.906916063384708,43.54591425011721],[-0.90693733381201,43.54593744611151],[-0.906907372124139,43.545952127879126],[-0.906773514846118,43.5460124404919],[-0.906725956115087,43.54601604519363],[-0.906269361759334,43.545998167883425],[-0.906092628163235,43.545987146429276],[-0.905669801620453,43.545944989283726],[-0.905465952712053,43.545932240682426],[-0.904711692846394,43.5458787714297],[-0.904638137997588,43.545869798578835],[-0.903985711162293,43.54588778775934],[-0.903615820989141,43.545857319927876],[-0.903444091353925,43.54581242305534],[-0.902689736908595,43.54560634271428],[-0.902369820903179,43.54551668978763],[-0.902298158560339,43.545497287756604],[-0.902077678490132,43.54545846666791],[-0.901496752745027,43.54536225605041],[-0.900772004392891,43.54526905278578],[-0.900119076031282,43.54507363079204],[-0.89950707750119,43.54490456914908],[-0.899253538453138,43.544863958273325],[-0.899534912056493,43.54447945890622],[-0.899485361210178,43.54446466512304],[-0.899195933202144,43.54485639026365],[-0.899149571227893,43.54487030815282],[-0.898844382528959,43.54480587946277],[-0.898560423008971,43.544727624918366],[-0.898232932824835,43.54461562175201],[-0.897984869904987,43.54452796821271],[-0.897721874461224,43.54443013091173],[-0.897739045642683,43.54440032709014],[-0.897698910193702,43.544383752842805],[-0.897682509267503,43.54441578104359],[-0.897249206888819,43.54426830135481],[-0.896478151485717,43.544023503701375],[-0.896043311499209,43.54394084400835],[-0.895799589067884,43.54389149504947],[-0.895750795608572,43.543946216090376],[-0.895697533683697,43.54396065056763],[-0.895120597585436,43.544108927491436],[-0.894686831288142,43.544248277046464],[-0.894313597685606,43.54437085811693],[-0.894296564616522,43.54436804653527],[-0.894339200842902,43.544229860694166],[-0.894396126295875,43.54403945448795],[-0.894473877583343,43.54379461139093],[-0.894515737003722,43.54369608965096],[-0.894611794630335,43.543472839515815],[-0.894689578062415,43.5432175455918],[-0.894803170239532,43.5428092670825],[-0.894846465851302,43.54267718303034],[-0.89492046191304,43.54248472232016],[-0.894945631859314,43.5424486863378],[-0.894978869240733,43.54243298949509],[-0.895186037555274,43.54243284632405],[-0.895675590238057,43.542435082024305],[-0.896436809522742,43.54222892462435],[-0.896742656695898,43.54221027972003],[-0.897088900666264,43.54227044592852],[-0.897280051601341,43.54227150483136],[-0.897335371772739,43.54224546501016],[-0.897612599723275,43.542470978643195],[-0.897700550061102,43.54256618816648],[-0.897751652183182,43.542667676378436],[-0.897851229291799,43.542768143184766],[-0.897951861730562,43.542854969529664],[-0.897546510335294,43.543738923018076],[-0.897462365586811,43.54394048863121],[-0.897461543854002,43.54395574211422],[-0.897503324518683,43.54396919450499],[-0.898316841888424,43.542979408213164],[-0.898248525915442,43.54296727020236],[-0.898207028036415,43.54295615011081],[-0.898225641410844,43.542929357191916],[-0.898367126356575,43.54295580091612],[-0.898409563165536,43.54295157316354],[-0.898811441399208,43.54287902464879],[-0.899205299492431,43.542777756339085],[-0.899570988153287,43.54269569603567],[-0.899601713675273,43.54269954588977],[-0.899756577150856,43.542726047289406],[-0.899766890238264,43.54272837896024],[-0.899810051995744,43.54273664607137],[-0.899797104192504,43.54277026202487],[-0.900051816128056,43.54278452494439],[-0.900182122631576,43.54268291040309],[-0.900275451286451,43.54250731633031],[-0.900326576078476,43.54245782415245],[-0.900236207887039,43.5424801713174],[-0.900185295667937,43.542605685556964],[-0.900120996089813,43.542670875377254],[-0.900096849854203,43.542665437850594],[-0.900119152298912,43.54262734167706],[-0.899913578919476,43.54256167657022],[-0.899981558179105,43.54234834882176],[-0.899440054537963,43.542268637576406],[-0.899519334125299,43.54177871079391],[-0.89955290634205,43.541438072716694],[-0.900097898132262,43.54145441968255],[-0.900947118147674,43.54155954369386],[-0.90164729409404,43.54175830388575],[-0.90212869667568,43.54187385726316],[-0.901944210119724,43.54214749960935],[-0.901721550215558,43.54239702145289],[-0.901565230805919,43.54263875148374],[-0.90135849374277,43.542557816851094],[-0.901157654676608,43.54252720610181],[-0.900951201172137,43.54261804821469],[-0.900727414557308,43.5425814157178],[-0.900759126561392,43.54281295879176],[-0.900755798953215,43.54302819594924],[-0.900777110183191,43.54303382538016],[-0.900723563691894,43.543204385959164],[-0.90073450755302,43.54339091402227],[-0.900823889263284,43.543641912980746],[-0.901060724459905,43.543874096251926],[-0.901038518661532,43.543899037096125],[-0.90099349024701,43.54392344752885],[-0.900839252642701,43.54396998234977],[-0.900812077410866,43.543991048141905],[-0.900687545881244,43.544066511945175],[-0.900601021100782,43.54413997822652],[-0.900480759787993,43.54421997251725],[-0.900397661466954,43.54427097488284],[-0.900265549136621,43.54433148679428],[-0.900029456198682,43.54441636632324],[-0.899784949628828,43.5445250594211],[-0.899726964570548,43.544537413646346],[-0.899677202548265,43.54456325485488],[-0.89966958672678,43.54457875265117],[-0.899713270829921,43.54457646139998],[-0.899911671341885,43.54448726262993],[-0.900037234022397,43.544430589982426],[-0.900340039214187,43.54431781809871],[-0.900426550342081,43.54427876414481],[-0.900511832372476,43.54422344933766],[-0.900571024299016,43.5441833057847],[-0.900666769853592,43.5441033822977],[-0.900800625383585,43.544015692267365],[-0.900857709849876,43.54398463261867],[-0.901101842652893,43.54406908792274],[-0.901313969600011,43.54414361373302],[-0.901823420702648,43.5443016705001],[-0.902031780089231,43.54403842973909],[-0.902257677218181,43.543778160908786],[-0.902363659427759,43.54362481036906],[-0.902530474603986,43.54349737679988],[-0.902700871428867,43.543395307527696],[-0.903005116236763,43.54316545849304],[-0.902951912957437,43.54308602818863],[-0.902927675608759,43.54303555313822],[-0.902902461088588,43.5429361081933],[-0.902924162991943,43.54255049351056],[-0.903610500789978,43.542538225302465],[-0.90363514400059,43.54244536379937],[-0.90371354446333,43.54237452951866],[-0.903767907941611,43.542378158001014],[-0.903518355662621,43.54306609404998],[-0.903468219564069,43.543040873557885],[-0.903383313401125,43.54330922325383],[-0.903394309342939,43.54345268988218],[-0.903290402964143,43.543643801628725],[-0.903139431605601,43.54386579380633],[-0.902968998947343,43.54410938529413],[-0.902740023348568,43.54433346309393],[-0.902684778052267,43.54445165783726],[-0.902673129314713,43.544551708665054],[-0.902722445550614,43.54466866349532],[-0.902832378343798,43.544713622947256],[-0.904151663481318,43.5452560977236],[-0.904269735324697,43.54475621094471],[-0.904346738191991,43.544804966646595],[-0.904497377139967,43.544842063303534],[-0.904999138555673,43.54474490702975],[-0.905041701748765,43.54468428016747],[-0.905057364026232,43.54461597382843],[-0.90506538855524,43.54448092068755],[-0.906078361811807,43.544409223351856],[-0.906098793059067,43.54461297620933],[-0.906311053910967,43.54476757166582],[-0.906485536058981,43.54503667184373],[-0.906919090042006,43.54502547025574],[-0.906682346239523,43.544538540133445],[-0.906939774776579,43.5443069425922],[-0.907098804608222,43.54416167536891],[-0.907307170594489,43.54392616898602],[-0.907524226187688,43.54368007965087],[-0.907651286858044,43.543518216916695],[-0.907767797233305,43.543317818231976],[-0.908158578347721,43.542936919699585],[-0.908276808497931,43.543125527485365],[-0.908380261710088,43.54328989480661],[-0.908302546354698,43.54311613224259],[-0.908111160208387,43.54268612533709],[-0.908012561284533,43.542660310942956],[-0.907659885400886,43.54297335474286],[-0.906920815028022,43.542627666158076],[-0.906514542087163,43.54166760207947],[-0.906800217040973,43.54160191121537],[-0.907289663114192,43.5412279116493],[-0.907790552022066,43.54110572977713],[-0.908062162338713,43.54104450586795],[-0.908347842264669,43.54165362254221],[-0.908515454724586,43.54198368240983],[-0.908792371045214,43.54252762402984],[-0.909268967532848,43.5423886546848],[-0.909330372877354,43.542252037377814],[-0.909431455772451,43.54188526881288],[-0.90929084862868,43.541424517184346],[-0.909265667186973,43.5413348012393],[-0.90909785820739,43.5408600763108],[-0.909984532367367,43.54075316564712],[-0.909946468589719,43.54078156278997],[-0.909936614774358,43.5408059702054],[-0.90994964974083,43.540831894634714],[-0.910052104574258,43.54093251727828],[-0.910103124649802,43.5409888716142],[-0.910124049647519,43.54106153496334],[-0.910135564148513,43.54118147088358],[-0.910165862703915,43.54129901803331],[-0.910222655364413,43.541472812806575],[-0.910229526386134,43.54158093511175],[-0.910253702042562,43.5416922170423],[-0.910255787146593,43.541768262137964],[-0.910223429638923,43.54185861103555],[-0.910223196415998,43.54192789339937],[-0.910248263212639,43.542333985507774],[-0.910247606793406,43.54256246017822],[-0.910229566665005,43.54262121423174],[-0.910148759674918,43.54271114782442],[-0.910122102725005,43.54273976437845],[-0.910106725230696,43.54276671312991],[-0.910119385465345,43.542861654849865],[-0.910146160851974,43.54294383639452],[-0.910234230868362,43.54309137061753],[-0.910266468117757,43.54313011528707],[-0.910426019869557,43.54331074530202],[-0.910288760042616,43.54308832374139],[-0.910278053978219,43.54304024493123],[-0.910279167321999,43.54299660450383],[-0.910306966126493,43.54289750164885],[-0.910298438635089,43.542883215600796],[-0.91027718418096,43.54286389330997],[-0.910427851247714,43.54265604431103],[-0.910341314928903,43.54253647088178],[-0.910311776243851,43.5419956854095],[-0.910306656470161,43.54187146512837],[-0.910386484603544,43.54148546336453],[-0.910386759410516,43.54135681472346],[-0.910366415638994,43.541230891305744],[-0.910307485644842,43.54106753324737],[-0.910347245794632,43.54096043225027],[-0.910333711085189,43.54094353418779],[-0.910341254036578,43.54093065059959],[-0.910625310572135,43.54073772031395],[-0.910687909966065,43.5406932141907],[-0.912022381714324,43.540092428340884],[-0.911752103142371,43.53961527763936],[-0.912514653859635,43.5392337447601],[-0.912759853667571,43.53971350994653],[-0.913162026755071,43.54049947950764],[-0.913140959651456,43.540521048840155],[-0.91303037580787,43.5405809803392],[-0.913011303892737,43.54063544812795],[-0.913018559942833,43.54067103947086],[-0.913326715557605,43.5411368220404],[-0.914051311833786,43.5406362063743],[-0.914030361069914,43.54057957938743],[-0.913864465219961,43.54041675006059],[-0.913789983929593,43.54009811081427],[-0.913686322586157,43.540003480606956],[-0.913531361402774,43.539523343603754],[-0.913830070511937,43.53937302561403],[-0.91416711532463,43.53925465401574],[-0.914291715247772,43.53913701257342],[-0.914593686103149,43.53903639068432],[-0.915039199652166,43.538894372881025],[-0.91477573513978,43.53855372974182],[-0.915877991425689,43.53804081951497],[-0.916897923224555,43.53748312674107],[-0.917163024369972,43.53771155192991],[-0.917399893831281,43.537907305178955],[-0.917641332455429,43.53801758401861],[-0.917668352146789,43.538110474826965],[-0.917906325635587,43.53822439156549]]],[[[-0.916235135485402,43.531729135824314],[-0.916999576470889,43.53212662748116],[-0.916986967943541,43.53222491297233],[-0.916801166856108,43.53241431222395],[-0.916803541512191,43.53247088862237],[-0.916734889998055,43.53241742669936],[-0.916317828661968,43.532255206185866],[-0.915877116357632,43.532071137339024],[-0.915591037056059,43.5319285968014],[-0.915484721104176,43.53186748586382],[-0.914942863109048,43.53152554706928],[-0.91525565099848,43.53121743156845],[-0.916235135485402,43.531729135824314]]],[[[-0.910688197240773,43.53599213407953],[-0.910590118731278,43.536011975740905],[-0.909110914530522,43.53634275929057],[-0.909050190660118,43.536336570386815],[-0.909010650084964,43.53633051874076],[-0.907555787242531,43.53622242124216],[-0.907059256251526,43.53616788417162],[-0.907240547262607,43.535576896742214],[-0.908117706500858,43.53564420122657],[-0.908648048986424,43.53559707251083],[-0.908929577672878,43.53556188245272],[-0.909697271129651,43.53546907911046],[-0.91085304370352,43.535323900791795],[-0.910948806128125,43.53489390542014],[-0.911692357227874,43.53532822202846],[-0.911894725578477,43.535468748420676],[-0.912128181861528,43.535634817567676],[-0.912132008636352,43.53573638309389],[-0.912025693660971,43.53584066061199],[-0.911856652156092,43.53587666574453],[-0.911746141615066,43.5358975874846],[-0.911720592100089,43.53592967772319],[-0.911420909746033,43.535980123196545],[-0.911043917386437,43.53594633588672],[-0.910858246345973,43.53595636471526],[-0.910855726419904,43.5359775349692],[-0.910688197240773,43.53599213407953]]],[[[-0.907118915747289,43.53766281881288],[-0.907881451409858,43.5380994514221],[-0.907566419069518,43.538359340883204],[-0.907534524669657,43.53838922643786],[-0.906822248611991,43.538223461192345],[-0.906586339916811,43.538232319406816],[-0.906392888351012,43.538237305698864],[-0.906344059018336,43.53822032726858],[-0.905724253201458,43.538250577301056],[-0.90517805061154,43.53818691978307],[-0.905080758124607,43.538178351958294],[-0.90506944805173,43.53805579640099],[-0.905041761410373,43.53787635781083],[-0.905257277017955,43.53720198626407],[-0.905290205231947,43.53718728815295],[-0.905369649742854,43.53708461585792],[-0.905333757382075,43.53706302736943],[-0.905552813191709,43.53686479444468],[-0.905636495555331,43.53679529988604],[-0.905647777681584,43.53678822747195],[-0.905815058448747,43.53692642529458],[-0.906055571656128,43.536996225026925],[-0.906214512853622,43.53727750366234],[-0.907118915747289,43.53766281881288]]],[[[-0.905230641945388,43.530615401312296],[-0.905209517488805,43.531016487263635],[-0.905215125627185,43.531122582290635],[-0.905217275348318,43.5311305221896],[-0.905327773731425,43.53116230545115],[-0.905315773050106,43.53149730299107],[-0.905171870562346,43.53151140341565],[-0.905033465213992,43.531586291352305],[-0.904886569693142,43.53169472516448],[-0.904719063009761,43.53180777445864],[-0.9047429576093,43.531902401223995],[-0.904754597686452,43.53206259870301],[-0.904952560317352,43.53215699305027],[-0.905612104037095,43.53199658644979],[-0.905755236706814,43.53230780036672],[-0.905766764925387,43.53232801400556],[-0.905741194137927,43.53233433991896],[-0.905008330322233,43.532496306487914],[-0.904822652740989,43.532547943573014],[-0.904529976720284,43.53266297725667],[-0.904265145887605,43.532794213330675],[-0.904153853307361,43.532860016523564],[-0.904092877393175,43.532675291088324],[-0.904029114507786,43.532502376678416],[-0.903934411348814,43.5322968853731],[-0.903867853679133,43.53219938026889],[-0.903746471626468,43.53206583405762],[-0.903535907321323,43.53196270283496],[-0.903242227615661,43.53180986485957],[-0.902830989619393,43.53159603772244],[-0.902670998994564,43.53152648706623],[-0.902506007496323,43.53147261027471],[-0.90245260027893,43.53145921828697],[-0.902107174492094,43.53139201594942],[-0.901687226039196,43.53117561561127],[-0.901359266356035,43.53100283706869],[-0.901289009826563,43.53092915531365],[-0.901274067376265,43.53088600313491],[-0.903221389287394,43.53002302626015],[-0.903217258194741,43.529869404965744],[-0.904451303733146,43.52993541939702],[-0.904560256586954,43.52994816156108],[-0.904527850410627,43.53003418573464],[-0.904373403771018,43.53045205249242],[-0.905230641945388,43.530615401312296]]],[[[-0.902317976101178,43.532653416778714],[-0.901750489191663,43.53199524785754],[-0.901592614685808,43.53180563018224],[-0.902018909151735,43.531583463481454],[-0.90226673644409,43.531455277074194],[-0.902500528658791,43.53149947173482],[-0.902607210433733,43.5315388719071],[-0.902856351988457,43.531646741966],[-0.903492262770811,43.531983641537174],[-0.903730743704171,43.53210765787163],[-0.903768307168729,43.53214477074157],[-0.90390325565045,43.53233214812459],[-0.903993655008601,43.532510769732895],[-0.904055196828265,43.53268925913748],[-0.904089579865077,43.5328143166144],[-0.904020517699509,43.532920307397276],[-0.903944014769401,43.53299882066735],[-0.903895611948793,43.53296254843087],[-0.903847144575358,43.532990867464505],[-0.903732909947438,43.53305893808735],[-0.903525910869865,43.5331885408603],[-0.903293848742411,43.53333742209833],[-0.903451141673904,43.53345643430792],[-0.903307265469051,43.5335292647625],[-0.903356337579445,43.533588123834186],[-0.903242517112239,43.53365320628458],[-0.903264821038848,43.533784554170126],[-0.903307619944855,43.53389318431687],[-0.903304817021522,43.534003095490824],[-0.903318587477171,43.534414996563896],[-0.903329550787088,43.53450702640627],[-0.903399800758569,43.534899148538976],[-0.903425279710048,43.53521919486879],[-0.90345732973005,43.5357797049011],[-0.903455623919571,43.5358329149136],[-0.903392908362708,43.53584111767675],[-0.903301134682887,43.53613214401388],[-0.903200955330561,43.53640518609405],[-0.902932664412718,43.53635836005947],[-0.902811517862224,43.53634128022852],[-0.90277012164812,43.53633159973355],[-0.902582520005693,43.53688875420151],[-0.90202355475625,43.53691760491869],[-0.90155491876994,43.536921853648465],[-0.900747534361304,43.53692116923755],[-0.90076327794882,43.536686388971965],[-0.900348837983271,43.53666634281921],[-0.900299640127023,43.536698559976614],[-0.900224856901051,43.53669683539982],[-0.900163097087631,43.53669725480468],[-0.900160410727261,43.53672879012475],[-0.90015184152261,43.53681224423106],[-0.900149896482068,43.53689113617207],[-0.900127785891968,43.53689193131498],[-0.900126935927892,43.5369286253694],[-0.899535881906418,43.53692988094962],[-0.899000472140025,43.536886253692536],[-0.898419160886931,43.536868686090976],[-0.898065946246916,43.53688228306473],[-0.897624896720086,43.53693353706417],[-0.896870333233613,43.5369648864247],[-0.896555951202143,43.536972308766714],[-0.896454413404174,43.536948571913754],[-0.896388648619902,43.53692282908616],[-0.89630255131886,43.536862054123546],[-0.896179932612786,43.53674665020797],[-0.896163833517186,43.536693719842035],[-0.896158859135214,43.53661678832259],[-0.896194784429974,43.53647109618043],[-0.896253797453474,43.536300702838716],[-0.896349834421666,43.53607195738376],[-0.896513317338497,43.53608527118512],[-0.897475881978953,43.53617049199685],[-0.898965900855284,43.53631169118936],[-0.899011805675007,43.53632031019636],[-0.899093699777801,43.53624079605258],[-0.89952647463059,43.53627379001626],[-0.899576925917025,43.53603037547519],[-0.899926961934792,43.53604661482695],[-0.900202205834164,43.53605004870081],[-0.900344305782327,43.536051153916425],[-0.900960398240902,43.53612511249687],[-0.901274841446589,43.536144159208895],[-0.901483532428409,43.536150344272144],[-0.901535108605516,43.536173171362925],[-0.901554033801893,43.53634229569096],[-0.901775837020452,43.53631548877675],[-0.901868054563289,43.536300460272],[-0.901951450365408,43.53627223673534],[-0.902006388655773,43.536242514723675],[-0.902063755748789,43.53619387808384],[-0.902117845017597,43.53610977682538],[-0.902218652892621,43.53591148168887],[-0.902292781459793,43.535903589602455],[-0.902252920427183,43.535523074844356],[-0.902254792236968,43.53535572464894],[-0.902371840537594,43.53521602910528],[-0.902549810368865,43.53481047029053],[-0.902600035937861,43.53461129260719],[-0.902464635437318,43.53414773736511],[-0.902478818626254,43.53409227681574],[-0.902417754205156,43.53402457041605],[-0.902123399944487,43.5337471695157],[-0.902034720189129,43.53366117901937],[-0.901915576976554,43.53354962023801],[-0.90167835667606,43.533619050820434],[-0.901371320495191,43.53379440684971],[-0.901092858171133,43.533635970678596],[-0.900950527053118,43.533532992103154],[-0.899995088875532,43.53284138538366],[-0.900203981983455,43.532683075418085],[-0.900406309893516,43.532635892125136],[-0.90062036622492,43.532522616784156],[-0.900451164653924,43.532337548657615],[-0.900244112165468,43.53242633970631],[-0.90003538922957,43.53216981609219],[-0.899918237646284,43.532071065580155],[-0.899710304812331,43.53187351675618],[-0.899632132621863,43.53165049250518],[-0.899496235782905,43.53129946576518],[-0.900064021913005,43.53119896414088],[-0.900473627532664,43.531126579538096],[-0.900777030864616,43.53116395003167],[-0.900901199886013,43.53119470547009],[-0.900967419300033,43.531444012395816],[-0.900992450270719,43.53161922223626],[-0.901194148143185,43.531883473524914],[-0.901349499060733,43.53206876851974],[-0.901717466539254,43.5324511702996],[-0.902051379921702,43.532793358679186],[-0.902317976101178,43.532653416778714]]],[[[-0.896470133101046,43.534929269243264],[-0.896365202618599,43.53478071072338],[-0.896095661271883,43.53446168572296],[-0.896047484898215,43.534395855087155],[-0.895854352864711,43.533996704281634],[-0.89565708053967,43.533582117917774],[-0.896298773626051,43.53346096554586],[-0.8963229907456,43.533677282801115],[-0.896461558086522,43.5348449003099],[-0.896470133101046,43.534929269243264]]],[[[-0.892756063863507,43.53829289465366],[-0.892072131800233,43.53869047016586],[-0.891970573000779,43.53872852600774],[-0.891784624822227,43.53877114138829],[-0.891543825780092,43.538793744601804],[-0.891075020547372,43.53873723839178],[-0.890079739328739,43.53868313019333],[-0.890385515610647,43.53718392078745],[-0.890526761245204,43.536490989830035],[-0.891591489863097,43.53658556952272],[-0.891369368592463,43.537511833571926],[-0.891154204563917,43.53840749031246],[-0.891999346617245,43.53830005471594],[-0.892714780691343,43.53785946083415],[-0.89261000049904,43.537645493674844],[-0.893149526439412,43.53744127949579],[-0.893838409446192,43.536888848313936],[-0.893781491572131,43.53673613114],[-0.893765657533455,43.53674183430459],[-0.893437603384408,43.53574082167417],[-0.893051137414202,43.53458309194507],[-0.892700111721491,43.533498587726086],[-0.892916058595359,43.533445795179986],[-0.893084997162977,43.53342648858106],[-0.893236042100633,43.533417192599266],[-0.893336504446023,43.533419711466536],[-0.893406291831576,43.53342999758167],[-0.893508520235877,43.533460378208595],[-0.893656463783538,43.53351488075097],[-0.893815542051993,43.53357655016858],[-0.893862555559386,43.533585131422264],[-0.893927470227487,43.53358198983466],[-0.893960678086619,43.53357323058034],[-0.893998184898931,43.53355666000522],[-0.894152983446968,43.53344390423147],[-0.894152269214213,43.53367246722739],[-0.894156880004182,43.5339411956714],[-0.894162350061403,43.534958112709],[-0.894167744908657,43.53539535637583],[-0.894090655633545,43.53541253755231],[-0.894118998025545,43.5364180046801],[-0.894416993323321,43.537134535798494],[-0.894046793262221,43.53744717107306],[-0.893814988840971,43.537655205592586],[-0.893706112654089,43.53773685528237],[-0.892756063863507,43.53829289465366]]],[[[-0.891784140210085,43.54139560811851],[-0.892166069751908,43.541574948950306],[-0.89269151730065,43.541653740710586],[-0.89321854499328,43.54184525617979],[-0.89336757952635,43.541919178802104],[-0.893447874837943,43.541987461406364],[-0.893492613350434,43.542033598990585],[-0.893522155820271,43.54210946871205],[-0.89351110938011,43.542174814550066],[-0.893491395002757,43.542221914604134],[-0.893395353935587,43.54234138812366],[-0.893360728223759,43.542389563911364],[-0.89334537198108,43.54244614629935],[-0.893360750654375,43.54267467344803],[-0.893350401942328,43.54271927531788],[-0.89331199863018,43.54281947408125],[-0.892703189021976,43.543173278968716],[-0.893538708939898,43.543886828767754],[-0.893507218384728,43.54393011771835],[-0.894445493395703,43.54377599257659],[-0.894269201189227,43.54437542483066],[-0.893825845090738,43.54451403414118],[-0.893573923225025,43.54448803559184],[-0.893442104748776,43.544494569033496],[-0.893169951347341,43.54441677775924],[-0.892912942430047,43.5443340282506],[-0.892658448498151,43.54418975176052],[-0.892529501297991,43.544096189700696],[-0.892292070442834,43.543876621881],[-0.892074127825018,43.5435371755168],[-0.892096725224892,43.54352708616633],[-0.892191224632871,43.543470636677654],[-0.892147021720269,43.543419614846805],[-0.892088154780206,43.543302098021805],[-0.89215320880835,43.54314563291108],[-0.892277586095608,43.54314080928348],[-0.892464164106146,43.543309954185176],[-0.892039055881775,43.542859304129024],[-0.891902268914508,43.54270485707006],[-0.892096751320829,43.543014337163775],[-0.891826644743664,43.543110868613226],[-0.891643085649293,43.54279261848384],[-0.891570563321886,43.542669105530834],[-0.891537309453423,43.542668136685556],[-0.891429521803134,43.542528593178254],[-0.891315929382736,43.54241484118189],[-0.891120166679147,43.542252600139804],[-0.890954508015938,43.54213801326349],[-0.890400590214734,43.54174701891136],[-0.889658029914844,43.54119811764915],[-0.889138671129709,43.540810652706504],[-0.889192323595829,43.540685046355],[-0.889308044479476,43.54043560366906],[-0.889375360320126,43.54028869834822],[-0.889534510762538,43.53995653423239],[-0.890484144845177,43.54064493123898],[-0.891049190191305,43.54105408219106],[-0.890758035606414,43.54118343542319],[-0.890676345788188,43.541308246819085],[-0.890850139418781,43.54150451678002],[-0.891131759585053,43.541592513074974],[-0.891368494399664,43.54170887347234],[-0.891764119542677,43.54138524640517],[-0.891784140210085,43.54139560811851]]]]}}]}
