{"type": "FeatureCollection","name": "aoc_geojson","features": [{"type":"Feature","properties":{"dt":"Bordeaux","type_prod":"Vins","categorie":"Vin mousseux \"Crémant\"","type_denom":"appellation","signe":"AOC","id_app":31,"app":"Crémant de Bordeaux","id_denom":89,"denom":"Crémant de Bordeaux","insee":"33065","cvi":"1B119M, 1S119M","nomcom":"BOULIAC","insee2011":"33065","nomcom2011":"BOULIAC","id_aire":93,"crinao":null,"grp_name1":null,"grp_name2":null},"geometry":{"type":"MultiPolygon","coordinates":[[[[-0.505413887437836,44.810782181537355],[-0.505297181319091,44.81081903648707],[-0.505075573589612,44.81087092396205],[-0.505039512174649,44.810879363978806],[-0.504760379103808,44.81094469526869],[-0.504565605260424,44.81099041617553],[-0.504504189699295,44.81086033053647],[-0.504401874542429,44.810634747927054],[-0.504319126337347,44.810103847799446],[-0.504270455442912,44.809837096378416],[-0.504015735717195,44.80988579286469],[-0.503646652753716,44.809956127612914],[-0.503726599692043,44.81013167965608],[-0.502973704568853,44.810198641826055],[-0.502390367207466,44.81024798535393],[-0.502382452938323,44.810236790057374],[-0.502351381752476,44.810203435702924],[-0.502316789929861,44.810166407498315],[-0.502267713644285,44.810118391560685],[-0.502212951985147,44.81006649978816],[-0.502127045514682,44.80999225065267],[-0.501986813142702,44.80986699703341],[-0.501833635325884,44.80973512278953],[-0.501796640475388,44.80970015301822],[-0.501762006694226,44.809668533241464],[-0.501735972608648,44.809642860131405],[-0.501698181313831,44.809599173774586],[-0.501674957636884,44.809575935256575],[-0.501657076936771,44.80955514145958],[-0.501624689991009,44.80951894463278],[-0.501470929493951,44.809280205130705],[-0.50145451210265,44.80925648122202],[-0.501440652757087,44.80923114445765],[-0.501419444789209,44.80918540215648],[-0.501403548192707,44.809121287690616],[-0.501397104265355,44.80909508584963],[-0.501394768198006,44.80906776292693],[-0.501423003179231,44.808982518043884],[-0.501506927834161,44.808915340623926],[-0.501654921097468,44.808858485829454],[-0.501744993621093,44.808826982077996],[-0.502180428217457,44.80870823515201],[-0.502489579179044,44.80864124071687],[-0.502548385174702,44.80863010017963],[-0.502627701438086,44.808621015152916],[-0.502758200177843,44.80860643756029],[-0.502910664841051,44.80857665622582],[-0.503167203036349,44.80851051135155],[-0.503282172099913,44.808492548717055],[-0.503394583148684,44.80847619886167],[-0.503517409694089,44.808476642658626],[-0.503577278489568,44.808480518156045],[-0.503731169487591,44.80853044755072],[-0.503767227162361,44.8085625624317],[-0.503808071475386,44.80860443929884],[-0.503858235427821,44.80868206991734],[-0.503909090983258,44.80874643088926],[-0.503944846096706,44.80882037137507],[-0.504027408196692,44.8089627660815],[-0.504055146820402,44.808997486999516],[-0.504113645543248,44.80906259762462],[-0.50451565762643,44.80945930816871],[-0.504542279193763,44.80949640744748],[-0.504579840532183,44.80958101507668],[-0.504648042149447,44.809754955176075],[-0.50468753564435,44.80983805976516],[-0.5047364123721,44.80993357473775],[-0.504784970069434,44.810007741116166],[-0.504831593509234,44.81007728234472],[-0.504970856928599,44.81024167573361],[-0.505110723587582,44.810362972076064],[-0.505390715674911,44.810558963559856],[-0.505593144921567,44.81069477314575],[-0.505621857222995,44.81071666577308],[-0.505594921443745,44.810725267992254],[-0.505470263700408,44.81076453749425],[-0.505413887437836,44.810782181537355]]],[[[-0.504983601038955,44.81436385974142],[-0.50461452318892,44.814442848386655],[-0.504449941123224,44.814057466432395],[-0.504460350455148,44.814055875682655],[-0.504460053034021,44.81405110866812],[-0.504448270774984,44.81399010867842],[-0.504463995537276,44.813990512804686],[-0.504519388839971,44.813991555470835],[-0.504681952995398,44.81397325867381],[-0.504704002157518,44.81363064227599],[-0.504707188581902,44.81358025398612],[-0.504840416957495,44.81355243029535],[-0.505111348520161,44.81382819641795],[-0.505132267223939,44.81385096650158],[-0.50523768664908,44.81404499853955],[-0.505321556589394,44.81420005860314],[-0.505382210197761,44.814269156204766],[-0.505349179174677,44.814281555894254],[-0.505296977867281,44.81429311978243],[-0.504983601038955,44.81436385974142]]],[[[-0.502343340716522,44.8119100382749],[-0.502196013511573,44.81190865467869],[-0.501689540396032,44.81193213420076],[-0.501337091848819,44.8119486739331],[-0.50128395217277,44.81195125351997],[-0.501058565534263,44.81194872898179],[-0.501019064725391,44.81168466078335],[-0.500969228489132,44.8114721076349],[-0.50096802447194,44.81146700877328],[-0.500327846962375,44.81158167123274],[-0.500326631300076,44.81158044792707],[-0.500137417883299,44.8116179645622],[-0.500107156850534,44.811577284219545],[-0.500054656395732,44.811523066960596],[-0.499997355078958,44.81146494582291],[-0.499926173772595,44.81139131150762],[-0.499919618128828,44.81138566063367],[-0.499912936131881,44.811380013748575],[-0.499899077932431,44.81136891582186],[-0.49989203368858,44.81136355073475],[-0.499884978237815,44.811358005759544],[-0.499870642652136,44.81134737350537],[-0.499863224954546,44.811342110327935],[-0.499855944820911,44.81133702304845],[-0.499840879140064,44.81132686444478],[-0.499825566359972,44.81131680376125],[-0.499817671273322,44.81131200625655],[-0.499809776188022,44.811307208751316],[-0.499801760353729,44.811302505178475],[-0.49979386527112,44.81129770767212],[-0.4997775977125,44.811288578333276],[-0.499761215012728,44.811279632868825],[-0.499752721788889,44.811275394967964],[-0.499744349316701,44.81127106313355],[-0.499718628155958,44.81125853729092],[-0.499709772687349,44.811254581185395],[-0.499701158720778,44.811250437213474],[-0.499692188108081,44.81124666498322],[-0.4996834646012,44.81124279483041],[-0.499665534589355,44.811235430254],[-0.49965683350106,44.811231919874444],[-0.49956739536858,44.81120662570818],[-0.499368664672148,44.81113809904935],[-0.499074780941077,44.81103787908637],[-0.498923277186811,44.81096533758118],[-0.49887520975927,44.81094567637338],[-0.498810613660408,44.810918786450536],[-0.498698081605666,44.81085808211624],[-0.498664873218527,44.81069078479261],[-0.498598088480501,44.810305553966494],[-0.498595976512375,44.81025335064173],[-0.498599420984119,44.810239543592324],[-0.498601395923377,44.810232632092074],[-0.498605724856375,44.8102187971282],[-0.498610570398982,44.81020512610082],[-0.498613314651211,44.81019837056147],[-0.498619055857494,44.81018485150707],[-0.49862230551526,44.810178080016414],[-0.498625555172242,44.81017130852567],[-0.498628816032441,44.810164716922564],[-0.498635963907665,44.81015142383321],[-0.498643507640957,44.810138388611556],[-0.498647411460097,44.81013195695658],[-0.498651688731609,44.81012542339417],[-0.498655982808245,44.81011915966317],[-0.498660265679833,44.810112716044294],[-0.498669364837186,44.81010026257398],[-0.498684164735842,44.81008177133609],[-0.498689486424997,44.810075745532494],[-0.49869468736347,44.8100698136604],[-0.498700135401989,44.81006378386847],[-0.498750817761455,44.81001568197507],[-0.498874179621718,44.80989255869924],[-0.498940322375258,44.809818284340444],[-0.498995799882364,44.809751646356546],[-0.499078211239458,44.80963369059873],[-0.499109149364883,44.80959991009972],[-0.499141180362044,44.80956131869869],[-0.499217088620973,44.80948123854045],[-0.499258572760506,44.80944604364436],[-0.49931708162321,44.80940165971806],[-0.499339781502181,44.80938805587803],[-0.499395028401227,44.809358374429024],[-0.499457996871965,44.80932664677562],[-0.49953796954157,44.809291498406296],[-0.499629512418418,44.80923886177055],[-0.499653916880515,44.80922213994478],[-0.499737070966856,44.80918319603666],[-0.499846411415232,44.80913378238144],[-0.499903156134105,44.8091118938751],[-0.4999423713546,44.80909515496252],[-0.500062829163793,44.809053500931775],[-0.500132860251199,44.80902948049726],[-0.500174630350726,44.80901311143154],[-0.500253135881087,44.808982875365736],[-0.500347806817441,44.80894185502415],[-0.500402821495272,44.80892065172619],[-0.50043080162413,44.80891255851656],[-0.500484192603971,44.80889780502007],[-0.500562614875163,44.80888045861706],[-0.500621699658306,44.808867688143565],[-0.500691366650014,44.80885611550022],[-0.500790217597042,44.80884154837243],[-0.50091759907961,44.80884194134265],[-0.500931098549333,44.80884322728943],[-0.500958240656147,44.8088460650187],[-0.500971641807152,44.808847804669455],[-0.500985180518996,44.8088497202155],[-0.50099860970001,44.80885190958144],[-0.501011791790271,44.80885419687048],[-0.501038321562838,44.8088593970591],[-0.501051531685206,44.80886213406186],[-0.501064258836885,44.80886524680005],[-0.501077244293297,44.808868441499314],[-0.501102749056238,44.80887547646151],[-0.50111551545473,44.80887921879964],[-0.501140461359921,44.808887442974225],[-0.501152624049129,44.808891654979774],[-0.501164935512711,44.808896222768055],[-0.501176873537741,44.808900892470724],[-0.501200398577142,44.80891069356284],[-0.501212111940509,44.80891582096161],[-0.501234940565501,44.80892663537134],[-0.501245929478338,44.808932326373224],[-0.501257176697307,44.80893809933611],[-0.501267929735092,44.80894406814845],[-0.501278446895642,44.80895031477241],[-0.501314892857993,44.80899070926435],[-0.501327185103245,44.80904574526579],[-0.501341810315949,44.8091036815633],[-0.501359248144524,44.809196585997235],[-0.501370833153116,44.809221994608066],[-0.501386017630458,44.809248280852216],[-0.501403180635061,44.809283967280585],[-0.501430156405039,44.809351156385674],[-0.501497318677014,44.80945781070031],[-0.501526852512364,44.80949698154772],[-0.501647018877355,44.80964765274758],[-0.501721358214733,44.80972929702903],[-0.501298002660029,44.809871362158205],[-0.501408035256172,44.810028031328486],[-0.501428745380138,44.810057657757866],[-0.50135582430065,44.81008204064073],[-0.501361262187357,44.81009006987284],[-0.501309023867541,44.81010911315962],[-0.501337651027162,44.81014795222705],[-0.500904962377399,44.81030283732269],[-0.500897633266479,44.810359934994764],[-0.500866072026393,44.81059903082938],[-0.501009859077958,44.81064117236331],[-0.501244816646176,44.81070999381395],[-0.501342697547118,44.81073871490899],[-0.50145380962611,44.8104841287759],[-0.501503561583418,44.810370356876064],[-0.501564389860302,44.81023118149556],[-0.501854303002938,44.81015803769746],[-0.501951559716274,44.81028032336238],[-0.502236420307867,44.8101870609834],[-0.502246024955285,44.81019694119203],[-0.502250239070395,44.81020158445688],[-0.502254573930086,44.81020613378597],[-0.502263002163791,44.810215420314854],[-0.502271188912487,44.810224894714366],[-0.502286930659287,44.81024386347148],[-0.502290782549545,44.81024878854174],[-0.502294628832603,44.8102536236682],[-0.502298222412709,44.81025846677849],[-0.502301942345253,44.81026330589669],[-0.502305409574782,44.81026815299874],[-0.502309008764647,44.810273086052376],[-0.502316080794413,44.810282956151305],[-0.502326257827952,44.810297955158276],[-0.502329604317747,44.81030289619532],[-0.502339028854837,44.81031800909693],[-0.502382159164149,44.81039045538452],[-0.50241259335138,44.810454200589774],[-0.502497804322272,44.810667528015045],[-0.502521381960678,44.81090353058319],[-0.502535809228625,44.81110242211968],[-0.502542055904748,44.811318334627884],[-0.502542055229439,44.81136096182869],[-0.502543621944512,44.81139623971529],[-0.502564337131832,44.811480749443916],[-0.502609637186458,44.81164685288774],[-0.502616935772395,44.81167050431863],[-0.502692860996651,44.81184654473731],[-0.502563978202484,44.81185467238968],[-0.502562415420652,44.81190879430931],[-0.502343340716522,44.8119100382749]]],[[[-0.501976430655823,44.817201906576486],[-0.501514910219454,44.817536954177676],[-0.501703412578857,44.81764410243397],[-0.501755130813314,44.81767347055427],[-0.501672153857586,44.817739806933254],[-0.501606313994039,44.81778856911822],[-0.501561514946073,44.81781738082392],[-0.501341699910469,44.81793913727538],[-0.501268401995379,44.8179779511053],[-0.501217905217733,44.81800270691323],[-0.501136570387536,44.81803853010107],[-0.501069599741289,44.818071195994285],[-0.500994981261704,44.818113205571024],[-0.500918864735921,44.81816571643609],[-0.500824521873557,44.81822646305516],[-0.500760492620226,44.81826976027193],[-0.500736488665481,44.81828890289895],[-0.500701676683492,44.81832559989901],[-0.500583052138423,44.81847011443903],[-0.500527989481989,44.81855773829366],[-0.500462102803525,44.81867688573129],[-0.500406528180453,44.81876849100766],[-0.500332342285106,44.818890604015664],[-0.500250431152538,44.81887047956097],[-0.500158410376671,44.818850674210395],[-0.499641460537824,44.81872937843145],[-0.499544728874036,44.81870305233738],[-0.499373587233474,44.81867943527872],[-0.499182316625304,44.81865383975306],[-0.498833162141564,44.81860808281424],[-0.498881992885399,44.81850371382322],[-0.498746273815096,44.818469425112475],[-0.498749293607635,44.81846302135161],[-0.498546019433977,44.81841545358302],[-0.498542314233179,44.81842305053783],[-0.498416027892941,44.81839179825257],[-0.498434054083353,44.818353919393445],[-0.498461024535794,44.81829701314989],[-0.498420787175419,44.818287288086026],[-0.498393937454725,44.81834410038798],[-0.498116386486994,44.818281031661904],[-0.498088828823516,44.818232965524096],[-0.49812965154183,44.818199233976294],[-0.49809317739714,44.818188939456135],[-0.498061802877464,44.81817920499065],[-0.497983804539164,44.81845770614096],[-0.497966578932378,44.81845761877257],[-0.497758711150665,44.818746976176755],[-0.497941434248476,44.818834576623956],[-0.498041706971059,44.81870226974383],[-0.498274951728991,44.81872888596065],[-0.498330749723328,44.818577795024595],[-0.499139575446681,44.81867303265976],[-0.499367863553866,44.818703407865584],[-0.499532537376108,44.818730924048275],[-0.499432292033012,44.81895506477735],[-0.499395229613991,44.819030854742124],[-0.499373937521188,44.819071180005764],[-0.499359962645289,44.81907856040577],[-0.499343320789904,44.81907971651366],[-0.499177791613158,44.81907710039541],[-0.49856464629835,44.819023452285016],[-0.498107076776514,44.818983367069585],[-0.497918325074223,44.818955526971294],[-0.497816279042584,44.819057338695],[-0.497783169805465,44.81909091688403],[-0.49775519026122,44.81911333848259],[-0.497566492931121,44.819242937221354],[-0.497441563526386,44.81918469483215],[-0.497375802747447,44.81915144188188],[-0.497137369596184,44.81903135182574],[-0.49704211948692,44.81898406880078],[-0.496938146498051,44.8189248043949],[-0.496773364569414,44.81883249092083],[-0.496683544226962,44.81878089080153],[-0.496526097500202,44.81869249120456],[-0.496218796615504,44.81852779851327],[-0.496181734721388,44.8185080592204],[-0.496175364969514,44.818497265350985],[-0.496168512162476,44.818501086280385],[-0.496160581993587,44.81849980429861],[-0.496152208722039,44.81849547218262],[-0.496124964596908,44.81847479243209],[-0.49604986039864,44.81842362899234],[-0.496008671597916,44.8183986125348],[-0.495959415926378,44.81836808270251],[-0.495854993993859,44.81834632175751],[-0.495782283808551,44.818345820650066],[-0.495695995179154,44.81834890185112],[-0.495610155210726,44.818355123064926],[-0.495577869159541,44.8183551496875],[-0.495564809885875,44.81834672959925],[-0.495549563969257,44.818333692173034],[-0.495505827899365,44.81832470722191],[-0.495464947983039,44.81831482111867],[-0.495445554956831,44.8183124585555],[-0.495433543326744,44.81831680256759],[-0.495383775264417,44.81829430939248],[-0.495349642725179,44.8182748379656],[-0.495328607086503,44.8182582880938],[-0.49531224004289,44.81823537270322],[-0.495283114483562,44.81814986515447],[-0.4952555168985,44.818103151462815],[-0.495245739672172,44.818072187811126],[-0.495212299631346,44.81791327776998],[-0.495194686055907,44.817823532099716],[-0.495180418639795,44.81770006591765],[-0.495176297134119,44.81765621694713],[-0.495183025701329,44.817615810989956],[-0.495198179417068,44.817572435800834],[-0.495247943609985,44.81742397017888],[-0.495260453827049,44.81738491399405],[-0.495260299216189,44.81734580648471],[-0.495255278473702,44.81731802735533],[-0.495245890825114,44.81729128710672],[-0.495202772384361,44.81722100052309],[-0.495025752057812,44.81698478737681],[-0.495012020072071,44.816959445760105],[-0.494988277971666,44.8169299136723],[-0.494928023088843,44.8168548501058],[-0.494899217541493,44.81675004662658],[-0.494908055258702,44.816708943368184],[-0.49483622758157,44.81645805870893],[-0.49476296703819,44.81628994996081],[-0.494751290067574,44.816191816190674],[-0.494530051651201,44.81602422635044],[-0.494323444031291,44.81565015927198],[-0.494251612969429,44.81555383136966],[-0.494346340623873,44.81541782765074],[-0.494364826528839,44.81539138037239],[-0.494412911043991,44.81539500162891],[-0.495281779012496,44.815387798447155],[-0.495280316219226,44.81521373149205],[-0.495271326832877,44.8150977592915],[-0.49440285546536,44.8150970194193],[-0.494479264699627,44.81471340088208],[-0.494586418919088,44.8146896559636],[-0.494719326212484,44.81466266586538],[-0.495096422968783,44.81451496614975],[-0.495445329842392,44.814709801212864],[-0.495731245310355,44.814978808188],[-0.496070145841051,44.81537690876358],[-0.496295274177066,44.81576967463615],[-0.496373787594771,44.81580243573731],[-0.49695547634438,44.81565242276255],[-0.497054503086694,44.815622172784835],[-0.497017575093387,44.81631834882693],[-0.497358018600054,44.81650100884672],[-0.497400324655778,44.8165236463768],[-0.497454849387118,44.8164619058596],[-0.497454918348758,44.81646911334678],[-0.497457722559198,44.816475513578844],[-0.497860075707117,44.81664585517539],[-0.49788757678605,44.81665643284144],[-0.498042321739361,44.81670760556058],[-0.498132998278112,44.81678314960351],[-0.49821729096605,44.81681311363244],[-0.498244690801392,44.816807833143045],[-0.498253417553563,44.816813776117094],[-0.498407656210303,44.81671247986521],[-0.499245933146507,44.81616107040574],[-0.499406023084763,44.81612123066438],[-0.499436820648107,44.81615423411134],[-0.499515226331071,44.816191322271],[-0.499762949205543,44.816190351628514],[-0.499938862376116,44.81621751215493],[-0.500078700428666,44.81626311454847],[-0.500138571197278,44.81629330741092],[-0.500182900065765,44.816315880045885],[-0.500307350069135,44.81638476858605],[-0.500349454942105,44.81640822246557],[-0.500395216293962,44.81642939798014],[-0.500414815796405,44.81643914305989],[-0.500432454628966,44.81645399681468],[-0.50047546578858,44.81650824339582],[-0.500540593002609,44.81654556988682],[-0.500606946820287,44.81658835499009],[-0.500690860751887,44.81664879001132],[-0.500810687468652,44.81671457966789],[-0.500864116544806,44.81675110380646],[-0.501013126935268,44.816858508806796],[-0.501082430623726,44.81689579324073],[-0.501212328861375,44.816956578154944],[-0.501333749990915,44.81701339496212],[-0.501425994232939,44.81704698069944],[-0.501493168635364,44.817068380725104],[-0.501828304178058,44.817161524894026],[-0.501976430655823,44.817201906576486]]],[[[-0.498569693963702,44.80961792839246],[-0.498849486346605,44.809788798141085],[-0.498672763532806,44.80998002447753],[-0.498636996836511,44.81002369026995],[-0.498587310898259,44.81009185756504],[-0.498531625931272,44.810169406472276],[-0.498491988747318,44.810311515994805],[-0.498491114845368,44.81037066272233],[-0.498487211602136,44.810409627908754],[-0.498482235913725,44.810447635614096],[-0.498478577898314,44.81048037473638],[-0.497860300914435,44.81017608213941],[-0.497802391388453,44.81021792295872],[-0.497437902778913,44.81004701918754],[-0.497406345667185,44.81003224371809],[-0.497353870578996,44.810000734923456],[-0.497342901804336,44.809993330613366],[-0.497344342675021,44.810055107875186],[-0.497346367027288,44.81010388936534],[-0.497112122662725,44.81010740422273],[-0.497120964945009,44.810403982461004],[-0.496762273420342,44.810486853354696],[-0.496492426806548,44.81055096945083],[-0.496466607675619,44.81055719105607],[-0.496484813031421,44.810678820311324],[-0.496520868078883,44.81091839511003],[-0.496535138889668,44.81101545544349],[-0.495718933613992,44.81107237860363],[-0.495701868003192,44.811042275772756],[-0.49556180637237,44.81074460842067],[-0.495552088609322,44.81071661700904],[-0.495521148370029,44.810597822482606],[-0.495517102125268,44.81057145464219],[-0.495522069607323,44.81051497268672],[-0.495591321497141,44.81010607512574],[-0.495598720603424,44.80996660563836],[-0.495605019575465,44.80989286868536],[-0.495656304402532,44.80958790589466],[-0.49641589078855,44.80972814969788],[-0.496420724453237,44.80977936593931],[-0.496696534326697,44.80981924116421],[-0.49666923539918,44.80954135944364],[-0.496505548860167,44.80943161892903],[-0.496484409380147,44.80946013295572],[-0.49586015344327,44.809201799803795],[-0.496522047903859,44.80837263313893],[-0.496475258763517,44.808320577428134],[-0.496466149645708,44.80831050089695],[-0.496464919652554,44.808296841379935],[-0.496465125042173,44.808279802129384],[-0.496473418225,44.808254396925264],[-0.496586656293699,44.808013357554465],[-0.496605600828915,44.80797806358379],[-0.496718414038753,44.80781156710768],[-0.496761661944428,44.80779046645383],[-0.496894606490906,44.80772571160289],[-0.496939549816485,44.807721680284956],[-0.497248868173255,44.80755367013634],[-0.497339700238262,44.807499796138465],[-0.497450234423118,44.807587510594466],[-0.497811802703025,44.807884584469846],[-0.497953372763869,44.80800105892804],[-0.4979907158024,44.808031512835],[-0.498111762451034,44.80812943908259],[-0.498405894150824,44.80836807835847],[-0.498823623749992,44.80870690513233],[-0.498882837368332,44.80875514318747],[-0.49890216073636,44.80877066485263],[-0.498855511473481,44.808800164806854],[-0.49867280024746,44.80891551839289],[-0.49899250176086,44.80918245831102],[-0.499019744945648,44.80920520998876],[-0.4987229920696,44.80943681410481],[-0.498760375693922,44.809467897374084],[-0.498569693963702,44.80961792839246]]],[[[-0.489672809004166,44.827644343222154],[-0.489573000766378,44.82765018781759],[-0.489464886305549,44.82789123842063],[-0.489396685970738,44.828424105519474],[-0.488969225991815,44.82848856416311],[-0.488611749377485,44.828444206659945],[-0.488347538773807,44.828351853746284],[-0.488231208201987,44.82830783939761],[-0.487869281571432,44.8282305452653],[-0.487663271982466,44.82812302227579],[-0.487251479585589,44.828027828517456],[-0.487119247206502,44.82800098545457],[-0.486697319247635,44.827985234308855],[-0.486649973696733,44.82798347866672],[-0.486613646087273,44.827975608853734],[-0.486144240018536,44.827990637627714],[-0.486142833941801,44.82798022784803],[-0.486128588939112,44.82787316186698],[-0.486045119481908,44.82724665449775],[-0.486378400505133,44.82720129965583],[-0.486327288635298,44.82678393627937],[-0.485505688339877,44.826845452710685],[-0.485431944079123,44.82683254035277],[-0.485183185932773,44.82678899054023],[-0.485131473601023,44.82678827273861],[-0.485070242932422,44.82678722322612],[-0.484225347452134,44.82679782327963],[-0.483291640625752,44.82682616677208],[-0.483221070144584,44.82682766264285],[-0.483151518092814,44.82682516118124],[-0.483024071379964,44.826810058959346],[-0.483022676889077,44.826793700855305],[-0.482993289236612,44.82653426622917],[-0.482967928695235,44.82630913110381],[-0.482934003443462,44.8260091947773],[-0.482921093795385,44.82589496721141],[-0.483728863254967,44.82581687137577],[-0.48373996426303,44.825799850336594],[-0.485186764050752,44.82563867070005],[-0.485184852320359,44.82565071680622],[-0.485663479337748,44.825598902844824],[-0.486527386998701,44.82550523320535],[-0.486584372357146,44.82549911559816],[-0.487711626070406,44.82537814026775],[-0.488954924829355,44.82524782439894],[-0.489089030912141,44.82573701507516],[-0.489211076134992,44.826182876744014],[-0.48921016939791,44.826278343054646],[-0.48921559550055,44.82629637668433],[-0.489949581145202,44.826149722336744],[-0.490203478411232,44.826589720985126],[-0.490221494139176,44.8266697218479],[-0.490363735915098,44.8273140237584],[-0.490138434737943,44.82747684396486],[-0.489671218490535,44.827484248753],[-0.489672809004166,44.827644343222154]]],[[[-0.480886327656882,44.823304371307714],[-0.480612094382535,44.82341950213667],[-0.480337733601328,44.82353463625918],[-0.480128100203471,44.823243459271126],[-0.480053986737438,44.82314070538298],[-0.479769185871213,44.823281489515374],[-0.47970446700356,44.823213857770455],[-0.47971582489408,44.82320710279928],[-0.479705590072133,44.82319724042868],[-0.479714323589276,44.82319309118072],[-0.479721984741899,44.8231879842652],[-0.479728447147441,44.823181923648654],[-0.479733474760231,44.8231751870994],[-0.47973658434313,44.82316815026362],[-0.479738143897918,44.823160621352166],[-0.479737934098751,44.823153147968874],[-0.479735828563952,44.82314573407998],[-0.479732217587451,44.823138547676955],[-0.479726881843324,44.823132136363284],[-0.479720189332895,44.82312630834954],[-0.479712288730764,44.82312141944997],[-0.479703059227532,44.82311756357575],[-0.479693391072135,44.82311480290802],[-0.479682910690113,44.82311323929058],[-0.479672376374722,44.82311284892584],[-0.479661804844103,44.823113901649386],[-0.479651811290285,44.82311610779463],[-0.47964213737516,44.823119385348924],[-0.479633948403718,44.82312414834273],[-0.479620282776466,44.82311205051005],[-0.479608172172555,44.8231189192133],[-0.479516498078463,44.823022934380084],[-0.479682750111318,44.8229532811813],[-0.479638064096335,44.822857443985136],[-0.479522376806021,44.822907306083124],[-0.478966226962878,44.8229849576773],[-0.478457102516914,44.82317378120822],[-0.478263006866598,44.82324574788322],[-0.478246541297828,44.82328862081422],[-0.478712623987646,44.82335754021616],[-0.479038609694088,44.823713920716216],[-0.478708538262065,44.82391713368899],[-0.478495624236463,44.82402060229367],[-0.478408525922578,44.82403937604112],[-0.478227382828406,44.8240567741013],[-0.478182694239184,44.82396904721828],[-0.477996972135874,44.824010650592065],[-0.47788927856801,44.824030160058285],[-0.477543036024635,44.824082745361984],[-0.477473823509238,44.824087709769664],[-0.477349882556948,44.82409637313713],[-0.477345596616275,44.82409668778932],[-0.477338404376113,44.82403779462829],[-0.477333170447492,44.823988032292995],[-0.477331026712539,44.8239472751659],[-0.477338116805174,44.823875677778766],[-0.477360182026357,44.82371871772211],[-0.477435209952202,44.823523417813156],[-0.477426673719466,44.82352053132916],[-0.477461184076599,44.82340914214105],[-0.477632572136441,44.82290909824133],[-0.47758356060013,44.82265541569142],[-0.477915265414408,44.82237230851191],[-0.477960781437913,44.82233438219918],[-0.478007990847308,44.822291085669306],[-0.478102714436849,44.82220123866469],[-0.478284237764558,44.822022423809955],[-0.478788589720791,44.821777155213105],[-0.478794987252914,44.8217659598472],[-0.478788921609698,44.82175389383972],[-0.478757389495328,44.821725233691076],[-0.478768700580891,44.821721814722785],[-0.478932585389231,44.82157311149585],[-0.479520237065212,44.821969403669705],[-0.479652353868548,44.822092777378934],[-0.479904507163432,44.82232845828992],[-0.479958258465254,44.82237850020346],[-0.480014853355131,44.822431516928255],[-0.480165395693661,44.822572245704784],[-0.480192013229391,44.822597184592006],[-0.480197049937812,44.822594683378725],[-0.480314050458828,44.822715196438374],[-0.480422388922389,44.8228266989226],[-0.480454987373737,44.822860281788785],[-0.480600121579683,44.8230097412387],[-0.4807468790645,44.823160861854504],[-0.480866444884344,44.8232839073819],[-0.480886327656882,44.823304371307714]]]]}}]}
