{"type": "FeatureCollection","name": "aoc_geojson","features": [{"type":"Feature","properties":{"dt":"Colmar","type_prod":"Vins","categorie":"Vin de sélection de grains nobles, Vin de vendanges tardives, Vin tranquille","type_denom":"appellation","signe":"AOC","id_app":1,"app":"Alsace ou Vin d'Alsace","id_denom":1,"denom":"Alsace","insee":"67517","cvi":"1B001D10, 1B001D11, 1B001D12, 1B001D13, 1B001D14, 1B001D20, 1B001D21, 1B001D22, 1B001D23, 1B001D24, 1B001S 1, 1B001S 2, 1B001S 3, 1B001S 4, 1B001S 5, 1B001S 7, 1B001S 8, 1B001S 9, 1B001S00, 1B001S06, 1B001S0A, 1R001S, 1S001S","nomcom":"WANGEN","insee2011":"67517","nomcom2011":"WANGEN","id_aire":1,"crinao":null,"grp_name1":null,"grp_name2":null},"geometry":{"type":"MultiPolygon","coordinates":[[[[7.447525328714971,48.61398598810718],[7.447466184875545,48.61399351483653],[7.447459458603249,48.61399430687082],[7.447439430500253,48.61399685752428],[7.447362929180779,48.6140063845381],[7.447263322731067,48.614019027628146],[7.447134252979457,48.614035114520874],[7.446965811698909,48.614056366916614],[7.446770074052102,48.6140809818626],[7.446604047530313,48.614101873188616],[7.44653576970655,48.61411064180266],[7.446448660361058,48.614134439157304],[7.446256681510355,48.61418729225103],[7.44616904540932,48.61421128926557],[7.446082086440977,48.614235260904515],[7.446035740715748,48.61424789438455],[7.445967583034341,48.61426287463298],[7.445856604715894,48.61428720322652],[7.445789236687361,48.61430188357615],[7.445735275498283,48.61431444116515],[7.445724308556732,48.61431809438863],[7.445677184475012,48.6143343605559],[7.44550036903363,48.614357815733335],[7.445367960122514,48.61439537762355],[7.445266189597162,48.61442413652199],[7.445122225766439,48.6144648327113],[7.444971371303994,48.6145075880577],[7.44480571519966,48.614556842421884],[7.444625936498971,48.614614192050595],[7.444565608934409,48.61463338358606],[7.444558598313205,48.61463562757166],[7.444483595120435,48.61465960176218],[7.444361240018138,48.61469876890596],[7.444141780987165,48.614768861889964],[7.444137944679126,48.61477008632841],[7.444022162871391,48.614806665105824],[7.443927826894777,48.614836586557246],[7.443925194314668,48.614837585834884],[7.443914137477105,48.6148417828003],[7.443825352684949,48.614876271749125],[7.443803030992267,48.61491260240415],[7.443786191934192,48.6149398990908],[7.443766394046968,48.61497235153351],[7.443765199839505,48.61497428810531],[7.443741563670126,48.61501273999392],[7.443737740673969,48.61501891906094],[7.44372184775977,48.61504455870888],[7.443721863020584,48.615044738325714],[7.443698398293477,48.61513318565897],[7.443686602629583,48.61525822549688],[7.443682336868092,48.61530397211499],[7.44368844132747,48.615337439033155],[7.443714244203425,48.6154780119663],[7.44387593236569,48.61567306070572],[7.444161241675419,48.61599890155448],[7.444350257058769,48.616162116875955],[7.444529744452056,48.616317129012174],[7.444889530268423,48.61657270581038],[7.444903689635631,48.616582627610626],[7.445537449731145,48.617022477474805],[7.446050740461291,48.617346191350926],[7.446148493469987,48.61728929285396],[7.446229687395066,48.61724220267314],[7.446233966381316,48.61723979041537],[7.446276304060591,48.617215144167396],[7.446412145698992,48.61713637067665],[7.446522044025701,48.6172207349337],[7.446567856733926,48.617256141132046],[7.446592879855442,48.617275566976694],[7.4466586922023,48.61732085664974],[7.446702567512179,48.617298315017855],[7.446743840678978,48.61727713193958],[7.446906418853637,48.61736258996662],[7.447008039939565,48.61730644708003],[7.447014665366738,48.617302865960845],[7.447035165439994,48.617291468628686],[7.447063065444842,48.61727601075141],[7.44708967965845,48.61726141177235],[7.447129161239642,48.617239935150025],[7.447146675729898,48.61723018099072],[7.447154211106548,48.61722611538007],[7.447157452266739,48.61722428244398],[7.4471714928703,48.617216820383874],[7.447396677267044,48.617370570747056],[7.447485651969149,48.6173239095515],[7.447553674387481,48.61728812205611],[7.447396825655366,48.61719335124358],[7.447252290580708,48.6171059580616],[7.447363275287382,48.617040095064375],[7.447392512268184,48.61702278524657],[7.447480471082286,48.616970576197104],[7.44748046344515,48.61697048638906],[7.44729291852,48.61681992389114],[7.447292783070828,48.616819928954634],[7.447279478918464,48.61682646257],[7.447211605572678,48.61676971829557],[7.44713990524177,48.61670951330282],[7.447274711710741,48.61662338972214],[7.447341859155492,48.616580517615546],[7.44735101015422,48.61657467981067],[7.447363003554534,48.616567114061155],[7.447501418551213,48.6164786930397],[7.447522690679381,48.61646519458404],[7.447566558386657,48.6164313911621],[7.447806848509929,48.61661899178576],[7.44795530685725,48.6165767731185],[7.448027741758529,48.6165561362195],[7.448149133524406,48.61652159622279],[7.448169030668184,48.61651589710978],[7.44823868209484,48.61649608489989],[7.448254607433047,48.616491615405714],[7.448456035162541,48.616342095992366],[7.448471506769398,48.616341877834635],[7.448579107857953,48.61634010657492],[7.44858584673329,48.616349044134346],[7.448586155823658,48.616349483044495],[7.448684794995912,48.616478772726204],[7.448973338556928,48.61657546406825],[7.449212089627287,48.61665545765541],[7.449378757087958,48.61671228988758],[7.449504213765746,48.61674949123577],[7.450341646304913,48.61698907881621],[7.450396386809441,48.617001626228394],[7.450619384119466,48.61705292598299],[7.451559471959917,48.61726920460904],[7.451607309395133,48.6172852531627],[7.451606821105111,48.61728590209054],[7.451554458130887,48.617358765255275],[7.451550775352148,48.617379354347584],[7.451550319782212,48.617381984113955],[7.451780883672546,48.61751894812592],[7.452059973591919,48.61768481774997],[7.452509625679689,48.61804413145575],[7.452524657603438,48.61803555052256],[7.452537757142964,48.61802821312849],[7.452429630009247,48.61781954841437],[7.452282428105342,48.61753495536794],[7.45227854272016,48.61752762298945],[7.452261513354689,48.61740420111128],[7.452193043865371,48.61691115731003],[7.452150651548529,48.61666696773882],[7.452218321558632,48.61662389299274],[7.452277762306234,48.616645363123936],[7.45240407501245,48.616690998278955],[7.452404210460795,48.616690993209644],[7.452512525263824,48.616536392452076],[7.452413911693271,48.61651764985251],[7.452573126121366,48.61632889037629],[7.452611255839083,48.61628358751536],[7.452625824132658,48.61626637487269],[7.452517910128638,48.61621978107191],[7.452510729256819,48.61621842814238],[7.452531777720658,48.61610655453053],[7.452547391701939,48.61602182239252],[7.452548773517234,48.616014112688724],[7.452621177785073,48.61590536214651],[7.452639014191616,48.6158786574],[7.452715886722413,48.61576334286008],[7.452719946840198,48.615755172528225],[7.452725170266612,48.61574470630459],[7.452730715922885,48.61573323698588],[7.45277632303403,48.61564170621875],[7.452815033245361,48.61540213884452],[7.452803533531073,48.61540112778012],[7.452743894047996,48.61540444122437],[7.452725233223526,48.61540550007209],[7.452695592603108,48.61541165477384],[7.452636973275079,48.6154237591916],[7.452552261008476,48.61545017410656],[7.452532666219459,48.61545622304931],[7.452407727567358,48.615501711771834],[7.452360027693691,48.615525570049286],[7.452348500582744,48.61553221795319],[7.452312896830818,48.615552920674325],[7.452245998272327,48.61560344449341],[7.452228630403991,48.61562607741991],[7.4522236199344,48.61563266160949],[7.452158401924879,48.61562311990408],[7.452148109797627,48.61557404350501],[7.452137248647384,48.61552147473501],[7.452168002224901,48.615446987301915],[7.452212764126503,48.615398192931636],[7.452286474975756,48.61536065797162],[7.452308196481557,48.615352457312],[7.452354806051191,48.61533494643233],[7.452354662961092,48.61533486169374],[7.452354926205517,48.61533476174739],[7.452248899507336,48.61530233196127],[7.452238013723138,48.61529895542308],[7.452231755868842,48.61530684761596],[7.452195742981906,48.615297203952025],[7.45205111156451,48.61525820042288],[7.452369198729216,48.61477618529589],[7.452402406243994,48.61479278104358],[7.452405395816164,48.61479438093786],[7.452471389291478,48.61482740799549],[7.45250197539657,48.6148419395746],[7.452595992659488,48.61488653084574],[7.452624312341069,48.614899976002924],[7.45273591236602,48.61495318874414],[7.452756438642633,48.61496287134843],[7.452767484954535,48.614968133804986],[7.452782913531023,48.61497539448695],[7.452789148315511,48.614978404500675],[7.452838423673156,48.61500178641496],[7.452839982370793,48.61500253891767],[7.452847346589658,48.61500604721688],[7.452935129639568,48.61504762820373],[7.452970392105948,48.615064417164106],[7.453099016242009,48.615124470141645],[7.453134685145492,48.61514124384199],[7.453169194051096,48.61515716001478],[7.453178109374353,48.615161330983575],[7.453193530418043,48.61516850180337],[7.453237813238862,48.615189097348306],[7.453250296007773,48.61519367533165],[7.453260685938522,48.61519761090553],[7.453302207442814,48.61521290415289],[7.453331532368801,48.615223788887015],[7.453360571124072,48.61523450413904],[7.453445865504983,48.61526599730624],[7.453502264255206,48.61528685993888],[7.453547302020956,48.615303553067854],[7.453579563155015,48.61531540895054],[7.453600184729025,48.61532301568651],[7.453700213485395,48.61535999336845],[7.453799677660371,48.61539672182554],[7.453844301632927,48.61541334024563],[7.453860006811209,48.61541905884086],[7.453910089077708,48.61543754504636],[7.453917106060004,48.6154401653428],[7.453923136688398,48.615442372097384],[7.453947703782058,48.61545163293807],[7.453952190982011,48.61545326681869],[7.453959478858518,48.61545587697046],[7.454029053445058,48.61548147151696],[7.454083901577602,48.61550167119132],[7.454154613385754,48.61552785374779],[7.454208505850364,48.615547999055366],[7.454226025436263,48.615554280327984],[7.454230234114728,48.615555834533026],[7.454234164254457,48.61555730907299],[7.454254379683087,48.61556493090831],[7.454273028733794,48.615571710448876],[7.454276258703793,48.615572940921474],[7.454309835421094,48.615589071873536],[7.454337034116566,48.61560210814891],[7.454341281045691,48.615604111388485],[7.454451800752778,48.61565736306287],[7.454460731561221,48.61566171354932],[7.454462147207417,48.61566238129435],[7.454576786311299,48.615717730964455],[7.454629068155798,48.61574289157736],[7.454729844919235,48.615791822945255],[7.454673892077001,48.61583842464707],[7.454596975039538,48.61590211835673],[7.454834713213052,48.616029167968314],[7.455075026777174,48.61609710905299],[7.455375762051533,48.616182066943644],[7.455756839428624,48.616289781868986],[7.45601906571235,48.61615238666289],[7.45621673006385,48.61605623982938],[7.456321897717128,48.616005181079366],[7.456374469988477,48.61597951695742],[7.456688388932678,48.615830093142144],[7.457125255790598,48.61572029831852],[7.457844805176717,48.615539455971756],[7.457639582046729,48.61546236732844],[7.457639438947731,48.61546228259619],[7.457501137301664,48.61541151626674],[7.457343772561118,48.615353896133925],[7.457257384484135,48.61532235655194],[7.457248448168916,48.61531953807694],[7.457215774535403,48.61530923021548],[7.45710127382181,48.615273067896176],[7.457025454586833,48.61524915056576],[7.456944350788749,48.615223809480604],[7.456795505735481,48.61517686096657],[7.456688438971282,48.61514501456878],[7.456411550212447,48.615062410143665],[7.456304291064812,48.615037868257104],[7.456175413096966,48.61500837006883],[7.456153658736681,48.6150034189338],[7.45612774925216,48.61499754230968],[7.4560915797475,48.61498925708297],[7.455925418413374,48.61495115474215],[7.455838528978862,48.614931255113675],[7.455749291166192,48.61491090281849],[7.455618193174397,48.61488085654025],[7.455597967050301,48.61487629853894],[7.455558892197949,48.614867401219996],[7.455540600543852,48.61486322122667],[7.455499862138569,48.614853935724405],[7.455393153268719,48.61482946252936],[7.455355941827171,48.61481851328359],[7.455249569187406,48.614786819834826],[7.455144167727799,48.614755360206374],[7.455097312475463,48.61474125837544],[7.455040731444853,48.61472463774096],[7.45496404999077,48.61470174247844],[7.454936444377732,48.61469349657944],[7.454901732296917,48.61468317435289],[7.454864362670828,48.614671960601164],[7.454806253670924,48.61465494660884],[7.454644731837448,48.61460747919883],[7.45456068869132,48.61458269709657],[7.454500200875962,48.61456487109602],[7.454436521434801,48.6145462636341],[7.454373368511936,48.61452745623611],[7.454268021639852,48.614496624479926],[7.454165030950608,48.61446633507201],[7.454109843177563,48.6144501123173],[7.454054233815599,48.61443372513476],[7.454002531592339,48.614418543051585],[7.453895363226525,48.614387058425166],[7.453826404186141,48.6143702700153],[7.453743436688598,48.614350131983784],[7.453702088405895,48.614340057875445],[7.453659633660132,48.61432975489507],[7.453514926323694,48.61429463006202],[7.453368277112914,48.61425903719069],[7.453304730639537,48.61424357746454],[7.453296819281804,48.614241621276825],[7.45324878863779,48.61423125660888],[7.453140247074901,48.61420757082937],[7.453010810417811,48.61417944166516],[7.452934116462397,48.61416276210991],[7.45288482875697,48.61415199388425],[7.452834012983502,48.61414083236642],[7.452756762082741,48.61412399335981],[7.452662492566923,48.61410355689362],[7.452472975084189,48.61406235999035],[7.452365540689565,48.61403890237008],[7.452209767053398,48.614004640662046],[7.452111327699833,48.61398309851886],[7.452011024985716,48.61396360810234],[7.451815327210865,48.61393120041737],[7.451753369629,48.61392162663723],[7.451658514190094,48.613907067441],[7.451541307653102,48.613896497863074],[7.451383815208022,48.613881939924845],[7.450976759444013,48.613843835436896],[7.450819152248654,48.6138391013023],[7.450647911380774,48.61383541760736],[7.45031552877717,48.61382857260652],[7.450199702895895,48.61382623871715],[7.449648453761978,48.61386758107999],[7.449602016841314,48.61387274161227],[7.448803743828948,48.6139587264733],[7.448664537433982,48.61397384272858],[7.447663261933151,48.613981461771736],[7.44758912742399,48.61398207125235],[7.447532318232049,48.61398509613335],[7.447525328714971,48.61398598810718]]],[[[7.453596640031751,48.614261749736315],[7.453601216677288,48.614262839714016],[7.453656392027875,48.61427572967527],[7.45372738251942,48.61429244212263],[7.453761187473908,48.61430009581405],[7.453772275204885,48.61430265380354],[7.453828669618106,48.614315498046736],[7.453861646654421,48.61432300251944],[7.453864559767359,48.614323704299444],[7.453893667957776,48.614330452672185],[7.453896182393026,48.61433125947226],[7.453971590322992,48.61435357241453],[7.453980097026775,48.61435613692754],[7.453985110606653,48.61435757090832],[7.454089388790738,48.61438862310376],[7.454160483451775,48.614409746016314],[7.454239098561165,48.61443301984115],[7.454313942068853,48.61445508342698],[7.454380542132395,48.614474482530916],[7.454456627687407,48.614496769805605],[7.454513065195,48.61451330598467],[7.454532163888238,48.61451898751045],[7.45469396388108,48.61456653474052],[7.454747043825341,48.61458193522513],[7.454771148543283,48.61458896085272],[7.454841385198538,48.614609574940836],[7.454889045271138,48.614623556633425],[7.454900713144371,48.6146265432673],[7.454910860550312,48.61462922646288],[7.454962101118669,48.6146421731002],[7.455003894459362,48.61465268059038],[7.45509028184664,48.61467467177184],[7.455159167450088,48.61469218297979],[7.455164308887367,48.61469352203038],[7.455210423441587,48.61470530912502],[7.455264991291228,48.61471903196817],[7.455323195441315,48.61473397001335],[7.455343618131896,48.61473924145083],[7.4553459742152,48.61473978386957],[7.455418751850837,48.61475832039204],[7.45549305001428,48.61477716029945],[7.455511658424272,48.61478186900081],[7.455528881803962,48.61478626919715],[7.455567912955813,48.614796249291615],[7.45562498017727,48.61481059911786],[7.455673315585556,48.61482293351823],[7.455752198324321,48.614842952967976],[7.455774006137327,48.61484853283063],[7.455828040161969,48.614862365514405],[7.455832767652055,48.614863629947905],[7.455935408126183,48.614889786751625],[7.455995396375585,48.61490492793583],[7.456012198203311,48.61490916366674],[7.456037754861525,48.614915684190265],[7.456062054277585,48.614921801331334],[7.456081633848902,48.61492674385169],[7.456113024530048,48.61493475761725],[7.456176084459881,48.614950864783836],[7.456248734891178,48.614969495677094],[7.456266236933507,48.614973975426366],[7.45634582030057,48.61499423853476],[7.456361237141148,48.614998165723556],[7.456432781198352,48.61501656767143],[7.456491918813355,48.61503129000926],[7.456504550279184,48.61503442058249],[7.456543287957432,48.61504414108038],[7.456579375695025,48.61505305989675],[7.456600611298835,48.61505830067291],[7.456643925791942,48.615069110999386],[7.456777761291794,48.61510256730236],[7.45683187698975,48.615120540825025],[7.456988443821275,48.61517359668324],[7.457012776395065,48.61518169446989],[7.457138346613045,48.61522338834967],[7.4573121760237,48.61528129277478],[7.457342667243195,48.6152915021938],[7.457380288094635,48.615304057200056],[7.457469646008875,48.6153337736239],[7.457536199440857,48.61535578551711],[7.457584029305455,48.615371741887806],[7.457586679292008,48.61537254353406],[7.457603445459557,48.615377951611656],[7.457743038633448,48.61542155197623],[7.457779755151973,48.61543305961728],[7.4577821266009,48.61543378160252],[7.45778813442768,48.615435718738894],[7.457923912952374,48.615495138258645],[7.457923920607208,48.61549522806613],[7.458023137243337,48.61551466427582],[7.458033231396246,48.615516718551085],[7.458073735805494,48.615524840760344],[7.458219229897569,48.615553173699745],[7.458384641616493,48.61558562510447],[7.458509827530963,48.61561003388689],[7.458526410128683,48.615613286455094],[7.458648018647579,48.61563557681267],[7.45879306928989,48.61565870021806],[7.45879775098534,48.61565942568856],[7.458801055261247,48.61565993250248],[7.458886606061044,48.61567366370672],[7.458958382695214,48.615685208304384],[7.459004627294822,48.61569212401362],[7.45902499475612,48.61569514455392],[7.459137309696426,48.615712016731365],[7.459237641892051,48.615726995517335],[7.459249760154314,48.61572888372555],[7.459417759945066,48.615755020208645],[7.459620176875098,48.61576887473138],[7.459649836520253,48.615770916164365],[7.459680451942464,48.61577301185418],[7.459732666826557,48.61577664026153],[7.459828193117442,48.615783059566304],[7.460161294819803,48.6157885902337],[7.460163334157407,48.61578860386904],[7.460247843919085,48.615790120299465],[7.460320094682117,48.615791285452715],[7.460441741847105,48.61579330131442],[7.460443510294477,48.61579332510188],[7.460546253986927,48.615795148687],[7.46066013483389,48.61579691495997],[7.460870784493402,48.61580054828284],[7.460975979112184,48.615800838081135],[7.461322730688455,48.615800718263415],[7.46137368350505,48.61580069941059],[7.461445142168103,48.6158005421703],[7.461658299148391,48.615800115910666],[7.461758180764577,48.615800243902484],[7.461828277313003,48.615800047424536],[7.461894295183919,48.61579982369402],[7.461946865679038,48.615799653827544],[7.461959086126503,48.6158043308632],[7.461966532881588,48.61580720486562],[7.462045252408054,48.61584596606917],[7.462126517336181,48.61588589307343],[7.462146202880153,48.615885695262065],[7.462160861622967,48.615885505808116],[7.46232125680298,48.61588300314331],[7.46255615701185,48.615879417233394],[7.4625828933681,48.615879044952436],[7.46269132102391,48.61587741007036],[7.462875329602204,48.615874561404645],[7.462965717874489,48.61586216099873],[7.463018646445683,48.61585503994109],[7.463276253607838,48.61581978835367],[7.46372647113478,48.61575829921636],[7.463855808396993,48.61574056258907],[7.463875016033136,48.61573794986544],[7.463925386235263,48.61573110458292],[7.463929817585992,48.61573048782791],[7.464026923937532,48.615717203844554],[7.464069964756432,48.61571045334283],[7.46437583229407,48.61566275715367],[7.464532459911461,48.61563840975037],[7.464641216723533,48.615621534705056],[7.464674482390532,48.61561488055503],[7.464700932384814,48.615609563328256],[7.464703370392872,48.615604696806244],[7.464728514561665,48.615553840630184],[7.46472956489619,48.61555181912546],[7.464809134527945,48.615512975068675],[7.464958365906213,48.615546835615824],[7.465219574312133,48.6156063143676],[7.465251559679126,48.61561331242335],[7.465291464735986,48.61562235566659],[7.465400648517446,48.61564708769036],[7.465419104828878,48.61565477372299],[7.465421077727683,48.61565560061526],[7.465444315513909,48.61566517934464],[7.465688945288224,48.6157660022657],[7.465697452795335,48.61576856593869],[7.465706111084402,48.61577130414054],[7.465718960491278,48.61577379491689],[7.465733826233134,48.61577602981096],[7.465742065354071,48.615775450237294],[7.465750169030144,48.61577487574754],[7.465761168137474,48.61577320152181],[7.465771362244414,48.61577164760909],[7.465775492014123,48.615770681726616],[7.465783097334834,48.61576904480473],[7.46579992813818,48.61576246672564],[7.46580111646644,48.61576206173694],[7.465815123346663,48.61575423824222],[7.465903649445615,48.615702534036075],[7.465970880251675,48.61566559390733],[7.466057193040163,48.61561820712001],[7.466122749690183,48.615579167469384],[7.46612804982554,48.61557599535874],[7.466128177600753,48.61557590046689],[7.466259443444835,48.61548051709357],[7.466316469141828,48.61543386925413],[7.466393792758263,48.61536555728584],[7.466402765024839,48.61535765245163],[7.466428299301656,48.61533525117974],[7.466461340638777,48.6152782418886],[7.466503619646366,48.61520529932715],[7.466499867423074,48.61518363724031],[7.46649959392903,48.615182025800536],[7.466498970246031,48.615177904851514],[7.466497822583738,48.61517083044377],[7.466496766955638,48.61516483371939],[7.466491447863742,48.61513277945163],[7.466484684933461,48.61502176615127],[7.466484280907357,48.61501385296786],[7.466480933661447,48.61494920039417],[7.466476622684701,48.61487485374907],[7.466474129519405,48.614826566379115],[7.466468222877284,48.61471921479499],[7.466467609024796,48.614702480183574],[7.466466964797585,48.61469493639659],[7.466464835773353,48.61468591674378],[7.466464457518656,48.614684669616544],[7.46645880395138,48.614659835491054],[7.46644703421662,48.61460793223343],[7.466439750006815,48.61457514087962],[7.466431655615366,48.614539226620494],[7.466420182430371,48.614489204216895],[7.466419977965741,48.614488401039104],[7.466419970296482,48.614488311232094],[7.46641493016486,48.614465886633965],[7.466413792803964,48.614460523639686],[7.466412463712256,48.61445291547013],[7.466413505997827,48.61444125408715],[7.46641663531044,48.61440311652155],[7.46641689331276,48.61439977332106],[7.466417158984296,48.61439651992758],[7.466421368478662,48.61433284492857],[7.466425736116384,48.61425988420588],[7.466429015597445,48.61420282105029],[7.466431434399611,48.61416272806322],[7.466435261434391,48.6141279878998],[7.466440557458978,48.61408021890199],[7.466441707100166,48.61406981481368],[7.466445217374887,48.61403932100451],[7.466448558922278,48.614006851439584],[7.466448423482237,48.61400685652487],[7.466448415812999,48.61400676671782],[7.465538163946856,48.61388228272369],[7.465406043418425,48.61386417799758],[7.465416584552072,48.61384918692698],[7.465371518729921,48.61383538226304],[7.465334410678953,48.613824071813866],[7.465298416830159,48.613813079909676],[7.465244987011615,48.61379679621496],[7.465137434942622,48.613764074557686],[7.465093212571878,48.61375059851327],[7.465041032503294,48.61373462820107],[7.464971551976532,48.61371336096223],[7.464947701838748,48.613706147612845],[7.464889672408345,48.61368850479368],[7.464834985557961,48.61367181762917],[7.464818377628371,48.6136666749002],[7.46480944885514,48.61366394679592],[7.464764255579523,48.61365023679067],[7.464660406709282,48.61370864186721],[7.464618139299311,48.613732391566344],[7.464576866305506,48.61367069396823],[7.464524829916513,48.61359273275624],[7.46446216566782,48.61349850283012],[7.464414435504359,48.613426416317054],[7.46438759852579,48.61338579965237],[7.46435972386896,48.61336963764474],[7.464341708080002,48.61335914199506],[7.464320687113518,48.61334686713113],[7.464240467147847,48.61330005519746],[7.464159825680279,48.61325307884153],[7.463974501882371,48.613144892198875],[7.463880835517561,48.613117234273496],[7.463852815357262,48.613108915870534],[7.463830825982323,48.613102803718014],[7.463768057269895,48.61308533822442],[7.463749788576518,48.61308142890776],[7.463648328257337,48.6130595590577],[7.463575118134104,48.613043926782346],[7.463572491166221,48.6130433946897],[7.463472400700575,48.61302165348345],[7.463276520722302,48.612980802393864],[7.463271498935452,48.612993604094356],[7.463237672734057,48.613079652523005],[7.463200568185256,48.61306996301519],[7.463169568524244,48.613061756246246],[7.463059233712972,48.61303301128305],[7.462966965721997,48.61300899408544],[7.462899357469637,48.61299053848373],[7.462786551934333,48.612959903885894],[7.462719651647927,48.6129417820052],[7.462455084225619,48.61286981097906],[7.462405987552143,48.61285651683372],[7.462370516226675,48.612846855904536],[7.462370523888749,48.612846945711915],[7.462370388451313,48.61284695079257],[7.462525548268803,48.61243921710777],[7.462482349457904,48.612434531043554],[7.462482214021547,48.61243453612434],[7.4624823417957,48.61243444123615],[7.46239354261339,48.61241443786534],[7.462338676255941,48.61240199080842],[7.462308612333525,48.612395190245905],[7.462273286913497,48.61238723562518],[7.46222244786652,48.61237580867513],[7.462051816590739,48.61280925869345],[7.46199038108744,48.612965084658136],[7.461922440806707,48.61295069523549],[7.461908598241293,48.61294770076014],[7.461846461307206,48.61293444503958],[7.461809653440039,48.6129266359729],[7.461796089423915,48.61292372113179],[7.461744618737903,48.6129128582273],[7.461636257467969,48.6128897139306],[7.461616340768357,48.612885595821524],[7.461592125916606,48.61288046768535],[7.461519195193447,48.612864913791654],[7.461492902834049,48.612859322985855],[7.461488890878818,48.61285848241392],[7.461458709139802,48.612853487947596],[7.46139214374505,48.61284247026713],[7.461303254491469,48.61282778504793],[7.461274864115846,48.61282308373196],[7.461167918561605,48.612805381706686],[7.461071682734409,48.61278898975182],[7.461004402017548,48.612777548212534],[7.46097241372749,48.61277208080603],[7.460947876935042,48.6127679556579],[7.46085550242607,48.61275222958209],[7.460769066666363,48.61273763215725],[7.460674343876019,48.612721453435675],[7.460664423891294,48.61271984333836],[7.460654767122604,48.61271813327532],[7.460569977274793,48.61270212256974],[7.46052232470222,48.61269300797035],[7.460513488225264,48.61269135723199],[7.460511004402258,48.612690909800634],[7.460494100542331,48.61268866061924],[7.460447213572796,48.61278411722911],[7.460405180017044,48.6128695715006],[7.460387002746181,48.612906561238326],[7.460379823331826,48.61292115549308],[7.460374640010545,48.612932071114315],[7.460358393485548,48.612982142271534],[7.460337855221287,48.613045618261495],[7.460248074306247,48.61332161104244],[7.460235689174842,48.613367573212],[7.460186276869239,48.61348600834692],[7.460120817778486,48.61364252444996],[7.460101719324626,48.613687837345076],[7.460098554989925,48.61369534374371],[7.460091101667608,48.61371310154532],[7.460073135472724,48.61375575923607],[7.460067939096979,48.613768116833974],[7.460056173778847,48.613795856611354],[7.460035147981587,48.613845656382075],[7.460025010756089,48.61387018180149],[7.460015734956643,48.61389206217934],[7.459991020677371,48.61395118987212],[7.459970669553416,48.61399934262322],[7.460629701713989,48.614246808268824],[7.460678330887858,48.61426894996428],[7.460752411873212,48.61430275049068],[7.460841176317785,48.61434302773983],[7.460937998100207,48.61438696694181],[7.461223200935831,48.61450645830549],[7.461364255525534,48.614565586046375],[7.461325904816636,48.6146081975539],[7.46124157327857,48.61456892563067],[7.461062801529204,48.61448337294007],[7.460973265112094,48.61444042195621],[7.460906546029781,48.614408507761965],[7.460882517527317,48.61439760642148],[7.460863014657755,48.61438878773454],[7.460825130768789,48.61437155875666],[7.460774234799691,48.61434833088843],[7.460744837451755,48.6143350181011],[7.460722073946205,48.614324609862685],[7.460680658587243,48.61430580146687],[7.460660591042411,48.61429673363886],[7.460636276441182,48.61428566279029],[7.460603347605393,48.61427077059369],[7.460520746469689,48.614240622953346],[7.460481045635822,48.61422598464942],[7.460270789479563,48.61414881893918],[7.460161949914007,48.61410893359471],[7.460053102856,48.614068958341996],[7.459963899238454,48.614036264945945],[7.459954367627375,48.614032838330466],[7.459949029426997,48.614030786104195],[7.459908730523454,48.61399319592601],[7.460137183030876,48.61346955985469],[7.460167156914493,48.613400414575345],[7.460172263741573,48.61338860089247],[7.460193853955791,48.613339050188564],[7.460205335316634,48.613312762541604],[7.460286254463452,48.61306349981015],[7.460331855365983,48.612922683810964],[7.460332335848588,48.61292194503753],[7.460369814664744,48.61284999560004],[7.460385458923131,48.61281994803777],[7.460396661137872,48.61279835574415],[7.460418030412218,48.612757372239024],[7.460442896024287,48.612709590618174],[7.460446865214777,48.61270196392597],[7.460460873662632,48.612675040904534],[7.460466499124929,48.61266293746546],[7.460472124584626,48.61265083402601],[7.460481042036463,48.6126311292849],[7.460489420155169,48.612613066470864],[7.460507300979273,48.612574195829],[7.460508215980091,48.61257217943507],[7.460566734780353,48.61244583458543],[7.46060436394711,48.61233901271968],[7.460609383897957,48.6123245895104],[7.460664064236433,48.612162801076316],[7.460723554526175,48.61198731799551],[7.460880320702196,48.611525018949656],[7.460908612245126,48.6114744058234],[7.460887749602942,48.61141617609531],[7.460586064284875,48.61136289138636],[7.460538234354855,48.61135008959249],[7.460478232757419,48.61134432111608],[7.460448092700652,48.61134139704119],[7.460321489182319,48.611328936227984],[7.460285050268328,48.61132543744612],[7.460204902571668,48.61131763130194],[7.460082686651559,48.61130563638568],[7.460064053251145,48.611303812386026],[7.460029661192438,48.611300416970664],[7.459970648437662,48.611296683346296],[7.459925572446346,48.611293868672284],[7.459910409130788,48.61129290558578],[7.459881038194483,48.611291033669865],[7.459720126676991,48.61128093967254],[7.459686383591512,48.61127878115484],[7.459627634095735,48.611274947397504],[7.459510444281919,48.61126771867951],[7.459438458211243,48.611263209836714],[7.459356152846806,48.611266745861144],[7.459274539952609,48.6112704360584],[7.459229471168913,48.61127248596826],[7.459186561664139,48.61127436482073],[7.459124435885223,48.611277144204344],[7.459098041627685,48.61127831382583],[7.458977040453806,48.61128375062504],[7.458926689731482,48.611285998415426],[7.45889055189178,48.61128762332382],[7.45865003920448,48.61129844053681],[7.458452149801134,48.61130720922838],[7.45804542892016,48.611323894375694],[7.457899612503276,48.61132989970693],[7.457854114350397,48.611331694899505],[7.457796856401538,48.61133420106359],[7.457762208267217,48.61133576979943],[7.45770142902587,48.61133840787849],[7.457597341512081,48.611343029239855],[7.457565800694681,48.61134439138036],[7.457517887665928,48.61134654722139],[7.45747734164532,48.61134905764289],[7.457416781995184,48.61135267838748],[7.457358253847659,48.61135622297689],[7.457300139647611,48.61135984212065],[7.457230528847399,48.611364072211515],[7.457215797142601,48.61136498459671],[7.457182270708171,48.61136696160454],[7.457120499762646,48.61137071767906],[7.457062784179746,48.611374231675036],[7.45695546373572,48.61138077549753],[7.456942763534006,48.6113816117314],[7.45688733500342,48.61138485976031],[7.456836255665048,48.611388124999486],[7.456794483019388,48.61139059104983],[7.456750701813164,48.61139340262315],[7.456728935164239,48.611394668617734],[7.456627430657457,48.61140090414398],[7.456575523377786,48.6114040201003],[7.456511457614059,48.6114079519258],[7.456224233556078,48.61142546941268],[7.456175298132902,48.61142838376582],[7.456102308942197,48.6114328298451],[7.45603243473038,48.61143715919029],[7.455983642370937,48.61144015819908],[7.455951470186092,48.61144208412628],[7.455856586481432,48.61144789078458],[7.455782792280243,48.61145245691537],[7.455670325005127,48.61145919235946],[7.455608960145881,48.61146293243048],[7.455404867100248,48.61147544206824],[7.455351334459022,48.611478618363584],[7.455273875786679,48.61148323133317],[7.45520780803186,48.61149237281649],[7.455103176483077,48.61150656236479],[7.455060603209429,48.61151239128013],[7.45488290700195,48.61153652460496],[7.454630400600418,48.61157084696622],[7.454621538383912,48.61157207978824],[7.454620327118502,48.61157221524284],[7.454580574925219,48.611577668053506],[7.454580582573746,48.611577757861504],[7.454580447138838,48.6115777629333],[7.454554744633008,48.61176413971642],[7.454547136897061,48.611818391148915],[7.454546177090406,48.6118262653032],[7.454542883713358,48.611849813173],[7.45454289901036,48.61184999278891],[7.454538928816028,48.61188473770667],[7.454523936869715,48.61188259628771],[7.454506604275546,48.6118800920462],[7.454348089031011,48.61185665715882],[7.454338457169778,48.61187278434866],[7.454295596988785,48.61194385203749],[7.454171767837371,48.61214903884015],[7.454110468898651,48.61225088836018],[7.454012719935299,48.61241293421578],[7.453807761473595,48.61274242504371],[7.453772615209039,48.612798788542015],[7.453695182635482,48.612923404971475],[7.453694614715153,48.6129263092503],[7.453693596807236,48.61293031150753],[7.453693732245728,48.612930306436745],[7.453693739892929,48.61293039624468],[7.453667490511167,48.61296678605143],[7.453656048423851,48.61298559366286],[7.453654614338785,48.61298789971023],[7.453312573835312,48.613601633303254],[7.453267921825313,48.61368520048982],[7.453242787109935,48.61373947716496],[7.453238082810039,48.6137496537238],[7.45321976139352,48.6137786291558],[7.45316075800508,48.61389471694439],[7.453105806630321,48.61400254452791],[7.453074933964624,48.61407082033682],[7.453065090520112,48.61409245102619],[7.453047226591297,48.61413158992547],[7.453047369679227,48.61413167466331],[7.453302434222811,48.6141926701551],[7.453330594175259,48.61419945415854],[7.453596640031751,48.614261749736315]]],[[[7.456467996736777,48.61604061094285],[7.456468139835463,48.61604069567646],[7.456468004389195,48.61604070075039],[7.456586951070983,48.61615453853684],[7.456620391994274,48.61619617061513],[7.456622073225079,48.61619835998776],[7.456623445299159,48.61620011047104],[7.456656781444881,48.61624210684167],[7.456668790366896,48.61625706306708],[7.456683098847144,48.61627508644109],[7.456704395527622,48.61630176734255],[7.456722058857363,48.61632407964614],[7.456743800183433,48.616351194354294],[7.456755666055288,48.616366065836374],[7.456801946542666,48.61642442484815],[7.456818079461751,48.616444722306255],[7.456842143416477,48.61647517356301],[7.456886878291487,48.61653133809326],[7.456890353284921,48.616535442332975],[7.456892320739371,48.61653780116732],[7.456910699732942,48.61656053710389],[7.456931513769694,48.61658633510711],[7.456944728883591,48.61660268762419],[7.456971920561989,48.61663635516282],[7.457004253242072,48.616676136681754],[7.457013518162839,48.61668759191068],[7.457038719501056,48.6167186311774],[7.457073970206216,48.61676235759264],[7.457096751876813,48.616790514393514],[7.457100099109353,48.6167947135083],[7.457199443415199,48.61691766389778],[7.457205361171567,48.61692491999797],[7.457215229205048,48.61693707336915],[7.457224788076782,48.616948787851875],[7.457307887172526,48.61705171523975],[7.457417274301625,48.617187262743705],[7.457496488384752,48.617298804423285],[7.457514864912844,48.61732469366049],[7.457608965615706,48.617457840651525],[7.457630298534199,48.61748812380588],[7.457668105506597,48.617534727380786],[7.457668233301922,48.61753463249816],[7.457668240956616,48.61753472230549],[7.457740309709459,48.61753850866105],[7.457737765731614,48.61752779268471],[7.457748823243397,48.61757143440295],[7.457792136631041,48.61762684103016],[7.457817295292277,48.6176589628714],[7.457834387132677,48.61768093605756],[7.457934585197656,48.61780907934167],[7.45801784250662,48.61791542391405],[7.458053079026757,48.617943023734455],[7.458054977687741,48.61794457428125],[7.458111768211931,48.617936499955],[7.458676996209925,48.617816394239355],[7.458473736663064,48.6178596891467],[7.458497493624273,48.6178849261358],[7.45849735817343,48.617884931212025],[7.45850819251677,48.61789885015435],[7.458535531342336,48.61793422363792],[7.458751309989834,48.61807920678785],[7.458765283343326,48.61808850335342],[7.458795701186472,48.61810898593688],[7.458849127767014,48.61815230093692],[7.459019895653863,48.61829050174463],[7.459057695981692,48.61832106839804],[7.459108493426839,48.618362229477825],[7.459124104760307,48.618374798095914],[7.459164399330664,48.618407523584985],[7.459186437689234,48.61842534704503],[7.459219288248121,48.61845204493896],[7.459266864348464,48.618482515395655],[7.459303239633488,48.61850592785537],[7.45950293884794,48.6186343945455],[7.459745508343488,48.61879071468465],[7.459712667971984,48.61881194665925],[7.459610573224841,48.61888154250687],[7.459620884914935,48.61888773284682],[7.459626330813195,48.61889104237923],[7.45960074354808,48.618911281678606],[7.459596669418401,48.61891449759987],[7.459670798895086,48.61895676592583],[7.459731197392808,48.61899098998235],[7.459739316487044,48.61899537052671],[7.459748588137777,48.61900051871325],[7.459613663983794,48.61910422955891],[7.459485497173264,48.619202731752964],[7.45969829502325,48.61933178830085],[7.459747468497877,48.61937301000479],[7.459750550458463,48.61937568739353],[7.459792256747987,48.619410612121094],[7.459795775711567,48.61941363350377],[7.459860893355425,48.61946813197584],[7.459873039837873,48.61947830775312],[7.459882840492262,48.619484877606716],[7.459882832833483,48.619484787799664],[7.459882975947111,48.619484872528915],[7.459897897449085,48.619473411771715],[7.459914675231669,48.61948053091749],[7.46008420131461,48.61955309821925],[7.460304092158595,48.61964738178046],[7.460343446723032,48.619664285566564],[7.46035575984475,48.61967004043602],[7.460375527847251,48.6196787592039],[7.460383156479808,48.61968216705983],[7.460409566641624,48.619693880190944],[7.460413098559724,48.61969545956414],[7.460427369349363,48.61970186178449],[7.460469783032824,48.61972117347746],[7.46047826270934,48.61972499989141],[7.460517678667594,48.61974262207485],[7.460619434951268,48.619788538959796],[7.460697423710249,48.61982345446255],[7.460723563102303,48.6198351776801],[7.460723698557978,48.61983517260135],[7.460739303429369,48.619842876179455],[7.460594444554666,48.61998146661496],[7.460733535164018,48.62007157129882],[7.460788767750626,48.62010733996348],[7.46079322735277,48.6201102359562],[7.460684713652288,48.62021611094622],[7.46071152491579,48.62023411557044],[7.460745854891728,48.62025742412281],[7.460823728071781,48.620310092442026],[7.460899717896829,48.62036138982358],[7.460963021565399,48.62040415341715],[7.460950006528461,48.62041725460339],[7.460927621248382,48.62043998682477],[7.461011148931273,48.62051911088543],[7.461020321039895,48.62052786648002],[7.461056421709263,48.62056237032575],[7.461070446980694,48.62057544864991],[7.461090848528215,48.620594774664895],[7.461099719104054,48.62060318118355],[7.461110209954657,48.62061305854763],[7.461121160809719,48.62062354932137],[7.461136226250822,48.62063766976542],[7.461144509043618,48.62064555775597],[7.461149091289214,48.62064989064433],[7.461161066975561,48.620661243928325],[7.461165950784066,48.620665925885035],[7.461180556247746,48.62067943291252],[7.461188537493388,48.62068697183074],[7.461256973368854,48.62069909101156],[7.461275326362814,48.620702366958575],[7.461338114667909,48.620742266679514],[7.461391578512075,48.620797111279906],[7.461535347833804,48.62071423903463],[7.461582859659829,48.62076462186029],[7.461615605058951,48.620799611750265],[7.461615740517033,48.6207996066705],[7.461712755438112,48.620729388908],[7.461720435203739,48.62073657872263],[7.461727700935568,48.62074369396955],[7.461753032634827,48.62076824064254],[7.461781190914217,48.62079565441626],[7.461808142961681,48.62082167191321],[7.461835705829621,48.620848477344936],[7.461899702406553,48.62091049464442],[7.461983431537005,48.62099195296967],[7.462006948875905,48.62101593697828],[7.462007989037901,48.62101697909852],[7.462107645302488,48.62111946261864],[7.46212068272239,48.621116180735896],[7.462181092898843,48.62110112168358],[7.462181085235887,48.6211010318768],[7.462172581192052,48.62106666455865],[7.462269018386611,48.62067753449498],[7.462296529234417,48.620566767888114],[7.46229937723389,48.620549182787336],[7.462303754034483,48.62052244082771],[7.462303746371401,48.62052235102088],[7.462290581546346,48.62052095280931],[7.462261225859869,48.62051772931178],[7.462243657437063,48.6205156854094],[7.46223577792546,48.620515710656385],[7.46222462445007,48.62051558841335],[7.462247564345033,48.62048184363098],[7.462271240322919,48.620447170291854],[7.462330429924546,48.62022989529775],[7.46233489052518,48.62021369121439],[7.462365385540755,48.62011560599414],[7.462365234758257,48.62011543146104],[7.462384612836648,48.62005587307324],[7.4623874630386,48.6200446845722],[7.462400300427055,48.619994471025684],[7.462446864436995,48.61981397741778],[7.462459589246298,48.61976403835663],[7.462470302283224,48.61972237333234],[7.462495401550488,48.6196247606891],[7.462503062438788,48.61959510258842],[7.462528596116,48.61949621230839],[7.462542207024534,48.6194598442272],[7.462562629772169,48.619404571104916],[7.462624523870005,48.61923971925415],[7.462630175214827,48.61922473179575],[7.462630159887922,48.61922455218194],[7.46265786728131,48.619144770391294],[7.462657987408035,48.619144585696525],[7.462657995071522,48.619144675503435],[7.462670989838794,48.61910905125701],[7.462690977789215,48.619055055717325],[7.462794795370321,48.618747723455485],[7.462856190529613,48.61855793389988],[7.462858669838369,48.61855036305705],[7.462875754075563,48.61849737731691],[7.462856295147267,48.61849387283921],[7.462879636169084,48.61842821935372],[7.462891452357306,48.618394711434014],[7.462892344551523,48.61838765059886],[7.462894098284117,48.61837316970064],[7.462913482433969,48.61832325097215],[7.462899136006835,48.61836054768674],[7.46292591814404,48.618330442493416],[7.462936338436417,48.61830923977434],[7.463027986204333,48.61820804921539],[7.463123871072424,48.61810237507326],[7.463164515372926,48.6180579653098],[7.463195483500621,48.618024369500276],[7.463211538756376,48.61800709969024],[7.463278959483096,48.61793411641064],[7.463249636697056,48.617902602296034],[7.463152563033414,48.617798491110364],[7.463088875651108,48.61773051657536],[7.462978330121444,48.617673939986524],[7.462875034076222,48.617648173947224],[7.46284561920569,48.61756143527046],[7.462846296453615,48.61756140986459],[7.462842353447282,48.61755182757455],[7.46289257225642,48.61754318659891],[7.462939334022177,48.617513142703054],[7.462944532589759,48.61750240662542],[7.462947776221502,48.617487869821666],[7.462931278083949,48.61745695565909],[7.46291832179485,48.61743410722534],[7.462894104486278,48.61736528256208],[7.462860266267869,48.617269700359145],[7.462824350644363,48.61716888049759],[7.462815971199094,48.617156671700975],[7.462799059784945,48.61711135789777],[7.462799675902887,48.61710583901898],[7.462752197524288,48.61690932202001],[7.462728043501571,48.6168030156064],[7.462713693709357,48.61673994715942],[7.462698419002652,48.61667240867727],[7.462691281294829,48.61666997359609],[7.462654096691519,48.616496945426846],[7.462637345453111,48.616418470780275],[7.462641148110762,48.616420039929785],[7.462635723572786,48.61639627826272],[7.46267039331076,48.61638218427963],[7.462660374322827,48.616345981722965],[7.462678571098399,48.616321964615125],[7.462678706544793,48.616321959534126],[7.462745607613741,48.616234941139744],[7.462759201636315,48.61621271838272],[7.462820258307549,48.616112945550825],[7.462838378475033,48.61608325532193],[7.462858532980281,48.61605033546006],[7.462898597381757,48.615962521810374],[7.462905940113622,48.615946659978086],[7.462905804668218,48.61594666505935],[7.462905932450177,48.61594657017097],[7.462776965611564,48.615946363008824],[7.462646079549014,48.61594595741897],[7.46220060754113,48.6159532076109],[7.462098704083277,48.61595486761184],[7.462098568637775,48.61595487269218],[7.462079965866685,48.616018726738304],[7.462080101312355,48.616018721657994],[7.462050245650818,48.616046239189195],[7.462011314405502,48.616039050332326],[7.461997483617339,48.61603938890088],[7.461947840359997,48.61601494327069],[7.461942885230974,48.61601260647513],[7.461920925769959,48.61600207819213],[7.461629740290769,48.61593362597793],[7.461545307463906,48.615923458557596],[7.461345424270813,48.61591383678412],[7.460746874015439,48.61588510843447],[7.460609578653471,48.6158860220756],[7.460540588527311,48.615886446629574],[7.460467443124472,48.61588594581053],[7.460331484475485,48.61588500712206],[7.460264193868662,48.61588464703934],[7.460237953321922,48.615884459643055],[7.460133548236227,48.61588386930239],[7.460038376423539,48.61588320298918],[7.459814726119415,48.615881677267076],[7.459760512933753,48.615875330878495],[7.459686113585977,48.61586649780829],[7.459346820331593,48.61582660163841],[7.459288393137035,48.6158202328131],[7.459288257691609,48.61582023789025],[7.458675657725117,48.61573823952663],[7.458599789462197,48.61572810942996],[7.45856474562768,48.615723476605424],[7.458181062920771,48.615672897904716],[7.45797644555918,48.6156459696503],[7.457848230478304,48.61562906155929],[7.457650699734868,48.61567889783119],[7.457638994877917,48.61568185906428],[7.457296468819469,48.61576821027256],[7.457070250848997,48.61581785906537],[7.457049044088111,48.61582252764999],[7.456791692416524,48.6158974875934],[7.456672403092327,48.61595024704837],[7.456467996736777,48.61604061094285]]],[[[7.461634793404841,48.60934606629436],[7.461632462357441,48.609356965133614],[7.461519341605756,48.609843396606855],[7.461525548393633,48.609842893517545],[7.461524083800904,48.60984961548031],[7.461551489028612,48.60985074984055],[7.461618173801237,48.609853654290966],[7.46160553790184,48.60989665308157],[7.46162038531565,48.60991780906504],[7.461659365579143,48.609925626739496],[7.461644430708269,48.60995600837207],[7.461647282110915,48.60996076654794],[7.461427162115044,48.61040652390706],[7.461320228833938,48.610623068501305],[7.461265223962639,48.61061215781996],[7.461252639237982,48.61060956658606],[7.460856140346878,48.611241496377176],[7.460856283439549,48.611241581105844],[7.46085615566536,48.61124167599239],[7.460884173992394,48.611254770153074],[7.460905392811923,48.61126460560257],[7.46092095685901,48.6112718601733],[7.460996548945793,48.611307495800595],[7.461019055646075,48.611318093785854],[7.461070574768842,48.61134228917407],[7.4612201648858,48.61141398036809],[7.461252611644518,48.61142961120726],[7.461260977581443,48.61143371209371],[7.461304320039155,48.61145443006569],[7.461381254119464,48.611491456649325],[7.461427586333087,48.611513774248664],[7.461464972578114,48.611531562239215],[7.461473473982092,48.61153565803077],[7.461491463134965,48.611544263092085],[7.461514263886789,48.61155512024496],[7.461515551738143,48.611555882795635],[7.461551151962344,48.61157184575646],[7.46158547201562,48.61158713596408],[7.461607511367808,48.611597030614696],[7.461678780896322,48.61162976473713],[7.461758766743518,48.611664334158995],[7.461839325078382,48.61169924243598],[7.461881648528433,48.61171756587096],[7.461922196035958,48.611735775717584],[7.461993404659901,48.611767791188],[7.462076304008413,48.611803061975195],[7.46210704695981,48.61181623385054],[7.462167232191476,48.611843257033605],[7.462169325007008,48.61184389928698],[7.46218785883291,48.61184933049671],[7.462331241074477,48.61189440497196],[7.462383599889398,48.61191091025978],[7.462498053831001,48.61193860029623],[7.462664815916489,48.611979013311014],[7.4629785428141,48.61203003925738],[7.463130520883874,48.612046860877584],[7.463650810262034,48.612104730081434],[7.464084923021539,48.61215898389119],[7.464341887165289,48.61219123446344],[7.464764203136883,48.61223142328218],[7.46504693147587,48.612258290679485],[7.465047066911522,48.61225828559578],[7.465068823511847,48.612260081695844],[7.465262762452721,48.61227820862885],[7.465572154293151,48.612307047044595],[7.46583073237383,48.612331125317226],[7.466234753911648,48.61236866229896],[7.466276935934825,48.61237257433333],[7.46629693195901,48.61237443631512],[7.466335968291978,48.61237810605765],[7.466434164775178,48.612387212570596],[7.466512651461573,48.61239462650385],[7.466551401614615,48.61239812673211],[7.466597286469339,48.61240244018964],[7.466646038493163,48.612406916255075],[7.466647272754789,48.612407050099684],[7.466674531270495,48.612409630363814],[7.466691794738532,48.61238744939223],[7.466803584429327,48.612422082676],[7.466905284641497,48.612434030378736],[7.466956944856626,48.61244073958573],[7.46705628399326,48.61245367677621],[7.467146832552403,48.61246550247994],[7.467180219052536,48.61246983459655],[7.467237930566841,48.61247739757703],[7.467281628192006,48.61248314434236],[7.467321825897625,48.61245586751126],[7.46730923767233,48.6125025590784],[7.46730938077889,48.61250264379923],[7.46741724516077,48.6125199454802],[7.467504198507412,48.61253262670086],[7.467706382387053,48.61258521680886],[7.46775779023966,48.61259851210358],[7.467839490372881,48.612619679146334],[7.467952039949061,48.61264887714041],[7.468168399833856,48.61270516851461],[7.468205911352984,48.61271484121555],[7.46825051428129,48.61272640981878],[7.468284269304693,48.612735052361806],[7.468290517394615,48.61273661956983],[7.468317595012689,48.612743440736416],[7.46843314774529,48.61277279577058],[7.468955229586602,48.61290553416149],[7.469084679721218,48.61293851086444],[7.469156345524496,48.61295672049718],[7.469246628055903,48.612979726455514],[7.469246763493015,48.61297972136704],[7.469377449285986,48.61293652084543],[7.469397918129769,48.6129645822743],[7.469411312728739,48.6129829990159],[7.469411448165843,48.61298299392723],[7.469411455840014,48.61298308373415],[7.469429109129796,48.61298773608137],[7.469481782795089,48.61300152367084],[7.469700238738134,48.613058454369686],[7.469979216774432,48.61312878705016],[7.470049211847931,48.613146518373114],[7.470103511086188,48.61316024461312],[7.470113094210649,48.613162677453715],[7.470167265720377,48.61317649856079],[7.470198460665626,48.61318379525956],[7.470258494413792,48.61319784650814],[7.470274724394227,48.61320174136372],[7.470306333358031,48.61320911257202],[7.47051044897679,48.61325721082972],[7.470650352698265,48.61329006331808],[7.470694171997806,48.613300399155385],[7.470767658220459,48.61331763848311],[7.470846135405216,48.61333604161695],[7.471117362457179,48.61339990589007],[7.471130400717761,48.61340301964431],[7.471218604497008,48.61342394000494],[7.471356222015086,48.613457057815175],[7.471427575135966,48.61347635902707],[7.471614700995429,48.61351959826437],[7.471696424390798,48.61353941045255],[7.471849053782762,48.61357646816998],[7.472526255459383,48.613740209075786],[7.472541522345949,48.613743959652744],[7.472564008683868,48.61374951098456],[7.472795577952324,48.61380558279493],[7.473258632956952,48.6138817801731],[7.473311277030704,48.61389043180266],[7.473396310030178,48.61390444239542],[7.473449368148047,48.6139131684908],[7.473526399804977,48.613925768073344],[7.473543804711267,48.613938627859966],[7.47359103815354,48.61397297985731],[7.473625681872299,48.613998345275114],[7.473736289732729,48.61402382701419],[7.474099445438766,48.61410756218916],[7.474210754006262,48.61413328743493],[7.474232652834212,48.61413831998715],[7.474268139739883,48.614146535373976],[7.474277007626696,48.61414854431575],[7.474324825255883,48.61415953933688],[7.475189957998635,48.61432484604711],[7.475242168730591,48.61429666407566],[7.475199056952673,48.61380393163291],[7.475144937614657,48.613184127822066],[7.475124954038637,48.61304108699864],[7.474970956810457,48.611951046849434],[7.474962984348886,48.61183404216959],[7.474961492819983,48.611811844641366],[7.47495930403695,48.61177832128411],[7.474925157746764,48.61126804232837],[7.474983225104924,48.61089862750329],[7.475027392710389,48.61061766893706],[7.474997448395598,48.61058527983818],[7.474982317771666,48.610568820960374],[7.474982182341347,48.6105688260554],[7.474951331167282,48.61056395028125],[7.474753007816174,48.61053266997527],[7.474660454439145,48.61051804245024],[7.474636211533667,48.61051417934602],[7.474479352139801,48.6104895375131],[7.474444918415827,48.61048407560846],[7.474337594776178,48.6104651382706],[7.474252761149259,48.61045022005395],[7.474077298434376,48.61041934009065],[7.473989988807793,48.61040406434376],[7.473908196289933,48.610389752270045],[7.473812193368474,48.61037291135731],[7.473775879134537,48.610367700183815],[7.473681220892764,48.61035387184855],[7.473633346230613,48.61034693312313],[7.473582581468437,48.610339562499085],[7.473457371196292,48.610319585271725],[7.473415629339708,48.61031286629536],[7.473404332079705,48.61031103876784],[7.473387924070075,48.61030823219833],[7.473228222368658,48.610270992156146],[7.47318733361042,48.61026153814896],[7.473182207508028,48.61026037948541],[7.472933908381764,48.610202325171166],[7.472826191402088,48.61017718469757],[7.472826199081704,48.610177274504494],[7.47282606365219,48.61017727959704],[7.472770207840087,48.610262898627774],[7.472706251400978,48.6102458428649],[7.472254236323212,48.610125172494214],[7.472159988764839,48.61010024577243],[7.472098674985848,48.61008390119939],[7.47175998565191,48.609993564999975],[7.47158281448341,48.609947429433845],[7.47158212198331,48.60994727527556],[7.47141788381433,48.60990461749377],[7.471236121266877,48.609857212497495],[7.471174552556706,48.60984105724091],[7.471089520678174,48.60981902673443],[7.470984608246784,48.6097917070319],[7.471022018149658,48.60973345054513],[7.47102309883029,48.60973178820347],[7.471030752962489,48.609719607878496],[7.471036381160252,48.60971074714607],[7.471037500222355,48.60970953383954],[7.471039630875651,48.60970584992757],[7.471039623199168,48.60970576012051],[7.470890455525666,48.609670914063],[7.470811697609483,48.60965234146925],[7.47077633436822,48.609643940317646],[7.470721167361065,48.60963114804675],[7.470628138071135,48.609609327719404],[7.470625360424126,48.60960862125669],[7.47060761879339,48.60960451300651],[7.470458165488529,48.60956949697043],[7.470426551025009,48.60956203597324],[7.470336705904412,48.60954090661483],[7.470278889228118,48.609527312771554],[7.470273484730662,48.60952607435431],[7.470133049590303,48.609493241679424],[7.470032388059345,48.60946954543495],[7.469870184530746,48.60943158420793],[7.469848415843989,48.60942645593766],[7.469755244179363,48.60940455020668],[7.469747062082734,48.609402605282206],[7.469730291607893,48.6093987306987],[7.46972154477938,48.609396536707116],[7.469685729557765,48.60938761165392],[7.469683238139003,48.609387074605486],[7.469612481692286,48.60936991238908],[7.469582794153612,48.60936273915067],[7.469439888793272,48.60932801640662],[7.469372316403216,48.609311545271055],[7.469335831834801,48.609302735362355],[7.468973304437393,48.60921472877241],[7.468947771969627,48.6092084804161],[7.468970340815681,48.60915618794035],[7.468979867543019,48.609134116989026],[7.469003284566662,48.60908062139237],[7.469020314610958,48.60904142065979],[7.469028783585946,48.60902128144866],[7.469033647824664,48.609009836748726],[7.469058975670328,48.60895167446582],[7.469061921291312,48.60894480662711],[7.469062835899288,48.60894279016144],[7.469093822418214,48.60887135140226],[7.469114301274392,48.6088248134197],[7.469139598248629,48.60876629188177],[7.469168568911621,48.60869988408269],[7.469179354964057,48.608675062916895],[7.469180029403406,48.608673415855755],[7.469183110418824,48.608666542924055],[7.469182974992864,48.60866654801247],[7.469182967319717,48.60866645820521],[7.468211719993399,48.608431309364825],[7.468202559442357,48.60842904071454],[7.468137638397455,48.608413370280694],[7.468139149039875,48.608421512225654],[7.46814227005337,48.608438963610766],[7.468107781982709,48.6084312495936],[7.468104983174078,48.608417570116025],[7.468089245796775,48.60841942261965],[7.46807836307868,48.608417669129814],[7.467131737913352,48.608262312407916],[7.467008264918251,48.60824190301631],[7.46698409527755,48.60824046823354],[7.466905392535975,48.60823522522169],[7.466511104856758,48.608209488931415],[7.466511212215706,48.608210746235926],[7.466514951981678,48.60857116764693],[7.466480400565923,48.60857543823155],[7.46619505858212,48.60861002796632],[7.466147590554264,48.60861577449768],[7.466144907997502,48.60863209238902],[7.466124778101598,48.60863501051102],[7.466127437661089,48.608618423197775],[7.466072033149747,48.60862509836266],[7.465977766492624,48.60863647607681],[7.465948586032749,48.608640004270974],[7.465915628969882,48.60864385444469],[7.465906090383417,48.608645113533015],[7.465899990229635,48.60860389870445],[7.465899663115882,48.608601658602254],[7.465894937843927,48.60856859082902],[7.465893941169084,48.60856169090723],[7.465893925834107,48.60856151129229],[7.465892665975034,48.6085547113473],[7.465891761310557,48.60854888911518],[7.465891625884581,48.608548894199856],[7.465622524243539,48.608562060772876],[7.464687107846403,48.60860798733865],[7.464488079771335,48.60861762009809],[7.464486860934717,48.608617665845806],[7.464479969523987,48.60861810469777],[7.464474289284726,48.60861840799419],[7.464472434094528,48.60863487496457],[7.464471327627011,48.60864419630655],[7.464469651307044,48.608659575419665],[7.464468202424366,48.608671252090275],[7.464466362560502,48.60868789867497],[7.464465005657011,48.608700653035996],[7.464457814849625,48.608764440088024],[7.464450984347592,48.6088228979925],[7.464446369328628,48.60886433483278],[7.464442132500621,48.60890224376201],[7.464439319024444,48.60892658498079],[7.463509416799269,48.60887481204843],[7.463509281372221,48.60887481713039],[7.463509145945169,48.60887482221236],[7.463397127415508,48.60887560209256],[7.462637285046346,48.608880687657305],[7.462617195856243,48.60888090079385],[7.462605789327691,48.60888096836257],[7.462591298883673,48.60893565918037],[7.462586780514521,48.608952766581446],[7.462586489160608,48.608954128939125],[7.462577549531136,48.60898788962078],[7.462575740109909,48.60899534530521],[7.462564886262125,48.60903692598043],[7.462561893607819,48.609048029860425],[7.462553224801816,48.60908178037587],[7.462540717415611,48.609129459452646],[7.462484249409759,48.609125271300236],[7.462481653296429,48.609125098412434],[7.462428601641323,48.6091211424443],[7.46238417388343,48.609117944061595],[7.462324703506926,48.60911359818556],[7.462253749948279,48.60910842173807],[7.462155728886392,48.60910128752227],[7.461963644890796,48.609087230753275],[7.461912512283836,48.60908347285525],[7.4618518078147,48.60907899284885],[7.461797943687482,48.609075067080056],[7.461717553794983,48.609069163141385],[7.46170648456401,48.60906840711479],[7.461701149260043,48.60906797657738],[7.461685238944765,48.60913470313981],[7.461634793404841,48.60934606629436]],[[7.468176570341294,48.6085065080939],[7.468208023366324,48.608521633842074],[7.468186773601082,48.60851144044236],[7.468176570341294,48.6085065080939]],[[7.468216693892042,48.608532479974144],[7.468224835711856,48.60854667950067],[7.468208023366324,48.608521633842074],[7.468216693892042,48.608532479974144]],[[7.468230425423534,48.608569173589395],[7.468231610431929,48.60859895068775],[7.468227987759093,48.60856926516144],[7.468224835711856,48.60854667950067],[7.468230425423534,48.608569173589395]]],[[[7.462945897546397,48.61850087242841],[7.462946176114297,48.618500952072786],[7.462935410229809,48.618537213522224],[7.462918344037294,48.61858722547803],[7.462760598374319,48.61905082246124],[7.462704931017555,48.619207422463454],[7.462698569089374,48.619225229506384],[7.462667958164911,48.619310796159525],[7.462649207194398,48.61936177216626],[7.462591387225882,48.61951863298404],[7.46253749158691,48.619697599838496],[7.462478667380289,48.61989206752293],[7.462457522934685,48.619962773791926],[7.462433778862334,48.620041235572195],[7.462425504594061,48.62006848411461],[7.462383049250455,48.620209542458504],[7.462368644756078,48.620376757119466],[7.462366642441034,48.620401067575386],[7.462362535704128,48.62044689939346],[7.462354472768517,48.620543512560275],[7.462358789373894,48.620546323767115],[7.462363821582494,48.62054955860482],[7.462371739192813,48.620554757386685],[7.462371642051455,48.6205552115014],[7.46227046040141,48.62103524453367],[7.462261519434671,48.62104990485061],[7.462248839027059,48.62107011106895],[7.462260710393912,48.62113120015901],[7.462268007992717,48.621168946205394],[7.462291165735013,48.62128745245099],[7.462292394779999,48.62129389313566],[7.462297469411894,48.621319920213615],[7.462346130440271,48.62141719872291],[7.462391144818791,48.62150677579183],[7.462397372830161,48.621519245478375],[7.462421952677822,48.62156841592748],[7.462422254251565,48.62156876499309],[7.462425228972539,48.621574960012595],[7.462433072591691,48.621580882320565],[7.462540918030014,48.62166305744562],[7.462658054047743,48.62175218163094],[7.462774625629401,48.621841056598726],[7.462861374107424,48.62190690489884],[7.462861381771666,48.621906994705526],[7.462861517232493,48.62190698962435],[7.462861524896734,48.62190707943104],[7.462879668455105,48.62192063373908],[7.46294865931175,48.62197903959946],[7.46301632386862,48.622036233855894],[7.463104041383183,48.62211024421211],[7.463079539924754,48.62213684015166],[7.463023549574059,48.6221782215021],[7.462884692829833,48.6222804615395],[7.462940780651103,48.62230709769439],[7.462991769629059,48.622331312357225],[7.463044460844045,48.622356364087594],[7.463078588964124,48.6223740937523],[7.463105018919646,48.6223876074738],[7.463109282064225,48.622389790002714],[7.463112550986292,48.6223914692619],[7.463127193407154,48.62239902846779],[7.46313486860395,48.62240297497961],[7.463184331862695,48.622428418022054],[7.463229532014535,48.62245167851909],[7.46327388877287,48.622474610261904],[7.463307572335384,48.62249190607112],[7.463334725711992,48.622505933171595],[7.463339553720583,48.62250836478505],[7.463343252039933,48.62251029821241],[7.463406951615775,48.622543315582],[7.463411056327361,48.62254523376182],[7.463411764300606,48.62254556757925],[7.46341504090739,48.622547336636515],[7.463418031258942,48.62254893624408],[7.463494384995837,48.62258850619932],[7.463505901707379,48.622594470833725],[7.463596310289357,48.62264108136631],[7.463598735804323,48.6226424318775],[7.463610244873983,48.62264830669498],[7.463614221804215,48.62265031975623],[7.463618070937721,48.62265242770598],[7.463645646200336,48.62266661910077],[7.46364735607565,48.62266754598837],[7.463653750860767,48.62267081975181],[7.463695268416585,48.62269232626318],[7.463700584851933,48.62268455889753],[7.463710113540584,48.62267041700327],[7.463780387743703,48.62268174511175],[7.463802002795428,48.622691385092615],[7.463816131687448,48.62269770216674],[7.463884667594677,48.62272846568115],[7.46393059423735,48.62274908593984],[7.464018493673736,48.62278858277529],[7.464067658734988,48.62281052298757],[7.464083060524084,48.62281742293229],[7.464111469243536,48.622830231541315],[7.464120936264261,48.62283447114059],[7.464149623595091,48.62284735938166],[7.464158812029108,48.622851519336606],[7.464166162777373,48.62285484730006],[7.464213817404839,48.622878195540615],[7.464301200959245,48.62291960351374],[7.464268771313748,48.622944064623994],[7.464268643517182,48.62294415951329],[7.464268635850373,48.62294406970676],[7.463882803006355,48.623381628161624],[7.463668819765759,48.62364020785574],[7.46370833173743,48.62365890660428],[7.463795580729836,48.62370032000378],[7.463866801635226,48.6237338658305],[7.463867788224604,48.62373427928674],[7.463919637812557,48.623759001868805],[7.463946820146703,48.623771766441976],[7.463974010160527,48.62378462081528],[7.464004604691904,48.62379914933252],[7.464044116903486,48.62381784796721],[7.464122847479766,48.6238549859422],[7.464146505267689,48.6238662610175],[7.464211942518236,48.6238973208272],[7.46426035724199,48.62392000988763],[7.464314768259113,48.623946077707345],[7.464363891071098,48.623969100536456],[7.464375075916254,48.623974356794264],[7.464380039574634,48.62397678327971],[7.464421962318911,48.62399665266716],[7.464487241427712,48.6240274479859],[7.464489357760855,48.62402835961133],[7.464490487494207,48.62402885778572],[7.464546721139531,48.62405557786925],[7.464547715407792,48.624056081126184],[7.464549274543331,48.624056833470014],[7.464598141964905,48.6240800459794],[7.464710300261319,48.62413304714993],[7.46471426201116,48.62413488055919],[7.464717380291766,48.624136385242366],[7.464766797395869,48.624159667154316],[7.464809285303234,48.624179785488295],[7.464822745053801,48.62418621765852],[7.464901770673993,48.62422361435972],[7.464938459170847,48.62424106726512],[7.46499877517302,48.62426943583573],[7.465023133675606,48.624280954734175],[7.465065335509566,48.6243009035293],[7.465157670504706,48.62434455766858],[7.465190675990295,48.62436025673919],[7.465205544184139,48.62436726667152],[7.465245238732694,48.62438649865325],[7.465266509706849,48.62439687205717],[7.46530294285018,48.62441451462828],[7.465315280640904,48.62442053838141],[7.465357385576057,48.624440941186414],[7.465358515326575,48.62444143935241],[7.4655054215497,48.62451619984543],[7.465509127760066,48.62451822300865],[7.465541992902655,48.62453545885545],[7.465570714772213,48.624550327559305],[7.465591625491035,48.62456125499437],[7.46563456904169,48.62458351821021],[7.46566614603381,48.6245999915239],[7.465585536599281,48.62469842662156],[7.465507743527724,48.62479324227495],[7.465509588973515,48.62479416405001],[7.465523826008419,48.62480173819879],[7.465556149461441,48.624818994374394],[7.46563942474882,48.624863168376976],[7.46606375466709,48.62442767330414],[7.466277416013835,48.62420838231757],[7.466277408343396,48.62420829251127],[7.466312092136514,48.62418158399702],[7.466437996895274,48.6244320947039],[7.466444770395143,48.62443661543001],[7.466474967414876,48.62445602335468],[7.466503597610012,48.624474589147134],[7.466528470490191,48.624492124755164],[7.466565942157357,48.62451873739352],[7.466723926745793,48.62462929845229],[7.466779881491885,48.62466864119636],[7.466825543028212,48.62470044204837],[7.466832339610664,48.6247052321701],[7.466834080294862,48.62470651823528],[7.46688509942457,48.62474217217302],[7.466932358638356,48.62477517432601],[7.467034261766945,48.62484648717626],[7.467067506166391,48.62486974469861],[7.467088619422038,48.624884628426464],[7.467140234475709,48.62492089054912],[7.467161030803798,48.624935245598465],[7.467176929682257,48.62494636093556],[7.467195944556082,48.624962134276196],[7.46724668075401,48.62500401519429],[7.467268461376888,48.625021937040046],[7.467294635978962,48.6250435679607],[7.467346328287496,48.62508550303628],[7.467376556939813,48.62511004493183],[7.467394953333475,48.62512494052216],[7.467486347547289,48.62519889993735],[7.46757920148792,48.62527244410157],[7.468191091523662,48.62496449936654],[7.468219196253529,48.62494668641081],[7.468227707414875,48.62494132150919],[7.46833214917957,48.62487532436339],[7.468332276973484,48.62487522946989],[7.468333299324789,48.624874470321906],[7.468346523979141,48.62479703313968],[7.468360517697343,48.624715873200635],[7.468381136325021,48.62459455266867],[7.468389345509396,48.62454748541579],[7.468390841361667,48.62451886933492],[7.468391939139081,48.62449990829716],[7.468398351949651,48.6243856981209],[7.468398503794739,48.62436361930317],[7.468398647965603,48.62434145067888],[7.468443658905626,48.62434336405378],[7.46847866565817,48.624271145093324],[7.468522351141969,48.624181211960995],[7.468550764242766,48.62412248446806],[7.468609659570664,48.6239910771997],[7.468625383825346,48.6239556201107],[7.468634967112549,48.62393417809943],[7.468636684442932,48.62393041973071],[7.468668393438585,48.62385778395841],[7.468696450495291,48.62379330373226],[7.468740402741093,48.62369218872823],[7.468752099288178,48.62366526166302],[7.468781582173419,48.62359838539142],[7.468785451929547,48.62359914099192],[7.468791399703249,48.62360035911071],[7.468791535167881,48.62360035402279],[7.468955338007364,48.62324625685892],[7.468950693867089,48.623245980823256],[7.468939900136254,48.62324530510791],[7.468916920848755,48.623226077152964],[7.468897144346252,48.623209341636404],[7.469075111922994,48.62309733656291],[7.469289351952856,48.62295180492515],[7.469379223370959,48.6228982463454],[7.469485395319809,48.62283506590078],[7.469487059249552,48.62283545386726],[7.469649037635537,48.622867118586456],[7.469721297010861,48.622880981411356],[7.469755574937844,48.62288771209047],[7.469868832197868,48.62270074546111],[7.470111068006614,48.62230090445141],[7.47028077473283,48.62221632613205],[7.470367974058602,48.62217286759049],[7.470450430058106,48.62211048713873],[7.470783822312351,48.6218582178243],[7.470955568722629,48.6217307667858],[7.470985575944506,48.62170026827622],[7.471150308481978,48.621533709076765],[7.471196375679256,48.621476479483455],[7.471366775356419,48.62126655153098],[7.471430972944838,48.621187738441556],[7.471486862594871,48.6210785152232],[7.471461643519749,48.621052164321156],[7.471343827978786,48.620929828798026],[7.471335707018317,48.62092067405006],[7.471330165267436,48.62091466578144],[7.471321584189209,48.620904897661326],[7.471311645783075,48.62089355884574],[7.471305462386836,48.620886403458165],[7.471272283216373,48.62084800868935],[7.471259607140182,48.620833259059545],[7.471224331998056,48.62079260058399],[7.471215426296512,48.62078221399302],[7.471203059558331,48.62076790320619],[7.471182789667488,48.620748573835684],[7.471126713973436,48.62069509272781],[7.47106068332994,48.62068252836416],[7.470889399975435,48.62065004416767],[7.470889264518639,48.62065004925799],[7.470822155818891,48.620640768690194],[7.470862733532956,48.62052410270122],[7.470842277395622,48.620483517904496],[7.470830640757163,48.62046026026104],[7.470826320961807,48.62045582775776],[7.470810670004434,48.620439658263614],[7.470793557007704,48.62042228238122],[7.470761110047475,48.62041151906784],[7.470746983674199,48.62040682440902],[7.470703784155218,48.62039268115671],[7.47067707519101,48.62038386447693],[7.470661412751063,48.62037868696084],[7.470599312523806,48.62035804632205],[7.470551497168895,48.62034236466348],[7.470487649240698,48.62032512314815],[7.470526922486721,48.620264725429465],[7.470527065619703,48.62026481014589],[7.470544109617958,48.62023687097549],[7.470729344976345,48.62028315640995],[7.470729480432206,48.62028315131982],[7.470819492775315,48.620062820502014],[7.470900274752064,48.619814006069646],[7.470925459873516,48.619754137587215],[7.470943202119845,48.61971211729566],[7.470975349549604,48.61963513940981],[7.470976568074537,48.61963031858926],[7.470979102188694,48.61962022282597],[7.470854280135768,48.61922831598102],[7.470789943214385,48.61919262358346],[7.470580034719405,48.61911041669311],[7.470562887632007,48.61910376334953],[7.470547412044782,48.6190975877627],[7.470487767403589,48.619081810046985],[7.47044274453126,48.61907016780536],[7.470401877381812,48.61905945053073],[7.470346759230634,48.61904575503173],[7.47026582511347,48.61902573185676],[7.470121709511481,48.61898988344074],[7.470043995245509,48.618964603732195],[7.469996181329607,48.618948921832654],[7.469960806509043,48.61893727729251],[7.469931575833385,48.618927564170704],[7.469706239023139,48.61885242231525],[7.469694725135437,48.61884807986742],[7.469641802182817,48.61882826522682],[7.469639001033747,48.618827289327044],[7.46962961872021,48.61882403802358],[7.46957534940507,48.61880913905848],[7.469523571985591,48.61879477711613],[7.46947618278748,48.61878088095787],[7.46946042386929,48.61877615739816],[7.46941819993136,48.61876386906473],[7.469412342094485,48.61876210704475],[7.469409707105343,48.618761485276885],[7.469398474539171,48.61875884403492],[7.469392782855503,48.61875743615135],[7.469376972924388,48.61875370554061],[7.469376001735273,48.6187534717413],[7.469372794239062,48.61875251110099],[7.46930299871006,48.618732429227684],[7.469138892918855,48.61868525793179],[7.469041518342603,48.61865729254417],[7.468945554791147,48.61863152644674],[7.468918300223389,48.618624261511414],[7.46890453749061,48.61862063412948],[7.468871974613325,48.618611676592344],[7.468831077447345,48.61860059954847],[7.468824890033305,48.61859975082877],[7.468690484126106,48.61857732052773],[7.468653635577248,48.61857068618592],[7.468647146571646,48.61856948840627],[7.468606656187355,48.618563171032704],[7.468451288503189,48.61853873487732],[7.468444393151478,48.61853755234924],[7.468441224052188,48.61853704071655],[7.468431686061482,48.61853514659167],[7.46836479236752,48.61852198259011],[7.468271776606205,48.618503673213304],[7.468170186444024,48.61848361362023],[7.468170194116873,48.61848370342683],[7.468170058665416,48.618483708514056],[7.468168469258824,48.61848737199912],[7.468165814245559,48.61849287740113],[7.467977066907881,48.61846582021943],[7.46797902933753,48.61846016064334],[7.467978893886117,48.61846016573034],[7.467978886213603,48.61846007592374],[7.4679168512659,48.61844970232955],[7.467917425846094,48.618442112791264],[7.467917290394722,48.61844211787821],[7.467653626862861,48.61843364026449],[7.467584019832342,48.61847778788749],[7.467578911539855,48.61848798023261],[7.467574380769372,48.618496979658424],[7.467541349423327,48.6185652505417],[7.467501469415207,48.61864720270144],[7.467473038946828,48.61873115744775],[7.467441626277783,48.618823152496766],[7.467422652856427,48.6188778316923],[7.467123941876627,48.61883769423871],[7.467123798753052,48.61883760951811],[7.46712366330058,48.618837614604146],[7.466967801418103,48.61891716431459],[7.466962334859312,48.61891998231314],[7.466957131534523,48.6189227003331],[7.466904139796059,48.61894820470829],[7.466819421905894,48.61898886491639],[7.466758713201987,48.61898447725477],[7.466720131790828,48.61897664605124],[7.466718197098494,48.61897626821601],[7.466516255529471,48.618929973344954],[7.466298039454029,48.618880865518015],[7.466276839677388,48.618876075521094],[7.466233310756965,48.61887554737561],[7.46624455059627,48.61886872870284],[7.466245036119428,48.61886645811033],[7.466254699273912,48.61886663591255],[7.466248452719851,48.61885236518149],[7.46624934200014,48.61884845772825],[7.466246443808649,48.618847935867215],[7.46624003879776,48.61883340080043],[7.466071131125777,48.618803163238724],[7.465823009200849,48.6187586909133],[7.465760542464722,48.6187512154366],[7.465763946609952,48.61874811453325],[7.465640017473772,48.61872582812665],[7.465465306476694,48.61869445614435],[7.465339465927586,48.61867206098857],[7.465267847345416,48.618659252802686],[7.465262457359579,48.61865819378085],[7.465247437462279,48.618654162697794],[7.465100302906071,48.61861472779479],[7.465050936936771,48.61860153477716],[7.465039109144158,48.618598284810886],[7.465007119420065,48.61858966510939],[7.464960396092188,48.61857718372614],[7.464844965390805,48.6185461987732],[7.464795591883403,48.61853291584218],[7.4647070012706,48.61850912207737],[7.464623823693629,48.61848665671781],[7.464587949455648,48.61847710155036],[7.464557345064134,48.61846879012298],[7.46441341126766,48.61843022532876],[7.464409375839471,48.61842911543856],[7.46434011932705,48.61841054211899],[7.464320156902261,48.61840273223426],[7.464315518341921,48.61840092421744],[7.464301331759613,48.6183955103315],[7.464239653003196,48.61837178749577],[7.464164631121606,48.61834297945649],[7.464151988198268,48.61833813829118],[7.464122884186051,48.61832670724312],[7.464085806483943,48.61831260226848],[7.46402888658314,48.61829050265157],[7.46393501175901,48.618255734894944],[7.463884064557031,48.618236744601255],[7.463898785607884,48.61821817333935],[7.463898777942403,48.61821808353246],[7.463552162409401,48.61805918835566],[7.463381453242984,48.61798072405152],[7.463354150359503,48.618004722483825],[7.463270994351476,48.61807802585413],[7.463225361576131,48.6181181180807],[7.463154559116056,48.61819924658252],[7.463134749315643,48.61822188271136],[7.463006124479055,48.618369057280304],[7.462945897546397,48.61850087242841]]]]}}]}
