{"type": "FeatureCollection","name": "aoc_geojson","features": [{"type":"Feature","properties":{"dt":"Bordeaux","type_prod":"Vins","categorie":"Vin tranquille","type_denom":"appellation","signe":"AOC","id_app":585,"app":"Bordeaux supérieur","id_denom":1740,"denom":"Bordeaux supérieur","insee":"33241","cvi":"1B105D2, 1R105S2","nomcom":"LESTIAC-SUR-GARONNE","insee2011":"33241","nomcom2011":"LESTIAC-SUR-GARONNE","id_aire":1372,"crinao":null,"grp_name1":null,"grp_name2":null},"geometry":{"type":"MultiPolygon","coordinates":[[[[-0.382166418787945,44.69395383153579],[-0.382265219572538,44.69400235464845],[-0.382297623585771,44.69401812467268],[-0.381994103941541,44.69419564103461],[-0.381971033063026,44.694209051966496],[-0.381796533896297,44.69430098292688],[-0.381724451263202,44.69434391652725],[-0.381709789333673,44.69435851214569],[-0.381535316294999,44.69445089242931],[-0.381461195807128,44.69449776291512],[-0.380564926251877,44.69502878414234],[-0.37984182336239,44.69543952598622],[-0.379840369539111,44.69544056162137],[-0.379557483229847,44.69565267403362],[-0.379238524368582,44.69588895589901],[-0.379235978788101,44.69589074576042],[-0.379234162830502,44.69589206278119],[-0.379087273620863,44.695825361423786],[-0.378964769077833,44.69576710648309],[-0.378857402598771,44.69570847921031],[-0.378612904167874,44.695568884706],[-0.378558748483329,44.69553800840849],[-0.378499112974499,44.69550423564851],[-0.378423070705067,44.69545600542968],[-0.378979453543475,44.695058385067746],[-0.378873727222898,44.69497654923633],[-0.378763640455512,44.694885204601945],[-0.37872216953241,44.694850967356466],[-0.378731238413459,44.69484420240461],[-0.378675338364301,44.69480319691766],[-0.378596217241148,44.69474154422647],[-0.378553654804878,44.69470806114704],[-0.378327538428303,44.694533662688244],[-0.37822378112476,44.69445302773901],[-0.377944245815468,44.69464520917796],[-0.377898690565049,44.69467552570409],[-0.377625050386729,44.69485229754092],[-0.3775896825435,44.69487554459324],[-0.377436574931934,44.694774608664474],[-0.377156986631761,44.69459327973559],[-0.37725856663618,44.694523947383935],[-0.377335841727044,44.69447274830442],[-0.377373046964183,44.694448544131994],[-0.377398918782151,44.694431264027855],[-0.377462276900184,44.69438814913567],[-0.377491077928963,44.69436915758809],[-0.37764670265524,44.694265735000926],[-0.378027717157325,44.69401521782818],[-0.378147194181174,44.69409888725023],[-0.378394184589665,44.69394545555858],[-0.378766907766183,44.69371474298075],[-0.378318020442552,44.693402609972225],[-0.37873226658559,44.693162879937546],[-0.378768918931777,44.69314211636542],[-0.378800745226221,44.69312303205934],[-0.379158445855153,44.692945221413865],[-0.37995700686006,44.69252298691413],[-0.380003748818463,44.69247461101898],[-0.380035747818734,44.69243948130131],[-0.380072394472443,44.69239970402408],[-0.380135689698334,44.6923303671181],[-0.380186878553719,44.69229293892618],[-0.380262553756205,44.69224043488875],[-0.380313045287378,44.69220401916237],[-0.38042907874825,44.69212306831721],[-0.380481839780259,44.69208658316154],[-0.380578531113485,44.69202433549536],[-0.380700902678696,44.69194796655445],[-0.380836443762152,44.691863715794526],[-0.381103655129948,44.69171281359091],[-0.381361726792092,44.691567506613765],[-0.381524950809112,44.69147727250244],[-0.381673183524669,44.691396147051975],[-0.381691951706417,44.69138683257468],[-0.381710752302886,44.69137805776955],[-0.381733827453484,44.69137104462709],[-0.381745808149672,44.69136860584117],[-0.381760874528197,44.69136706395049],[-0.381777794454356,44.69137114239394],[-0.381990107030814,44.691435659573216],[-0.38205626297576,44.69147707066017],[-0.382296336600326,44.69151163270024],[-0.382349387588754,44.691461080412616],[-0.382400142101015,44.691460609968935],[-0.382427913305776,44.69145606632267],[-0.382454144358855,44.69145111920378],[-0.382487762618579,44.69143666477026],[-0.382513734174654,44.69142109246117],[-0.382600084302262,44.691363394349615],[-0.382754602963436,44.691513029975226],[-0.382872785163072,44.69162556942418],[-0.382988552081528,44.691729441844394],[-0.3830572383902,44.69178140810759],[-0.383121093512774,44.69182865607253],[-0.383189363939756,44.69188000420301],[-0.383324683816161,44.69198129591396],[-0.383375083029218,44.6920190430358],[-0.383428168147588,44.692057338771434],[-0.383473406505524,44.692091188687314],[-0.383529636983206,44.6921313706283],[-0.38362442652278,44.69220146157504],[-0.383718756910362,44.69227021482538],[-0.383781791686391,44.692316406208384],[-0.383926938539614,44.69242352425374],[-0.384097815619305,44.6925488685325],[-0.38422070879828,44.69263882493428],[-0.384301238124792,44.692698628352574],[-0.384338127864013,44.69272597500409],[-0.383812660438233,44.693019050331046],[-0.383224796848005,44.69334602065062],[-0.382524232649918,44.693740142085694],[-0.382211414529926,44.693926864391685],[-0.382166418787945,44.69395383153579]]],[[[-0.381617360402499,44.69135640234533],[-0.381350270889333,44.69151559235463],[-0.381182836848289,44.69159883609776],[-0.381066681619115,44.6916587956331],[-0.380969942951223,44.69171392642777],[-0.380860039673325,44.691777028774986],[-0.380691539051514,44.691880399091],[-0.380390781892131,44.69205962891654],[-0.380235919269472,44.69216924999144],[-0.379989172756292,44.69235809225718],[-0.379945916952639,44.692395097762905],[-0.379886199077381,44.692460901042445],[-0.379854351922336,44.692479625871876],[-0.379824731272556,44.692497561782695],[-0.379722769250705,44.692560420323545],[-0.379538899845148,44.69267299905422],[-0.379492298864323,44.69269848224002],[-0.379143615050617,44.6928749372855],[-0.378981394202447,44.692956756731434],[-0.378941488952657,44.692973835068656],[-0.378733028720726,44.69306824014107],[-0.378550760826981,44.69291710355828],[-0.378411433060858,44.69279943825833],[-0.3782917971887,44.692864637356806],[-0.378120667983758,44.69296222661429],[-0.378095094386088,44.69297814613499],[-0.377995334999171,44.69303354665727],[-0.377686855438326,44.69322958496532],[-0.377192567016289,44.693543933197304],[-0.377140840242237,44.69357876313036],[-0.376758640109359,44.6938411178957],[-0.376894401579402,44.6939435752947],[-0.37689075349206,44.69394593941887],[-0.376959393708255,44.6939971899385],[-0.376728715231733,44.69414462367449],[-0.376617472101084,44.69421713400498],[-0.376591686471123,44.69423585306479],[-0.376527190800985,44.694190513253645],[-0.376392158395162,44.694093890355],[-0.376310911243524,44.69403464391983],[-0.376172410810006,44.69393073752685],[-0.376124408586112,44.69389498659709],[-0.376080702574224,44.6938613573177],[-0.375757837092498,44.69361547479941],[-0.37550212713707,44.69341503089302],[-0.375608732768166,44.69334734896247],[-0.375706820765838,44.69328299058898],[-0.375792921099047,44.69322728810805],[-0.375755235439244,44.69319924212013],[-0.375714464131001,44.693170299054124],[-0.375650592124866,44.69312268700849],[-0.376042009790451,44.692881321020785],[-0.375899821480834,44.69277905885646],[-0.37586528107019,44.69275289937929],[-0.375473231743912,44.69299004879928],[-0.375442139408342,44.69300874927888],[-0.375384321599107,44.693043133431466],[-0.375329908359246,44.69307741368032],[-0.375195820755059,44.693160802054734],[-0.374928613673526,44.69292655575369],[-0.375350819032558,44.692560260614925],[-0.375589267194079,44.692352849221855],[-0.375640952083032,44.692304684905004],[-0.37586273647163,44.69215437091714],[-0.376322466724677,44.69183892067216],[-0.376306418198871,44.69182409162117],[-0.376841939314533,44.691458116703224],[-0.377148474256821,44.69129926569848],[-0.377398798708522,44.6911636663738],[-0.377508379848016,44.69110778626186],[-0.377614016070066,44.691049323154],[-0.377846696019467,44.69089128320234],[-0.378043231449168,44.690756153250355],[-0.378077807578832,44.69073238951421],[-0.378137763233568,44.6906705448779],[-0.378162406924243,44.69064546241676],[-0.378411662596496,44.69049214146681],[-0.378745550714267,44.69028406091932],[-0.378977996542086,44.69014116422013],[-0.379225345605063,44.689987719344735],[-0.379441912129121,44.68985179465356],[-0.379564042642794,44.68977777718096],[-0.379675213547626,44.68971058237484],[-0.379717143134575,44.68968307911655],[-0.379818753590254,44.689633387422674],[-0.379841596047268,44.68962250700469],[-0.379863217038863,44.68961652988966],[-0.379920044054888,44.6896099276832],[-0.379998572808045,44.689605005265925],[-0.380067253547179,44.68966328111472],[-0.380123149722945,44.68969797804945],[-0.380198531134874,44.689766862400795],[-0.38045460782376,44.68999864259703],[-0.380626917301075,44.69015440539575],[-0.380777396462751,44.690287406253674],[-0.380829413452445,44.6903332149609],[-0.380892459769522,44.69038598556666],[-0.380976370486587,44.69045172524413],[-0.381098011335993,44.69053361303401],[-0.381184505515034,44.69060450005127],[-0.381329075326043,44.690733715985445],[-0.38141569970476,44.690813069302486],[-0.381463691598016,44.69087386910157],[-0.381454137346458,44.690878846912206],[-0.381606202981857,44.69111389411856],[-0.381646651234586,44.691194208212856],[-0.381671525448288,44.69124868593732],[-0.381673346399477,44.691278997699825],[-0.381672038487198,44.69130138522156],[-0.381656015467752,44.691324853329256],[-0.381640678796229,44.691340821236885],[-0.381617360402499,44.69135640234533]]],[[[-0.37975310984059,44.68958150663004],[-0.379421451513081,44.68976978800118],[-0.379196412424482,44.68989714059455],[-0.37912685716341,44.68993792279312],[-0.379095465042471,44.689957895075686],[-0.378984995170357,44.690030474510046],[-0.378943978427569,44.69005425504785],[-0.378846348922642,44.690107158412275],[-0.378802202944947,44.69013563012538],[-0.378759170147169,44.69016370737742],[-0.378717174951562,44.69019013092584],[-0.378560044956939,44.69029351112628],[-0.378472800826984,44.69034898051774],[-0.378175005351907,44.690539647997554],[-0.378079346184924,44.69060014990256],[-0.378029784370048,44.69063311198662],[-0.377995224473522,44.690657145545],[-0.37776440983221,44.69082098608953],[-0.37753692819932,44.690983552921935],[-0.377484777649788,44.691011277242694],[-0.377219733001655,44.69115417457879],[-0.376904648516628,44.691328425393685],[-0.376793498678835,44.691389759412814],[-0.376758030150511,44.691411297193255],[-0.376485384170397,44.691604436195945],[-0.376196534167313,44.69180545808649],[-0.375713208747257,44.69212559264045],[-0.375463314596009,44.691882979884944],[-0.37507376059525,44.69151063280919],[-0.374591722995357,44.691789091869836],[-0.374481678054004,44.69168557726433],[-0.374453435002143,44.691656972543754],[-0.374407976810506,44.6916130334291],[-0.37425194283277,44.691715923222034],[-0.374164140563574,44.69177483028044],[-0.374150591515791,44.691782722709775],[-0.374081230643701,44.6918205220019],[-0.373767500314207,44.69199228923143],[-0.373704791754051,44.69202727219604],[-0.373647855390425,44.692057393345166],[-0.373591180173332,44.69200334311992],[-0.37347939172207,44.691896005961446],[-0.373379529002967,44.691797946902945],[-0.373307509263762,44.69172814452783],[-0.373276716797245,44.69169493150654],[-0.373227056233717,44.69164409143982],[-0.373288737613552,44.6916109422806],[-0.373396313698089,44.6915531450844],[-0.373352682176625,44.69151437628335],[-0.373243890420628,44.69157085884507],[-0.373216150306942,44.69154431104057],[-0.373161116368307,44.69157455415493],[-0.373079129084711,44.691490187315516],[-0.373041176455825,44.691457643106304],[-0.372941814461881,44.691380564225845],[-0.372895589305815,44.69134277544394],[-0.372845095324025,44.691303314580715],[-0.373255300443571,44.691071928738566],[-0.37333087071534,44.69103024608682],[-0.37339830737815,44.690991965273014],[-0.373771796034431,44.69078034991015],[-0.373947325308637,44.69068029041047],[-0.373846152118651,44.69057299042832],[-0.373786615563366,44.69050911546535],[-0.373683951446505,44.6904022212718],[-0.373804637839136,44.69032293791836],[-0.373994454701642,44.69021469306701],[-0.37419812766021,44.69009737462758],[-0.374264816853147,44.6900592962669],[-0.374361547598985,44.69001029924553],[-0.374378441338595,44.6900013135428],[-0.374495120353853,44.690133371019634],[-0.374816145563323,44.69045644701809],[-0.374897880305066,44.690410159766216],[-0.374963126398353,44.690373296441074],[-0.375042661354771,44.690328247625764],[-0.375319862447309,44.69017318018888],[-0.375016290168467,44.68993896298389],[-0.374817231272273,44.6897855398777],[-0.374908807677869,44.6897643635724],[-0.374930396892273,44.689757847743586],[-0.375001963385467,44.68973160484082],[-0.375036382214116,44.689717849167934],[-0.375236119849693,44.68962344678406],[-0.375393689438846,44.68953997250624],[-0.375521454754447,44.6894713745778],[-0.375562515665559,44.68944831488231],[-0.375647707399906,44.689396514903514],[-0.375720128845507,44.68935294417307],[-0.375968591152791,44.689199022260844],[-0.376194457324243,44.689060116986916],[-0.37643438355898,44.688915555666675],[-0.376633719186527,44.688789263703825],[-0.376912234254743,44.6886120747659],[-0.377021439169314,44.6885436811445],[-0.377130238577165,44.68847484923472],[-0.377314899313592,44.68835666338311],[-0.377514620548808,44.68822423043586],[-0.377707488517477,44.68809759322874],[-0.377739788204677,44.68807380897359],[-0.378213800114973,44.68823072517336],[-0.378553653829202,44.688343257255575],[-0.378589993091708,44.6883552134704],[-0.378630206750598,44.688368583226136],[-0.378676980427986,44.6883839152693],[-0.378719523077918,44.68839820508009],[-0.378864502241617,44.68844604120489],[-0.378766005556953,44.688497078709645],[-0.378989735653041,44.68870786274065],[-0.379285847556603,44.688988073456976],[-0.379320800037549,44.68897060556274],[-0.379328743297866,44.688976670673355],[-0.379494912714756,44.68914388640949],[-0.379678893282316,44.68933002174389],[-0.379791540435105,44.68948310284787],[-0.37980393048378,44.68950642347609],[-0.37980522164695,44.68951530500805],[-0.379803859280448,44.68953048526296],[-0.379797990090433,44.68954634387524],[-0.379783680178133,44.68956047792628],[-0.37975310984059,44.68958150663004]]],[[[-0.377628349590384,44.697029459092526],[-0.37762343094392,44.69703591702346],[-0.377598783223041,44.697073615000946],[-0.377594648196139,44.69708049956342],[-0.377590210412799,44.69708865492293],[-0.377504890781154,44.69706269431618],[-0.377413545102076,44.69703736815463],[-0.377329484719314,44.697013441531574],[-0.377075061624724,44.69693587250921],[-0.376863841918944,44.696870861400015],[-0.376738786897298,44.69680799604682],[-0.376662592645918,44.69687727396268],[-0.37658934279068,44.69684400576337],[-0.376513758364491,44.6968097274339],[-0.376461158450055,44.69678583127208],[-0.376416421692558,44.696766651227684],[-0.376390176505669,44.6967208647843],[-0.376280373730232,44.696659515926825],[-0.376208451430506,44.69659782202765],[-0.376224926023701,44.69658182020779],[-0.376273523388775,44.69647580849017],[-0.376279622185414,44.69645111219527],[-0.37625680777797,44.69641828712775],[-0.376227669940168,44.696387457241386],[-0.376120699532896,44.69627853335499],[-0.376080218469832,44.69624183191877],[-0.376068876436753,44.69622334482884],[-0.376057821681157,44.696197009319846],[-0.376058909408091,44.69618354959779],[-0.376075929479935,44.696170324594384],[-0.376204271237213,44.696047912317894],[-0.376264882682037,44.69599055434525],[-0.376514171718987,44.696121627412914],[-0.376784996368084,44.69587249524743],[-0.376838865988398,44.69589229747818],[-0.376972940358403,44.6959412805842],[-0.377236441570719,44.69604389374985],[-0.37739875999484,44.6959003481025],[-0.377428654092886,44.695874294558905],[-0.377513325917152,44.695801062718296],[-0.377530253778901,44.695786308407165],[-0.377634376637012,44.69584143151509],[-0.377786537515185,44.69592653667396],[-0.378000300794981,44.696059231760536],[-0.377766383679003,44.696291741179095],[-0.377819967020335,44.69631939135829],[-0.377840019103442,44.696299855841794],[-0.378011529576219,44.6963852711088],[-0.37805175918133,44.69640512879387],[-0.378127527541126,44.696442464239894],[-0.378182986585784,44.69646978665055],[-0.378057026029222,44.696593930859386],[-0.37798415171828,44.69666797436904],[-0.377845888381789,44.69680817326556],[-0.377740491921973,44.696915018710285],[-0.377628349590384,44.697029459092526]]],[[[-0.376163346868566,44.68896473810967],[-0.376109619053671,44.68899773635614],[-0.375319271041682,44.689468082041834],[-0.375297838382213,44.68947720638368],[-0.375213534465631,44.68951221840704],[-0.375107349348156,44.68955519691286],[-0.374857863386268,44.68965418051359],[-0.374766295482822,44.68969445998214],[-0.374669728219,44.689739847965235],[-0.374606520439723,44.689772774188725],[-0.374447446728782,44.68985647339972],[-0.374368463625242,44.6898980807476],[-0.374191912301888,44.6899873588791],[-0.373878871769199,44.690170459530215],[-0.373808155934555,44.69021091321561],[-0.373706920934675,44.690273293358125],[-0.373584953197131,44.690356490434546],[-0.373503237104412,44.69041575204703],[-0.373367214746271,44.690523707323706],[-0.373286097447188,44.690586645041606],[-0.373214639291372,44.69063369903553],[-0.37311004688141,44.69069699196725],[-0.372897040843894,44.69082306324702],[-0.372831740340027,44.690751523902144],[-0.372760534103183,44.69067628982151],[-0.372693067716824,44.690600220801485],[-0.372554412563051,44.690670589065256],[-0.372486902283044,44.69060010812271],[-0.372373496653501,44.69065546894343],[-0.372320468765256,44.69068123507167],[-0.372203468614883,44.69073985915369],[-0.372170985312399,44.690710031505354],[-0.372141644438342,44.69072633478382],[-0.372086719597383,44.690752068507685],[-0.371982432007448,44.6906433299754],[-0.37193025323179,44.69066429417049],[-0.371872102785413,44.690686792012166],[-0.37183623902399,44.69064481227199],[-0.371732388899979,44.69068888768305],[-0.371671078687727,44.6906143425521],[-0.371627233872403,44.69062892508404],[-0.371587377454011,44.690583552645386],[-0.371548158165375,44.69059943594227],[-0.371464298961218,44.690547024232096],[-0.371411411944423,44.690511870903585],[-0.371504858797442,44.69047126671669],[-0.371486505742462,44.69044956874775],[-0.371466078160709,44.690424870241706],[-0.37175718726354,44.690305702719776],[-0.371678851994652,44.69021897093119],[-0.371394564103142,44.69033180285762],[-0.371338310552175,44.69035433272195],[-0.371228024492443,44.690398513682965],[-0.37115811117618,44.69035748125367],[-0.371134979535011,44.69034457946034],[-0.370995802098994,44.69026069246147],[-0.371155484151827,44.69019337996297],[-0.371516579284465,44.69004054165423],[-0.371448466532388,44.689966293877276],[-0.371417206274673,44.68993156280096],[-0.371403002466252,44.68991586589166],[-0.371348704739255,44.689857146601135],[-0.371340168470334,44.68984749459026],[-0.371295147509619,44.68979813439071],[-0.371207580142919,44.689702762735635],[-0.371187752073035,44.68968174045755],[-0.371038167597868,44.68951896361271],[-0.37096314076741,44.68943681633756],[-0.370393997073506,44.68970989124127],[-0.370216125291753,44.689549326826615],[-0.370100354100067,44.68944490145594],[-0.37002421815633,44.68935053236221],[-0.370020847385116,44.689344867980715],[-0.37001990238455,44.68934174290399],[-0.370025367768751,44.68933175437338],[-0.370041382954256,44.689314415844386],[-0.370081907522423,44.68928236354494],[-0.370162467895836,44.6892290870394],[-0.370315180267712,44.689146669277285],[-0.370719698158967,44.68892799147488],[-0.370891151087137,44.688835810584386],[-0.371041750859273,44.68876877491808],[-0.371182520774785,44.68870212870683],[-0.371240383962695,44.688674864089805],[-0.371581047117628,44.68852904585827],[-0.371737270709051,44.68846102680571],[-0.371749754541889,44.688454338570956],[-0.371882744356774,44.688371708675525],[-0.372143264413261,44.68821021922262],[-0.37233835574572,44.68810785379565],[-0.372427179069938,44.68805973028107],[-0.372711003732946,44.687888788232854],[-0.373045170317409,44.687697927870396],[-0.37354931088682,44.68740303173035],[-0.373662883176123,44.687337932516755],[-0.373990535680876,44.68715862173322],[-0.374353863031583,44.68696128092619],[-0.374502585957588,44.68712227729124],[-0.374511441301524,44.68713092810268],[-0.374582272532851,44.687206262443105],[-0.374650758940853,44.68728040673032],[-0.374755736446852,44.68739434794672],[-0.375083753991328,44.68725277903109],[-0.375469532317664,44.68708232331034],[-0.375537392374,44.68711440453128],[-0.375583017898937,44.68713590037467],[-0.375945523933976,44.68728514473622],[-0.375952527373087,44.68728186724188],[-0.376009441490546,44.687302027194065],[-0.375998763387489,44.68730721905084],[-0.376721452901922,44.68760478376258],[-0.377273275489258,44.687833399573876],[-0.377585503591309,44.688054009671],[-0.377554917061126,44.688074767918],[-0.377191752367403,44.688312664302224],[-0.377037429678406,44.68841226209978],[-0.376509133680783,44.68875287705417],[-0.376163346868566,44.68896473810967]]],[[[-0.374972010466607,44.69213964619909],[-0.374972005073807,44.69213955625285],[-0.375238070114237,44.69200086863644],[-0.375238075507448,44.69200095858265],[-0.374972010466607,44.69213964619909]]],[[[-0.373878025218663,44.69926149243647],[-0.373877257764866,44.69926133561666],[-0.373746992952897,44.69921908081259],[-0.373780178905723,44.699140393279414],[-0.373715897204728,44.6991239707291],[-0.373668360468635,44.699209854134104],[-0.373608377872432,44.699322068947524],[-0.373519038901867,44.69948834424714],[-0.373476669852605,44.69956559957398],[-0.373430772616248,44.699634582137314],[-0.373380123990814,44.69970650298106],[-0.373306271128372,44.699821303160356],[-0.37319079606626,44.700000539972706],[-0.373129814411403,44.70009611444034],[-0.37303144413049,44.700244552342845],[-0.373017123401042,44.70026490342421],[-0.373004485156869,44.700275381122104],[-0.372992382585295,44.70028214794059],[-0.372969682052817,44.70028283995437],[-0.372913386569086,44.700273202095694],[-0.372627505136273,44.700221091631484],[-0.372246041828736,44.70015522310602],[-0.37206103951854,44.70012301486134],[-0.372049409056089,44.70011868354773],[-0.372042436301265,44.69960373220846],[-0.372047424859312,44.699421285909004],[-0.372045830886381,44.69938835391487],[-0.372035509571093,44.699317300676654],[-0.372027736269037,44.699263471068875],[-0.372023807634819,44.69922952889872],[-0.372045027364895,44.6991345361393],[-0.372071260324297,44.699021999196596],[-0.3720862442742,44.69894945385694],[-0.372093410477914,44.69886029605225],[-0.372099159392217,44.69874748229465],[-0.372110096372743,44.69857575815978],[-0.372131446468776,44.69841335852284],[-0.372136355397614,44.69834346313093],[-0.372133622449163,44.698240910199004],[-0.372120991648821,44.69811865433551],[-0.372081106863746,44.69789576434573],[-0.372073457464437,44.69787563243869],[-0.371991643183139,44.69771835945992],[-0.371989683993585,44.697673003329086],[-0.371930533993897,44.697653629985034],[-0.371878496227785,44.697575828291],[-0.372398644595938,44.69717330959814],[-0.372203327457145,44.69712060073513],[-0.372261673111861,44.69706962190547],[-0.372198532604665,44.6970026116396],[-0.372118959498776,44.696952322124986],[-0.3716653618528,44.69724467849817],[-0.371630690633135,44.69719103783718],[-0.37159794880156,44.69713796914825],[-0.371553877086517,44.6970665927856],[-0.371508969876985,44.6970129035774],[-0.371484566949929,44.69699147995838],[-0.371440017276591,44.69696274050845],[-0.371391446204347,44.6969364664611],[-0.371214326136543,44.69686481882205],[-0.371139424952572,44.69683556230393],[-0.371094128488823,44.696813333452006],[-0.371052935544705,44.696783680585],[-0.371006474349071,44.69674833102347],[-0.370988050648569,44.696719155828276],[-0.370968656096018,44.6966800980327],[-0.370953474033914,44.69662910738583],[-0.370950449551849,44.696591262927626],[-0.370965666359438,44.69654790660311],[-0.370988472273071,44.69649837174184],[-0.371008425673641,44.69647082068946],[-0.371029258354645,44.696451623138266],[-0.371045257863909,44.69644032236568],[-0.371231257016909,44.696337515651706],[-0.371380420635854,44.696252501554575],[-0.371485736992748,44.696169454192116],[-0.371474154567372,44.69611529015948],[-0.371442953703057,44.69606262506489],[-0.371402016093909,44.69599926316051],[-0.371344238844385,44.69593317039809],[-0.371253677244469,44.695844918144594],[-0.371077453581808,44.695712238176434],[-0.371117822504002,44.695639550367694],[-0.371133444171729,44.69559663224085],[-0.371171114721797,44.695447252330204],[-0.371194705462003,44.69536020747063],[-0.371216678655443,44.695309436387525],[-0.371238422690266,44.69518523208135],[-0.371274340504582,44.69512682721936],[-0.371316633198835,44.695079942476205],[-0.371365087680526,44.695028364416075],[-0.371497409881298,44.694902682712126],[-0.371695362332286,44.694714806789705],[-0.371778598715312,44.69475038688417],[-0.371911253984789,44.69480743898374],[-0.371992145369666,44.69484182884746],[-0.372178894442809,44.69492246293596],[-0.3722109406227,44.69490067058717],[-0.372336654787028,44.69481655005344],[-0.372355393319202,44.69480669746868],[-0.372377855602201,44.694827369017794],[-0.372410933097629,44.694873398544175],[-0.372447899323172,44.694902098376524],[-0.372456146612325,44.69490058542808],[-0.372579896115419,44.69499242064232],[-0.372592585030615,44.694995458045106],[-0.372713752530837,44.695082145411945],[-0.372832930819768,44.69517357906222],[-0.373030713125206,44.69531812441248],[-0.373039425712958,44.695381296767636],[-0.373081751975822,44.695455158717884],[-0.373132204136808,44.6955444521879],[-0.373174171481396,44.69559967212527],[-0.373209546898875,44.695646081953136],[-0.373234745239708,44.6956618039523],[-0.373295423508352,44.695713029159215],[-0.373401281328416,44.695809824518705],[-0.373531477095853,44.69593327137368],[-0.37358945287877,44.69598998549415],[-0.373610147568935,44.69601909103442],[-0.373630954550826,44.69605639323238],[-0.373704667450553,44.69619228540742],[-0.373726808047418,44.69623918878642],[-0.373737175177082,44.69626671690452],[-0.373738660367472,44.696310465481154],[-0.373838384693244,44.696391317691536],[-0.374030548137477,44.69625443646102],[-0.374380262929745,44.69651815856094],[-0.374586305141718,44.69667389363187],[-0.374681256274151,44.696721459595075],[-0.374881074227277,44.696748074875785],[-0.374989600601656,44.69676287667668],[-0.375254558190184,44.69680129119254],[-0.375633587457961,44.69685848218661],[-0.375866237780089,44.69689535785906],[-0.375706861215953,44.697107025340344],[-0.3755880937284,44.69726906402732],[-0.375878456047783,44.697402399903964],[-0.375969691692293,44.697444851776375],[-0.37600418783507,44.69740703390869],[-0.376090700739894,44.69728860146175],[-0.376302815476139,44.69738116072819],[-0.376697122930853,44.69755394500545],[-0.37680554587755,44.69759857499885],[-0.376944996362945,44.69764865576535],[-0.377151045574525,44.69772851275311],[-0.377156082519181,44.69773034145058],[-0.375871147441135,44.69889828527837],[-0.375870444725321,44.69889920782943],[-0.375842758952584,44.69892420231064],[-0.375058011048845,44.69964199771675],[-0.373878025218663,44.69926149243647]]],[[[-0.373956454269241,44.68708946512063],[-0.373908699059035,44.687114620729126],[-0.373714617551766,44.68722741110182],[-0.373416030164258,44.68740484347472],[-0.372955455219988,44.68768687649402],[-0.372868805480392,44.68773331219561],[-0.372765861471585,44.687792409543356],[-0.372705566624495,44.687829661292035],[-0.372686753985252,44.68784456243069],[-0.372368979817707,44.688037084581154],[-0.372109293331639,44.688168181956215],[-0.372064654063847,44.68819477362108],[-0.371913835874359,44.68828975165439],[-0.371792887195839,44.68836462551943],[-0.371722804748722,44.6884029860224],[-0.371537467670666,44.68849108590177],[-0.371075447355274,44.68869232563054],[-0.370834406722804,44.688805820786804],[-0.370722926725592,44.688861661926744],[-0.370668520171878,44.68878843791415],[-0.370460268998649,44.688898950707156],[-0.370274455868055,44.68899814646413],[-0.370259377720159,44.689005814667034],[-0.370200769027668,44.688951010870916],[-0.370026661363194,44.68904318141357],[-0.369998950933433,44.68901708255963],[-0.369946038022395,44.688962465563904],[-0.370032037836717,44.688917764157104],[-0.369963489551861,44.688848845379994],[-0.369700572381094,44.68898309902908],[-0.369611015656494,44.68903169314812],[-0.369530410261715,44.68897026009031],[-0.369536236412326,44.688966297993886],[-0.369595744342189,44.68893483909097],[-0.369642027643464,44.68891036103945],[-0.369739430823449,44.688859905891704],[-0.370073193261285,44.688687359637385],[-0.370331893409449,44.68855233242368],[-0.370364584198528,44.68853502645352],[-0.370443579118632,44.6884936018763],[-0.370409250932741,44.68843292214252],[-0.37068970393249,44.68830047526193],[-0.370620046457931,44.688238348983724],[-0.370529826868545,44.68815558311476],[-0.370327335091033,44.68825465641357],[-0.369523734719459,44.68866246614599],[-0.36929431899602,44.68878028950807],[-0.369138989770303,44.688654360274406],[-0.36909862639722,44.68861945531704],[-0.368949257300454,44.68849812018018],[-0.368863570577246,44.68842774029841],[-0.368828198836603,44.68840025251052],[-0.36911173427909,44.688249603688966],[-0.369210136996404,44.68819686579866],[-0.369272887150187,44.68816260500101],[-0.369334188783323,44.68812946960899],[-0.369867746452789,44.687844508150896],[-0.369721876366715,44.687711983940126],[-0.369006420901225,44.68809610917687],[-0.368862239097364,44.68797488634619],[-0.368765641462058,44.6879121376428],[-0.368692141799493,44.68786175147485],[-0.368728426902262,44.687841182679705],[-0.368705681985473,44.6878220510513],[-0.368728704964204,44.6878078333983],[-0.368774415687601,44.68778012916848],[-0.368750736641153,44.68775805235702],[-0.368747823600811,44.687760033383725],[-0.368662663330179,44.68768576263272],[-0.368624667376089,44.68765240743767],[-0.368604584386299,44.687665093777426],[-0.368522631988093,44.687600096716686],[-0.368780348837168,44.687435997461165],[-0.369047321409045,44.687268281598854],[-0.369076110868584,44.68724911239804],[-0.369110208096552,44.68722365403333],[-0.369158956407079,44.687189729615746],[-0.369251361848927,44.68712545996952],[-0.369355694982206,44.68705154557815],[-0.369469112717986,44.68697113675618],[-0.369981837427761,44.686642204470566],[-0.370150044550089,44.686540211376524],[-0.370227810540329,44.68649729246862],[-0.370466348143761,44.6863737823734],[-0.370838802188715,44.68615788289871],[-0.371272131323971,44.68590182994546],[-0.37138193692247,44.68583711822377],[-0.371552913753069,44.68574981656498],[-0.371722970800581,44.68566614707976],[-0.371815751015495,44.68562087703133],[-0.37190633590696,44.68558324309289],[-0.371960033733992,44.68556241272091],[-0.372195998658459,44.68549097082712],[-0.372472814413501,44.68557011901529],[-0.372542229148786,44.68559025997307],[-0.372643580294393,44.6856311437904],[-0.372331711964473,44.685833488244185],[-0.372157646430116,44.68594512499639],[-0.372188517012989,44.685973379688036],[-0.372228512933818,44.6860084749076],[-0.372266888159659,44.686041817314084],[-0.372292934326713,44.68606544320338],[-0.372322897685533,44.68609120242843],[-0.372423349763565,44.68618032296751],[-0.372449293684413,44.686202239844086],[-0.372576343239323,44.686317852842095],[-0.372693836793005,44.686419429508355],[-0.372705793183263,44.68642924744802],[-0.372807696870155,44.68650462663756],[-0.37319394155144,44.68626604121153],[-0.373277217854721,44.686213941004986],[-0.373373197249998,44.686234713165206],[-0.373493021546272,44.68626133612563],[-0.373565063373101,44.686318972442194],[-0.373677600225903,44.686407362929415],[-0.373743979084348,44.68635785024294],[-0.373823052081258,44.68629884918887],[-0.37384218824736,44.686283036868225],[-0.374453798725959,44.686586526422936],[-0.374311332813474,44.68667530583801],[-0.374140149940031,44.686778117129386],[-0.374287995607273,44.68690552926213],[-0.374007036003926,44.687060889189404],[-0.373956454269241,44.68708946512063]]],[[[-0.372032731299531,44.69892297018169],[-0.372009087371465,44.69903443698681],[-0.371968868429172,44.699198222663426],[-0.371873945164257,44.69919543851055],[-0.371512266810123,44.69918131915749],[-0.371368322856809,44.699176423876146],[-0.371306730860604,44.699173254390345],[-0.37126246147209,44.699168205398344],[-0.37122440290035,44.699159272607545],[-0.371173255897308,44.69914064618252],[-0.371135409906494,44.699122605694235],[-0.371117684489925,44.6991114313537],[-0.371070048619209,44.69907548674351],[-0.371040587783571,44.69904556645539],[-0.370954643283572,44.69892689582179],[-0.370868385455646,44.69880931601293],[-0.370832037842743,44.69875933056888],[-0.370776580686272,44.69867505442888],[-0.370678699942303,44.69852160407756],[-0.370575352033582,44.698359128918604],[-0.370496301569387,44.69823529191161],[-0.370472364300991,44.698208987890155],[-0.370427367133118,44.698172782447166],[-0.370393608239613,44.698153355685335],[-0.370356362316418,44.69813899122569],[-0.370271060586015,44.69811329487402],[-0.370053143471227,44.69804396932216],[-0.369851894910175,44.697949175016376],[-0.369728141851189,44.697888965550945],[-0.36971929632039,44.69788049421578],[-0.369676051524517,44.69784189224598],[-0.369514894242745,44.69780264607909],[-0.369023006588541,44.69767092499457],[-0.368980314033303,44.697654202846834],[-0.368946609786821,44.697635675114604],[-0.368908659318025,44.69760952715114],[-0.368875033440102,44.69757964307209],[-0.368861515074671,44.69756275344598],[-0.368852023700115,44.69754348843663],[-0.368846623915896,44.69752292740573],[-0.368828283967619,44.697393816627255],[-0.36881466351318,44.69730556248888],[-0.368804447459401,44.6972425257803],[-0.368825438777324,44.69721962930409],[-0.368732597444266,44.69711225085658],[-0.368692482768434,44.69707526534865],[-0.368650538138542,44.69705203235778],[-0.368345990019919,44.696902980199546],[-0.368208963538381,44.69683623476323],[-0.36792670312927,44.69669857783885],[-0.36777746540409,44.696624093671566],[-0.367719509934039,44.696592967430476],[-0.36767907933811,44.696569688013405],[-0.367461557381608,44.69644979364109],[-0.367383375508501,44.69641000147293],[-0.367237899663258,44.6963603627488],[-0.367014228529412,44.696283367087254],[-0.366841517968928,44.696221941215406],[-0.366615289049628,44.696114835609954],[-0.366323253363688,44.695902320191124],[-0.366191666077685,44.69580603092647],[-0.366133873660749,44.69575858896531],[-0.366068940003706,44.69569946966742],[-0.36604770606768,44.69568029139749],[-0.365889110912622,44.69553796607912],[-0.365616478951651,44.69530124976957],[-0.365458030772668,44.69519937901471],[-0.365319448589223,44.69511916103943],[-0.365492244354795,44.69492854775219],[-0.365629399937951,44.69489617090423],[-0.365780164085376,44.69476813319096],[-0.365888030112583,44.69467059613577],[-0.366008670303674,44.69453950969506],[-0.366055343434004,44.69447708494144],[-0.366103567329656,44.69441524375664],[-0.366194905103543,44.6943201916838],[-0.36625728184271,44.694241519714915],[-0.366304461852824,44.69418124207408],[-0.366349486342686,44.69405957470585],[-0.366354829113502,44.694047517564435],[-0.366383400531398,44.69401195569093],[-0.36623775403995,44.69390230758457],[-0.366198998727208,44.69386897450104],[-0.366126779061638,44.693802057206355],[-0.366162136557075,44.69375322291592],[-0.366190953548164,44.69370909313711],[-0.366275036038776,44.69361948813881],[-0.366323547672012,44.69356881178035],[-0.366449204707444,44.69345829754668],[-0.366587855914286,44.69333693493931],[-0.366816951013327,44.693175333831014],[-0.366872637215989,44.69314957967359],[-0.366854629109048,44.69311462421741],[-0.366760259190479,44.6929434929667],[-0.366683906765704,44.69281380480064],[-0.366646557309866,44.69275961362399],[-0.366643154396969,44.692753409452514],[-0.366641384730634,44.69274283028173],[-0.366642965904502,44.692731248037546],[-0.366646942287272,44.69271535771704],[-0.36665261474338,44.69270247953539],[-0.366664198286134,44.69269338632764],[-0.36673643749003,44.69266559662331],[-0.366949629998341,44.69258665979735],[-0.367045859986567,44.69251011091206],[-0.367191359450507,44.69237024664662],[-0.367240187878555,44.69229955570459],[-0.367248226743821,44.69228822745009],[-0.367291870320827,44.69222589433855],[-0.367255809915329,44.6921805850658],[-0.367205449526363,44.692117959282285],[-0.367166732531001,44.69208525618588],[-0.367086349726392,44.69203390681334],[-0.367058350685102,44.692015655576895],[-0.366968711636997,44.69196161420041],[-0.366864495395308,44.69191729776083],[-0.366776667682122,44.691880862743886],[-0.366664028942946,44.691828782625564],[-0.366446753521566,44.69173167750227],[-0.366342063008595,44.69168575304629],[-0.366124496466703,44.6915900979527],[-0.36588927503207,44.691478038873186],[-0.365672368234377,44.691349022071],[-0.365476491990813,44.69122945745353],[-0.365432292440242,44.69119376673799],[-0.365407162805427,44.69117912234896],[-0.36536814614445,44.691160394891796],[-0.365320463150445,44.69113616399576],[-0.365323276188921,44.6911261662954],[-0.365365669938446,44.69103656862118],[-0.365422592726119,44.69091742333166],[-0.365557528844994,44.69079103873854],[-0.365648178558399,44.69070357728718],[-0.365743263234658,44.690639589713186],[-0.36578973610126,44.69060555589592],[-0.365895527034733,44.690517813782385],[-0.365977907445549,44.69045051800607],[-0.366066372337472,44.690345551161755],[-0.366125530330114,44.69022579680225],[-0.366163099581224,44.690144275294735],[-0.366193011732597,44.69004244162872],[-0.366228782463082,44.68991817245233],[-0.366255481780615,44.689825988220555],[-0.366632146971656,44.689984023403724],[-0.366880010097034,44.690111104813134],[-0.366949812394957,44.690150341009364],[-0.367010034161521,44.69018779621953],[-0.367241256939862,44.69032808889749],[-0.367374108402127,44.69044569405227],[-0.367405457213862,44.69052628967339],[-0.367451818203783,44.69064878018693],[-0.367463818108431,44.69067833154779],[-0.367512221532289,44.6907399353959],[-0.367535349258232,44.690765453495615],[-0.367584621867432,44.69080990989373],[-0.367698662836473,44.69091078614818],[-0.367710629503256,44.690901771268024],[-0.3678482281352,44.690997334617734],[-0.367895964329498,44.69102877166348],[-0.367932129276024,44.691044160873965],[-0.367965581695224,44.69105855132891],[-0.368042266519277,44.691092441085445],[-0.368084055772657,44.6911131557525],[-0.368161223553146,44.69116144839069],[-0.368195883193167,44.69118967902651],[-0.368228298537591,44.691224736262996],[-0.368271532636559,44.69128226202879],[-0.368294704751131,44.691327512818994],[-0.368327241731067,44.691396267621215],[-0.368357078513099,44.69145789579893],[-0.368362701269156,44.6914695290649],[-0.368393457692423,44.691527524819655],[-0.368448508179186,44.69157351706215],[-0.368505507871926,44.691626748874576],[-0.368554586720262,44.69167427455565],[-0.368638078518581,44.69179022750419],[-0.368662545089182,44.69182543656691],[-0.368689546658425,44.69185867611541],[-0.368710647882051,44.69188831068743],[-0.36884807045536,44.69203785447659],[-0.368854580614937,44.692045315621286],[-0.369050233647579,44.69226229081704],[-0.36906403218589,44.69227754982937],[-0.369291007179599,44.692574580142654],[-0.369353033851421,44.692654781756126],[-0.369401457191921,44.69271665466276],[-0.369652961459998,44.69303086932019],[-0.369847125253054,44.69326717240014],[-0.369547455552632,44.69330062972413],[-0.369601837900006,44.693398725743556],[-0.369650355807078,44.69355079635828],[-0.369474623400697,44.69359075110381],[-0.36936288266909,44.69360442685557],[-0.3693152171085,44.693605878512734],[-0.369213916837684,44.69359769973395],[-0.369187479041639,44.6935992257496],[-0.369176248539891,44.693601550190664],[-0.369154592582757,44.69360698554761],[-0.369026936421012,44.69369035051102],[-0.369002392989502,44.693679203321246],[-0.368622413931772,44.69391595992013],[-0.36843841178747,44.694020413554725],[-0.368386004825705,44.69405030385673],[-0.368318191247983,44.69407606756143],[-0.368313572438819,44.694112883155604],[-0.368388012617626,44.6941725226763],[-0.368353740189698,44.69423312917608],[-0.368814470543332,44.69442103860182],[-0.369112354977907,44.694541276292554],[-0.36945400537895,44.69468351895649],[-0.369485397000674,44.69464444613169],[-0.369510942658498,44.69464700220579],[-0.369573457119758,44.69465933571515],[-0.369477729479006,44.69483292064224],[-0.369559821741714,44.694855741511375],[-0.369849483020164,44.694933515378914],[-0.37008752564092,44.694997361861894],[-0.370007817210064,44.695172621992306],[-0.369941215849756,44.69533892231782],[-0.369972482232584,44.69538005161157],[-0.369958029686824,44.69541085911179],[-0.369956092296679,44.69547345489521],[-0.369968510570782,44.69547830305438],[-0.370011979932177,44.6954953615472],[-0.370179124766148,44.695558754247685],[-0.370249327836449,44.6955855412414],[-0.370303080341516,44.695584444470356],[-0.370304495200121,44.69556376603275],[-0.370317751427596,44.69541170600308],[-0.370307223637282,44.695204231588484],[-0.37031227891693,44.695193714867045],[-0.370329191014328,44.695184999604784],[-0.370353441766971,44.69517858387736],[-0.370407892556979,44.695170166810165],[-0.370646769542649,44.6951782983481],[-0.370755299957437,44.69509830763806],[-0.370834714939365,44.69500046088763],[-0.370867321498306,44.69496270228578],[-0.370881390127953,44.694957137332494],[-0.370891858829377,44.69495474582356],[-0.370914270505097,44.694955594854655],[-0.370934179472322,44.694958953123376],[-0.370961031392104,44.694970660356034],[-0.370975054443433,44.69497699138583],[-0.370987801285061,44.69498732616798],[-0.370997975395752,44.69499900088746],[-0.371016883347145,44.69503627124996],[-0.371027757754056,44.69505963901559],[-0.371062692271641,44.69511137941916],[-0.371101409935448,44.695163004541605],[-0.371123143938721,44.6952031624338],[-0.371132351910138,44.69523667336496],[-0.371138598064925,44.69527135587213],[-0.371135470965578,44.6952887524055],[-0.37113111125183,44.69533619335166],[-0.371115076577004,44.69539119889114],[-0.371095541826289,44.695463702436406],[-0.371071269684412,44.695552029583816],[-0.371053393045599,44.69560159448761],[-0.371006231063672,44.695700080681675],[-0.370998499514694,44.695716536176754],[-0.37099725975716,44.695727477343304],[-0.371001009320614,44.69573313018166],[-0.371018133244673,44.695746936030645],[-0.371125135370937,44.695831263309145],[-0.371174486494082,44.69587057971199],[-0.371238767259651,44.69592503032604],[-0.371292062095133,44.69597323758421],[-0.371322348120322,44.69600430402088],[-0.371376610452616,44.69608131719053],[-0.371388959563784,44.696110316977865],[-0.371390242971589,44.69612541646939],[-0.371368765260016,44.696184462684656],[-0.371038249156892,44.696380251851295],[-0.370969960376481,44.69642342299866],[-0.370954371494455,44.696435251913144],[-0.370936954419719,44.696454525604295],[-0.37091065329486,44.69649632731338],[-0.370880505954363,44.696556178230026],[-0.370864697796716,44.69658333263107],[-0.370847479951193,44.696605934332915],[-0.370796678316528,44.69665632210076],[-0.37079562325211,44.696689334762326],[-0.370910310076962,44.69675639727107],[-0.37102537179477,44.69684237149964],[-0.37109638492708,44.69688264995713],[-0.371147539408923,44.69690776408345],[-0.37123095767742,44.69694000506757],[-0.371305352631608,44.6969608065466],[-0.371341760565047,44.696973844538],[-0.371371093565547,44.69698899042868],[-0.371409353041501,44.69701395670841],[-0.371447216881785,44.69704497245216],[-0.371478347596371,44.697071147158496],[-0.371497464835871,44.69709291207149],[-0.37150875048699,44.69711680795854],[-0.37154016398228,44.697191994284275],[-0.371586277079503,44.69727213930481],[-0.371762135512822,44.697544141115834],[-0.371885861863708,44.6977304141512],[-0.371889235303448,44.697755091810244],[-0.371899222641223,44.697757310538556],[-0.371908493033521,44.69777919526872],[-0.371965680474271,44.69792397256357],[-0.371976160213262,44.697953389741784],[-0.372007133827238,44.698046521448184],[-0.372018003837599,44.69806979919588],[-0.372042375806319,44.69814763303799],[-0.372052964317557,44.69820417025404],[-0.372061405700964,44.69826915321546],[-0.372064152647393,44.69835296266887],[-0.37205448232879,44.69848256642274],[-0.372042903728509,44.69867521580872],[-0.372036144561703,44.69881545403996],[-0.372034489579375,44.69888272716176],[-0.372032731299531,44.69892297018169]]],[[[-0.371964742309429,44.70014793664897],[-0.371653789687837,44.70024040470382],[-0.371270437218699,44.700364453966145],[-0.371076029055408,44.70042201071901],[-0.371073402200124,44.700422451195166],[-0.371056911317138,44.70042556683829],[-0.370975863744121,44.700432992179806],[-0.369888607027392,44.700537479197834],[-0.369888671653217,44.700538558559025],[-0.369888357934475,44.7005396494432],[-0.369885405155415,44.70057262981146],[-0.36988515606222,44.70057480005684],[-0.36987416907858,44.700644519986525],[-0.369860152783135,44.70065098429116],[-0.369856742289783,44.70065099805044],[-0.369276232914807,44.70063488498503],[-0.369259581766526,44.700628994160006],[-0.369086871363787,44.700662818271],[-0.369084406008101,44.700665957104256],[-0.368989476028073,44.70068209386724],[-0.368788404019348,44.700723359141364],[-0.368547922967341,44.70077114035501],[-0.368550435297392,44.70077511885218],[-0.368639211404455,44.700909474535734],[-0.36864038263067,44.70091637740481],[-0.36864040954831,44.70091682713898],[-0.368595386211628,44.70091819785897],[-0.368589711000967,44.700918370637496],[-0.368581398125468,44.70091880393917],[-0.368077466186893,44.70093459520922],[-0.367945884011975,44.70073729315105],[-0.367902726888016,44.70066850066674],[-0.36786545019685,44.700621966744045],[-0.367807643850803,44.70056173008567],[-0.36770152356115,44.700479535147586],[-0.367376408646404,44.70025306980068],[-0.367357439767456,44.70026545158933],[-0.367246749949668,44.70017654691943],[-0.367204337106583,44.70013918017993],[-0.367175300823906,44.70010365911731],[-0.367154007325607,44.700077183817335],[-0.367132905895457,44.70006025439668],[-0.367017816641376,44.69997382628632],[-0.366877772814944,44.69985040107761],[-0.366790332325939,44.699795300908455],[-0.366725361043371,44.69973564222633],[-0.366709766458764,44.69972205948522],[-0.366630129645919,44.69965167328224],[-0.366627730485678,44.69964958362789],[-0.366624657076073,44.699642558406175],[-0.366624126163861,44.69962734586932],[-0.366633706456132,44.699616421315916],[-0.366678265876761,44.69958830263199],[-0.366692939937141,44.69954847779964],[-0.366706022094554,44.69953906867557],[-0.366724180391892,44.699525810557326],[-0.366780104020073,44.69948491077306],[-0.366680188485056,44.69931629035611],[-0.366583801146356,44.69921298280651],[-0.366506625425587,44.69915838113186],[-0.366511992068791,44.69915938928115],[-0.366508068830103,44.69915716577663],[-0.366478180135469,44.699139061849515],[-0.366440649427389,44.69911992888245],[-0.366359020135708,44.69908591771747],[-0.366241065300115,44.69903390823625],[-0.366177049459901,44.69900287538139],[-0.366160264633736,44.69899473542142],[-0.366117389028367,44.698974953967095],[-0.366098004289234,44.698967704090535],[-0.366047750305061,44.69895130095128],[-0.366007293600094,44.69894027670134],[-0.365960632944485,44.698926918076644],[-0.365941766431262,44.698921995282724],[-0.365911618046586,44.69890588154559],[-0.365840211600662,44.69886534140082],[-0.365694051573773,44.69875363511324],[-0.365631361572106,44.698700394446035],[-0.365488982186181,44.6985821750712],[-0.365477069354669,44.698566768091304],[-0.365439418123643,44.6984822182514],[-0.36543171351775,44.69847380199537],[-0.365334985017841,44.69842177675248],[-0.365275330997268,44.69839394483732],[-0.365204981591612,44.698364726094795],[-0.365139263648465,44.69833689832459],[-0.364991032760002,44.69827292263906],[-0.364956468711883,44.69825901549991],[-0.364775996097292,44.69818827060295],[-0.364662982448858,44.6981427774644],[-0.364638140264394,44.698132989997916],[-0.364603888244499,44.69812429967191],[-0.36454587871746,44.69811128560215],[-0.364517143778758,44.698106122007765],[-0.364487560784096,44.69809945231691],[-0.364449943450384,44.698085187321965],[-0.364406226456159,44.69806398906921],[-0.364383855230991,44.69805115276685],[-0.364369914780322,44.69803986230858],[-0.364353905269688,44.6980256611196],[-0.36434397930343,44.69801812333627],[-0.364262247340468,44.69797600390959],[-0.364234061475403,44.6979610015128],[-0.364212007524515,44.697953472046514],[-0.364179070076374,44.69794140753796],[-0.364151416481995,44.697935309868996],[-0.364103686626669,44.6979230643402],[-0.364009517861834,44.697901147174335],[-0.363887639845904,44.6978785405144],[-0.363684957242531,44.697822976959245],[-0.363471099299725,44.69776432857987],[-0.363681615076656,44.697564101304216],[-0.36407207194503,44.69725459538584],[-0.363786443341292,44.697161905507535],[-0.363918879563367,44.697018748550065],[-0.363951274875216,44.696983701868],[-0.364024012144864,44.69690705912731],[-0.363953235193139,44.69687064385111],[-0.363877124211548,44.69683375993585],[-0.363957573637082,44.69674030245135],[-0.364144132133005,44.69651980689939],[-0.364412755896751,44.696213913962396],[-0.364421697683699,44.696204991454195],[-0.364354066164835,44.69617046324076],[-0.364304028826091,44.696144951683046],[-0.364220129864597,44.69611091805477],[-0.364192479162958,44.696098512614014],[-0.364612262431159,44.69581064041517],[-0.364409942690211,44.69565324269253],[-0.364592621817487,44.69555180995683],[-0.364375827122372,44.695507310132406],[-0.36431936584734,44.69549478962115],[-0.364090985708074,44.695446676695376],[-0.364441825720537,44.69498824998619],[-0.364460577452009,44.69496380050477],[-0.364429482404269,44.694952941652545],[-0.364354945506736,44.69493601478696],[-0.36414047159841,44.69489225500896],[-0.364074748834156,44.69487695226217],[-0.364036801814207,44.69486981595189],[-0.363984990476756,44.694852648391254],[-0.363857777153487,44.69480407216168],[-0.363787199790178,44.694777292624686],[-0.36371722146662,44.69470345725876],[-0.36374660191972,44.6946623747925],[-0.363756011968726,44.694642264425596],[-0.363768879233571,44.694610244496026],[-0.363788402906927,44.69455008799118],[-0.36380964272411,44.69448059794452],[-0.363824935079437,44.69441939865105],[-0.363830890644312,44.6943858767669],[-0.363849246045633,44.69421104538047],[-0.363851672481652,44.69419457153306],[-0.363865285445249,44.6941623486992],[-0.363938209441492,44.69403181436128],[-0.364033784136298,44.693861753705384],[-0.364040246160025,44.693849392327216],[-0.364119992714292,44.69362376428312],[-0.364186485592683,44.693455398789006],[-0.364217181174084,44.69335390231238],[-0.364212145653596,44.69333305974327],[-0.364154641285785,44.69278306324882],[-0.364155692684003,44.69270553646321],[-0.36416781610933,44.69237572475841],[-0.364186572006347,44.69234713012665],[-0.364222898496591,44.69229547362163],[-0.364239789766519,44.69226738623347],[-0.364355707248111,44.692165100342706],[-0.364433981084114,44.692092433962856],[-0.364476059662393,44.69206727506949],[-0.364587367937972,44.6919956764657],[-0.364738219156906,44.69190088817831],[-0.364873437973857,44.69181720815291],[-0.364928399780005,44.691773004403416],[-0.36493875176871,44.691762326856484],[-0.365042832872496,44.69163958474376],[-0.365139930137025,44.69153949241449],[-0.365167205172996,44.691482253734264],[-0.365196224787372,44.69140982345612],[-0.365230929605796,44.69131838718846],[-0.365259228508425,44.69123390404273],[-0.365285736205682,44.69115749519003],[-0.36528979514541,44.6911556596236],[-0.365297977551156,44.691153067850394],[-0.365545873067675,44.6913060130288],[-0.365766214414473,44.69144177395231],[-0.365849019032486,44.691501971445895],[-0.365902972016191,44.69154232133241],[-0.365940043911,44.69156020668448],[-0.366254558877977,44.691692740965195],[-0.366262834524203,44.6916853704373],[-0.366744664155008,44.69190337306824],[-0.366785189557881,44.691921964049335],[-0.366943223730183,44.69201068906104],[-0.367155284464017,44.69213462466425],[-0.367230926021221,44.692214412962535],[-0.367212537582417,44.692249124478856],[-0.367152646003457,44.69234394126625],[-0.367106979565537,44.69239146767205],[-0.367060070574471,44.69243722966708],[-0.367021480211334,44.69247634062933],[-0.366922422974904,44.69255630962093],[-0.3665545687597,44.69269798399036],[-0.366685299037767,44.69290044861335],[-0.366781101139487,44.69307018467583],[-0.366818426002753,44.69313663158517],[-0.366820077357388,44.69314523192794],[-0.366817049288785,44.69315163180703],[-0.366771105582037,44.6931818653028],[-0.366679727148471,44.69323817166695],[-0.366578835591621,44.6933001740614],[-0.366438983265165,44.69342679960893],[-0.366358944148311,44.69349528599095],[-0.366284435842864,44.693554863315825],[-0.366178546644793,44.693666397874075],[-0.366095708190766,44.693751459424426],[-0.36608667927253,44.693822290560234],[-0.366136830128889,44.69386239568017],[-0.366224440112418,44.69393316999575],[-0.366266108933118,44.693964522105304],[-0.366272753450432,44.69397423207522],[-0.366287261697921,44.69400136441086],[-0.366294628878825,44.694035832750004],[-0.366294351017605,44.69404386102981],[-0.36628840947693,44.69407125515424],[-0.366216390879721,44.69419149107296],[-0.366162933825619,44.69426088058795],[-0.365980641705862,44.69448908962959],[-0.365818724821064,44.69467144306126],[-0.365758369519539,44.694726894895055],[-0.365587675159554,44.69487022685966],[-0.365520098308308,44.694836598843416],[-0.365514746378324,44.694842168271244],[-0.365279462883469,44.69509694861298],[-0.36528608235211,44.69509990112831],[-0.36524266071494,44.695127984684135],[-0.365292478719749,44.69516251350355],[-0.365531446870365,44.69531798378545],[-0.365566968399335,44.695341593476485],[-0.365667342066312,44.69542297351853],[-0.36570991889475,44.69545682134803],[-0.365802759008389,44.69553897112522],[-0.365904384828502,44.695628603045904],[-0.36608020520249,44.69578644394919],[-0.366153067424211,44.695845051687876],[-0.366227821368443,44.69590360182755],[-0.366339761608115,44.695988233833894],[-0.366438534577693,44.696061822358004],[-0.366569195831493,44.69614894827828],[-0.366803109491904,44.69625780255988],[-0.366926699809536,44.69631540680245],[-0.36698964968826,44.69634133525355],[-0.367230555155927,44.69642132076599],[-0.367362298710735,44.69646948513638],[-0.367387972605905,44.69648050821126],[-0.367476609693376,44.696530344870716],[-0.367615529921941,44.69660343136403],[-0.367647520721297,44.69661867752622],[-0.367788236113538,44.696690087187136],[-0.367877167679689,44.6967321650784],[-0.367966995951528,44.696776558481126],[-0.368129430920489,44.69685622751812],[-0.368349623328868,44.6969636942358],[-0.368423116081311,44.69700110543735],[-0.368504299165652,44.69704035500035],[-0.368542250574478,44.69706019530852],[-0.368591430218451,44.697090326797216],[-0.368621668408837,44.697114276676494],[-0.368656238930241,44.69714728592476],[-0.368677462044998,44.69717259159999],[-0.368705567361206,44.69721156476221],[-0.368727845652262,44.69725449998418],[-0.368735929821222,44.69728191780151],[-0.368763858665147,44.697450925962336],[-0.368784908944803,44.6975683299544],[-0.368789435108668,44.69758062740959],[-0.36880187231638,44.69759845106966],[-0.368817206929282,44.697614023852594],[-0.368855135824418,44.697639812060594],[-0.368922408223878,44.69768092669261],[-0.36896932012222,44.69770481934846],[-0.369038899308754,44.697727481101865],[-0.369137197577201,44.69775503537358],[-0.369172909535465,44.69776277874662],[-0.369273510193876,44.69779080345467],[-0.369400543924547,44.6978235198525],[-0.369475550639484,44.6978418709644],[-0.369549614873665,44.69786980246235],[-0.369586525164274,44.69788489828749],[-0.369660392882602,44.69792220721171],[-0.36970143114451,44.69794294436486],[-0.369814981588882,44.697997337078355],[-0.369989193944296,44.69807736579052],[-0.370088691561612,44.69811227180201],[-0.370179235947308,44.69813690749189],[-0.370275606144455,44.69816388875016],[-0.370303173025218,44.69817485353427],[-0.370352631887927,44.69819695595078],[-0.370412983015932,44.69823638824756],[-0.370437056220936,44.69825863315743],[-0.370455107196463,44.69828790993246],[-0.370517878449057,44.69838674154708],[-0.370593405694957,44.6985087034476],[-0.370715691116215,44.698702591004114],[-0.370812739835533,44.698829484014844],[-0.37090960997615,44.698959716499445],[-0.371015018177402,44.69909960097508],[-0.371034585526744,44.6991162159708],[-0.371072575708557,44.699142992846625],[-0.371105605695838,44.69916289219611],[-0.371163372953541,44.69918447082087],[-0.371195896577333,44.69919591515781],[-0.371276959071151,44.699214080619],[-0.371382097393139,44.69921655402567],[-0.371487802636696,44.699222163936575],[-0.371636426833952,44.69922925932772],[-0.37186817594912,44.699238326865455],[-0.371925228022918,44.69924163439849],[-0.371942911662012,44.699245781243725],[-0.37196260440369,44.69925815705505],[-0.371969969478068,44.69926721401544],[-0.371975296254877,44.69928020786084],[-0.371991201573243,44.69940650909662],[-0.371985361652759,44.69954311490678],[-0.371981495353102,44.69967470447774],[-0.372004588968699,44.70013608921745],[-0.371964742309429,44.70014793664897]]],[[[-0.366284239776197,44.68909648171106],[-0.366331194292014,44.68924796995467],[-0.366421983119769,44.68932765807394],[-0.366364353937452,44.68941591760187],[-0.366316299588245,44.68948685490029],[-0.366289288389885,44.68953579571516],[-0.366235497132555,44.68963754503077],[-0.366203218822114,44.6897378287166],[-0.366180467050301,44.68980096742357],[-0.366112017977,44.69010122502412],[-0.366067923010916,44.6902320551617],[-0.366061768415414,44.690249543598426],[-0.366026231961378,44.69030802510056],[-0.365937695334101,44.690418130378184],[-0.365752299183327,44.69058155412864],[-0.365608007637824,44.69067821688314],[-0.36552527338066,44.69073326813718],[-0.365447180297542,44.69080890349181],[-0.365376168655368,44.69087621344327],[-0.365329748853067,44.6909301598259],[-0.365317944750136,44.69095457834378],[-0.365249559537643,44.69112921972514],[-0.365242533223984,44.69115115003067],[-0.365210179158496,44.691224853183655],[-0.365174440077213,44.6913053274526],[-0.365127310642284,44.69141714610942],[-0.365100053311945,44.691487360116],[-0.365089018214255,44.691505627719245],[-0.365030818575136,44.691571736722594],[-0.364966089247571,44.69164273003644],[-0.364933473362668,44.691686704682844],[-0.364868479934397,44.69177230382847],[-0.364804738762301,44.69180911520003],[-0.364700461185158,44.691865181463854],[-0.364499264401295,44.69199898668641],[-0.364396106331911,44.692067453813785],[-0.364340964436972,44.69211499683773],[-0.36419052865366,44.69224212149423],[-0.364142250762982,44.69230306232825],[-0.364089874064177,44.69237151681601],[-0.364087453243635,44.69248954472662],[-0.364082362207376,44.69262630665792],[-0.364087060408665,44.69275565221531],[-0.364098667404442,44.692911820772274],[-0.36410744965084,44.693046088331265],[-0.364132794598203,44.69333700455957],[-0.364091778771492,44.6935511823305],[-0.364064341725247,44.69361842789252],[-0.364039974682802,44.693616555628154],[-0.363979357439914,44.69361055921208],[-0.363966624211811,44.693663841113036],[-0.363903731753185,44.69365782372498],[-0.363869987838299,44.693657588188046],[-0.363834540556395,44.69366055829133],[-0.363784694340595,44.69366991345741],[-0.363765138962442,44.693678798176116],[-0.363752122175266,44.69368928629436],[-0.363744313532712,44.69370448201483],[-0.363735979411256,44.69372356845273],[-0.363732573936361,44.693742685258854],[-0.363734324139145,44.69377831570911],[-0.3637509202133,44.693796013390184],[-0.363780532352614,44.69382223623758],[-0.363802198910292,44.69383599511454],[-0.363867463491239,44.693843652536245],[-0.363881769044009,44.69384204613558],[-0.363986966249326,44.693813977071166],[-0.363873233589672,44.694016308600766],[-0.363775610753781,44.69418381817946],[-0.363761854427873,44.69439121974735],[-0.36374472551598,44.69446608152146],[-0.36371057329786,44.69457317968634],[-0.363694768881916,44.69461312850261],[-0.36367430651803,44.69465123650696],[-0.363546300869839,44.694697209720935],[-0.363486222426171,44.69472561874572],[-0.363409524401983,44.694773996806354],[-0.363398235507222,44.694788036759476],[-0.363321748253453,44.694911830651755],[-0.363387336888811,44.69492912034464],[-0.363611588496084,44.69498429864138],[-0.36354345562849,44.69518235992543],[-0.36350161972996,44.695332133578624],[-0.363629550431953,44.69535464656402],[-0.363655688315044,44.6954305357812],[-0.363686141048953,44.69548349590227],[-0.363597345678623,44.69551971654015],[-0.363383428852107,44.69579610022301],[-0.363301460269234,44.69590852661656],[-0.363247845405551,44.695981704039525],[-0.36319804254229,44.69604890838613],[-0.363195663050267,44.696053486233964],[-0.363159069852611,44.6961007350733],[-0.363099613126169,44.69613957774872],[-0.362812658913624,44.69634176680814],[-0.362632420780301,44.696572971214565],[-0.362520034319018,44.69672822275009],[-0.362515031180083,44.69673963859157],[-0.362509591611261,44.696762782035925],[-0.362505589096125,44.69677191470887],[-0.362500417189291,44.69678684998059],[-0.362480869871645,44.69684664651994],[-0.36247980116825,44.69690489025616],[-0.36247815830538,44.69699793402195],[-0.361951378860838,44.69687174818379],[-0.361816752944071,44.69683871347592],[-0.361880853584382,44.6965285886208],[-0.361686390791815,44.69638842867891],[-0.361646670320813,44.696351609027055],[-0.361629810248617,44.69636122243686],[-0.361609252937939,44.69637238994352],[-0.361557864604967,44.69639404588039],[-0.361507251283922,44.69640964085921],[-0.361374532784069,44.696440255644774],[-0.361014025753265,44.696527891589966],[-0.360872723509853,44.69656074894135],[-0.360745279305775,44.69659084229546],[-0.360628135534321,44.69662206439103],[-0.360541334852636,44.69664731855614],[-0.360492202083649,44.696662327425635],[-0.360431360411641,44.69668436006033],[-0.360055094860114,44.696844559575204],[-0.359882684172052,44.69691503520608],[-0.359373184952252,44.69712271133165],[-0.359071984953476,44.697251612647094],[-0.358884240543035,44.69734462917745],[-0.358741465541264,44.69745448248972],[-0.35871379406065,44.697454421411166],[-0.358664538874776,44.69742293632259],[-0.358634785055935,44.69740068123353],[-0.358623105138677,44.69738914125277],[-0.358602452636135,44.69736697031614],[-0.358539652495186,44.69727363024771],[-0.35844944394399,44.69714651984282],[-0.358353467125966,44.69703706583316],[-0.358199263746546,44.696872789950866],[-0.358133537547112,44.69680026384033],[-0.358095005043968,44.69673249915306],[-0.358105579258114,44.69672551006127],[-0.358511132635942,44.69649711603571],[-0.358893009891861,44.69628484806138],[-0.359174008883925,44.69612871644628],[-0.359316098760978,44.696045555901165],[-0.35988257035239,44.695706751528355],[-0.360065541932647,44.69559738793996],[-0.360073818962499,44.695590017864134],[-0.36008197003637,44.695586886789776],[-0.360100520583409,44.69558019591388],[-0.36074006116524,44.69506885954512],[-0.360749494439531,44.69506181473319],[-0.360884452239098,44.694960846670625],[-0.360930899383329,44.6949262751568],[-0.360987860903378,44.694883724844495],[-0.360993548627384,44.69487742456679],[-0.361065120053129,44.69480027862548],[-0.361165824722044,44.69459537243999],[-0.361287609363554,44.69439442132956],[-0.361460365188583,44.694063334201466],[-0.361466178623115,44.69405279490013],[-0.361511795129775,44.6939662547949],[-0.361590104026868,44.69375445941255],[-0.361593328388415,44.69374498998435],[-0.361629906620744,44.693634034270914],[-0.361683682022933,44.69343028320005],[-0.361716234532318,44.69334711360066],[-0.36186924933575,44.69298382555168],[-0.362093662174659,44.692908612307406],[-0.362152731209344,44.69288870505092],[-0.362153098759299,44.69288851366061],[-0.362051052732312,44.692810695918126],[-0.361965084224308,44.692748248902404],[-0.362021359178759,44.692637145047165],[-0.362223341729602,44.69235139496105],[-0.36223659394363,44.69233215918827],[-0.362327846028063,44.69219755472671],[-0.362552215631533,44.69186156301274],[-0.362657017878581,44.691731772792465],[-0.362680716844714,44.69167806768248],[-0.36268103065369,44.69167697682231],[-0.362774035553818,44.69154637363901],[-0.362700730984575,44.691511927007674],[-0.362704401002397,44.69150992314057],[-0.362708555724173,44.6914970012136],[-0.362718807109416,44.69146560161311],[-0.362743646075878,44.69144367071611],[-0.363086294566119,44.69113381884388],[-0.363428179982748,44.690766859197545],[-0.363598602807678,44.69060641789658],[-0.363744627768367,44.69050700185228],[-0.364200301773549,44.69018623041697],[-0.364739970208196,44.6898062229897],[-0.36503177486215,44.689603430107745],[-0.365254785396981,44.689441656770725],[-0.366158720518642,44.688904942204275],[-0.366176993842532,44.68889366305217],[-0.366202974113224,44.68887818453149],[-0.366211037819169,44.68887361386873],[-0.3665784727756,44.68865562950085],[-0.366600788513181,44.68864224482811],[-0.366845622746484,44.68849701498375],[-0.366851139005564,44.688500541614985],[-0.36711804458814,44.68866732196027],[-0.366939110133004,44.68874855086438],[-0.366803641832339,44.688834223653835],[-0.36679178816935,44.688826114051885],[-0.366514330078543,44.68898981794545],[-0.366297624486759,44.68911752065145],[-0.366284239776197,44.68909648171106]]]]}}]}
