{"type": "FeatureCollection","name": "aoc_geojson","features": [{"type":"Feature","properties":{"dt":"Colmar","type_prod":"Vins","categorie":"Vin de sélection de grains nobles, Vin de vendanges tardives, Vin tranquille","type_denom":"appellation","signe":"AOC","id_app":1210,"app":"Alsace grand cru Mambourg","id_denom":26,"denom":"Alsace grand cru Mambourg","insee":"68162","cvi":"1B024D10, 1B024D11, 1B024D12, 1B024D13, 1B024D14, 1B024D20, 1B024D21, 1B024D22, 1B024D23, 1B024D24, 1B024S 1, 1B024S 2, 1B024S 3, 1B024S 4, 1B024S00","nomcom":"KAYSERSBERG VIGNOBLE","insee2011":"68310","nomcom2011":"SIGOLSHEIM","id_aire":38,"crinao":null,"grp_name1":null,"grp_name2":null},"geometry":{"type":"MultiPolygon","coordinates":[[[[7.301011092104316,48.1372314912603],[7.301046235743891,48.13726625535227],[7.301113695227343,48.13723495604209],[7.301214787692313,48.137153766190345],[7.301291132316259,48.137066270139044],[7.301026531304996,48.13679296074366],[7.300917581600266,48.136843797543136],[7.300823861414248,48.136883264451065],[7.30079013182113,48.1368989140319],[7.300787447163648,48.1368990120042],[7.300862028490717,48.13698820926134],[7.300734139205893,48.137037934709156],[7.300784462285798,48.13709377292914],[7.30094587811725,48.13725730156207],[7.300951101093538,48.137255308618926],[7.301011092104316,48.1372314912603]]],[[[7.30140276678255,48.137015335015974],[7.301259791790756,48.13717735634569],[7.301200825633186,48.13721375276918],[7.301383731153162,48.1373452260602],[7.301250070290119,48.13736542419194],[7.301035624200955,48.137407044379984],[7.301082535079733,48.13749040247491],[7.301121250946053,48.137559100271176],[7.301175916627408,48.13770129183447],[7.301194317170054,48.1377618996038],[7.301275286055721,48.138160864717825],[7.301340589592262,48.13846668017959],[7.301371582968604,48.13858270060246],[7.301384810615437,48.13861285747597],[7.301404871704668,48.138660788265916],[7.301424640041089,48.138705125072924],[7.30148497245704,48.13875158603972],[7.301530563630175,48.138782364021644],[7.301553652035118,48.138801346983165],[7.301584501916776,48.13881644199207],[7.301637561859546,48.13883973800576],[7.301720593375097,48.1388673470372],[7.301722838915303,48.13886185807853],[7.301906524204725,48.138902014074574],[7.30234633507237,48.13901212280467],[7.302459631776912,48.139047638162396],[7.302489310606859,48.139048357033964],[7.302710241972869,48.139215117744776],[7.302910428730608,48.13939164711983],[7.30288426440895,48.13943405602595],[7.302887632675009,48.139475386709975],[7.302890708052968,48.13951312342036],[7.302817291360787,48.13953743179039],[7.302855220188756,48.13960633802685],[7.302861322000752,48.13961512691896],[7.302946747894834,48.13983729965148],[7.302937863805502,48.13989349631354],[7.302860834505921,48.14003869284203],[7.30285619711443,48.14004787380832],[7.302825687915194,48.14010305761952],[7.302819634917842,48.14016095322961],[7.302845067784255,48.140406944181635],[7.302850193456321,48.140469838660714],[7.302881679804195,48.14075706218374],[7.302875089751307,48.140775326089326],[7.302847704351819,48.14083580281338],[7.302838722320022,48.14085775870406],[7.302829154487292,48.14087252665529],[7.302825249258334,48.14089069253818],[7.302801085589488,48.14099070290563],[7.302832718232015,48.141081466947924],[7.302964130899499,48.14127312335998],[7.303222174330426,48.14156469149861],[7.303442973300482,48.14182878171937],[7.303480367081828,48.14185805599802],[7.303485736890619,48.141857859931456],[7.303412756627834,48.14188755958129],[7.30328432147308,48.141996784117225],[7.303606713361211,48.142450014092006],[7.30363976316402,48.142492063251744],[7.30393256765417,48.1424831738579],[7.304148923378151,48.14242841258027],[7.304329399823973,48.1424290311238],[7.304401892980005,48.14242638368384],[7.304520125456698,48.142357181823876],[7.304657053242232,48.142253052731604],[7.304794420044304,48.14215431441495],[7.304922658436939,48.14207573498248],[7.305083701462707,48.142003166496366],[7.305168933234125,48.14195859961462],[7.305306884455817,48.14186704860368],[7.305526355608048,48.141718449494526],[7.305667283566199,48.141630393928175],[7.305734792885595,48.14156664834058],[7.305798784816494,48.14145977518717],[7.305790044391734,48.141418640813406],[7.305782376804513,48.14135764156842],[7.305764456380113,48.14126998186954],[7.30576005990694,48.141216072453915],[7.305769087766772,48.14116167261014],[7.30580217977594,48.14107214927254],[7.305891407437597,48.14094452838027],[7.306085144143926,48.140744600394484],[7.306230312440777,48.14060952831752],[7.30629269658364,48.14058201626957],[7.306299725127856,48.140569143112735],[7.306350830212496,48.14050239174915],[7.306365326950465,48.140482036368724],[7.306478576024555,48.14045086334799],[7.306549600622784,48.14043024477876],[7.306612717266269,48.14041171746104],[7.306691649652982,48.140389007511175],[7.306786251162314,48.14036031791691],[7.306938745926051,48.14031509395442],[7.30709612412223,48.140296726378345],[7.307208006911565,48.14028182358946],[7.307262042516186,48.140251011417185],[7.307391005629183,48.14018141410055],[7.307416680929124,48.140166057036105],[7.307614568966038,48.14008312637585],[7.307661429378006,48.1400633902765],[7.307708582978894,48.140047248117405],[7.307800351906496,48.1400168588533],[7.30810460432994,48.13991742319117],[7.308164888392609,48.13989719619594],[7.308195786292051,48.13987984569976],[7.308257288769949,48.13984155072427],[7.308264903258271,48.13983586536045],[7.308313714840349,48.139807045960744],[7.308406114903382,48.13975140036912],[7.308535323287464,48.13971783950575],[7.308786328199186,48.13972488424763],[7.308930144953807,48.13980433629244],[7.308958369347264,48.13988621203089],[7.309023244370628,48.13988924715519],[7.30919639113149,48.13989913762342],[7.309337027088989,48.13990661188619],[7.309540676077352,48.13986131634719],[7.309728509342229,48.139820203464254],[7.309790450686172,48.13978729862004],[7.309898517810002,48.13972567186393],[7.310006731370851,48.13966584198342],[7.310078971402899,48.139627153324675],[7.310372610662838,48.13943077319646],[7.310402187248684,48.1393972493238],[7.310419513590906,48.13937859221612],[7.31042551405272,48.13935313996392],[7.310508198989114,48.1393104643138],[7.310510737045854,48.13930856914348],[7.310559253502768,48.13927615485044],[7.310612992708394,48.13924174716849],[7.310625829663868,48.13923406828152],[7.310759275094379,48.13915348898108],[7.310782410877495,48.139140026349395],[7.310946268379811,48.139069148494535],[7.310956713935822,48.13906516172739],[7.310977458322753,48.13905539121361],[7.311097288614804,48.139005949349595],[7.311209504638605,48.13896219291994],[7.311209211182646,48.1389585989669],[7.31147529414133,48.13895246989885],[7.311572091585628,48.138950731082424],[7.311690366954608,48.13894820642648],[7.311729240472203,48.13876474743424],[7.311794114278069,48.13876778103711],[7.311930111888019,48.1387844335396],[7.312035256717609,48.13878599361714],[7.312137570061997,48.138785854855875],[7.312172618340822,48.138786374830495],[7.312175596593737,48.13878987055029],[7.312435275076048,48.13900205742103],[7.312603967588298,48.13922117786877],[7.312850623813634,48.13947168966682],[7.312914660420099,48.13943149703231],[7.313184272073875,48.1392377910845],[7.313698257061413,48.1388711266357],[7.313746917975731,48.13884050799575],[7.313924676645882,48.138742081782425],[7.314419293214494,48.138468042442845],[7.314424410631618,48.138431808132694],[7.314302801159785,48.13836056134346],[7.313815338852231,48.138062994078226],[7.313727268615779,48.13800674021909],[7.313742244346034,48.13795933101261],[7.313739266036301,48.13795583533042],[7.313485773222647,48.13791825254436],[7.313750151596292,48.13795723923673],[7.314030764508215,48.138129004872624],[7.314417027183263,48.138374403272785],[7.314470973361678,48.13840847536027],[7.314476342779171,48.13840827879303],[7.314558394022745,48.13839085618499],[7.3146886199174,48.13813916679376],[7.315382040029647,48.137859646759],[7.315700170650852,48.13773264694511],[7.315712859622998,48.137723170524374],[7.315715250539146,48.137719478267634],[7.315988196811547,48.13746796762658],[7.315990734583303,48.137466072336],[7.316040608652307,48.13741738467848],[7.316329244390503,48.13725902081439],[7.316496908096078,48.13723485643912],[7.317043667263257,48.13710488561416],[7.317590384020726,48.137007356075664],[7.317953995873142,48.136876881101855],[7.317985945980264,48.136971235272405],[7.317986386838871,48.13697662618389],[7.317997526745775,48.137014067472094],[7.318000652237552,48.137019360019416],[7.318010763486022,48.13704422251262],[7.318036089985834,48.137189285282005],[7.318409333312575,48.137110724329254],[7.31832909827695,48.13698569714644],[7.318275778214183,48.13692637083793],[7.318175242483034,48.13681650625792],[7.318063527843058,48.13670164413425],[7.317921949564727,48.13661671378265],[7.317832232725413,48.13644156775124],[7.317797383911842,48.13627883022809],[7.317754775439476,48.136119981696034],[7.317721277568135,48.13607254539457],[7.317707413825059,48.13606764626648],[7.317681314402807,48.13594604231139],[7.317680845637363,48.13584152285477],[7.317707929246791,48.135645876128216],[7.317712852821649,48.13527801505769],[7.317714842313706,48.1352364879657],[7.317707546684042,48.13498262297263],[7.317715572259002,48.13488319929577],[7.317805190120652,48.13489253227307],[7.317886607497352,48.13490036329397],[7.317948939334983,48.13490528885477],[7.318063305795848,48.13492092425877],[7.318098645472043,48.13492503641995],[7.318296339982368,48.13497186306083],[7.318310203492617,48.13497676212332],[7.318446007243807,48.13502405405982],[7.318465386804705,48.13503055332754],[7.318532940943478,48.135033484857566],[7.318594136356153,48.13499159042411],[7.318699535612609,48.13440376376555],[7.318544755663247,48.134387807655074],[7.318402810450196,48.13436417158295],[7.318386409555441,48.13436116787544],[7.31809446605886,48.134314190277316],[7.317955352682343,48.13429225227286],[7.317909275468055,48.13428853351584],[7.317830690463365,48.134282401121034],[7.317775384282219,48.134264601600634],[7.317731991596724,48.13426078441524],[7.317651016029829,48.13425834420684],[7.317605085798865,48.13425642230512],[7.317609585082665,48.13411387120126],[7.317612869182959,48.1339893881847],[7.31745687556244,48.13399149874344],[7.317094030083153,48.13399938475574],[7.317045415617543,48.13399756097931],[7.316776233057332,48.13399841004067],[7.316299904758751,48.1340014388032],[7.316200578935964,48.13400507680422],[7.316040097518967,48.1340181639935],[7.315967763354556,48.13402261557615],[7.315651393954127,48.13407205149185],[7.315509075169949,48.134109705768694],[7.315396285579644,48.13414627852257],[7.315160849046929,48.1342305987667],[7.314878265480191,48.13433106364204],[7.315010902737941,48.134636211951715],[7.315025059547051,48.13464470535543],[7.315104631459264,48.13469586233761],[7.315058765241959,48.13476062418294],[7.315093045253596,48.13524600443261],[7.315114361698768,48.1356056945176],[7.315129111282921,48.135852076766895],[7.315086158038718,48.13585364953853],[7.315051111675951,48.13585313042845],[7.31502805635432,48.13557100524576],[7.315021888730389,48.13549553225709],[7.314971979455242,48.134752987800105],[7.314946097977455,48.13469986485009],[7.314846074098007,48.13443137179653],[7.314812286231742,48.13438034066006],[7.314745655611877,48.1343557449758],[7.314653501530808,48.13434830493663],[7.31458922030544,48.134352460808714],[7.314249022497513,48.13437392759652],[7.314142229579626,48.134385046612685],[7.313813503426634,48.13441510392992],[7.313704172626233,48.134428117796816],[7.313557699032612,48.13444789818794],[7.313411372119731,48.134469475376164],[7.313265045087384,48.13449105238255],[7.31311349568914,48.13451462269263],[7.313009680316136,48.134529236388474],[7.312874091017509,48.134550419906276],[7.312682713812632,48.13458085430673],[7.312275798048105,48.13464260628156],[7.312013111975202,48.13469006772942],[7.311874060417199,48.134734807299594],[7.311729933032886,48.13478333710934],[7.311318145272107,48.134917357890274],[7.311256063867823,48.13494846666326],[7.311175234262323,48.134947818991975],[7.310948559278337,48.13494169246163],[7.310784068855759,48.13493869786027],[7.310657455400231,48.1349379222416],[7.31038529003159,48.13493526095137],[7.310104146679756,48.134954555564306],[7.309941416349927,48.134973123580764],[7.309925455766916,48.13497550964688],[7.30965427229942,48.13501786942338],[7.309173795374234,48.13510212634795],[7.308959572835726,48.13514961101678],[7.308950740949745,48.13517336444078],[7.308681067190319,48.135201247945226],[7.308563533200262,48.13521275451227],[7.308396943999566,48.13521704266951],[7.308190086393721,48.135222802710985],[7.308047951383208,48.135229801074814],[7.307904936703261,48.135226017356494],[7.307588891608217,48.13524658171242],[7.307347867428899,48.13526260085254],[7.307504165637845,48.13589131287098],[7.307663188866215,48.13586026746435],[7.3076804234102,48.13590649842005],[7.307697364783877,48.13594913540272],[7.307846036113803,48.13638527501272],[7.307976888332059,48.13676799549319],[7.308059379015671,48.13675596833578],[7.308098677775228,48.13680860203047],[7.308104633519664,48.13681559368497],[7.308217059860017,48.13693945014341],[7.308206614517466,48.1369434366737],[7.307998486011313,48.136999708169114],[7.307932689277843,48.13701833440573],[7.307854183249845,48.13684817924397],[7.307847641103662,48.136833999643926],[7.307832504321192,48.136780482675555],[7.307613683336405,48.136804702196],[7.307952433371876,48.13676528474726],[7.307674083012248,48.13596080047379],[7.30765953305084,48.13591447139018],[7.307648941270312,48.1359166608892],[7.307328649435362,48.135984240522724],[7.30709518971195,48.13602701766967],[7.306957542146232,48.136023036572944],[7.306852256391435,48.136019674981384],[7.30670118585488,48.136016184136466],[7.306636462283082,48.136014944713104],[7.306480169129615,48.136013446781654],[7.306344280298162,48.13603102880079],[7.306195114904404,48.13605089812713],[7.30613127058548,48.13606044034424],[7.306099348417372,48.13606521143979],[7.306027450246165,48.13607504787996],[7.305892633780964,48.13607276443562],[7.305845043558376,48.13608351495215],[7.305785390429639,48.13597935638083],[7.305720567397267,48.13594387561789],[7.305674050010304,48.13593476112484],[7.305489838300725,48.13595410765439],[7.30523416781189,48.135988680815686],[7.305144209925854,48.13600818816892],[7.305059328162538,48.13602390533891],[7.30496385443191,48.13604181170541],[7.304841974073547,48.136066089607155],[7.30468294856893,48.136097131206306],[7.304309399032038,48.136172054805265],[7.304045478356867,48.13623756639772],[7.304032348220325,48.13624165060669],[7.303886110793256,48.13629745678417],[7.303786878077587,48.136335325157305],[7.303780531751229,48.13629049847399],[7.303648248105187,48.13598893185886],[7.303257662988011,48.13608610226652],[7.302983002976656,48.13615200359936],[7.302896167911267,48.13617680218418],[7.302727427479439,48.13622081215687],[7.302387114727552,48.13630713239228],[7.302265818240308,48.136338595590665],[7.302388625051369,48.13668917246591],[7.302399753848198,48.136726615233556],[7.302677834372317,48.136669602218426],[7.302312478307028,48.13674602240869],[7.302131825667455,48.13677604761818],[7.302163602208632,48.13676948060814],[7.302157842863003,48.13673184181247],[7.302070523298532,48.136387178656875],[7.301857167588953,48.136445432331996],[7.301643665013137,48.13650188862758],[7.301541058631764,48.13669668129471],[7.301585231423851,48.13677617403951],[7.301539250016747,48.13680668971591],[7.30140276678255,48.137015335015974]]],[[[7.305812037271377,48.1359098938423],[7.305846796258432,48.136005950261044],[7.305900587955119,48.136038229335085],[7.305952035058049,48.13604175659879],[7.306058393411531,48.13602525405039],[7.306271403022961,48.13599584263783],[7.306444289960594,48.13596969934893],[7.306638020812549,48.13596802687147],[7.306705722059331,48.13597276215852],[7.307018747878955,48.13598114817276],[7.30708630259711,48.13598408625602],[7.307252940387026,48.13594735610123],[7.307385557746818,48.13592268321714],[7.307488351260507,48.13589549559073],[7.307417746799073,48.13562412009362],[7.307326830688129,48.13526877678142],[7.307176155896396,48.135303121365915],[7.307040415698809,48.1353225011813],[7.306891399137436,48.13534416838364],[7.306622749354848,48.13538462608296],[7.306552657418631,48.135383582823295],[7.30635936836563,48.13539064612185],[7.30617920902298,48.13539362465488],[7.305966981341042,48.13539957698732],[7.305813814202075,48.13540337104416],[7.305836468795416,48.135516090818456],[7.305745779272401,48.13552661369991],[7.305687158133267,48.13553416252205],[7.305657580718622,48.13556768529987],[7.305395999256802,48.13546369461154],[7.305242978406486,48.13546928491498],[7.305055351037879,48.13547974390511],[7.304803293711414,48.13549255614433],[7.30471753368867,48.13549749114183],[7.304615666173198,48.135503014434946],[7.304495006576528,48.1355092240387],[7.304597565707886,48.13574338677046],[7.304611087474349,48.135777137317085],[7.304289181276387,48.13582494183079],[7.304283812083488,48.13582513793474],[7.303912362618473,48.13589277428291],[7.303909678017886,48.13589287232632],[7.303940918193706,48.1359458015665],[7.30404137700872,48.136187250712666],[7.304313790729115,48.13612683593534],[7.304402382910689,48.13612360016731],[7.304730586653852,48.13605393731137],[7.304730293654585,48.13605034333518],[7.304835626884683,48.13602126297246],[7.304931100621635,48.136003356709494],[7.305227966815949,48.13594565118736],[7.305382354953861,48.13592378994144],[7.305688739313378,48.13588375890054],[7.305749945890359,48.13584187115474],[7.305802125469585,48.13585438341965],[7.305812037271377,48.1359098938423]]]]}}]}
