{"type": "FeatureCollection","name": "aoc_geojson","features": [{"type":"Feature","properties":{"dt":"Colmar","type_prod":"Vins","categorie":"Vin de sélection de grains nobles, Vin de vendanges tardives, Vin tranquille","type_denom":"appellation","signe":"AOC","id_app":1223,"app":"Alsace grand cru Schlossberg","id_denom":39,"denom":"Alsace grand cru Schlossberg","insee":"68162","cvi":"1B037D10, 1B037D11, 1B037D12, 1B037D13, 1B037D14, 1B037D20, 1B037D21, 1B037D22, 1B037D23, 1B037D24, 1B037S 1, 1B037S 2, 1B037S 3, 1B037S 4, 1B037S00","nomcom":"KAYSERSBERG VIGNOBLE","insee2011":"68164","nomcom2011":"KIENTZHEIM","id_aire":51,"crinao":null,"grp_name1":null,"grp_name2":null},"geometry":{"type":"MultiPolygon","coordinates":[[[[7.264030144489775,48.13929259146906],[7.263976157303556,48.13929094009963],[7.263746639242219,48.139283022986454],[7.2637057132816,48.13930973553306],[7.263677485964132,48.13932697725356],[7.263639389896908,48.1393553896836],[7.263410522424723,48.139522269924186],[7.263301240722397,48.139569477813836],[7.263113589290115,48.139646554596],[7.262983408472884,48.1397017272435],[7.262859105708554,48.13972965288822],[7.262862225838571,48.13973494688539],[7.262862661097409,48.13974033799151],[7.262808019800516,48.139763941691946],[7.262802795138598,48.13976593294274],[7.262792345813589,48.13976991544362],[7.262532634484874,48.13992168879457],[7.262540685215702,48.14005476652073],[7.262559912731914,48.14012616242447],[7.262569271183208,48.14020872894222],[7.262543360335879,48.14038809194366],[7.262541834092301,48.14046924982032],[7.26254466407921,48.14047094975353],[7.262580873610442,48.14048586073952],[7.262620058233263,48.14050426868035],[7.26257114184416,48.1407655663386],[7.262753571597155,48.140757166207145],[7.262730274355621,48.140902191322986],[7.262719968154299,48.14097465532102],[7.262758787949694,48.141088597326856],[7.262770034681719,48.141127840751096],[7.262808709608997,48.141239985695044],[7.262857761010343,48.14138059182639],[7.26285362358809,48.141429403053195],[7.262873650798902,48.14147734029855],[7.262950491777557,48.14179536708383],[7.263123419091324,48.14176928739064],[7.263364703517058,48.14178939644833],[7.263448663296049,48.14179537085092],[7.263665057586418,48.141807368230445],[7.263654533984218,48.141977163360366],[7.263731309418978,48.142060895555076],[7.263788128390201,48.1422643001874],[7.263841537786242,48.14232544792687],[7.26389342333039,48.14240106901895],[7.264248860099451,48.142467510644266],[7.264396463133503,48.14249461151848],[7.264661046228241,48.1425697458393],[7.264994497462718,48.14266401500059],[7.265340577293999,48.142781255925726],[7.265520765902008,48.14284502416612],[7.265570548213092,48.14286124539172],[7.266005165228047,48.143007721371134],[7.266134194537831,48.14307153805193],[7.266364096747622,48.14318396962797],[7.26684581672899,48.14334676053265],[7.267039724811189,48.14341363448303],[7.267306129832903,48.14347788346742],[7.267610997838739,48.14355155296784],[7.267987421502918,48.14364425813096],[7.268440626452922,48.14375400677346],[7.26868780352894,48.14381354220067],[7.269280351071577,48.143981321266445],[7.269517661790965,48.14405202609806],[7.269923123267612,48.14417070777607],[7.269978423688472,48.144188529609586],[7.270091419039581,48.144220481882975],[7.270392233226891,48.14431051189443],[7.27066228095154,48.14441967877275],[7.271016072344499,48.14449877634601],[7.271336984756479,48.14453761173663],[7.271738673602417,48.14460956464242],[7.271845069657126,48.14465977734385],[7.271862052723211,48.14466997557407],[7.271950350555493,48.144529801544536],[7.272019929988498,48.14442454932398],[7.272112579270087,48.144271601385405],[7.272298390367805,48.144005336975155],[7.272494088478328,48.143861269488355],[7.272529061692255,48.143827560558826],[7.272503878159229,48.14381585738497],[7.272377669819655,48.14375374739614],[7.272405683775733,48.14376715029026],[7.272430498445872,48.1437410187661],[7.272548215355537,48.143798029631164],[7.272635211827227,48.143708366187205],[7.272708222768354,48.14374536996201],[7.272899645043471,48.14364831625737],[7.273096145819208,48.143547473516314],[7.273150350093007,48.14351847405698],[7.273187146495553,48.14354056982922],[7.273253199104671,48.14362468511282],[7.2732638723663,48.14365673939784],[7.273824399470819,48.14366164846249],[7.273782141542127,48.14353882256765],[7.273748678443665,48.14349137402449],[7.273746272152223,48.14342838105726],[7.273754157418105,48.14329292324394],[7.273774619406178,48.14327956526556],[7.273862564661887,48.14323492368521],[7.27379185661666,48.14309330415093],[7.273733489122583,48.142971062335434],[7.274021039133854,48.142764185753514],[7.27414011860774,48.14273824015449],[7.274082677382276,48.14252765250185],[7.274099078290771,48.14253066235211],[7.274329775876546,48.14255293544986],[7.274340661335178,48.14255434298807],[7.274389282191235,48.14255618435324],[7.275023761400947,48.142643113254],[7.275107723853355,48.14264907935592],[7.275058468853413,48.14273917830101],[7.275006819694569,48.142832968638565],[7.274914392740836,48.14295527233315],[7.274901986207418,48.1429683383641],[7.274819994313006,48.143019974032285],[7.274700147764613,48.14320274765485],[7.274695650701741,48.143213724510574],[7.274448019255392,48.14344799173273],[7.274342958418297,48.14354732320369],[7.274266718143575,48.14370328279311],[7.274184300776524,48.14381621128849],[7.274168003991858,48.143980810808024],[7.274171350088936,48.14402214218228],[7.274296172612705,48.14403383642291],[7.274163294883274,48.14402243428023],[7.274147130763382,48.144122146462784],[7.274140900405573,48.14417824342439],[7.274276594175189,48.144490526165434],[7.274279516782003,48.144593150784836],[7.274245720885239,48.144707920642865],[7.274249159058725,48.14485017694941],[7.274255626850441,48.144896801974426],[7.274299540775658,48.144940266823525],[7.274344379469967,48.14526125087748],[7.274524944560538,48.145296155657476],[7.274883799616724,48.14523808425881],[7.275045846279837,48.14521057966582],[7.275134455475741,48.14520736589787],[7.275225749787519,48.1452040546734],[7.275319372485917,48.14522949559237],[7.275479039199908,48.14527236610136],[7.275514819074872,48.14528188202979],[7.275674486105697,48.14532475227276],[7.275897512466157,48.1453851491314],[7.276192390675346,48.14546817104459],[7.276280418000287,48.14545776836855],[7.2765452276031,48.145435545004],[7.276649284907355,48.14539031689034],[7.277071271119293,48.14531372758371],[7.277133562055397,48.145118621839266],[7.277203664657183,48.14482050177236],[7.276866959243179,48.1446200486861],[7.276803665534886,48.14457007871709],[7.276537713674957,48.14434542998408],[7.276462596389747,48.14431571406458],[7.276337255545211,48.1442643904112],[7.276322956822241,48.14425409540738],[7.276153314680172,48.14405478841125],[7.275977510713654,48.14387913455076],[7.275998604779119,48.14377383624296],[7.275912783884496,48.14357869722625],[7.275760405210093,48.14332649689454],[7.275687021564631,48.14325166027636],[7.275708341586188,48.14318239968479],[7.275734384036728,48.14313819990018],[7.275844570925955,48.14293595026177],[7.275912685119368,48.142812725475885],[7.276055090567768,48.142609306722434],[7.276064811739204,48.14259633797636],[7.276063858156262,48.14255131517538],[7.276075099958565,48.14252387289292],[7.276135514399565,48.14237209050873],[7.276147323095361,48.14228515186975],[7.276154861006181,48.142245227874156],[7.276169243740644,48.14199058225423],[7.276119363460738,48.1418734403419],[7.276095314108246,48.14174274518549],[7.276124090470395,48.14159931971036],[7.276155727598245,48.14159096271087],[7.276146473684458,48.14174269140083],[7.27618946339829,48.14187450167966],[7.27620683320264,48.14198921848477],[7.276190202314244,48.1422493525694],[7.276165631374349,48.142378207048445],[7.276228986970891,48.14239573373882],[7.276270134998366,48.142405054630565],[7.27650345298581,48.14245966976011],[7.276804656653003,48.14235502136408],[7.276992460048883,48.14264558567163],[7.277074028888936,48.142655241833396],[7.277166483315742,48.142666305216075],[7.277335136729309,48.14268721938001],[7.277498274692963,48.14270653117271],[7.277471136729472,48.143003092788646],[7.277560906836881,48.143014253300855],[7.277879421242149,48.143056762405024],[7.278174435189126,48.143141576508036],[7.278204698455741,48.14314948953643],[7.278320527197867,48.14318313350529],[7.278418125370619,48.143157963278355],[7.278767203994883,48.142979480166765],[7.278961372421161,48.14314905661837],[7.279068545108078,48.143109119860334],[7.27912078888479,48.143089200183816],[7.279205354183965,48.14316903578533],[7.279356569737342,48.14310767446368],[7.279449481791023,48.14319081145823],[7.279449627450811,48.14319260846897],[7.279517544273416,48.14316671266702],[7.279573657798512,48.14322775575827],[7.279618429113042,48.143215316372235],[7.279600070985191,48.14322138983295],[7.279606169346838,48.143230179906006],[7.279641031181291,48.143328040577046],[7.27965809797846,48.14337247838062],[7.279678723841174,48.143427600750066],[7.279704282801022,48.14347713709967],[7.279767452051646,48.14359199289291],[7.279783353661447,48.143622054591894],[7.279786184371728,48.14362375410784],[7.279907656635141,48.14359411118916],[7.2801713525885,48.143525059908214],[7.280209754483812,48.143566920593535],[7.280277920584852,48.143643746401985],[7.280618170980475,48.14355569336921],[7.280697993448426,48.14354378291321],[7.280859594763883,48.14351087927759],[7.280948991534599,48.14348420250867],[7.281296212786668,48.143415719565],[7.281313987891942,48.14340245780845],[7.281365983255707,48.14351231184157],[7.281440289704005,48.14349879893458],[7.281881985140954,48.143399847974194],[7.282208660451466,48.14331048103976],[7.282247769671645,48.14329464174016],[7.282524157314138,48.14321611240008],[7.282694418074949,48.14325678597078],[7.283037140241877,48.143199275053576],[7.283706763926626,48.14308842973694],[7.283770620782331,48.14307889970178],[7.283777363531278,48.14306243389784],[7.283844669905891,48.142962663202454],[7.283892537432111,48.1428888312415],[7.283944754121728,48.14280222504081],[7.283963232342593,48.14273126351968],[7.283967204557485,48.142680654591445],[7.283961809520469,48.14261416537593],[7.283956062501432,48.14257652584105],[7.283946549460201,48.1425588485479],[7.283936890614751,48.14253937424777],[7.283880104158116,48.14243690447462],[7.283858539022288,48.14240344446468],[7.283799359510775,48.142304666242616],[7.28374998473585,48.1422271593115],[7.283709539783794,48.14216014164661],[7.283681730154944,48.1421160947238],[7.283625673640569,48.142022609833575],[7.283619720548069,48.142015616968145],[7.283452366318592,48.1417783878508],[7.283446413276532,48.14177139497545],[7.283349123783594,48.14163435081552],[7.2833123852271,48.141579814467725],[7.283306286439466,48.14157102457644],[7.283269110616065,48.141511097188804],[7.283265988337099,48.14150580373784],[7.283224524067633,48.14142620681691],[7.283212034993456,48.14140503300655],[7.283172174477761,48.141345203153605],[7.283173401580504,48.141327135498564],[7.28312227928504,48.14122806415142],[7.283080900318802,48.141182707899674],[7.283044599682074,48.141133562478124],[7.282990233663567,48.141094085058526],[7.282822203604831,48.14098123879733],[7.282710350107332,48.14089699025113],[7.28258854741703,48.140789673141086],[7.282472114988496,48.140682160787236],[7.282462894295167,48.14066807737199],[7.282359717976605,48.14049159562296],[7.282210853911746,48.14018340310554],[7.282100998010671,48.139990943070075],[7.282097730197519,48.13998385257142],[7.282010020959138,48.139832040862224],[7.281998407171056,48.13982164897067],[7.281818831231678,48.13966596553211],[7.281784511318087,48.139674421600695],[7.281712788955716,48.13958691192097],[7.28159281945645,48.1393029012294],[7.281576856287086,48.13930528345283],[7.281218693756736,48.139338119729125],[7.281050861562363,48.13936043691495],[7.280869459426235,48.139381444442925],[7.280805169428619,48.139385581890586],[7.280679274224593,48.13939375916631],[7.280159875421933,48.139430645971224],[7.279897490923079,48.13944918601252],[7.27988675162037,48.1394495759988],[7.279890747426342,48.13946565163488],[7.279749034246464,48.13947800692503],[7.279740979764235,48.13947829940469],[7.279772571897917,48.139569069718746],[7.279609671060428,48.139585798818885],[7.279607194921855,48.139555249564935],[7.279421504572709,48.1395565851893],[7.279337546546374,48.13955062214489],[7.278953596739711,48.13949787718894],[7.278542508182663,48.139442511610405],[7.278015326551445,48.13941659086384],[7.277858587374234,48.139409663963924],[7.277864312329001,48.139380619335924],[7.277881696849509,48.139262838699814],[7.277915737677283,48.13901829230338],[7.277903880338744,48.138905177635166],[7.277860242279434,48.13879862341997],[7.277658963876541,48.13884017281847],[7.277390517501004,48.13898328621705],[7.277133908930811,48.13917282917117],[7.27698742478752,48.139259248636606],[7.276708591079126,48.139373900439644],[7.276381299107417,48.13955519260134],[7.276360774187913,48.13960099482231],[7.276309597868809,48.13983354603442],[7.27632572241564,48.13989964606336],[7.276458104229309,48.14000478301209],[7.27663836164597,48.14003609064515],[7.276594676090866,48.14002866430655],[7.276504893301428,48.140250000305805],[7.276484303261931,48.140328246267885],[7.276498600954189,48.14033854127944],[7.276465880808154,48.140366762992976],[7.27638405553569,48.14048688135026],[7.276396541657303,48.14050805589649],[7.276295324183155,48.140554983539644],[7.276263331515874,48.14059219028185],[7.276265641215715,48.14085343974123],[7.276137639071569,48.140868897646165],[7.276105209483927,48.140900713284786],[7.27608227484269,48.1408835223883],[7.276009942963572,48.1409546339203],[7.276112165069561,48.140853601183785],[7.276226662241562,48.14080438962504],[7.276230239571092,48.14058257713713],[7.276291540009461,48.14050826107518],[7.27643874092241,48.1403641431395],[7.276517623484161,48.14007471535979],[7.276496937277781,48.14005203606008],[7.276363551931067,48.14000100454437],[7.27632748438881,48.13998789480241],[7.276257241408424,48.139985036526724],[7.276313094302807,48.13957749262305],[7.276318885182981,48.139516004315276],[7.276290516328221,48.13953145203201],[7.276652776062937,48.13931644986474],[7.276715610740052,48.139294344491425],[7.276820238045404,48.13925630411496],[7.27695620964799,48.13920631237978],[7.277074034146879,48.13913174682215],[7.277224286115621,48.13902536516621],[7.277326292154231,48.138954977999084],[7.277488155797826,48.1388589883527],[7.277583562616883,48.13880686346566],[7.277568310331662,48.138751545670665],[7.276629489136996,48.13872974478109],[7.276441844543664,48.13874015823672],[7.276315804661168,48.13874653383969],[7.276159213229519,48.138741401698866],[7.276110450287206,48.13873776403812],[7.275980561336725,48.13872986053128],[7.275948489308406,48.13873282643853],[7.275769044484573,48.13874474362353],[7.275605708370168,48.138756076142236],[7.275483873844719,48.13874787989117],[7.275277937580872,48.138731920556275],[7.275267611506098,48.138970198655784],[7.275043026273324,48.13895671767229],[7.274694212483939,48.13893873061993],[7.274307520657963,48.138918511670695],[7.274013858175129,48.13891654542594],[7.273809085347454,48.13891495970993],[7.273804418498744,48.13879077040901],[7.273479993543956,48.138807941358344],[7.273271160481331,48.13882272262055],[7.273099769169608,48.13883434370659],[7.27293643220605,48.13884567252889],[7.272898990320547,48.13884883228335],[7.272915770284476,48.13895636171131],[7.272845674283198,48.13895529842631],[7.272762735899419,48.138961909868605],[7.272685021705809,48.13896652956331],[7.272532278093014,48.138975671470035],[7.272178609408256,48.13899750350366],[7.27203138064973,48.13900824714419],[7.271889376077242,48.13901699894697],[7.271884006440299,48.13901719357579],[7.271867606748252,48.13901418341046],[7.271670306527611,48.1390051139393],[7.271464806543414,48.13899453902715],[7.271250893280467,48.13901310537207],[7.271123330222649,48.13903394893346],[7.270804204106131,48.13908336169261],[7.270655452800301,48.13910857711607],[7.270591453030273,48.13911630305154],[7.270514319798925,48.13912810942222],[7.270200271535455,48.13917373192483],[7.270100496843439,48.13917194001436],[7.270100351512614,48.139170142987204],[7.269730640635921,48.13916010755828],[7.269444595546416,48.13915244706073],[7.269299033506359,48.13915051083555],[7.269169580457881,48.13914799091647],[7.269099338981173,48.13914512837731],[7.268983455399123,48.139143919026765],[7.268972570785609,48.13914251099103],[7.268778827127664,48.139144121608204],[7.268684567483815,48.13914393104152],[7.268522966352053,48.13911013354427],[7.268331762358397,48.139109849160235],[7.268318338209644,48.13911033532699],[7.268360246341622,48.13959543594959],[7.268378244022129,48.13961821391744],[7.268403715190172,48.13963351206241],[7.268442174830202,48.13964293293671],[7.268525986494485,48.139647106706036],[7.268728513000033,48.13965418991879],[7.268766827426172,48.13966181365887],[7.26884955247521,48.139685851751615],[7.268901802788208,48.13973262108261],[7.269015672160673,48.13990872569356],[7.269070753010314,48.13995719472119],[7.269208635591093,48.14006394232684],[7.269283888059854,48.14009545997696],[7.26941544707212,48.14009069440343],[7.269517327098718,48.140085201524776],[7.26970766270746,48.14007470182794],[7.269796118294024,48.14006969503144],[7.270077227092939,48.14001625578411],[7.270248477563856,48.140002842072555],[7.270550705200243,48.139977473169346],[7.270724640294037,48.13996396148228],[7.270723477460512,48.139949585278856],[7.270721878565449,48.139929817998905],[7.271313344063857,48.139884954571436],[7.271438815021569,48.13993808073824],[7.271411820982729,48.13993725675216],[7.271277141547012,48.13993673077865],[7.271191225819997,48.139939844362665],[7.271148413321274,48.13994319815613],[7.270746632184246,48.14000281502361],[7.270403840721521,48.14002604959276],[7.27006250227691,48.14006725342673],[7.269942409523557,48.140080615773314],[7.269764702633124,48.14011408812894],[7.269524516702264,48.140140812092596],[7.269306750784525,48.14014509594512],[7.269156688062608,48.14015413621841],[7.269129687592321,48.14008662720091],[7.269117495081505,48.14006904593422],[7.26901625955817,48.13998259832095],[7.268955808991126,48.13993432376413],[7.268931278870483,48.13989736416203],[7.268909433650941,48.13986030730733],[7.268881782858577,48.13981805385616],[7.268866324465979,48.139793381694695],[7.268821692841037,48.13974092953223],[7.26879012534092,48.13971684082606],[7.268759574876264,48.13970533130819],[7.268680115831515,48.13968838402442],[7.268561982049069,48.13969266258649],[7.268516630003009,48.13969790969254],[7.268412646858866,48.13971068705811],[7.2683316652349,48.139708213003686],[7.268221150156309,48.13970680843776],[7.268105846420704,48.139712786340866],[7.267929081363825,48.139724594364395],[7.267667707866083,48.13975568640548],[7.267036909838995,48.13978032805981],[7.266832133874725,48.139778730234354],[7.2660398739013,48.139637994511894],[7.265617913173668,48.13958117559566],[7.265618855877459,48.13955951403775],[7.265695772046768,48.13951167305506],[7.26569845690175,48.13951157588155],[7.265589610910808,48.13949749245157],[7.265584096023703,48.13949588976127],[7.265548757384924,48.13949176188131],[7.265545927353824,48.13949006201905],[7.265463639635824,48.1394714127041],[7.265418502719671,48.13937932735781],[7.265405440576301,48.13935096350299],[7.265361538609976,48.139307495179736],[7.265344558521453,48.139297295976924],[7.2653388984934,48.139293896242094],[7.265295215139945,48.13928646571573],[7.265268366696627,48.13928743735652],[7.265023029707343,48.13928369977407],[7.264971872500593,48.13928374873533],[7.264796631817627,48.13928107864521],[7.264535621245656,48.139283314066965],[7.264293549707843,48.1392866659558],[7.264089211119607,48.13929045447123],[7.264030144489775,48.13929259146906]],[[7.270526297309615,48.14333782633774],[7.270109029642783,48.1433727690108],[7.270470056812149,48.14334166629241],[7.270526297309615,48.14333782633774]],[[7.271567616714909,48.140964324195764],[7.271551361821758,48.1409631110136],[7.271570301632883,48.140964226888705],[7.271578869961386,48.141003566783304],[7.271567616714909,48.140964324195764]],[[7.272104725295778,48.14081328964189],[7.272097620739719,48.140858604485196],[7.272081365866921,48.14085739137598],[7.272087598019314,48.14080129439731],[7.272104725295778,48.14081328964189]]],[[[7.28275772152266,48.14496667296996],[7.282731975598266,48.14501446825897],[7.282628093403835,48.14512818303662],[7.28247421395154,48.14525633030025],[7.282325351093649,48.14541313187275],[7.282274172449721,48.145579000498216],[7.282259519272576,48.14559755584297],[7.282042528632203,48.145810900977224],[7.281861003844305,48.145963481428964],[7.281710971216752,48.14610590611758],[7.281691676093349,48.14613364148204],[7.281679999208392,48.146155693219484],[7.28166563714944,48.14617784249195],[7.281671489076412,48.14631640689522],[7.281687768052914,48.146384302905695],[7.281668327071565,48.14641024125706],[7.281483826429919,48.14679182083686],[7.281457058297331,48.14682703676202],[7.281266827753867,48.14700516437213],[7.281226924785829,48.14704446188367],[7.281215601027498,48.14703766397344],[7.281072245576856,48.14719606572711],[7.280980990816098,48.1473327498427],[7.280980949923891,48.14743187761178],[7.280962320331394,48.14750104143655],[7.280857492840087,48.147636416026074],[7.280442569991791,48.148066011567884],[7.280459118689008,48.14807081752631],[7.280773544508038,48.14816213029253],[7.280819568895997,48.14819830709059],[7.280981164791208,48.14833121524453],[7.281148277794165,48.14846572511844],[7.281348551519681,48.1485774028476],[7.281560004500087,48.14869408109759],[7.281768627362301,48.14880905949706],[7.281744279559584,48.149139763883625],[7.281764534310757,48.14915705112196],[7.281875136838752,48.149358495279095],[7.28189118714285,48.149390353576855],[7.281947663157162,48.1494225457384],[7.282080287313349,48.149497029158994],[7.282120774570417,48.14946491942341],[7.282548978123567,48.14966383697678],[7.282795873829293,48.14942056874332],[7.283332465231899,48.14909648419413],[7.283490303514712,48.14924935096369],[7.283140931859013,48.14949093738135],[7.283329330142968,48.14965531004156],[7.283964015191212,48.14944480758157],[7.284060893072006,48.149410647805524],[7.28422090600545,48.14935797272372],[7.284304699664841,48.14946126288992],[7.284399234977034,48.14956416259598],[7.284517303730721,48.149525627664424],[7.284635372312201,48.14948709261371],[7.284721800249057,48.149456916704416],[7.284714069876153,48.14936167588081],[7.284713048885589,48.14934909690361],[7.284676595266397,48.14929815525887],[7.284658003848965,48.149268191939335],[7.284624381504273,48.149218949668224],[7.284599981966204,48.14918379055385],[7.284596713249223,48.149176700168496],[7.284375170574577,48.14926765807898],[7.284518341637981,48.14920658318855],[7.284599252709032,48.14917480556837],[7.28464134256878,48.14916246192937],[7.284646567336621,48.14916046972416],[7.284466926145612,48.148938107191384],[7.284464240846264,48.14893820479141],[7.284014578784793,48.14880675892802],[7.283951187857748,48.14872255237657],[7.283868562660992,48.148633637897035],[7.283796618386813,48.14857677657948],[7.283767724063361,48.14855259444046],[7.283735707025703,48.14852311888056],[7.283649899209082,48.148461354388594],[7.28360387265434,48.148425178701],[7.283565901981926,48.14838871025611],[7.28352778554922,48.14835044479863],[7.283513399159075,48.14830591012616],[7.283455088541388,48.14821791412348],[7.283425757144071,48.148188340895686],[7.283431565097311,48.14819353674199],[7.283422342837583,48.14817945347323],[7.283524589270305,48.14814509895545],[7.283647151111824,48.14809558770168],[7.283718692871179,48.1480479304086],[7.283817670316685,48.148006485218374],[7.283857280438801,48.147963592857316],[7.283774596096179,48.14790712184503],[7.283740331654839,48.14788313485695],[7.283709044125533,48.14786264427529],[7.28360181606397,48.14776921680085],[7.283512947609284,48.14766971517466],[7.283451308541433,48.14760707229421],[7.283357361794589,48.147511359694974],[7.283303584482725,48.14731325864433],[7.283251143950658,48.14719801474407],[7.283193187434677,48.14708116895262],[7.283277510256823,48.14705827962891],[7.283231376050588,48.14692117896285],[7.283171148000954,48.14674313750821],[7.283051104325878,48.14672406953455],[7.283070192237075,48.14672698056114],[7.283069463273917,48.14671799555125],[7.283167733830664,48.14673425006969],[7.283469325405117,48.14666741957324],[7.283436762741497,48.14653162806458],[7.283354652118198,48.146249848420425],[7.283352671652737,48.146192246773914],[7.283335527986945,48.1459477568683],[7.283270258605014,48.145674376620406],[7.283261826611928,48.14563683470258],[7.283250831117998,48.14553450309687],[7.283247417012395,48.1455256156534],[7.28323796449467,48.14547549470723],[7.28320831903052,48.14537564309456],[7.283186085005933,48.14530075437577],[7.28313668429879,48.14515656306579],[7.283108059730278,48.14506929043382],[7.283088073712701,48.14498891309951],[7.283055038702375,48.144946858255054],[7.282997485336053,48.144934531139675],[7.282889644038635,48.144933042752825],[7.282891308666005,48.14492036615769],[7.282812067728822,48.144939466104375],[7.28275772152266,48.14496667296996]]]]}}]}
