{"type": "FeatureCollection","name": "aoc_geojson","features": [{"type":"Feature","properties":{"dt":"Pau","type_prod":"Vins","categorie":"Vin tranquille","type_denom":"appellation","signe":"AOC","id_app":9,"app":"Béarn","id_denom":61,"denom":"Béarn","insee":"64108","cvi":"1B101S, 1R101S, 1S101S","nomcom":"BELLOCQ","insee2011":"64108","nomcom2011":"BELLOCQ","id_aire":75,"crinao":null,"grp_name1":null,"grp_name2":null},"geometry":{"type":"MultiPolygon","coordinates":[[[[-0.948093598616367,43.5057430256152],[-0.948264437061338,43.506240547176276],[-0.948286447923486,43.506328477228394],[-0.948353165593303,43.50658422505757],[-0.948383743753141,43.5067607550542],[-0.948458623899336,43.50742680446969],[-0.948396298608345,43.50745096493091],[-0.948419642652356,43.50752587452246],[-0.948217254460609,43.50762801394884],[-0.948103088750094,43.507639829317576],[-0.947937059286803,43.50765875834425],[-0.947908868169698,43.50720009102581],[-0.947677449791823,43.50643164312053],[-0.947502264050236,43.505932026978286],[-0.947358291114639,43.50588105836361],[-0.947174771566683,43.505555425443525],[-0.94716849957,43.50553979924431],[-0.946786886341284,43.504858255256934],[-0.94659559486384,43.504496871692275],[-0.946628307272668,43.50443982924116],[-0.946575888240958,43.5043631856383],[-0.946384337175579,43.50410783884252],[-0.945925031729096,43.503381378069626],[-0.945917235859422,43.50337238335957],[-0.945833283612551,43.50326364697569],[-0.945815846313354,43.50324040985213],[-0.945409866960375,43.50271892636859],[-0.94538965185247,43.5026318316303],[-0.945282943641458,43.502411590246176],[-0.945093803848046,43.50171195696591],[-0.945249805113657,43.50159953076206],[-0.945552325956166,43.50142042442484],[-0.945634257495778,43.50158805826027],[-0.945699486757667,43.50211419836315],[-0.94581409087176,43.50236649155231],[-0.945935806894118,43.502641226623005],[-0.946310658614781,43.503219332560505],[-0.946324780771953,43.50321233242889],[-0.946555709766202,43.503514889957664],[-0.946889329518014,43.50393045514762],[-0.947090980060137,43.50417786634221],[-0.947554056811015,43.504847253608666],[-0.947842088710526,43.50526555807055],[-0.948093598616367,43.5057430256152]]],[[[-0.944808236056474,43.500051590681345],[-0.944657818003667,43.50004706619497],[-0.94454925836854,43.50007723122603],[-0.944484211328593,43.50010851502956],[-0.944314318953181,43.50026729759474],[-0.944132292251643,43.50035571666108],[-0.944166861289616,43.50040499491328],[-0.943428070200397,43.50078157754603],[-0.943529604055276,43.5009212044513],[-0.942888839260327,43.50133421307712],[-0.942838178040855,43.50134074033057],[-0.942822704781828,43.50133166439734],[-0.942466993516066,43.50143369533468],[-0.941885163991587,43.501647183432496],[-0.941699073602181,43.50151783673803],[-0.941631288113201,43.50156696456357],[-0.939898443660435,43.50035368352536],[-0.94020185007944,43.50026311124613],[-0.940503214166266,43.50015180335203],[-0.940639056214705,43.50003948643379],[-0.940884206460391,43.499978235089024],[-0.941298959548653,43.50026781171841],[-0.941451263141652,43.500435050980755],[-0.942248324165332,43.50093250351811],[-0.942383847619877,43.50101747626734],[-0.942753757083063,43.500783408770324],[-0.943216123637166,43.50045769546651],[-0.943130607245876,43.50033685334574],[-0.942863113891263,43.50007264436014],[-0.943294165480118,43.49990913710874],[-0.943361286788854,43.499875616592455],[-0.943535087598283,43.49971245953745],[-0.943633977151805,43.49960814927488],[-0.943658751403302,43.499608508978184],[-0.943657269538873,43.499637389252214],[-0.943686617375852,43.49963046602584],[-0.943708466502543,43.49961165452959],[-0.943694061513655,43.49959290106044],[-0.943663689492667,43.499583106238155],[-0.943689945580922,43.49955458566136],[-0.943765003002329,43.49954113472113],[-0.943783611766798,43.49952379235342],[-0.943722534096914,43.499524573505056],[-0.943676237801625,43.49954778777473],[-0.943600401337221,43.49962378415039],[-0.943519084096538,43.499693854289795],[-0.943373569912735,43.49984183921419],[-0.943321977310685,43.49987803771771],[-0.943230457985411,43.49991487809646],[-0.942982513464381,43.50001109836426],[-0.942787321348047,43.50007900488643],[-0.942663348909504,43.50011540387034],[-0.942509114787224,43.500154434901866],[-0.942325570360573,43.50017390299387],[-0.942267918526252,43.50015068687695],[-0.942123960161644,43.500065390336815],[-0.94170574590164,43.49981557887628],[-0.941675534444853,43.49980811980296],[-0.941581299311909,43.49983064436285],[-0.941500433990511,43.49982980173436],[-0.941501085898866,43.49965718045309],[-0.942080591308055,43.49938306313434],[-0.943353952050886,43.49877390644353],[-0.943393001920635,43.498756901396625],[-0.943830542060389,43.49853847571465],[-0.944034374868171,43.49844151645916],[-0.944358298920791,43.49828235343621],[-0.944651177013556,43.49812161690557],[-0.944997310998395,43.498390345360065],[-0.945186047468322,43.49869516024035],[-0.945334304228615,43.498972712213984],[-0.945397851345197,43.499105162215336],[-0.945448347289087,43.49944032238849],[-0.945447045704822,43.49950603987537],[-0.945389309192261,43.499724789959934],[-0.94513487733416,43.500045376612476],[-0.945107498347266,43.500055741781885],[-0.944951815604439,43.50008627124687],[-0.944808236056474,43.500051590681345]]],[[[-0.945164617530523,43.50717451989338],[-0.945438840814321,43.50754865264485],[-0.945591783785972,43.50748155900018],[-0.945917687629302,43.507379342451394],[-0.946234123862322,43.50738430800399],[-0.946635235025551,43.50747239916048],[-0.946955639619389,43.507776383989146],[-0.947150441160123,43.50775289554457],[-0.947579915068746,43.50798525463739],[-0.947198155349568,43.50815896424483],[-0.946886299925521,43.50829094102092],[-0.946598557919895,43.50853608412927],[-0.946272625241472,43.50868658819856],[-0.945839108042551,43.50880425360903],[-0.944777695470626,43.50731994249869],[-0.945164617530523,43.50717451989338]]],[[[-0.941995022993566,43.512121881291066],[-0.941547268213835,43.51188295714606],[-0.941472529126619,43.5118688290865],[-0.941233686870786,43.51173959581531],[-0.94032520022336,43.51242157946907],[-0.940165966639542,43.512326924666006],[-0.939856686426507,43.51214340618588],[-0.940114469318549,43.511718934812464],[-0.940265315201701,43.511536258840216],[-0.940435559428575,43.51139458592062],[-0.940600232051581,43.511287166601804],[-0.940767761348149,43.5111925250305],[-0.940917984508578,43.51112887029307],[-0.940969218089848,43.51109628943346],[-0.941243758485874,43.51090172824258],[-0.94146434716409,43.51075245789351],[-0.941573000424348,43.51065301931778],[-0.942128344977876,43.51022006502779],[-0.94215097710123,43.51018735261838],[-0.942145658505951,43.510131514441284],[-0.942308063320145,43.51006146919323],[-0.94247467116256,43.51000217086746],[-0.942880710192884,43.50986263777807],[-0.943108363471499,43.50976229223972],[-0.943583804203486,43.509555642373066],[-0.943914772742238,43.50946387778833],[-0.94430599519155,43.50935019155417],[-0.944412904578449,43.509479534220155],[-0.944891332674241,43.50980110688864],[-0.945052801740172,43.509908465057556],[-0.944372076983142,43.51014466169329],[-0.944325618135862,43.510160224968416],[-0.944145035469968,43.51025030257814],[-0.943899627697974,43.51038048318679],[-0.943739340784348,43.51047774898729],[-0.944044696236546,43.51081129737263],[-0.943745769289861,43.511007473863025],[-0.943181404726227,43.51120267535651],[-0.943029190278039,43.5112553255284],[-0.942820568740057,43.51136795053207],[-0.942686292196277,43.51144030653877],[-0.9427824927583,43.5115272510366],[-0.942691279790095,43.51161569703849],[-0.941995022993566,43.512121881291066]]],[[[-0.942316907613435,43.505879773363944],[-0.942243970886417,43.505761985544275],[-0.942340031219076,43.50557481323414],[-0.942703397942555,43.50529909574216],[-0.943035158517057,43.505195773886825],[-0.943108100377112,43.50517303198011],[-0.943290803387341,43.505121253989834],[-0.943960719332437,43.50496454890162],[-0.943948880701664,43.50494534163155],[-0.944609077160064,43.50481294808439],[-0.945206112945533,43.50459709055934],[-0.945530435191246,43.50516379716518],[-0.945124318277452,43.505256591003594],[-0.944920753173588,43.505300123127],[-0.944256379052826,43.505443840722165],[-0.943483313328541,43.505632225946854],[-0.943318516068033,43.505667228012506],[-0.94297390280285,43.505742011593135],[-0.942796123751129,43.505780818137836],[-0.942316907613435,43.505879773363944]]],[[[-0.942971818863576,43.506618322215076],[-0.943208481871551,43.50701526582773],[-0.942338643165199,43.507260041153266],[-0.941462117958891,43.50750667389905],[-0.9413618249786,43.50725538654845],[-0.939351584356933,43.50770185425388],[-0.938855485728183,43.50764700548253],[-0.939284008062292,43.50753405393002],[-0.939773118461941,43.50744916628129],[-0.940139991766429,43.50731259820622],[-0.940755393525796,43.50714915744194],[-0.941266488809915,43.5070168007779],[-0.942100266301838,43.50679298363607],[-0.942315543071186,43.50673245585302],[-0.942971818863576,43.506618322215076]]],[[[-0.94196195011715,43.51019773990251],[-0.941921399994681,43.510178585489385],[-0.941843705048489,43.5103034731566],[-0.941750115752173,43.5103951576222],[-0.941554973873066,43.5105617000875],[-0.941130619440475,43.51085647618587],[-0.940995427656797,43.51093895260296],[-0.940652923912369,43.51115499124945],[-0.940301793976526,43.51136620757738],[-0.940189633149834,43.51143622509456],[-0.940132362545608,43.51145479189284],[-0.939789113517237,43.51087713443286],[-0.939634110689094,43.51061134814563],[-0.939696322650464,43.51048441252711],[-0.940024426430391,43.51031466246178],[-0.939759029934162,43.50984876124431],[-0.939049399772891,43.51008966764265],[-0.939066397137096,43.510122740952205],[-0.93938663096133,43.510659167665445],[-0.939571353186384,43.510625700010415],[-0.939574358965725,43.51063162632354],[-0.939738726812886,43.5108913971137],[-0.939751274740467,43.51091553369722],[-0.940074808427408,43.51146742349203],[-0.940092853127065,43.51146343456357],[-0.940097939116082,43.51147261832882],[-0.940035235979098,43.511491382527595],[-0.940049610276326,43.51152950565026],[-0.940116208399524,43.51151519410309],[-0.939919048460652,43.511863504061296],[-0.939777430856961,43.51210313688677],[-0.939712336197282,43.51220972857783],[-0.939537601664902,43.51246461757098],[-0.939205634214489,43.51229678541659],[-0.938547086761504,43.511974615190844],[-0.938493443528996,43.51200638156619],[-0.938209227941239,43.512195431522414],[-0.937651132400899,43.51177673140966],[-0.937619529014552,43.511795986001324],[-0.937173119655874,43.51143736584743],[-0.93682287122262,43.511111014795816],[-0.936329772334834,43.51083489146736],[-0.936076668357704,43.51069958935604],[-0.936041106563854,43.510688178942786],[-0.935869084623649,43.51065415791231],[-0.935645585652181,43.51053903947097],[-0.935441948741448,43.51041031772765],[-0.935199068795028,43.510290497108286],[-0.93497481856059,43.51018062947499],[-0.934911766734242,43.51014373233446],[-0.934545110592945,43.509965976123105],[-0.934313259787875,43.50984449222314],[-0.933828644160119,43.50958345481214],[-0.934291022424902,43.50938443740329],[-0.934190930456638,43.509332579325886],[-0.934193942571599,43.50906762764728],[-0.934245922362155,43.50898268511051],[-0.934409589734536,43.50879369735115],[-0.934610356695946,43.508597056942385],[-0.934965996851837,43.50824210449204],[-0.935308935231454,43.508370093430976],[-0.936292070390336,43.50873391296429],[-0.936509825344586,43.50878879292566],[-0.936998952358985,43.5090072256629],[-0.937012026067411,43.50901197562237],[-0.937724337968831,43.50910987595888],[-0.937731659908199,43.50915348022315],[-0.937855490746354,43.50904610748873],[-0.937837268424222,43.50914495952813],[-0.937846538516393,43.50915921615994],[-0.937864094092319,43.50916254205045],[-0.937873786273426,43.509157685826914],[-0.937869191318897,43.50907443622611],[-0.937960085673508,43.50914914579938],[-0.938193784764171,43.509077327566835],[-0.939504758424124,43.50868440433287],[-0.939773195785597,43.508603032480984],[-0.94000468710283,43.50896629999077],[-0.940020901220681,43.50899336605642],[-0.940604007970714,43.508885690621426],[-0.940554985710817,43.508757483265946],[-0.939792822925037,43.508423685111865],[-0.939745166117215,43.508306327890494],[-0.940522218054698,43.50820421512469],[-0.941995996120305,43.50817315029876],[-0.942388788505126,43.508763861703336],[-0.942824885959429,43.50936867153127],[-0.943074295842359,43.50971497673484],[-0.942888620339406,43.50979037376654],[-0.942626873164078,43.50987907699541],[-0.942280910755287,43.5099976870297],[-0.942125747160474,43.510066838323624],[-0.942058236150846,43.51011109190261],[-0.94196195011715,43.51019773990251]]],[[[-0.941668377658862,43.52550097597734],[-0.942174216310464,43.52555654517325],[-0.941964510136188,43.52628339956419],[-0.941321598469559,43.526196958274014],[-0.941475340979261,43.52563762391602],[-0.94112942318077,43.525567140374854],[-0.940961163184539,43.5261783495755],[-0.940387029725564,43.526164983412],[-0.940220471600193,43.52614815475759],[-0.939833549226837,43.52610438053017],[-0.939484480381644,43.52604571708365],[-0.939356789141195,43.52600711606538],[-0.93924315128776,43.52597485071598],[-0.938326276044511,43.52563403902371],[-0.937551553285257,43.52534580156311],[-0.937508893836355,43.525332126578135],[-0.937069861050795,43.52522159140969],[-0.936378228557719,43.525072480893805],[-0.93613303963059,43.52501742261314],[-0.935723168749626,43.52494573057609],[-0.935287652802712,43.524890011741945],[-0.935391316316595,43.52442105815976],[-0.935463285449692,43.5240947760773],[-0.935378535235257,43.52408109662243],[-0.935177478395622,43.52404308188425],[-0.9348589048161,43.52398293715373],[-0.934623864917206,43.52393858767142],[-0.93441086760284,43.52389974368612],[-0.934387547023374,43.523895455152335],[-0.934032021164692,43.523830793496934],[-0.933996085548937,43.52317448894505],[-0.933985594460853,43.52298164088408],[-0.934002289944033,43.52298319711805],[-0.934306992724357,43.52305781032063],[-0.935500400427884,43.523186018484836],[-0.935578960755905,43.52321055231054],[-0.936174583308124,43.52337711527217],[-0.936620914748082,43.52350405379628],[-0.936799203106303,43.52355667528592],[-0.93767352612914,43.523783105647496],[-0.937816951338859,43.52340864428666],[-0.938079827992887,43.52275608038395],[-0.939270884217048,43.52276875528242],[-0.939708676283762,43.5227820355948],[-0.940107502220104,43.522862491238634],[-0.940130260748538,43.52279365104268],[-0.940164668907387,43.52266727446334],[-0.940371083989581,43.52198612767857],[-0.940437892615735,43.52196027791244],[-0.940593848635023,43.521990553200816],[-0.941559756080972,43.522175247381334],[-0.941861164045294,43.52219275615354],[-0.942877576973511,43.5222691236805],[-0.942761483325703,43.52251287818987],[-0.942808216356838,43.5225462213487],[-0.942601948627803,43.5228289280035],[-0.941744170738782,43.522555092292485],[-0.941675480853711,43.52276811516207],[-0.942375268012514,43.52306499239971],[-0.942688218598735,43.52331179310275],[-0.942696566640288,43.52330896719286],[-0.942771757644646,43.52336911148103],[-0.942752178005432,43.523376039258714],[-0.942569813203566,43.523857232252674],[-0.942231510285987,43.52477370479555],[-0.941884930026386,43.52470072559892],[-0.941874592764753,43.524717857009556],[-0.941668377658862,43.52550097597734]]],[[[-0.941782095193507,43.52102490347699],[-0.94314644068994,43.521234192843984],[-0.943132435811515,43.52128803174549],[-0.94301908085498,43.52171401635078],[-0.942988592109657,43.52170990028415],[-0.942038762490586,43.5215934583662],[-0.941662564082467,43.52153596957927],[-0.941159041671252,43.521448695915396],[-0.940735039033312,43.521369249690615],[-0.940283435450328,43.52125017725785],[-0.940246683934706,43.52119989501255],[-0.940281115694588,43.52107207630114],[-0.940346201038215,43.520804685148626],[-0.941289159028596,43.52094931692835],[-0.941782095193507,43.52102490347699]]],[[[-0.940448670756498,43.515443703323086],[-0.940394547258471,43.515430626665186],[-0.940379030266705,43.515622977779024],[-0.939699995316595,43.51566675391676],[-0.939132592861863,43.515764393107766],[-0.939083485860839,43.51559348804106],[-0.938619867505661,43.515875987561124],[-0.938324901533752,43.51575338036012],[-0.938185423962474,43.515712234532224],[-0.938161205333287,43.51570563740765],[-0.938107278107537,43.51575858338229],[-0.938096988308701,43.51579625155986],[-0.938055858298487,43.51606466180745],[-0.938041682195315,43.516231560239625],[-0.937822089679582,43.51611783438913],[-0.937573240241606,43.516350008780094],[-0.937559727288417,43.51633887885541],[-0.937338085630585,43.516556281767535],[-0.937077370969783,43.51638801619187],[-0.936537358217358,43.516043960616756],[-0.936791892728131,43.51583869729773],[-0.937071997164521,43.51563088325482],[-0.936780242598387,43.515444917159556],[-0.936584417042023,43.515251683575585],[-0.936692338209484,43.5151665999585],[-0.936834658517964,43.51508134805051],[-0.936903653411539,43.51504776390897],[-0.937031763657288,43.514991764231056],[-0.937455287522673,43.51483576312133],[-0.937614139803055,43.514791257786484],[-0.937882315667642,43.51473089022882],[-0.937986342752844,43.51481647383193],[-0.938027603818173,43.51479182368019],[-0.938305148934714,43.51463886970445],[-0.938404113987514,43.51456041545751],[-0.938525661735181,43.51442501896194],[-0.938738839125155,43.51414936706039],[-0.939048731457981,43.513905062711565],[-0.939154971920752,43.51383526160104],[-0.939355818659388,43.51372274639172],[-0.939611071774516,43.51360582139339],[-0.940003618539092,43.51330346966798],[-0.940061358442333,43.513306145520595],[-0.940133641855007,43.51332234570237],[-0.940366476618058,43.51343432393648],[-0.940669408744079,43.513590146443796],[-0.940848450788824,43.5136902063232],[-0.941255603430392,43.51389466702339],[-0.941782546507717,43.51416359430522],[-0.941540680103051,43.51448632831136],[-0.941160350226893,43.5149919198268],[-0.940613402392971,43.51485902126254],[-0.940542734655386,43.51483933941984],[-0.94045667651124,43.51481544253531],[-0.940448670756498,43.515443703323086]]],[[[-0.940148982011381,43.512954249399286],[-0.940210812781753,43.51297866664575],[-0.940317059121565,43.51287292099087],[-0.940292668788428,43.51286380830658],[-0.940564786624299,43.512599522693186],[-0.941064113024277,43.51287387060033],[-0.941614607919137,43.51317590324539],[-0.94171667007867,43.513231016541326],[-0.942165850253811,43.51345988955983],[-0.941743594036822,43.51388827511432],[-0.941211278445497,43.51358972560336],[-0.94051754020429,43.51319704928055],[-0.940127984168334,43.51298014574901],[-0.940148982011381,43.512954249399286]]],[[[-0.939870819046517,43.513263975282094],[-0.939777514077458,43.513401409791925],[-0.939697944410003,43.51347204394992],[-0.939610294682897,43.513529549311805],[-0.939510100359092,43.51358642947214],[-0.939342160778447,43.51368063342822],[-0.939024700825342,43.513816393359534],[-0.93875678671149,43.513788473056984],[-0.938884241712085,43.51327910724761],[-0.938460229733241,43.51318776429296],[-0.93850464254825,43.513120660455215],[-0.937273914563771,43.5129506993747],[-0.936887109430292,43.512896464495924],[-0.936206759747501,43.51280685489979],[-0.936095600462499,43.513059519496984],[-0.936056329491071,43.51315291989577],[-0.935641766433148,43.51307293381714],[-0.935304255070448,43.513028164065425],[-0.934891399369791,43.51297486778491],[-0.934387519329352,43.513014776064026],[-0.933528995822046,43.512830273094735],[-0.933560507605595,43.51278435861599],[-0.933659990094375,43.51253815629643],[-0.93386127578658,43.51206701678146],[-0.933981812241002,43.51201976329729],[-0.935214147018234,43.5121865493094],[-0.935620711694285,43.512247459313585],[-0.935837745571465,43.51225732603687],[-0.936075542793898,43.51229202193445],[-0.936417002266264,43.51237276895294],[-0.937011514857882,43.51253918218299],[-0.937670473462027,43.51261650163191],[-0.938598761447419,43.51273159599133],[-0.938656650147161,43.51249284496561],[-0.938723518300814,43.512217194025965],[-0.938788457956606,43.51219312455057],[-0.939187268602031,43.5123592496649],[-0.939620969746769,43.512564822946175],[-0.939903014865789,43.51274464772855],[-0.939997832202,43.512885424526154],[-0.939998624406773,43.51293485130301],[-0.939982530448789,43.51300696214062],[-0.93992640103938,43.51316124241444],[-0.939870819046517,43.513263975282094]]],[[[-0.940055840517833,43.5280552681272],[-0.93994578958946,43.52834231076456],[-0.939741750191498,43.52893761250075],[-0.939625198847504,43.52923462012558],[-0.939558552246359,43.52955161492374],[-0.939366919765256,43.530504639735945],[-0.939258401571638,43.53044065855735],[-0.93886000824115,43.531168416174914],[-0.938532278222181,43.53114870035934],[-0.93833460528459,43.53109363159576],[-0.937752380520081,43.53075002524181],[-0.937752212162905,43.5303125834248],[-0.937549732640246,43.52947620966029],[-0.937545643548167,43.529436450964944],[-0.937474881165511,43.52920444196393],[-0.937359830508117,43.52888449774357],[-0.937233711913082,43.528590899543985],[-0.937205025613777,43.52852104514325],[-0.936913250789038,43.52786997337135],[-0.936719956120195,43.52742359960918],[-0.936399135867535,43.52700779949461],[-0.936267823482382,43.52690374534406],[-0.935975366813321,43.52671194365925],[-0.935786365791662,43.52647972210026],[-0.935633195118635,43.52623196659011],[-0.935547917085066,43.52610227861117],[-0.935467173907996,43.525959273795415],[-0.935263596893184,43.525590203233726],[-0.935209379264551,43.52553613899517],[-0.935121589041781,43.525449241585235],[-0.935018390498654,43.525377767087825],[-0.935156961753673,43.52495024639789],[-0.935813610992099,43.52505325042357],[-0.936103542096357,43.52510542405772],[-0.936551054830032,43.52518259447882],[-0.937045676601315,43.525298590216394],[-0.937216754883439,43.525334447292096],[-0.937482518291437,43.52540605214756],[-0.937939113099749,43.525577655255894],[-0.938282395003231,43.52571625777898],[-0.938812637772526,43.52592184652338],[-0.939300374125957,43.52609249318081],[-0.939661945280961,43.52617097183421],[-0.939330688851047,43.526967277005376],[-0.93979955089292,43.527088250723935],[-0.940086095118683,43.52622501475829],[-0.940477990715955,43.52624923935738],[-0.940688470911748,43.52626384079084],[-0.940590956532858,43.526535023993134],[-0.940345587278245,43.5272332630788],[-0.940231171834045,43.52754325579116],[-0.940055840517833,43.5280552681272]]],[[[-0.93866564837796,43.50757327959641],[-0.93805225652795,43.50751169901997],[-0.937169074547901,43.50742505273811],[-0.938613863655399,43.50706907736413],[-0.938602754487329,43.506995523250424],[-0.93864066312987,43.50692207978073],[-0.938747904865774,43.506897734268854],[-0.938943105497724,43.50683857339683],[-0.939197502890161,43.506772756774616],[-0.939418100982868,43.506739246404464],[-0.939643315966703,43.506706288435886],[-0.939834810442707,43.50665807052266],[-0.940140183683964,43.506550582284916],[-0.940310450081706,43.50649241531103],[-0.94032716937053,43.50652504802104],[-0.940446036029323,43.506459110442826],[-0.940579865433585,43.50638758414489],[-0.940666766387289,43.50636262490935],[-0.940858651392443,43.50635078431264],[-0.940950853793195,43.506336351933996],[-0.94107850699818,43.506304685906855],[-0.941152408413913,43.5062724518106],[-0.941317748804127,43.50618761767826],[-0.941413520043914,43.50614945347318],[-0.941691234236587,43.50615295736868],[-0.942187262485602,43.50617446470521],[-0.942866924485611,43.50611983641355],[-0.943622848543986,43.50605657386756],[-0.94379003208576,43.506550090375384],[-0.943301610917834,43.50652948455889],[-0.942958549129483,43.50656925939355],[-0.942320082815929,43.506668782413314],[-0.941840542099119,43.506797384317],[-0.941400357435781,43.506913382747754],[-0.94115809791851,43.50697389882481],[-0.940556971123352,43.507130697398615],[-0.9402087268235,43.507223079858285],[-0.939798365547997,43.50737519162753],[-0.939666776338465,43.5074162776259],[-0.9395432254381,43.50744103660846],[-0.938960279100575,43.507552664496416],[-0.938700200889167,43.507600670364226],[-0.93866564837796,43.50757327959641]]],[[[-0.93812126831592,43.51791889969235],[-0.937182518636293,43.518641681110665],[-0.936869402986405,43.51811372355499],[-0.937206443259753,43.51775583506953],[-0.937710749277179,43.51743817310593],[-0.93781532246518,43.51748833468416],[-0.93812126831592,43.51791889969235]]],[[[-0.936454903351839,43.512309956235484],[-0.936099080274062,43.512220092029864],[-0.935646402653582,43.51218527036327],[-0.935221936595339,43.51211960535378],[-0.934871751335577,43.51207403342112],[-0.933815882977736,43.51194101697659],[-0.933705817461422,43.512206160439064],[-0.933511052514814,43.512691206015],[-0.932137107613847,43.51216100942081],[-0.932231472582559,43.51185265724177],[-0.932373857243789,43.51137798241535],[-0.932404795151665,43.51124597030276],[-0.932581204489632,43.51056332182745],[-0.932650731863049,43.51027550847243],[-0.932758714364556,43.510146196251355],[-0.933023705018894,43.50982453668516],[-0.933705979001509,43.50961943508574],[-0.933900385845927,43.50972011876191],[-0.935179350057504,43.51037480955585],[-0.935924830605568,43.51075780079907],[-0.935997805527846,43.51070470489272],[-0.936205299727696,43.510813827787686],[-0.936741215139979,43.511089838065615],[-0.936881617492292,43.511229502074684],[-0.937393231349793,43.51163656162781],[-0.937627631019661,43.511823887624004],[-0.937714367058334,43.51186136437563],[-0.938045898555649,43.51216010699551],[-0.938209576040924,43.51228171825552],[-0.938510366994581,43.512096119824236],[-0.938642236368022,43.51214015364796],[-0.938540269759161,43.51260967693115],[-0.938472068663329,43.51264575567795],[-0.937648863295376,43.51254504014026],[-0.937031705078599,43.51246899507893],[-0.936454903351839,43.512309956235484]]],[[[-0.936657528986093,43.50668261542858],[-0.936757991838195,43.50623080684418],[-0.936779300176994,43.506140851383066],[-0.936834333677534,43.50557881050602],[-0.936929547823314,43.505476531945895],[-0.937475666097312,43.50525040640903],[-0.937596068220835,43.505201441827275],[-0.937750114398455,43.505121527682654],[-0.937931732423875,43.504994309271865],[-0.938143593117104,43.50477753085677],[-0.938343791192021,43.50457117490341],[-0.938502042486553,43.504507501829316],[-0.938808899649325,43.50434960720583],[-0.93988631458739,43.50401921316687],[-0.940108336506955,43.50477684356139],[-0.940272009868147,43.5053621954186],[-0.94028026136796,43.5053778400694],[-0.939705980598583,43.50561004833542],[-0.939255011188304,43.505723907813014],[-0.93924629762723,43.50570152369371],[-0.938889307975738,43.50578539180268],[-0.937951789803274,43.50610438681798],[-0.937721973508676,43.50622002398309],[-0.93693611850292,43.506711503036804],[-0.936611897988043,43.50682759375333],[-0.936657528986093,43.50668261542858]]],[[[-0.936636205898069,43.522228547524634],[-0.935923837277845,43.52173850252066],[-0.936406112774423,43.521122390151824],[-0.936310358229298,43.521065510807546],[-0.936484594066826,43.52082442777197],[-0.937314704681451,43.520995261316806],[-0.937862076377711,43.52110654352192],[-0.937991489833382,43.52115237993641],[-0.938869098646572,43.52147768152806],[-0.939491171965918,43.52168704543842],[-0.940334194738688,43.521874323323],[-0.940225182183443,43.522235826875594],[-0.939561017139213,43.52214564533819],[-0.93911213081058,43.522046377561885],[-0.939031192380888,43.52245991892535],[-0.937923989101821,43.52231060232016],[-0.937339679177673,43.522370288458546],[-0.936726716345636,43.52227210460496],[-0.936636205898069,43.522228547524634]]],[[[-0.935775544771741,43.5157704727309],[-0.93517702247301,43.516031820412984],[-0.934886871301173,43.516129282042364],[-0.934832963246673,43.51605250618635],[-0.934784857725074,43.51598092468596],[-0.934749633672236,43.51592752280712],[-0.934712624979221,43.51587697826296],[-0.93467079690423,43.51581390693684],[-0.934652310934484,43.515789805067556],[-0.934644058832598,43.51577776321086],[-0.934599095740317,43.51570868001231],[-0.934956741656125,43.515398605948626],[-0.935623984345147,43.514783711651496],[-0.936016952623026,43.51445820854799],[-0.935163095055902,43.514232019761586],[-0.935289536668455,43.51392592277723],[-0.936301146147648,43.5140428773197],[-0.938705086073328,43.5140560963093],[-0.938489774066482,43.514320475224274],[-0.938319696370962,43.51450808118257],[-0.938140702977395,43.51458917228605],[-0.937594833997121,43.514701065270295],[-0.936871159685894,43.51497282380771],[-0.936577314502489,43.51514267085523],[-0.936221866925387,43.51543591533231],[-0.935775544771741,43.5157704727309]]],[[[-0.935655978872805,43.52314938264921],[-0.935531512969783,43.52311435388112],[-0.934984897141337,43.52304681231509],[-0.934338519604116,43.52299036499875],[-0.933912251837998,43.52289593023934],[-0.93389735642384,43.522844762869035],[-0.933661982497093,43.52245036007847],[-0.933591495197768,43.52232499915423],[-0.933381936000532,43.52195317120831],[-0.933059168922843,43.52199424724284],[-0.932454490385661,43.52207104100319],[-0.932291111174235,43.52209498319658],[-0.932251642582666,43.5220193935425],[-0.93214646910053,43.521792414897796],[-0.932104457065105,43.52174475314811],[-0.93207567259364,43.52168778352752],[-0.932271613391524,43.52121566828348],[-0.932482869812356,43.5209419006753],[-0.932738356388693,43.52110784540743],[-0.932990386440903,43.52127571665933],[-0.933045563821311,43.5213167748324],[-0.933196050144703,43.52125465346566],[-0.934371070077867,43.521167519921114],[-0.93460969219146,43.52121011794866],[-0.934926135947086,43.52135681994696],[-0.935473772462873,43.521692321915964],[-0.93578413815975,43.5218857252604],[-0.936044352626093,43.52207166986853],[-0.936200275961749,43.52218275737958],[-0.936658894420544,43.522331950257744],[-0.93786976224092,43.522592100907566],[-0.938005360911684,43.52267933141798],[-0.937852001873953,43.5230713596844],[-0.937611385711842,43.523682126601535],[-0.936646715691334,43.523434383331],[-0.936283700330205,43.52332910311766],[-0.935655978872805,43.52314938264921]]],[[[-0.936627043540846,43.52745345744475],[-0.93682530201361,43.52790181315257],[-0.93726324115552,43.52891854336154],[-0.937381413021962,43.52921360126895],[-0.937454992507545,43.529481271343016],[-0.937648708822791,43.53031084681741],[-0.937648449718703,43.53075289841217],[-0.937763467959523,43.53142966705204],[-0.937347165269041,43.531347943065356],[-0.937306335305156,43.53133573278403],[-0.936949751360914,43.53124192975537],[-0.936033734867229,43.53088214605971],[-0.935699035176496,43.53074808803815],[-0.93565966417496,43.53069213352821],[-0.935340139416121,43.53003350595635],[-0.93561850554758,43.52953920269372],[-0.935017271976058,43.529320588719365],[-0.934959787312088,43.5292496168189],[-0.934718554216555,43.5282734851817],[-0.934867815465561,43.52821311782916],[-0.935787271420348,43.528491978897286],[-0.936348354145372,43.528590973176655],[-0.936419121689777,43.52858299915399],[-0.936029294044739,43.527624876109044],[-0.935822799251638,43.52745175367604],[-0.936182063951537,43.527084863909195],[-0.936080741418844,43.52703359091291],[-0.935732479883937,43.52685669622649],[-0.935471743404397,43.52679166066986],[-0.935122248534886,43.526697866026915],[-0.934560499490939,43.526538264224214],[-0.934566762864555,43.526526686419885],[-0.934630971214174,43.52644472263974],[-0.933971561748314,43.5262365934492],[-0.934015386419342,43.526160684536165],[-0.934109039176028,43.525998919819436],[-0.934222239626778,43.52580987112933],[-0.934302105702233,43.52583534957693],[-0.934420480679195,43.525878978788505],[-0.934507607629306,43.5259092383065],[-0.934471364112351,43.52596388288555],[-0.934803486207966,43.526078848863825],[-0.934837352560335,43.52602203833706],[-0.934868379173515,43.526032172847565],[-0.935143856426011,43.525588062934155],[-0.935162210242763,43.52561018796784],[-0.935463310837481,43.526134086083744],[-0.935697097581011,43.52650854603918],[-0.935877763469185,43.526732962771355],[-0.936058206727378,43.52684757536867],[-0.936195631924653,43.526950507011584],[-0.93625992915572,43.527005285992026],[-0.936322746391784,43.52704750694984],[-0.936627043540846,43.52745345744475]]],[[[-0.93408763154491,43.51662464709504],[-0.934330428111282,43.516388827303025],[-0.934498560447118,43.51630804686602],[-0.93458914150171,43.516275122191125],[-0.934838065257959,43.51621546117183],[-0.935315747585791,43.516060205603814],[-0.935658308173795,43.5162993719752],[-0.936219976223471,43.516681291254265],[-0.937078259026393,43.51712666523987],[-0.93667392056294,43.51743817193204],[-0.93661833459447,43.517412805054164],[-0.936345742441352,43.51768520489061],[-0.935979716716052,43.51800315499976],[-0.935800643271973,43.51826747386843],[-0.935653283086334,43.51834434933079],[-0.935229185146295,43.518131203055994],[-0.934538992492156,43.51778862434906],[-0.934732086087038,43.517658382982056],[-0.934821826086311,43.51760954398515],[-0.934524910868306,43.5174386224567],[-0.9345614108429,43.51740405719199],[-0.93450028325534,43.517370062248226],[-0.934463807896176,43.51740498692956],[-0.934314590357366,43.51731022980821],[-0.93411413333738,43.51719931529676],[-0.934149906530046,43.517155948424616],[-0.934175542657658,43.51714348751663],[-0.934299701832508,43.51699178637144],[-0.93440624372792,43.51678712507467],[-0.934396126473314,43.516744252429106],[-0.93408763154491,43.51662464709504]]],[[[-0.932923489180856,43.49691329841602],[-0.932891507588189,43.49709137920435],[-0.93281917442428,43.49709580568681],[-0.932773373203061,43.49710098089363],[-0.932266846808005,43.497143592260414],[-0.93223948116163,43.497145125650604],[-0.932236949530001,43.497122607037085],[-0.932096589934343,43.496550907601],[-0.932269719099808,43.49651138597203],[-0.932583500660917,43.49643694342481],[-0.932903464628062,43.49636605901411],[-0.932951506097616,43.49650745518278],[-0.932923489180856,43.49691329841602]]],[[[-0.934207156118199,43.53120814210576],[-0.933647241293573,43.530929556394035],[-0.934162401351421,43.53035460013096],[-0.934487674758453,43.52999174207497],[-0.933242710048008,43.52929740954537],[-0.933830702843957,43.52871224623904],[-0.933276246098843,43.52838283505278],[-0.93301051043691,43.5282250084326],[-0.932911512124181,43.528166081143254],[-0.932448833103644,43.52789126111231],[-0.931073578223978,43.527074074240176],[-0.930652078724698,43.52682360839913],[-0.930048612931891,43.52646497040346],[-0.929727274639795,43.52627410949431],[-0.928993738894073,43.525838204385266],[-0.928198685446435,43.525436683228044],[-0.928127457674526,43.525401698990635],[-0.927747595334368,43.52521115132076],[-0.925668303394986,43.52462028836288],[-0.925875955276894,43.52438188748001],[-0.926259152500828,43.52394255049722],[-0.926567169674534,43.523500980142195],[-0.926892217508148,43.523672256824476],[-0.927250002380632,43.52385153534548],[-0.927610318662821,43.52403882856501],[-0.92796595895516,43.52421926361668],[-0.928465715113,43.52447221790698],[-0.928667338606995,43.52426348685404],[-0.929105428267729,43.523808907884046],[-0.929323354441418,43.5240790070184],[-0.929455808680307,43.524228969687414],[-0.929367937732348,43.524229361563144],[-0.928798413210355,43.52481662224015],[-0.929595483164387,43.5252114895133],[-0.929661526828921,43.5251454071662],[-0.930062603633253,43.52471801930195],[-0.930624855265039,43.52519462781607],[-0.930704080686852,43.525254183510434],[-0.931014842501017,43.52545695540392],[-0.931586471891258,43.525846109146485],[-0.93197773500054,43.526130547968016],[-0.932141776585986,43.52623540185108],[-0.932515816485631,43.52658099966779],[-0.932724592973518,43.52670630081347],[-0.932974211326365,43.52686029818788],[-0.933269770836925,43.527052355426186],[-0.933722556713743,43.52734906056908],[-0.933808061141098,43.52741343120324],[-0.934068297287069,43.5275831661205],[-0.934403211206313,43.5278091956846],[-0.934532892516477,43.528014114908174],[-0.934603556548998,43.528203338968325],[-0.934873195446304,43.529272397317236],[-0.934927649052013,43.52937320689668],[-0.935016622117303,43.52940141744817],[-0.93544330193496,43.529548083778224],[-0.935479244620283,43.52960461312785],[-0.935237159968873,43.53004120685973],[-0.93561103645982,43.53079010800921],[-0.937075420203769,43.53137726769054],[-0.937185377257411,43.53152903076211],[-0.937230819657741,43.53201284382449],[-0.937299933998545,43.532022225522844],[-0.937082024393067,43.53263793452428],[-0.934789114438912,43.53149754614917],[-0.934207156118199,43.53120814210576]]],[[[-0.9317886457535,43.50059341221781],[-0.931923064484416,43.50024856742626],[-0.93258332200971,43.500227765564475],[-0.932826100745365,43.50039560670089],[-0.933398032178035,43.500588436049895],[-0.933885982121944,43.500628288945585],[-0.934045079228047,43.50155080829473],[-0.934361102782544,43.50228368459265],[-0.934115510246517,43.502309804765616],[-0.93293715376848,43.50242571546768],[-0.931986183921283,43.502520753073426],[-0.932048473925204,43.502190595346754],[-0.932044888889541,43.50199182466955],[-0.932021834079294,43.50180511065488],[-0.931821096076996,43.50177599974346],[-0.931780183008485,43.50111331080289],[-0.9317886457535,43.50059341221781]]],[[[-0.929710086328984,43.50157078244764],[-0.930980593706148,43.50176540920808],[-0.931016591475937,43.501682039133634],[-0.931605830140131,43.5018220932757],[-0.931386117872916,43.50198221104957],[-0.93126518241952,43.50212640449527],[-0.93123260022733,43.50225243966111],[-0.930800582199884,43.50219279981021],[-0.929905126857146,43.50204654875918],[-0.929572525116624,43.50199654145079],[-0.929121905146253,43.50192360681059],[-0.929121786134436,43.50190739642304],[-0.929163573347179,43.50174400482261],[-0.929218011146722,43.50154304096439],[-0.929710086328984,43.50157078244764]]],[[[-0.928222882164029,43.50044048082197],[-0.928256339104744,43.50044656482398],[-0.928363362532629,43.50046799874626],[-0.928641442233195,43.49940270450737],[-0.928734859851608,43.49942787409801],[-0.928819261276442,43.499449677104074],[-0.929818928570057,43.49924777494687],[-0.930479886450113,43.499246417741325],[-0.930480023088734,43.49924298968603],[-0.930513912283406,43.49924635484665],[-0.930866350744832,43.499284469054466],[-0.931667868774173,43.499416642273424],[-0.931629412018749,43.499467672316946],[-0.931430957633024,43.49958026671729],[-0.931179638053537,43.499725045671745],[-0.931008786393275,43.49979799304176],[-0.930853951702876,43.49979036672898],[-0.930672198158944,43.49979443616749],[-0.930617691344729,43.49992739161581],[-0.930508552170769,43.50019871189251],[-0.930351113903462,43.50042791379877],[-0.930029074259983,43.50066956992967],[-0.929556108177261,43.5011796453968],[-0.929218011146722,43.50154304096439],[-0.929082627063656,43.50153398617272],[-0.928549212382091,43.50150251552686],[-0.927763320733381,43.50140551437456],[-0.92772933824561,43.5014008004664],[-0.928005994984419,43.50086631966581],[-0.928222882164029,43.50044048082197]]],[[[-0.929537952254799,43.50446288294305],[-0.929731108391076,43.50446065457586],[-0.929105996730629,43.505225590772504],[-0.928775860051911,43.50567859823167],[-0.928010390260656,43.50571273612857],[-0.927487043941435,43.50569512684866],[-0.926703629568859,43.50568945896179],[-0.926553635667956,43.50636645237462],[-0.927308225258547,43.50643730433614],[-0.927331526484104,43.5064396129622],[-0.927427880767257,43.50603705920741],[-0.928137136150815,43.506125492337404],[-0.928408696058618,43.506191049418966],[-0.928049841512235,43.506783461193294],[-0.927588736638044,43.50752947305461],[-0.927437319364018,43.50805347106982],[-0.927397991232005,43.50846287731004],[-0.927212053058349,43.509260353824686],[-0.927162317821981,43.50931854702076],[-0.926650202487403,43.50946384429645],[-0.926573574365459,43.50927717753626],[-0.926204653382465,43.50938440573697],[-0.925959791408928,43.50945065644809],[-0.926035671531751,43.50959744436668],[-0.925871355244251,43.509623483693396],[-0.925572385132739,43.509781775046996],[-0.925310239134127,43.509948280798405],[-0.925104956658326,43.51010110635833],[-0.924967356199626,43.51028625257597],[-0.924879833707252,43.51032221134858],[-0.924412070347004,43.51029266419011],[-0.924167710240533,43.5103029516322],[-0.923685785069685,43.510259951323924],[-0.92337531623094,43.51020659978535],[-0.923171563411439,43.51010110139681],[-0.922977527110404,43.50978635123499],[-0.923053339478117,43.509653259188916],[-0.923020363421356,43.50961986117092],[-0.923279538006032,43.50950580626512],[-0.923309062147851,43.50941078236087],[-0.923641944042187,43.509237937869536],[-0.924005953270029,43.509067839040995],[-0.92468553175403,43.508746957331],[-0.925129544751086,43.508641068930764],[-0.925260727717964,43.50888899844759],[-0.925677590536649,43.508787874370306],[-0.926791258050413,43.50857277818092],[-0.926793830554834,43.50844026449537],[-0.926734106605776,43.50803201464692],[-0.926625035229089,43.507671314115456],[-0.925301413450429,43.5078546463734],[-0.924908611835948,43.507903911632],[-0.924695217957461,43.507934338682745],[-0.924474576234576,43.50794926339431],[-0.922784710884822,43.508067182095914],[-0.922390678690949,43.508049551949945],[-0.922531594503418,43.50763205886368],[-0.922695946744928,43.50721344727708],[-0.923071912384689,43.50719677827239],[-0.924868655414272,43.50706759769001],[-0.925102250470618,43.507052112930175],[-0.925663060490138,43.5070454965995],[-0.926367365969934,43.50704692174599],[-0.92653064636542,43.50641214589376],[-0.925459979871537,43.50628526433763],[-0.925633508508648,43.5055395890617],[-0.925805086064635,43.50552760975695],[-0.926224043974011,43.505511804516175],[-0.926339998809652,43.50548454341311],[-0.926426985027006,43.505458962114545],[-0.926620590571034,43.50543249113642],[-0.927236687522351,43.50537675049914],[-0.927911536133249,43.505313292240494],[-0.927810449242376,43.50497527503944],[-0.928827297167007,43.50487833818088],[-0.92883592883543,43.50449256512267],[-0.927812129547825,43.50449138488646],[-0.926908662193903,43.50449259168963],[-0.926295394939729,43.50449183712535],[-0.926296971330606,43.504446108610914],[-0.926500289784604,43.50399157811437],[-0.926553798810542,43.504010358496],[-0.926561130531833,43.50399450876909],[-0.926852440448581,43.503357257264355],[-0.927662883018656,43.503423829630755],[-0.928423024879415,43.50348231010851],[-0.928961714000883,43.503523680051075],[-0.929040810250491,43.50355648528756],[-0.929454772872881,43.503628858036194],[-0.929305062607095,43.50401280914105],[-0.929284248448229,43.5044031676129],[-0.929281972378521,43.50446576692544],[-0.929537952254799,43.50446288294305]]],[[[-0.930611895578057,43.52451713117552],[-0.931337760850844,43.52480853905348],[-0.932059588122933,43.52510414258782],[-0.932160160557292,43.524969243957884],[-0.932197830600574,43.52492094442918],[-0.932232535921494,43.52487635573798],[-0.932671850048163,43.52505986733713],[-0.932867883930951,43.52479502854591],[-0.933189153275918,43.524849316119585],[-0.932973392103853,43.525146039960106],[-0.93333544740429,43.52529325519592],[-0.933004039493315,43.52573434405029],[-0.933243851091468,43.52584644714681],[-0.933359497299506,43.52572919734061],[-0.93358295971489,43.525741810057035],[-0.933488256957906,43.52586838970713],[-0.933397871092414,43.52598931758041],[-0.933249666784285,43.52618792275177],[-0.932968449460185,43.52656476308362],[-0.932867085891141,43.52669897061007],[-0.932579577693525,43.52652499745806],[-0.932563506020296,43.526518103417345],[-0.932209403518576,43.52617799851686],[-0.931642631791351,43.52579119388744],[-0.930952485999392,43.52532012746961],[-0.930784685893873,43.5252018957947],[-0.930349216091947,43.52485203381315],[-0.930116234794379,43.52465328739443],[-0.929875007139444,43.5244968182027],[-0.929795848925031,43.52444725879944],[-0.929528149919341,43.52418436923936],[-0.929231132065938,43.5238240808125],[-0.929244585054974,43.52378368648353],[-0.929277369016023,43.523748987516264],[-0.929317476679148,43.523734471992654],[-0.929353964202129,43.52372675379599],[-0.929489848272223,43.523724261532145],[-0.929534797143733,43.52370812914525],[-0.929838845082793,43.52382385649906],[-0.930167103582485,43.52394420056336],[-0.930276803335319,43.5239841847746],[-0.930829113785455,43.52423612425874],[-0.930812238272564,43.52426268001293],[-0.930638992264392,43.52448254785032],[-0.930611895578057,43.52451713117552]]],[[[-0.928321664922792,43.502892435291265],[-0.927249770422011,43.502804623802625],[-0.926973220672584,43.502743659390354],[-0.927380570308099,43.50222723560322],[-0.927613951620321,43.501930247492524],[-0.927741076734683,43.50198500456239],[-0.928585745181761,43.50207095771769],[-0.928757774509125,43.50210372758869],[-0.928996626035837,43.50217623316374],[-0.929220065350799,43.5022513688366],[-0.930267684491992,43.50257767654219],[-0.930144377563935,43.50290428019364],[-0.930138582762527,43.50292448847109],[-0.930784799819225,43.503151932826384],[-0.93058428358428,43.50343170206415],[-0.929558594552418,43.503180180143694],[-0.928999923153114,43.50304567243777],[-0.928648772516524,43.50295976128234],[-0.928321664922792,43.502892435291265]]],[[[-0.929919802103906,43.52331555596467],[-0.930379796405302,43.52265496830859],[-0.930420939885287,43.52261762378229],[-0.930467800594704,43.522605925829986],[-0.93054228338801,43.522603495989344],[-0.930906263447465,43.522869558203034],[-0.931147102297242,43.523060180386516],[-0.930748798667731,43.52363989264118],[-0.930665227670186,43.52375912957643],[-0.930472783313946,43.52403851739096],[-0.930285736744597,43.52396458315724],[-0.92960187563422,43.52371506673832],[-0.929625683225247,43.5236740268315],[-0.929702809543702,43.52362700075374],[-0.929919802103906,43.52331555596467]]],[[[-0.927639809328647,43.50084986316636],[-0.927604807357012,43.500911666341736],[-0.927584017392609,43.50096052325133],[-0.927488102160448,43.50114677433814],[-0.927427137017256,43.50129941963661],[-0.927429155827879,43.50131808344434],[-0.927461542642012,43.50135375323436],[-0.927436723089235,43.501358165771116],[-0.926356634937894,43.501104803550525],[-0.925872959350982,43.50100251571966],[-0.92580275654362,43.5009874926658],[-0.925849943581056,43.500890297189095],[-0.925868824493791,43.500851508853515],[-0.925911440943478,43.50076348704715],[-0.925958546576409,43.5006687266724],[-0.925977238105227,43.500623549398284],[-0.925585108380703,43.50052983515662],[-0.925556305646386,43.5005230412808],[-0.925418783578427,43.50049352091266],[-0.925258829484,43.50045445342199],[-0.925122053950036,43.500408691010506],[-0.925370935678879,43.4999165712222],[-0.925552445273109,43.4996301145421],[-0.925670681917559,43.49929604430589],[-0.925834829847609,43.49931685279477],[-0.926288680083346,43.49928717046588],[-0.926375149163067,43.499266832435886],[-0.926175362463245,43.50003165421747],[-0.926302732625098,43.50005568606322],[-0.926634710233519,43.5001221202476],[-0.926889124130901,43.5001708251436],[-0.927297119957202,43.50025044750754],[-0.92763730847117,43.500317482007304],[-0.927645149149309,43.50033080018019],[-0.927663772316829,43.50034435818359],[-0.927713278773734,43.50034265421895],[-0.927743766845913,43.500348755881475],[-0.927769360514731,43.500375573487865],[-0.92776504802857,43.50043194062681],[-0.927797872742635,43.50044687566735],[-0.927808650444311,43.50046333032943],[-0.927804305388781,43.500504745124076],[-0.927764419801187,43.50057294095405],[-0.927750965594559,43.50061144292148],[-0.927659966246283,43.50079175079047],[-0.927639809328647,43.50084986316636]]],[[[-0.928967412216422,43.522609859273786],[-0.928990365188602,43.52257803897308],[-0.929009939374911,43.52255111550472],[-0.929223157836183,43.52224422316654],[-0.92948949377445,43.52186153726566],[-0.92959869267558,43.52193406005367],[-0.929890276224113,43.52212644876342],[-0.929588401245827,43.52253429581443],[-0.929399701724066,43.52279787127065],[-0.929974897055473,43.52302988735644],[-0.929950474393938,43.52306374298674],[-0.929978558906815,43.5230761474176],[-0.929663077903815,43.523527637756885],[-0.929602252083876,43.523599386391496],[-0.929552373540031,43.523624885945],[-0.929509086452153,43.5236381655395],[-0.929421528629955,43.52364854536625],[-0.92915356841171,43.5235481745435],[-0.928832562907629,43.52342882595489],[-0.92852214259045,43.523241620769],[-0.928534342085415,43.5232245133926],[-0.928652204571094,43.52305818351843],[-0.92896062393162,43.52261920364343],[-0.928967412216422,43.522609859273786]]],[[[-0.927723795455293,43.507578808675525],[-0.928089610736143,43.50772130464906],[-0.928278352541867,43.50780274524781],[-0.928465212271591,43.507883803340995],[-0.928495651659474,43.50790179756499],[-0.928722157778808,43.50803591803184],[-0.928775939279872,43.508067659474804],[-0.928827159447849,43.50809814249725],[-0.929057838078689,43.5082841785516],[-0.929332871077236,43.50844554538548],[-0.929374129340865,43.50842810527606],[-0.929815476040652,43.508632446777625],[-0.929917628749252,43.50843056263212],[-0.931329924744112,43.50865842628105],[-0.931228210413428,43.50900947226105],[-0.931201851880823,43.509087268342626],[-0.930873745809387,43.5098231580241],[-0.930773772987648,43.5098236303455],[-0.92942544507659,43.5095777652421],[-0.929515148428204,43.50933498500827],[-0.928830748438639,43.50897550202983],[-0.928800745609999,43.509005505806094],[-0.928309969827697,43.50962729274468],[-0.927986473013579,43.51004393452841],[-0.926939029561742,43.509749120941784],[-0.927082670194487,43.50942980118957],[-0.927324502637639,43.50931384227876],[-0.92745007961205,43.50870331069358],[-0.927503859596005,43.508432827673765],[-0.927526327446033,43.50835598440404],[-0.927541291880209,43.50831058137081],[-0.927621589181766,43.50789761875072],[-0.927675242615266,43.50759092738191],[-0.927723795455293,43.507578808675525]]],[[[-0.925712945910185,43.49811300745817],[-0.925726509502854,43.49806342188671],[-0.925815257660301,43.49784653454109],[-0.925847548866587,43.49771429667725],[-0.925851303314308,43.49763344790874],[-0.925804184046791,43.497478143170056],[-0.925737480974597,43.497307873685486],[-0.925564810367957,43.497008392614326],[-0.926424182096671,43.49700284493755],[-0.926486207368334,43.49700330024473],[-0.926702188999775,43.49722671362865],[-0.926649594229455,43.49749814227431],[-0.926618439174446,43.49749855039075],[-0.92658119447148,43.498153799703125],[-0.926904291892239,43.49816290227299],[-0.926920864290325,43.49853559880445],[-0.92569686817068,43.49848427415821],[-0.925700599132029,43.49819668974427],[-0.925712945910185,43.49811300745817]]],[[[-0.925558267255214,43.51211901486131],[-0.925549564767411,43.51185592986552],[-0.92553460391046,43.51164432826329],[-0.92546358621121,43.51137133881947],[-0.925374661491114,43.511241958065355],[-0.925115019988571,43.51085310685173],[-0.925036018039475,43.51061355666632],[-0.925038150909018,43.51038944550902],[-0.925179705322111,43.510177041340036],[-0.92537513595821,43.510005024591344],[-0.925736106583891,43.509801339221184],[-0.926032954280809,43.5099215677597],[-0.92566074795672,43.51035014542199],[-0.925959071755139,43.51045752920065],[-0.926901304348009,43.51080282654361],[-0.927818256024541,43.511129394293675],[-0.927700751000904,43.51145443454237],[-0.928261997350404,43.5116453408643],[-0.928640334686167,43.51183116261038],[-0.928767157835552,43.51187755298442],[-0.928881481512681,43.51203069336185],[-0.928893171105008,43.512129180086475],[-0.928813537358726,43.51225511864559],[-0.927886870945897,43.512385807445625],[-0.927845925333577,43.512462149403824],[-0.927576463077906,43.513003127672114],[-0.926507048872518,43.512661089589685],[-0.926588731896106,43.51253426792349],[-0.926624065433122,43.512484433782824],[-0.925558267255214,43.51211901486131]]],[[[-0.925474508819184,43.49859484054876],[-0.925110130331073,43.49806863110765],[-0.925000862331324,43.49793278231457],[-0.924855702015021,43.497755174455385],[-0.925242038343821,43.4975851623688],[-0.925517666748827,43.4981780028585],[-0.925559879317956,43.49816737571178],[-0.925586005045151,43.49825813212663],[-0.925588806587328,43.49855439796391],[-0.925474508819184,43.49859484054876]]],[[[-0.924594680794788,43.49691056763059],[-0.924549782847303,43.496872828033254],[-0.924514918237907,43.49692759870311],[-0.924335436032407,43.49702453925941],[-0.924243133256338,43.497073552581],[-0.924053221375474,43.49708123961785],[-0.923928627676033,43.497114036166565],[-0.923892302604624,43.49719453260228],[-0.923645043048891,43.49733545322291],[-0.923208282340323,43.49753358846998],[-0.922824354501113,43.49786213865835],[-0.92285095957206,43.497882074485666],[-0.922606319362495,43.49811396975044],[-0.921931411796924,43.49779482558961],[-0.921443644078766,43.497568626139405],[-0.921881756601935,43.4970458876004],[-0.922125553836318,43.49713146989928],[-0.922330951883739,43.49720015495321],[-0.922750664118149,43.49662375975109],[-0.922301179653578,43.496570305361175],[-0.92271446920482,43.49618619540695],[-0.922881826302465,43.49592259634142],[-0.923195016959238,43.495982513398594],[-0.923451675056692,43.496029973151124],[-0.923889596146146,43.49605186254808],[-0.924093240182312,43.49610214104582],[-0.924902180655569,43.49629859108032],[-0.92536183378265,43.49641391243205],[-0.925354679132863,43.496528304337126],[-0.925384360526433,43.49681413767646],[-0.925443273158306,43.496948296644675],[-0.925188537541228,43.496965269827854],[-0.925108539301858,43.496967986977445],[-0.92502378055735,43.49695898576614],[-0.924594680794788,43.49691056763059]]],[[[-0.92591004193179,43.51773849355174],[-0.926475099198949,43.51796260452775],[-0.927140952969562,43.51823963355478],[-0.926694885312317,43.51866584644532],[-0.926679671805008,43.518687747033],[-0.926657687384251,43.51872286474468],[-0.926334509611689,43.51885365831568],[-0.926045205523573,43.51897115317996],[-0.92598365625851,43.5189906778545],[-0.925920912126825,43.51896376314171],[-0.925872971257579,43.518943338802934],[-0.925807048009807,43.51891518790794],[-0.925838660273639,43.518874226720804],[-0.925519892094554,43.51877262525636],[-0.925481215022283,43.5187265521418],[-0.925456758471441,43.518455748692844],[-0.925454110547662,43.51841701899501],[-0.925834453073335,43.51783689835295],[-0.92591004193179,43.51773849355174]]],[[[-0.926529989429851,43.52306596500427],[-0.926724117079809,43.52311865961876],[-0.926177699211799,43.52389919736097],[-0.925573105552835,43.52459319687156],[-0.925077245816997,43.524373509363066],[-0.92490972546464,43.52423922434283],[-0.924375708921088,43.52482679632187],[-0.923817114301885,43.52459847365569],[-0.923438465042537,43.524104739230204],[-0.923509888511521,43.52389991891054],[-0.922594982744191,43.52345549318891],[-0.92259464197438,43.52333092116013],[-0.922958400312525,43.523202905174855],[-0.923521355193113,43.52286670536987],[-0.92450339824486,43.52312519434814],[-0.92459773158724,43.522951343254114],[-0.925023244469676,43.52311466465695],[-0.92562798645239,43.52324311942769],[-0.925872206487115,43.5228878183321],[-0.925562976023543,43.522835506184194],[-0.925473161371064,43.52282011077912],[-0.925481207078034,43.52276396814341],[-0.925484035602868,43.522743777270755],[-0.924972775698015,43.52262815282646],[-0.92498920558448,43.52259323652555],[-0.925419725800055,43.52189374231327],[-0.925549575999121,43.52195696345733],[-0.925750590000726,43.52210138479713],[-0.925831627123877,43.522162229224925],[-0.925853574288591,43.522208007358635],[-0.925931753651512,43.52273576437359],[-0.925953846671607,43.52282711915257],[-0.926039581380401,43.5229331050811],[-0.926096085141993,43.52294835498848],[-0.926248081077029,43.52298960407878],[-0.926529989429851,43.52306596500427]]],[[[-0.924790534784767,43.52107785026373],[-0.924735418187829,43.521039398318884],[-0.924837602136461,43.52093336542821],[-0.925076007954007,43.52097112748786],[-0.92569337973272,43.52126289404988],[-0.925676105412924,43.52131441625044],[-0.925627812931889,43.521453631030525],[-0.925182257184919,43.521252302623914],[-0.925047393914314,43.52119358659466],[-0.924790534784767,43.52107785026373]]],[[[-0.924211753531049,43.5103769360015],[-0.924846308075491,43.51040936340196],[-0.924904296487765,43.51046824934673],[-0.924997102168311,43.51090070586624],[-0.925362474313174,43.511391395113385],[-0.925457667733616,43.51167765207161],[-0.925445027885168,43.51197979475124],[-0.925441869323933,43.512156289920945],[-0.925403620011279,43.51233729872029],[-0.924824567686854,43.512213592951895],[-0.924556694291477,43.51188359148316],[-0.924522155318776,43.51179475982678],[-0.924336230267167,43.51123667631695],[-0.924133143337361,43.51091279663332],[-0.923762630088865,43.510607498435036],[-0.924211753531049,43.5103769360015]]],[[[-0.924496086564735,43.520616836022775],[-0.924345520334476,43.520933251147646],[-0.924190837374131,43.52105181344378],[-0.924112266893905,43.521128434850105],[-0.924065596771026,43.521159220661424],[-0.924030170461701,43.52117158298801],[-0.923987886346178,43.521195904240756],[-0.923967874361757,43.52118203512417],[-0.923711542291756,43.5210830326095],[-0.923840489116426,43.520854150432356],[-0.923875537766287,43.52077649195157],[-0.924063083293779,43.520238577393066],[-0.924119985518781,43.519790609249505],[-0.924474165395378,43.51985787291678],[-0.924312882673689,43.52053725822358],[-0.924496086564735,43.520616836022775]]],[[[-0.923535833384688,43.52128703248153],[-0.923484043456552,43.521353405767925],[-0.923437905257365,43.52143002409426],[-0.923386588187699,43.521552231440964],[-0.923297874132503,43.52160543746634],[-0.923208113241323,43.52161796395461],[-0.923245722420184,43.521565075831],[-0.923350689983283,43.521405524724855],[-0.923254859943033,43.52136908578069],[-0.923235444382542,43.52136213130968],[-0.923101550378783,43.521569391738744],[-0.922974721351269,43.52151047254589],[-0.92292769839372,43.52149262601264],[-0.92285714935155,43.521463829847384],[-0.92250981808555,43.52126136910555],[-0.922159090360543,43.52109794588303],[-0.921772563544947,43.52094140164571],[-0.921501306148779,43.52081410758643],[-0.921471924112402,43.52078084888764],[-0.921015399208035,43.520561794360155],[-0.92099435129669,43.520130340187414],[-0.920991060070629,43.51990813589884],[-0.921890356134124,43.520322598229434],[-0.922286012888429,43.519891654045814],[-0.921662294122326,43.51949560355006],[-0.921764736238588,43.51893843193057],[-0.921774150158244,43.518942145109676],[-0.922006004197446,43.51903456023795],[-0.922179967700304,43.519104026285],[-0.92230064595216,43.51915091739759],[-0.922343991274726,43.51898449847933],[-0.922387686264554,43.51882320159974],[-0.922515456763932,43.518841640073234],[-0.92255009110656,43.51884669277673],[-0.92286140545843,43.51889182057427],[-0.92286245038369,43.518774855797],[-0.923129977581442,43.51888750748954],[-0.923405723224639,43.51900085206945],[-0.923475167659854,43.51892113834444],[-0.923493921358621,43.518929287755434],[-0.923605524017705,43.51897740669382],[-0.923732214983407,43.519028943098036],[-0.923647308847595,43.519181282541204],[-0.923574840421762,43.51930731813642],[-0.923663770584353,43.51934427658144],[-0.923782764772156,43.51939185763941],[-0.923824402793762,43.51940881762132],[-0.923958626093062,43.51946368451329],[-0.924099862349358,43.51952154039564],[-0.924090582496985,43.51959042907186],[-0.924074675809868,43.519681898067034],[-0.923979804225169,43.52022636753593],[-0.923807815505323,43.52073471231956],[-0.923593404094965,43.521165769833196],[-0.923535833384688,43.52128703248153]]],[[[-0.92374900614921,43.524788400728404],[-0.923877384981637,43.524734029216575],[-0.92384868482108,43.52466732553602],[-0.925177231992493,43.52518405927537],[-0.92481466135995,43.52560300752698],[-0.924586923793627,43.52586645565979],[-0.923973733811782,43.5253648159373],[-0.923550917878677,43.52493501708789],[-0.92374900614921,43.524788400728404]]],[[[-0.923197494827991,43.52238468113115],[-0.923174979484965,43.522426573511545],[-0.923150116417826,43.52245584918083],[-0.923146248058812,43.52252967676782],[-0.92307436856929,43.52261911726432],[-0.922971156590946,43.52258699878796],[-0.921746536200867,43.52210080429398],[-0.9210495766575,43.522015660395574],[-0.920163417952913,43.521873664666195],[-0.920305905636478,43.52142044268855],[-0.920365161508267,43.52127299715756],[-0.920789022503155,43.52060403213044],[-0.920933062063947,43.52061593884255],[-0.921719645718388,43.52099853631305],[-0.922448908730245,43.521324738723536],[-0.923081523471807,43.52164407419418],[-0.923001923192881,43.52174370307142],[-0.922977978470859,43.521875189227714],[-0.923038468793764,43.52198866662721],[-0.923155118333078,43.52211056156894],[-0.923087012993743,43.52234399773451],[-0.923197494827991,43.52238468113115]]],[[[-0.920183680424644,43.5165247469643],[-0.920257923248124,43.5165896239423],[-0.920386340012088,43.516686502855336],[-0.920498616811286,43.51675910262577],[-0.920606679508706,43.51682617951394],[-0.920719052941158,43.51693462829095],[-0.920769434769558,43.5169854142485],[-0.9208560789027,43.51714668074415],[-0.920834416506134,43.51715755337507],[-0.920692186935003,43.51723728508083],[-0.920653636460733,43.51729813344673],[-0.920525654474025,43.517278349362066],[-0.920397135709661,43.51725795396515],[-0.920284180784613,43.51722438412957],[-0.920150065105138,43.51718365210214],[-0.92004794307551,43.517112936813845],[-0.919964296562308,43.51700642139053],[-0.919949653467828,43.51697506176967],[-0.919904366986668,43.516949944796366],[-0.919874205601936,43.51691248018046],[-0.919833393665429,43.5168767518728],[-0.919784108651984,43.516832952266235],[-0.919782650030731,43.516822465397055],[-0.919855519521973,43.51676569138298],[-0.920183680424644,43.5165247469643]]],[[[-0.919131521692954,43.52176557609329],[-0.919140670161604,43.52171461910575],[-0.919180717723961,43.521657500595715],[-0.919209986723611,43.52162383277816],[-0.919276402261107,43.52157215694205],[-0.91932741311124,43.52151968668585],[-0.919362290111006,43.5214539269404],[-0.919381248545747,43.52139072444016],[-0.919413872679778,43.521281085920144],[-0.919440351951458,43.521188424850614],[-0.919461217504907,43.52114046740204],[-0.919475322685472,43.52109140310349],[-0.919510946015946,43.52109642107237],[-0.920260320496921,43.52124778144261],[-0.920032423405014,43.52192956766773],[-0.919131521692954,43.52176557609329]]],[[[-0.917820599324257,43.4988871916915],[-0.917805769203596,43.49889835731337],[-0.917927804412247,43.49902023924772],[-0.91807037104674,43.49916191729412],[-0.918228990426359,43.499319409580025],[-0.918426560382062,43.499480087614934],[-0.918525710369874,43.49971449675076],[-0.917294071822886,43.50013186354653],[-0.916958732780159,43.50024820665578],[-0.916938805906568,43.50015380139768],[-0.916820368715523,43.4999558500532],[-0.916715226105609,43.49984758912134],[-0.916510467028849,43.499779230437156],[-0.916432623779167,43.49973376000847],[-0.916264242446424,43.49964174633688],[-0.915940446242046,43.49935203546525],[-0.91582439641552,43.49923984402564],[-0.91517760866233,43.49865570609644],[-0.915000412898339,43.49849239501134],[-0.914689352181965,43.49820960767851],[-0.914408596024441,43.497953830247965],[-0.914351517640138,43.497898870744244],[-0.914169810308839,43.49764023611494],[-0.913949914692148,43.49724245479607],[-0.913670833785511,43.49674601047671],[-0.913579216452961,43.496585462504356],[-0.913473716735686,43.49637370961163],[-0.913692208821402,43.49629699826044],[-0.913676069957805,43.49627443038901],[-0.913653739519817,43.49623181800513],[-0.91362534467337,43.49619645088556],[-0.913541660808042,43.496224965534786],[-0.913489914570496,43.49624277833305],[-0.913422927799361,43.49626573553253],[-0.913210522737644,43.49584516290798],[-0.913014635975277,43.495479933593366],[-0.913325495956639,43.49558031882736],[-0.913665668346297,43.49557334983114],[-0.913775952488014,43.4956210733524],[-0.913872559178571,43.49570595344151],[-0.914020654692196,43.495838247943404],[-0.914107325830211,43.49591168614739],[-0.91428010137434,43.496023001072196],[-0.914439175035075,43.49612571252271],[-0.914523668193311,43.49619985967326],[-0.914589665722643,43.49627314346568],[-0.914658017544234,43.49638822962093],[-0.914699848557166,43.49650634556312],[-0.914711361843609,43.49658267828869],[-0.914720084618197,43.49671973600591],[-0.914732478029445,43.49681261177011],[-0.914746234001789,43.49687282916912],[-0.91477230484957,43.49692854811688],[-0.914812442263698,43.496981867264175],[-0.914865957478766,43.49702812728727],[-0.914925200779623,43.49707309940845],[-0.914990861409691,43.497108741550605],[-0.915056211605766,43.49713619753898],[-0.915165407349018,43.49718422940992],[-0.915233771047417,43.49720869385803],[-0.915450566303094,43.497277700572646],[-0.915697148900446,43.49734256793399],[-0.915823098030477,43.497385850180166],[-0.915940107049614,43.49744864248732],[-0.915988405207011,43.4974891451994],[-0.91608207725184,43.49760529760857],[-0.91614668740637,43.49767088385032],[-0.916228871407801,43.49773106076906],[-0.916337847662268,43.497790359573095],[-0.916448168912888,43.49783852974972],[-0.91698307725696,43.49825726146466],[-0.917149629647232,43.498386002799144],[-0.917193626603333,43.49842873237455],[-0.917317828077867,43.498558824009024],[-0.917442708128252,43.49863898624117],[-0.917650130001777,43.49877363631618],[-0.917820599324257,43.4988871916915]]],[[[-0.917825887255687,43.50459012028697],[-0.918572896471429,43.50484426072018],[-0.918025809967722,43.50568476782333],[-0.917266708933885,43.50547664125615],[-0.917066941191648,43.50521685980125],[-0.916981874547323,43.50506922802419],[-0.917035633947804,43.504451220161606],[-0.917825887255687,43.50459012028697]]],[[[-0.915682164777045,43.50010309212406],[-0.915292359048398,43.50018653644937],[-0.915148161136433,43.50073790521566],[-0.914372920350922,43.50088193009774],[-0.914337200475646,43.50078088837097],[-0.914330017151635,43.500720883765986],[-0.914344041694446,43.50065975291817],[-0.914451070783767,43.50049797592781],[-0.914562124508033,43.50017012473982],[-0.914643221851699,43.49990569131028],[-0.914649974579756,43.499834103479394],[-0.91462265661744,43.49967114325699],[-0.914540052227485,43.499141839969404],[-0.914461058927965,43.49867276047649],[-0.914331478460951,43.49806056849749],[-0.914322515100866,43.49799441275019],[-0.914322074166698,43.49798794287315],[-0.914328952827412,43.49798174912112],[-0.914341050720882,43.49797951057411],[-0.91436096426353,43.497984826760025],[-0.914473626208111,43.498132723669826],[-0.914663047327261,43.49830478212992],[-0.915035010460292,43.498638697379235],[-0.915317815173759,43.49889539041897],[-0.915860158323562,43.49938322164919],[-0.916189389163876,43.49967823131912],[-0.916146172730127,43.49971591523931],[-0.915682164777045,43.50010309212406]],[[-0.915224908227941,43.50022815817136],[-0.915262765659856,43.50023165498344],[-0.915277432301472,43.500179959282974],[-0.915241149957789,43.500174153559904],[-0.915224908227941,43.50022815817136]]],[[[-0.915756731135679,43.50561272356166],[-0.914896674415708,43.505321389585454],[-0.915076737636158,43.504981856231566],[-0.915334588052454,43.504659690953574],[-0.91544064970007,43.504576228087124],[-0.915555005739829,43.50420420607827],[-0.914831748981025,43.50389513928527],[-0.913867380898813,43.503541806983236],[-0.913345241988933,43.50334716793086],[-0.91356120463647,43.5030676866149],[-0.913767082630797,43.5028055041936],[-0.913978622209793,43.50251384064113],[-0.914090458668853,43.50237350976041],[-0.914469596812196,43.501904549090966],[-0.914738834353916,43.50159890950691],[-0.914804069805698,43.50152475886924],[-0.914831518523701,43.50147539403893],[-0.915097490086709,43.501557579442114],[-0.915370329727767,43.501644290409764],[-0.915402969050841,43.50165473177548],[-0.915448901028787,43.50166955730709],[-0.916104642575306,43.50187449223479],[-0.916587807987149,43.502014855926454],[-0.916501557912782,43.502802487908994],[-0.916463766936912,43.50314841336212],[-0.916437905503959,43.503384369260985],[-0.917103919313893,43.50364703038182],[-0.917087341256995,43.50369609312782],[-0.916966410459811,43.504182036991665],[-0.91690404303156,43.504819002547734],[-0.916871004823462,43.505116653580224],[-0.916777975220282,43.5051734333803],[-0.916530409450376,43.50633226551079],[-0.91644545291699,43.50628606067928],[-0.915967275032378,43.50598886325147],[-0.915756731135679,43.50561272356166]],[[-0.915945862048641,43.502956065891276],[-0.915727100498152,43.50287487911245],[-0.915367623043998,43.50339619214566],[-0.915823927279387,43.503556266942674],[-0.915945862048641,43.502956065891276]]],[[[-0.914313418208896,43.49824948921183],[-0.914370955415518,43.49862710096102],[-0.914426800076233,43.49892721449671],[-0.914467893093756,43.49915975989077],[-0.914498029774223,43.49931324987248],[-0.914522224535992,43.49945218124259],[-0.914562519264613,43.49967844989852],[-0.914498452985832,43.4996807638077],[-0.913607519356767,43.499812026821594],[-0.913452836520255,43.49983562825587],[-0.912782304038474,43.49993802731911],[-0.912040107486174,43.49995121672365],[-0.912008659317153,43.49993280433142],[-0.911464947599155,43.49990414450285],[-0.910927707314012,43.49988146400947],[-0.910418346018566,43.49985930638786],[-0.909934224377513,43.49986434097721],[-0.909716641426281,43.49988741362332],[-0.909585725815191,43.49996023685208],[-0.909523755624722,43.50006606470566],[-0.909465655110215,43.50006149447651],[-0.909472390452231,43.500018643480765],[-0.909528328311148,43.499976900285795],[-0.909630110183549,43.499846936081205],[-0.909830780109787,43.49933002223154],[-0.909968434818034,43.498990858026865],[-0.910022644835448,43.498854682552576],[-0.910156652151875,43.498572850771744],[-0.91036342399661,43.498074812970444],[-0.910407651381997,43.49808465744925],[-0.911022580404954,43.4978928474965],[-0.911729139178696,43.49767655790873],[-0.911832487537459,43.49787676982476],[-0.912975209125876,43.497556629671756],[-0.913071349134615,43.497529287229796],[-0.912980787538952,43.49732429088937],[-0.913225910646315,43.49725517671931],[-0.913093049562935,43.49701414425733],[-0.913040034371941,43.497026057327254],[-0.912909273769858,43.49676134781698],[-0.912781907839558,43.49679711401195],[-0.912714020248084,43.4966633633545],[-0.913415605162604,43.49646336616355],[-0.913766459498049,43.49709612316666],[-0.913876372483528,43.497299969671694],[-0.914012267691032,43.49755278242303],[-0.914101893095434,43.497704033800815],[-0.914180951587434,43.49783458791317],[-0.914264753327884,43.49797118624598],[-0.914313418208896,43.49824948921183]],[[-0.914368680584701,43.49871537205745],[-0.914323864887354,43.49871870216686],[-0.914332775725253,43.4987677445288],[-0.914379072738121,43.498764360916915],[-0.914368680584701,43.49871537205745]],[[-0.914160276593476,43.49806504005389],[-0.914168794907214,43.498097431665755],[-0.914221474402075,43.49809147550462],[-0.91421443731931,43.498059030400626],[-0.914160276593476,43.49806504005389]],[[-0.913715879710121,43.49728360559424],[-0.913732586370294,43.497318133690335],[-0.913823970876991,43.497295466312266],[-0.913805346236465,43.49725821499584],[-0.913778336696107,43.49720505198304],[-0.91368843967701,43.497227755691355],[-0.913715879710121,43.49728360559424]],[[-0.913642570574827,43.49707032991919],[-0.913686654437579,43.497059910119106],[-0.913655087996834,43.49699979528766],[-0.913610917475568,43.497010758688084],[-0.913642570574827,43.49707032991919]],[[-0.913408170375319,43.49671928291985],[-0.913490048546127,43.49669876067466],[-0.913475723236574,43.49666648867072],[-0.913393153473982,43.49668775652216],[-0.913408170375319,43.49671928291985]],[[-0.913350966148419,43.49652623424877],[-0.913395993284462,43.496516951543285],[-0.913383407422065,43.49648659849496],[-0.913336806264355,43.49649638843324],[-0.913350966148419,43.49652623424877]]],[[[-0.914477409406712,43.517927669376235],[-0.914400212397956,43.51795919273724],[-0.914284702071434,43.51800975536326],[-0.914215583016068,43.51803630268223],[-0.914141628786199,43.518064555910385],[-0.91409534298319,43.51807559545956],[-0.913969602611269,43.51791798757019],[-0.914230168512044,43.517776340331935],[-0.914457053645508,43.51771806317299],[-0.914692284012875,43.51770956971719],[-0.914709975216986,43.51768037496613],[-0.914661178422251,43.517618268875715],[-0.914810934497749,43.517519896912454],[-0.914831331335722,43.51752312399794],[-0.914854991434437,43.517519747349624],[-0.914880047021216,43.517504159252205],[-0.914933649869799,43.5175968096173],[-0.914931969225969,43.51759939259864],[-0.914915692026888,43.517616645520704],[-0.914733330849619,43.51778690923301],[-0.914651472435303,43.51786625441262],[-0.914477409406712,43.517927669376235]]],[[[-0.912662831998423,43.49536336997091],[-0.912857574719975,43.49542849339086],[-0.913059533186077,43.4958047637538],[-0.911696991943948,43.49613256968279],[-0.911308083136203,43.49534939564051],[-0.910998949619108,43.49485087808157],[-0.911309202397397,43.4948588684123],[-0.911603497684017,43.49497048560257],[-0.912107421317624,43.49515686849356],[-0.912662831998423,43.49536336997091]]],[[[-0.912626428324062,43.50664873105188],[-0.913236778572683,43.50687703369154],[-0.913303424137052,43.506992363692966],[-0.913496948135858,43.50740767732268],[-0.9146309522726,43.507374567229824],[-0.915067600325847,43.507774161979285],[-0.915708294638671,43.5080242363795],[-0.916094737171972,43.50825367589264],[-0.916139961444009,43.50829978519469],[-0.91627013261981,43.50841732281842],[-0.916465389443619,43.50860178137939],[-0.916576133174536,43.5086993919779],[-0.916606901930636,43.508731340146625],[-0.916921817828117,43.509067855912114],[-0.917160071960019,43.509487043520465],[-0.917046327023808,43.50951421458591],[-0.916861781771408,43.50954493467783],[-0.91652240259607,43.50956656541221],[-0.915962931426774,43.50960947810632],[-0.915836980786512,43.50961375771531],[-0.915636275281852,43.50978684760074],[-0.915510459952675,43.509754999282585],[-0.915155463925015,43.50966377729899],[-0.913807113436652,43.508709952952515],[-0.912224805751798,43.50835792248338],[-0.912150157205879,43.50827044538162],[-0.911827421323946,43.50804211647125],[-0.911891501464256,43.507988998229024],[-0.911828946478623,43.50794459369442],[-0.911399410097019,43.507463747163044],[-0.911367683475615,43.50738679172607],[-0.911277757288194,43.506658849108696],[-0.911254213562094,43.506385852515756],[-0.911243697741662,43.506138779605614],[-0.911236601297064,43.50598733938018],[-0.911335260255298,43.50576236049383],[-0.911397159638833,43.505666352649214],[-0.911581577851069,43.50540134571827],[-0.911738621766992,43.50519596902593],[-0.911856751980606,43.50516423116489],[-0.912094899189651,43.505201127174274],[-0.913123820597251,43.50536099397312],[-0.913795084217815,43.505460890257105],[-0.913797158900013,43.50551675567118],[-0.913665554388481,43.50555961173034],[-0.914374323428696,43.506235119840916],[-0.913704551427152,43.50641694649763],[-0.913384616295727,43.50650389537966],[-0.91293527706469,43.50649894776848],[-0.91258769285086,43.50653068176585],[-0.912626428324062,43.50664873105188]]],[[[-0.912331610738613,43.50464471146905],[-0.912566891898143,43.50440705312072],[-0.912770007645441,43.5040787629294],[-0.914197613278308,43.50455401264974],[-0.913758264643998,43.504958756888826],[-0.912888516413308,43.504815490520805],[-0.912795630358349,43.50522862183957],[-0.911909778308324,43.50510331446741],[-0.911903796924884,43.50502822269915],[-0.912331610738613,43.50464471146905]]],[[[-0.911140753573125,43.50595377457136],[-0.911157723992437,43.50647734320494],[-0.91121623643395,43.50696031796657],[-0.91126983743139,43.50742022921356],[-0.911632405679956,43.507864577782],[-0.911715785762507,43.507965792725955],[-0.911770434167098,43.50800859094568],[-0.911027535039117,43.50835644620574],[-0.911009671838758,43.508364927758265],[-0.912261814264707,43.50850693223171],[-0.912314404619426,43.50871933724281],[-0.912285595245126,43.50903584127521],[-0.912327589849969,43.509287093462675],[-0.911982288812262,43.50922541845805],[-0.911647255295711,43.50916184050052],[-0.910957868991512,43.50908717522506],[-0.910060438853562,43.508958034318034],[-0.909781635491105,43.508909537872164],[-0.909094251922916,43.50878965815549],[-0.908723588804205,43.50872438358364],[-0.907938777250743,43.50859314642258],[-0.907768239094849,43.50856236121654],[-0.907533515465437,43.50843588149602],[-0.907448668896412,43.50828391080102],[-0.907363043431498,43.50810593478451],[-0.90734179246386,43.50801734060468],[-0.907153273804703,43.5074985142568],[-0.907142948190765,43.507270351488025],[-0.907161793870409,43.507185356595706],[-0.907375314235926,43.50693300069352],[-0.90731475684547,43.50690878992121],[-0.907616255234265,43.506570748215715],[-0.907673332026154,43.50650743570065],[-0.908046177750164,43.50607034415155],[-0.90830359347909,43.505666599452546],[-0.908579299386132,43.50519706623833],[-0.908736826570666,43.504798633891824],[-0.908933094619493,43.50430394928547],[-0.909357686440889,43.5044437554223],[-0.910132961211297,43.504057629928425],[-0.909865270829746,43.50366849899018],[-0.909740581630984,43.50332573567187],[-0.909743384755529,43.50289973321918],[-0.910639161165801,43.502691580231144],[-0.910882739736076,43.502626671455765],[-0.912052274230707,43.50291308066755],[-0.912120765456771,43.50272315053586],[-0.913501405646369,43.50299102497106],[-0.913378446251883,43.503149772974844],[-0.913098793417392,43.50350073536509],[-0.912823372133573,43.5038393833257],[-0.912781593218299,43.50390187625433],[-0.912587689971886,43.5042037104524],[-0.912474156820428,43.504373737563114],[-0.912209504883271,43.50464713692335],[-0.912177210249042,43.5046690211338],[-0.911825896157187,43.504980138398366],[-0.911657386619108,43.5051498065452],[-0.911602886478173,43.50522906271782],[-0.911524687642146,43.50534376512744],[-0.911245899632957,43.50574045239249],[-0.911150114256119,43.50592767367322],[-0.911140753573125,43.50595377457136]]],[[[-0.91015874459986,43.50041392950814],[-0.911269231821927,43.50049907320258],[-0.911230492741643,43.50062072873272],[-0.911216582628724,43.500659965346436],[-0.911141771465513,43.50101695192536],[-0.911139748161462,43.50113079673873],[-0.910756915715507,43.501120559136005],[-0.910725433059898,43.50164866658809],[-0.90991968104161,43.50163566835528],[-0.909913279993628,43.50178885608072],[-0.909214086898174,43.50173966962444],[-0.909130596271656,43.501351190912594],[-0.909289897228713,43.500606334924974],[-0.909343304622493,43.50060557963657],[-0.91011058635191,43.50065537112016],[-0.91015874459986,43.50041392950814]]],[[[-0.908891304166348,43.51043735211185],[-0.908616628118189,43.510373209628774],[-0.908103974593119,43.510200360722145],[-0.908430904648534,43.50959205733418],[-0.908520695067299,43.509576568878224],[-0.908986451719774,43.50987145497701],[-0.909274743949343,43.51004473405961],[-0.909758009089397,43.5103294372217],[-0.909551007983706,43.51057759966304],[-0.908891304166348,43.51043735211185]]],[[[-0.90729372473505,43.49468375046152],[-0.907195925330106,43.49406275216161],[-0.908034419883889,43.49426033091051],[-0.908059332415051,43.494648307908754],[-0.908586589535778,43.49464685899506],[-0.908495502533037,43.49503208347112],[-0.908511410760706,43.49537678667556],[-0.908496050036635,43.495376529928826],[-0.908475681619218,43.49536086992336],[-0.907513372280333,43.495406109788114],[-0.907416556730922,43.49541077148402],[-0.90729372473505,43.49468375046152]]],[[[-0.906441316143401,43.51067394129037],[-0.906480768548022,43.51073899932317],[-0.906499373371682,43.51078688251151],[-0.906522820162026,43.510822250117826],[-0.906544409204415,43.5108848891231],[-0.906540520071923,43.51094051915754],[-0.906530056304838,43.51096864117967],[-0.90652983917109,43.51100729374574],[-0.90648966941017,43.511091795990005],[-0.906471576393551,43.51112784982078],[-0.906466765282571,43.51116810923417],[-0.906476482802072,43.51119451310766],[-0.906497158343495,43.51122007169069],[-0.906532241579936,43.511237274021255],[-0.906604938716249,43.5112815864448],[-0.906631480966896,43.511313329338705],[-0.906677712643444,43.51138706106624],[-0.906719120833839,43.51147357795512],[-0.906746167517374,43.51154547879084],[-0.906605598263806,43.51151505266136],[-0.906479639742844,43.51146833566864],[-0.906236059189086,43.51137189844704],[-0.906081086321633,43.5112989319747],[-0.905994963388498,43.5112446535746],[-0.905910245204357,43.51118555020895],[-0.905788102090355,43.511049334698924],[-0.905432797981633,43.51063497196992],[-0.905358697095872,43.51055179447107],[-0.905187603477237,43.5103891466205],[-0.905089416668351,43.51029575671657],[-0.904860065399559,43.5101117860693],[-0.904669712208497,43.50997892741745],[-0.90464835912225,43.50997068847479],[-0.904690969564149,43.509823763217895],[-0.904767049621374,43.509801385141245],[-0.905286195087884,43.509867900166256],[-0.905837266484694,43.50997433931701],[-0.906008793000324,43.5099814008165],[-0.906031735154,43.509903825236016],[-0.906139599115543,43.5099193059396],[-0.906196594628935,43.50994751934461],[-0.906290002565261,43.5099888335483],[-0.906332914728874,43.51002106753708],[-0.906379710568027,43.51005217066978],[-0.90641474312834,43.51008865213942],[-0.90642198503213,43.51011505512071],[-0.90642070184476,43.51015077340655],[-0.906381039983808,43.51025183216223],[-0.906356972336592,43.5103328714809],[-0.906346769192166,43.51038665714788],[-0.906351397656,43.510425585484974],[-0.906343961892035,43.510458192491434],[-0.906359538586477,43.510510688853216],[-0.906417371714421,43.510616701935554],[-0.906441316143401,43.51067394129037]]],[[[-0.906666400097764,43.515918100741374],[-0.906577634916501,43.5159451709022],[-0.906546475943725,43.51595476132722],[-0.906448920788781,43.516007280798036],[-0.906388293692865,43.51604585819694],[-0.906341255170001,43.51608403602037],[-0.906281926180985,43.51611076593322],[-0.906195638612809,43.5161342333259],[-0.905917379375352,43.51597409526345],[-0.905397964623335,43.51567878433915],[-0.905001366476638,43.515456607303854],[-0.905047637086755,43.51536891310258],[-0.905268324833782,43.515326912934576],[-0.905796623953286,43.515216088268126],[-0.906720916922873,43.515020187795294],[-0.90704907300285,43.51508051695315],[-0.907054320081195,43.51513761954534],[-0.907095250659588,43.515260726855495],[-0.907086092537434,43.515311682592674],[-0.907140867594848,43.51539267340253],[-0.907108732889966,43.51554435737945],[-0.907094110406075,43.5156150577023],[-0.907076364475133,43.515694428316074],[-0.907053024771919,43.51574616539446],[-0.907025802396308,43.51580632987488],[-0.906988725526971,43.51583081695748],[-0.906850743526871,43.515867678251766],[-0.906699510210172,43.51590807964563],[-0.906666400097764,43.515918100741374]]],[[[-0.906013171751808,43.516237735010364],[-0.906118143045592,43.51630331557347],[-0.906173985934663,43.51633814681067],[-0.90590018602102,43.51656564794095],[-0.904694345723876,43.51667358281088],[-0.903623732536538,43.51690986525999],[-0.903490558967345,43.51670981564851],[-0.903211890900807,43.51637060415403],[-0.903201632009718,43.51629980940345],[-0.903277997656482,43.51621959022543],[-0.903527187230752,43.516006854698624],[-0.903815935258034,43.51576062523845],[-0.904174960693044,43.51569058513479],[-0.904589313672234,43.51551495781192],[-0.90473884462831,43.51578260825326],[-0.904866368307798,43.51592502764409],[-0.904998153181743,43.51598631042005],[-0.905149322390596,43.51600500703846],[-0.905315789456456,43.5160247738472],[-0.905744058354268,43.5161192448474],[-0.905847926378814,43.51614495938884],[-0.905991131491096,43.51621943185821],[-0.906013171751808,43.516237735010364]]],[[[-0.904733664629573,43.509714488676956],[-0.904045086551267,43.509434996876585],[-0.904052324722961,43.50938672316133],[-0.904098891698433,43.509328925751966],[-0.904248156761659,43.50922157843318],[-0.904377778923601,43.5090965619248],[-0.904451883561616,43.509090649896095],[-0.904670609596222,43.50907475427528],[-0.904953113067975,43.50906124495553],[-0.905146451178943,43.50911427391],[-0.904982107725797,43.50943484644348],[-0.905176088644399,43.50961378522607],[-0.904969042413777,43.50976870615651],[-0.904733664629573,43.509714488676956]]],[[[-0.904793328083682,43.512734193370896],[-0.90436092332754,43.51273868758981],[-0.904357477899819,43.51275718819727],[-0.904180490667102,43.51360744106616],[-0.904220618513862,43.513414844006846],[-0.904641490020664,43.513490037241006],[-0.90452222459116,43.51407148212308],[-0.904049426100138,43.513975367750625],[-0.903980521804266,43.51416891098685],[-0.903651289615311,43.51420914206184],[-0.903029491713293,43.513869404523206],[-0.90297279972115,43.51383658423473],[-0.902689979529325,43.51372740873619],[-0.90229983747165,43.51361443888379],[-0.90167229803211,43.51348325793687],[-0.901286104481901,43.51340284182727],[-0.901174490413396,43.513286690572386],[-0.900992205403932,43.51324893033379],[-0.900966567490084,43.51310293109063],[-0.900932515752387,43.512794818963066],[-0.900918020114781,43.512674362087154],[-0.900913334840617,43.51256895601863],[-0.900919363131608,43.51245181426668],[-0.900931824825446,43.512325523028466],[-0.900950483767868,43.51219207257671],[-0.900975308281139,43.51209290118798],[-0.901005306366516,43.51197696877132],[-0.901042581375514,43.511878880714924],[-0.901096046638959,43.51173489942201],[-0.901393915468484,43.51173967378052],[-0.902230835063349,43.511743060871545],[-0.902327830660747,43.51174974845419],[-0.902340439454221,43.51180415377448],[-0.902874311981486,43.511810337176875],[-0.903135477085442,43.51178679159316],[-0.903755848445002,43.511656176227376],[-0.903915202911989,43.51162431419664],[-0.904362419448499,43.5115610957324],[-0.904562725503068,43.5115308205478],[-0.904709119716351,43.51151041400087],[-0.904932314024035,43.511518228653905],[-0.905045570532881,43.51153288574666],[-0.905615488186901,43.51163594538775],[-0.906417422141503,43.511750909841155],[-0.906619189977942,43.51173120772696],[-0.906681642592995,43.511706797164514],[-0.906711771155234,43.512102338265855],[-0.90670067651628,43.51221578982961],[-0.906643532750982,43.512694828468454],[-0.907024186094563,43.512764705582626],[-0.906879570363606,43.51310781177231],[-0.90695149702171,43.51312620851519],[-0.907116104700184,43.51272220748893],[-0.906726460264199,43.512656618290826],[-0.906785312336136,43.51210446228234],[-0.906774446810496,43.5118628961309],[-0.907070675290521,43.51216732372885],[-0.907389598299549,43.51223771268825],[-0.907694484166809,43.51245102501289],[-0.90742918400521,43.51280307633679],[-0.907522664203029,43.51282718165711],[-0.907495626378841,43.512948234410196],[-0.907472082344514,43.51298421469241],[-0.907410050123771,43.513176701999456],[-0.907373923677872,43.513289704773136],[-0.907362573987576,43.51337938429997],[-0.907369983983461,43.51344280461964],[-0.907390250348596,43.51348234044944],[-0.907436901230407,43.513542184451666],[-0.907469830790543,43.51359864951763],[-0.907481373292236,43.51363003214659],[-0.907492162093196,43.51368125980779],[-0.907519328514844,43.51372397000698],[-0.907573347339945,43.51377021638065],[-0.907597205730555,43.51381160450384],[-0.907621141602092,43.513866862340635],[-0.907639921381804,43.513895461821036],[-0.907739406192514,43.51396412097952],[-0.907775298728931,43.513993184567916],[-0.90779984865237,43.51401563067217],[-0.907791545994167,43.51403367596044],[-0.907753561450809,43.51407026693226],[-0.90773245078778,43.51413291370705],[-0.907741515630403,43.51416789880767],[-0.90776256155964,43.514253438030615],[-0.907757530628445,43.514281364404795],[-0.907738473175634,43.51429051898772],[-0.907706383412763,43.51429005422373],[-0.907667728280131,43.51431315714678],[-0.90756663315912,43.51437544399166],[-0.907531385994101,43.51438860516882],[-0.907492943584473,43.51441665482807],[-0.907445791607623,43.51443312766709],[-0.907393631519331,43.51447058975995],[-0.907364769877378,43.51449937503027],[-0.907356989852478,43.514548749724526],[-0.907372956174616,43.51460330399345],[-0.907385755483275,43.514676799394785],[-0.907393106624425,43.514726619627815],[-0.907369883784504,43.51478006409521],[-0.907305279144737,43.51490931708223],[-0.907263667270321,43.514978107543],[-0.907264984042934,43.515032018772914],[-0.907188464853987,43.515037118691],[-0.906704318564159,43.51493268647211],[-0.906516063298594,43.5148637119447],[-0.906098161787275,43.51468680685534],[-0.905575268334997,43.51446575956236],[-0.905953286291279,43.51373797715807],[-0.905753693453832,43.51368967827946],[-0.905921474457075,43.512899117089695],[-0.905957779092694,43.512553969618835],[-0.905672488672178,43.51252857629838],[-0.905440657125175,43.51253395576615],[-0.904823340043628,43.51245476209231],[-0.904793328083682,43.512734193370896]],[[-0.904825465053153,43.51243504789583],[-0.904831511184827,43.512378349340786],[-0.904823340043628,43.51245476209231],[-0.904825465053153,43.51243504789583]]],[[[-0.903551689396149,43.495909916106875],[-0.903555087960374,43.495852502919064],[-0.903496384689206,43.495491235292896],[-0.903415633205898,43.495007622820765],[-0.903381128467189,43.49494779150581],[-0.903380728552035,43.49452677313524],[-0.903443920267322,43.49424038562462],[-0.904767463118654,43.49471498859591],[-0.904664945923746,43.495090802072475],[-0.904809869294672,43.49515494202186],[-0.904772217672024,43.495207193737194],[-0.904753536931784,43.495250924976524],[-0.904747352195097,43.495296457983756],[-0.90473644933611,43.495381796127205],[-0.904744947771761,43.49545220263509],[-0.904765776516911,43.495567475072534],[-0.904711521928056,43.495630323836004],[-0.904680184252492,43.49569901281653],[-0.904625218419822,43.495807827905566],[-0.904604670642364,43.4958204587493],[-0.904531048528736,43.49615721753558],[-0.905191762990422,43.49632402104755],[-0.905143816342052,43.49672534345311],[-0.903432464228139,43.49634226975785],[-0.903484108426922,43.49617907665509],[-0.903527951343139,43.4960503948647],[-0.903551689396149,43.495909916106875]]],[[[-0.903217752015426,43.504544771036564],[-0.902746489422551,43.50443364589617],[-0.902366243490043,43.504345185150676],[-0.902336052869115,43.50392091288245],[-0.901668794790786,43.50393763706858],[-0.901634061983425,43.5038726783223],[-0.901610111596019,43.50380066551434],[-0.901576499473897,43.50365747677989],[-0.901540578615421,43.50340014944636],[-0.901524114275409,43.50330534714194],[-0.901448591244171,43.502836675963266],[-0.901383538359978,43.50252211550986],[-0.901387052377622,43.50236434877905],[-0.90228945262656,43.5025430116659],[-0.902183313197079,43.50268564649064],[-0.902363279266572,43.502793569162286],[-0.902558851123751,43.502916243325316],[-0.902707267939997,43.50300422263599],[-0.902786669014673,43.5030545110305],[-0.903747152203508,43.5036413869709],[-0.903819502595564,43.50368805517409],[-0.903773384824901,43.503779706421895],[-0.903557818981519,43.5041586010212],[-0.903327583518524,43.504572974651],[-0.903217752015426,43.504544771036564]]],[[[-0.903871058446132,43.51444678930011],[-0.903937970736254,43.51451158023562],[-0.904039481764973,43.51465196434709],[-0.904207812584319,43.51488488751614],[-0.904318318926896,43.5151229557631],[-0.904467749220458,43.51536367578307],[-0.904527316412933,43.515455124771904],[-0.904134287503521,43.5156221468843],[-0.903784374671703,43.51567510364284],[-0.903507086281397,43.515911461883434],[-0.903061652057349,43.51629457972689],[-0.902917661122914,43.51611743934018],[-0.902669947843652,43.51580377642971],[-0.902428291862278,43.515500884969256],[-0.902161480257194,43.51517385605759],[-0.901961303388455,43.51491297998919],[-0.901823988311461,43.514733796673994],[-0.901522965050259,43.51434764371983],[-0.901388064543221,43.51415477091091],[-0.901305574437378,43.514015501754294],[-0.901217716426789,43.513864625138424],[-0.901113714332465,43.513641904427615],[-0.901113099342898,43.51359823734795],[-0.901132411539747,43.51356367199805],[-0.901222320505949,43.51346783345348],[-0.901236742357703,43.51346695414206],[-0.902248787755261,43.51368284625232],[-0.902698949776635,43.513802933965934],[-0.902932805138523,43.513916484637036],[-0.903238900538405,43.514085806391265],[-0.903607532991406,43.51428467417122],[-0.903666669630092,43.514284256319854],[-0.903871058446132,43.51444678930011]]],[[[-0.901716726535103,43.508335438328615],[-0.901794541230319,43.50786683103938],[-0.902943227192073,43.50817345950238],[-0.902803532658592,43.50862375757802],[-0.901716726535103,43.508335438328615]]],[[[-0.902181313702874,43.50745907650273],[-0.901204899058366,43.506255796111304],[-0.901339880575608,43.50615320078449],[-0.902055283596203,43.50560975783076],[-0.902356152093872,43.50599789271888],[-0.902798865883515,43.50656468416262],[-0.903084352253315,43.50693211247988],[-0.903027441910366,43.50695424960893],[-0.90299867043253,43.50697159014731],[-0.903028968284151,43.50701130570288],[-0.903041999021381,43.507028222050025],[-0.903053772914251,43.507075811032344],[-0.903041060572596,43.507121849514355],[-0.902930721992555,43.507333908434454],[-0.902895969672691,43.507367048220104],[-0.902729228985762,43.50752862072982],[-0.902610442700823,43.507465246921896],[-0.902390322497005,43.507320304957965],[-0.902181313702874,43.50745907650273]],[[-0.902415847758047,43.507302540973186],[-0.902642079193581,43.507195037387795],[-0.902605363279748,43.50717014583631],[-0.902415847758047,43.507302540973186]]],[[[-0.90029622376917,43.50066650381697],[-0.900239504798929,43.5006713373294],[-0.900162675729369,43.50017776150052],[-0.900544512424902,43.50022815760387],[-0.900848230346785,43.500254339969516],[-0.900985258580387,43.50025859630672],[-0.901153143857008,43.500250752066215],[-0.901419347506736,43.50022927958831],[-0.901804433458567,43.50018722232836],[-0.902581127281905,43.5000698094367],[-0.902570694374819,43.500114774719],[-0.902482986164875,43.50048852214613],[-0.902271115102373,43.50085070566435],[-0.902118465969481,43.500968080911875],[-0.902107686812576,43.50110448991879],[-0.900937239269503,43.50128606564838],[-0.900770190010587,43.501093090986615],[-0.900733325887998,43.501042261369676],[-0.900544709733361,43.500885193814746],[-0.90029622376917,43.50066650381697]]],[[[-0.900552370343211,43.506835975483234],[-0.901014795795263,43.50732873936477],[-0.900650314632913,43.507612907667735],[-0.900046174154817,43.507692206981375],[-0.899755149241267,43.50729947754604],[-0.899893425565599,43.50711046860307],[-0.900319616670242,43.50688939081239],[-0.900479770642517,43.506774720899806],[-0.900552370343211,43.506835975483234]]],[[[-0.899300022553035,43.49326951389829],[-0.899585488250874,43.493284374481725],[-0.89994524111728,43.49331088364748],[-0.900552059319259,43.49350100178634],[-0.900803530908903,43.49358554317317],[-0.900783935948575,43.49394926904547],[-0.900224927299499,43.49448338233579],[-0.900194855469033,43.49448149194144],[-0.899449935524978,43.49366794602525],[-0.899240114369417,43.49342957865268],[-0.899151684685981,43.493267914954636],[-0.899300022553035,43.49326951389829]]],[[[-0.897076560455932,43.502641204115555],[-0.897052880728898,43.50262232800217],[-0.897060078451105,43.502591622205266],[-0.897098770478844,43.502527175121806],[-0.897118503146631,43.50246782362209],[-0.897139272147021,43.50240915549763],[-0.897177532517106,43.502336526636576],[-0.898050762801056,43.50219504801618],[-0.899261234339322,43.50199747149598],[-0.89955558082379,43.502029489846414],[-0.900018606037935,43.50209624442117],[-0.900394107555036,43.50216614666275],[-0.900608395059972,43.502254730858695],[-0.900968891872096,43.50239156020008],[-0.89974748674162,43.50260495281501],[-0.898573191696834,43.502803305094176],[-0.89739809593666,43.50299725927181],[-0.897457164389706,43.50291577488692],[-0.897445536397897,43.50287754870453],[-0.897408978978905,43.50283121092613],[-0.8973455323293,43.502780705435484],[-0.897299325117104,43.50275993698392],[-0.897200811734899,43.50273429322387],[-0.897169967246345,43.50271378306561],[-0.897113424906364,43.50265924585322],[-0.897076560455932,43.502641204115555]]]]}}]}
