{"type": "FeatureCollection","name": "aoc_geojson","features": [{"type":"Feature","properties":{"dt":"Bordeaux","type_prod":"Vins","categorie":"Vin tranquille","type_denom":"appellation","signe":"AOC","id_app":685,"app":"Côtes de Bordeaux","id_denom":1849,"denom":"Côtes de Bordeaux","insee":"33167","cvi":"1R120S","nomcom":"FLOIRAC","insee2011":"33167","nomcom2011":"FLOIRAC","id_aire":1451,"crinao":null,"grp_name1":null,"grp_name2":null},"geometry":{"type":"MultiPolygon","coordinates":[[[[-0.500456439286115,44.83890001466911],[-0.500436156151419,44.83906837114362],[-0.500404333742888,44.83931982345148],[-0.50039979821457,44.83935475353989],[-0.500374484002338,44.839517591140705],[-0.500317234941694,44.83983257056768],[-0.500197093618895,44.84032734476641],[-0.500020986000856,44.84090580554451],[-0.499914862824282,44.841257744890754],[-0.499860609891392,44.84144204330961],[-0.499843732836837,44.84149439580992],[-0.499397506718545,44.84132832233527],[-0.49912267818655,44.84118883313722],[-0.498983453155484,44.84112356138416],[-0.49880857924155,44.841010658264466],[-0.498786772258129,44.8409595262697],[-0.498731106836315,44.840891528149776],[-0.498618642551811,44.840859297519515],[-0.498395127417041,44.840795151833966],[-0.498412427853151,44.840737378954216],[-0.498479941539427,44.8405564482367],[-0.497716002205658,44.84033685393365],[-0.497758619262831,44.84020357206048],[-0.497819273040948,44.84001213370264],[-0.49784399509166,44.83990879576417],[-0.497849143487752,44.839847080411744],[-0.497856033255856,44.839770620336964],[-0.49786123741504,44.83967727058252],[-0.497876485650371,44.83949303196139],[-0.497872724889655,44.83943673451646],[-0.497875769970766,44.839284333169005],[-0.497867170279432,44.83908327300024],[-0.497873740982286,44.83901592527154],[-0.498597886233095,44.83914602078005],[-0.499222777700431,44.83925860537679],[-0.49923193395264,44.83921244462381],[-0.499232091487265,44.83921090758716],[-0.499242456405376,44.8391597520143],[-0.499323094505134,44.83844362542856],[-0.499336257763112,44.83830730683565],[-0.499343569410845,44.8382315542983],[-0.499323258933638,44.838230843310306],[-0.499290135702401,44.838229815609346],[-0.498910076630501,44.83820026039398],[-0.498113830199425,44.83810812959069],[-0.498083487156602,44.83807853546158],[-0.498041460084526,44.83801794757827],[-0.498018993872201,44.83793790734761],[-0.498015025058404,44.83781321431755],[-0.498044856653706,44.837617070364914],[-0.498070248957111,44.837459458163096],[-0.498095995984008,44.83731364067889],[-0.498109518257986,44.83725012916275],[-0.498125824582604,44.83720284181162],[-0.498210916686226,44.83716789436257],[-0.498353454745223,44.837140146947014],[-0.498537212474601,44.837123445701366],[-0.498713737169365,44.83710246625554],[-0.498848987848511,44.837093963715425],[-0.499034751061157,44.837076928002965],[-0.499129739492406,44.83705852031545],[-0.499309281142416,44.83701482422815],[-0.499444137632128,44.83694919636314],[-0.499491400337301,44.83695761840715],[-0.499494564590078,44.836969775085706],[-0.499511525785557,44.83701430063885],[-0.499529354526477,44.83706258391915],[-0.499613007432591,44.83717322700969],[-0.499768793418891,44.837376311534996],[-0.499851501223406,44.837481937504926],[-0.499958186007306,44.83762880340291],[-0.500127189876663,44.83784679107089],[-0.500246083253431,44.83800660945146],[-0.500396502733387,44.838208871326586],[-0.500503474713624,44.838350140220946],[-0.500504766768402,44.83839930582871],[-0.500456439286115,44.83890001466911]]],[[[-0.499323956233033,44.83693325185294],[-0.499198364227139,44.83697885065654],[-0.498962660025029,44.83701764947678],[-0.498686679071218,44.83703005110656],[-0.498501101478958,44.83704599892488],[-0.498279195401727,44.83708264869955],[-0.49808708759612,44.83710763369945],[-0.497952038498512,44.837119373319744],[-0.497806030230538,44.83711785007918],[-0.497674449126188,44.837120197477624],[-0.497571041892534,44.83711733038676],[-0.497519542252799,44.837114087944634],[-0.497484106460479,44.83710439088035],[-0.497466628613102,44.83710034586662],[-0.497447483241988,44.83708986469585],[-0.497425703877055,44.83707369881664],[-0.49741383686704,44.837064159692865],[-0.497410174416194,44.837043997875355],[-0.497417396739573,44.83701150665842],[-0.497424406851208,44.836971542057675],[-0.497437891982646,44.83689929004818],[-0.497449444487736,44.83684278010624],[-0.49746609964075,44.83674618547183],[-0.497477612866374,44.83668904591694],[-0.497484294782337,44.836645847294086],[-0.497511905507538,44.83649943051817],[-0.497529169401296,44.83640651165765],[-0.497443009652879,44.83639787352064],[-0.49683338859057,44.836293991019424],[-0.496405020365244,44.836226748121966],[-0.496000535144051,44.83616469874934],[-0.496153016858397,44.83541386789786],[-0.495868924319982,44.83538740582786],[-0.495376541143435,44.83534155317848],[-0.495414762817905,44.83521291707371],[-0.495470898629311,44.83497124502185],[-0.495495051496754,44.83487297257244],[-0.495943421609427,44.83490362969063],[-0.495949269963776,44.8349039860594],[-0.495967135872452,44.83488783188946],[-0.495966524644163,44.83488208339698],[-0.496451045731083,44.834862753133194],[-0.496863490331748,44.834853443878934],[-0.496975428685141,44.83483270106859],[-0.497037721359823,44.83507027925737],[-0.496882138703105,44.83507356294474],[-0.496888459424519,44.835148614936905],[-0.496912891009379,44.83543515132772],[-0.497621398758382,44.83550815705425],[-0.497688454746343,44.8353707700608],[-0.497752076755689,44.835239259094976],[-0.497750111487661,44.83514874911461],[-0.497813332346908,44.835147025516385],[-0.499062137358609,44.83508356884246],[-0.499179871798269,44.83550946298093],[-0.499398721729101,44.83629977204476],[-0.499487262437726,44.8368546499841],[-0.499323956233033,44.83693325185294]]]]}}]}
