{"type": "FeatureCollection","name": "aoc_geojson","features": [{"type":"Feature","properties":{"dt":"Mâcon","type_prod":"Vins","categorie":"Vin primeur, Vin tranquille","type_denom":"dénomination géographique complémentaire","signe":"AOC","id_app":583,"app":"Mâcon","id_denom":1722,"denom":"Mâcon Cruzille","insee":"71226","cvi":"1B370 30, 1B370 31, 1R371 33, 1S371 33","nomcom":"GREVILLY","insee2011":"71226","nomcom2011":"GREVILLY","id_aire":1352,"crinao":null,"grp_name1":null,"grp_name2":null},"geometry":{"type":"MultiPolygon","coordinates":[[[[4.808322716196188,46.51456473475538],[4.808355558828908,46.514669865620746],[4.808385386246312,46.514735233935305],[4.808407639529654,46.514768927879956],[4.808508441978146,46.514857942578345],[4.808554279309133,46.5148907231153],[4.809172936576263,46.51486292381554],[4.809206415692934,46.514861403411025],[4.809553567552343,46.514845192620086],[4.809573791696358,46.51486883079613],[4.809634200049436,46.51495929432672],[4.809649178497049,46.51498211481511],[4.809704932778748,46.51504635198356],[4.809753478291943,46.515042791628225],[4.809840604173131,46.51503024432307],[4.809905862149754,46.51501921393676],[4.810045079201966,46.51500773347348],[4.810080336960716,46.515130479075374],[4.810086854753168,46.51515388376715],[4.810086134912828,46.515175421511834],[4.810091407382234,46.51519668427248],[4.810104310992099,46.51522773377083],[4.810126056161484,46.51534429838064],[4.810139905280603,46.51539595857547],[4.810156989522144,46.51542324908983],[4.81018797121384,46.51546437029306],[4.810220876522227,46.51551626924849],[4.81023079673971,46.51553998034811],[4.810245178891327,46.51559982831871],[4.810265152949169,46.515627703552624],[4.810256190477599,46.515656397110504],[4.810324907952215,46.51568665313603],[4.810323358929821,46.51565965713348],[4.810385319631375,46.51569074063051],[4.810459499020689,46.51572045976933],[4.810693605541366,46.5157729560297],[4.810867758224044,46.51581550290928],[4.811031763975255,46.515858930764345],[4.811197148769011,46.5159045882581],[4.811292620921456,46.515919378552184],[4.811555842142368,46.51600383657511],[4.811649751827002,46.516034413303],[4.811693145754217,46.516044624149195],[4.811808639527769,46.516065131421286],[4.811887718118689,46.51607342581263],[4.811965272552699,46.5160790422454],[4.812036150973904,46.516087916802675],[4.812086604557091,46.516098556052185],[4.812204910126857,46.516125143029114],[4.81237712576303,46.51616429573818],[4.812415449303534,46.51617503701093],[4.812682901529442,46.516265009674534],[4.812884028334382,46.51633000336444],[4.812960095729648,46.516353656396916],[4.813017221115643,46.516364819953786],[4.813099758244262,46.516371167248906],[4.813218830061544,46.51637369276156],[4.813338502974444,46.51637467745517],[4.813419130684204,46.51637853287931],[4.813642994490579,46.516397499990035],[4.81379091466339,46.51640830404591],[4.813965491932992,46.51642426933453],[4.81410040348867,46.51644797898855],[4.814535663116062,46.5165150199412],[4.814689565648118,46.51654482244715],[4.814975994453388,46.51658152842076],[4.815066456626148,46.51659468380696],[4.815415387072079,46.516647239506234],[4.815813591770889,46.516608402844426],[4.816030858519531,46.51658594845554],[4.816368226862332,46.516553840284374],[4.816535495981086,46.51653839374577],[4.816556051935264,46.51650924529039],[4.816557815677841,46.51649561692158],[4.816546731138124,46.51642923232379],[4.816528328749877,46.51634684168948],[4.816505830940399,46.51624334999072],[4.816484090677413,46.5161586705846],[4.816423110590505,46.515961398250326],[4.816401083198037,46.51589158470242],[4.816396015209523,46.51587653367853],[4.816375946868478,46.5158067790785],[4.816016538318278,46.51584293015738],[4.815810683654088,46.51586322186026],[4.815733642122408,46.515685028543324],[4.815430563318531,46.515735865264205],[4.815093878541048,46.5157922784011],[4.814985544106784,46.51581048034803],[4.81496030810777,46.51573828562379],[4.814883827008556,46.51574922680011],[4.814864480071983,46.51570107696357],[4.814782152560888,46.51549333439399],[4.814727714038224,46.515359095474786],[4.814688815644381,46.5152056955432],[4.81466691225368,46.515119937593916],[4.814636465864283,46.51499702682692],[4.814535746886609,46.515008802733576],[4.813904120747662,46.51507421519777],[4.81357109158053,46.51511102104909],[4.813549353950451,46.515061557892274],[4.813509324441072,46.51496816117113],[4.813482133235535,46.51489987009911],[4.813429927014417,46.514773791442956],[4.813412254504794,46.514721021332306],[4.813387995375781,46.514646739222194],[4.813358418864899,46.514561643134904],[4.813339384470763,46.51449538433214],[4.8132968123323,46.51440004635044],[4.813244375037931,46.51426307298722],[4.813213927232996,46.51415961670267],[4.81319346603439,46.514054380833215],[4.813173480948474,46.5140144370826],[4.813138405197551,46.513956178481216],[4.813085015148962,46.51382975816966],[4.813049617008273,46.51373826937243],[4.813016533407851,46.51363791715509],[4.812998046902011,46.51361164003081],[4.812963320577953,46.51355995084045],[4.812932210760114,46.51351108649834],[4.812838079969625,46.51336000270171],[4.812808888696131,46.513313900037666],[4.812794505807067,46.5132933222146],[4.812747020278291,46.51321886775404],[4.81270897686692,46.51322433451062],[4.812676536276348,46.51318251654172],[4.812638845412254,46.51310835712196],[4.812615097991714,46.51306117736657],[4.81259705460971,46.51302075240052],[4.812596796485448,46.512993375663875],[4.81260043981124,46.51292639700831],[4.812610447721259,46.512874268841244],[4.812619004671931,46.51282558627529],[4.812630747889698,46.512778564504124],[4.81269623956098,46.51265305167563],[4.812731386842721,46.512576206487026],[4.812731456328581,46.51256260503844],[4.812701217862598,46.51255560868811],[4.812635794417657,46.51255763650046],[4.81226870556814,46.512566246831916],[4.812200082173955,46.51257012647745],[4.811967603134696,46.51258191659012],[4.811875310048918,46.5125840995165],[4.811841339488701,46.512582566183696],[4.811620501209591,46.51256778108031],[4.811523988995528,46.5125725524818],[4.811483726761282,46.512570127958824],[4.811386145488614,46.51255843364537],[4.811327436521504,46.51255837284248],[4.811200108852816,46.51255840810337],[4.811101076085732,46.51255799509786],[4.810956671290447,46.512542718703436],[4.810860614207337,46.51253370186055],[4.810677756743533,46.512491923423795],[4.810618722511146,46.512474213988426],[4.810598389909671,46.51246300716027],[4.81057815244609,46.512442882043814],[4.810559335460804,46.512445882029986],[4.810460912892496,46.512463832779275],[4.810310651913452,46.51249611437137],[4.810235286323871,46.512509106417866],[4.810164342040565,46.51252166815292],[4.810059575325643,46.512552868971724],[4.8098604231668,46.51261753786043],[4.80972380619359,46.512663923607924],[4.809606919621785,46.512699458955616],[4.8095161198789,46.51272305263004],[4.809497759253097,46.512641561023244],[4.809351017698757,46.51263055279802],[4.809154471303723,46.5126047505066],[4.808933633458222,46.51257816125497],[4.808824681090255,46.512585468941296],[4.808714760243409,46.51259504355214],[4.808511855197607,46.51259383934535],[4.808391683102986,46.51260114392161],[4.808172842396793,46.512595417494026],[4.808130606505196,46.51259248259008],[4.807941263203713,46.51257142802449],[4.807872866446091,46.512570347723766],[4.80776694192612,46.51255094628695],[4.80776468836999,46.5125695360017],[4.807764627247857,46.51266996322636],[4.807766573173712,46.512917440401196],[4.807777294745491,46.51303616118085],[4.807806474236545,46.51320791064638],[4.807823346527513,46.51326033392044],[4.807834645773044,46.51331779905745],[4.807842805506201,46.51343007540268],[4.807848533595436,46.51353590526417],[4.807859080475049,46.51357068505958],[4.807889187417605,46.513620917590146],[4.807915940017759,46.51366048500672],[4.807938967962698,46.51370182260261],[4.807980565666994,46.51377988470999],[4.808074936571707,46.513946460256705],[4.808205511351658,46.514173979984555],[4.808240793114618,46.51425826651959],[4.808275972613435,46.514370926200776],[4.808322716196188,46.51456473475538]]],[[[4.810534716551068,46.51644909329497],[4.810534961770962,46.51645647502196],[4.810510512623591,46.51650991238048],[4.810530386025145,46.51654652579978],[4.810560227299433,46.5165964916669],[4.810634998693855,46.51677751625469],[4.810730479405771,46.51677681513628],[4.810875591601461,46.51678163284478],[4.810935625867223,46.51677825036579],[4.810996132656287,46.516769456267696],[4.811064772168831,46.51676197444062],[4.811110282224973,46.516761253724304],[4.811213868192998,46.51676889027301],[4.811403223102323,46.5167858863935],[4.811495524081023,46.51679550280133],[4.811653805671085,46.51679614790985],[4.811754530205676,46.516807972447964],[4.811833418778523,46.51680266956952],[4.811909116135806,46.51679948877081],[4.811984873342258,46.516798108342364],[4.812023661116048,46.51679533212975],[4.812189027463138,46.51677361733681],[4.812240735604797,46.516767033574794],[4.812312853869201,46.51675823491161],[4.812337165747876,46.51675172498088],[4.812347062955226,46.5167472448504],[4.812358920852748,46.51673895077207],[4.81241110288682,46.51666030466152],[4.812455490214144,46.5166258255316],[4.812519275310573,46.51656654033],[4.812564492144628,46.51651385417963],[4.812597968852754,46.51648477188721],[4.812634661635233,46.51646608655079],[4.812681754834697,46.516450208610486],[4.812758015791741,46.516432607353714],[4.812883902362743,46.5164125080783],[4.812983851148991,46.51639318013429],[4.812897501672635,46.5163663575792],[4.812741850497369,46.516323160201054],[4.81266337182739,46.51629369079492],[4.812516515072373,46.51624422906551],[4.812433286679993,46.516217086494926],[4.812382867526569,46.51620356465945],[4.8121913037846,46.51615147849115],[4.812122048618547,46.51614041666405],[4.812050823399467,46.516140734635734],[4.812020542423897,46.51613644080679],[4.811924881149664,46.51611597979599],[4.811847123168091,46.51610424190566],[4.811798790212089,46.51609852271887],[4.811732684464264,46.5160840782301],[4.811602063540533,46.51605201154767],[4.81135863601722,46.51598606441869],[4.811330891368131,46.51597956859393],[4.811232187799611,46.51596176718238],[4.811140683724642,46.51593682633011],[4.811019589189653,46.51589695230541],[4.810963507896807,46.51588577123038],[4.810852230634846,46.515850785400836],[4.810824501069614,46.51584473955838],[4.81078371664514,46.51583845007902],[4.810755272888311,46.51582268813905],[4.810582887851823,46.51577443879313],[4.810404392315655,46.515726826336234],[4.810376154397774,46.51572511171816],[4.8103538035385,46.515727807319976],[4.810364640765675,46.515845895587155],[4.810391348803409,46.5159154559412],[4.810384512002123,46.51597672062155],[4.81041389964719,46.51608767001851],[4.810410689477113,46.516155992690614],[4.810409162660696,46.51620429352702],[4.810410194302823,46.51623535079547],[4.810439948244096,46.51634161082802],[4.810449474515577,46.516365238077256],[4.810457552078672,46.51638060196704],[4.81048965676671,46.516408375191794],[4.810526710727405,46.51643588991628],[4.810534716551068,46.51644909329497]]],[[[4.810497723211843,46.51207955830261],[4.810467287243108,46.512204064465045],[4.810445073765738,46.51228547777616],[4.810546476140993,46.51235331510828],[4.810571549981632,46.51237372392864],[4.810596208125506,46.512401254734804],[4.810626720122817,46.51243220551852],[4.810641735403777,46.512440434207015],[4.810664562187728,46.51244817893277],[4.81074833302343,46.51246828877273],[4.810814626121236,46.51248065922426],[4.810967195717576,46.51249823834134],[4.811103019059234,46.512506535222364],[4.811163887784543,46.51250485063144],[4.811350804067568,46.5125038715425],[4.811505113102867,46.51251097444791],[4.811656409483924,46.51252163754556],[4.811781241231177,46.51252893686851],[4.811866951390735,46.512532802840944],[4.812015162533209,46.51253306640338],[4.812217780097132,46.51252562237156],[4.812425981794332,46.51252133194164],[4.812520124175651,46.51251983980531],[4.812623473426598,46.51251667048789],[4.812665195582635,46.51251591906967],[4.812695677159368,46.51251453520272],[4.812726719533198,46.51250647736701],[4.812757360400596,46.51249419266681],[4.812782700132665,46.512483343022446],[4.812802413732756,46.512468079135324],[4.81283081755467,46.512439527474285],[4.812879583383315,46.512368140654495],[4.812945844581244,46.51227756204889],[4.812972599982004,46.51223867860142],[4.813040947111188,46.51214806686282],[4.813073555226889,46.5121008042889],[4.813102181934506,46.512075041144236],[4.81313543839844,46.512043350128586],[4.813233517345382,46.511936684981094],[4.813270201330589,46.51190214744902],[4.813282710215518,46.51188600696256],[4.813289119119469,46.51187473683595],[4.813291878960727,46.51185181566122],[4.813283946420873,46.511793757165044],[4.813262419141259,46.5116799816692],[4.813255521973754,46.51158245672629],[4.813242168349519,46.511435946798485],[4.813238007720686,46.51139323020909],[4.8132272782259,46.51130207082838],[4.813210036733928,46.51121515785786],[4.813207756121332,46.511201503599885],[4.813184405314258,46.51113486285498],[4.813175164875922,46.51111591484052],[4.813149529041969,46.511082545618905],[4.813129698984721,46.51096487023348],[4.813131632883697,46.51090143130342],[4.813139822108224,46.51084563908389],[4.813139771005623,46.51075782304608],[4.813134565601662,46.51063271028003],[4.813118451498825,46.510454179683364],[4.813099178560707,46.51026696251563],[4.813082598404862,46.51009402354734],[4.813076264430005,46.51002125850276],[4.813071975238772,46.509931528143696],[4.813064625963416,46.50983608191444],[4.813062154267438,46.50971470866443],[4.81306451933983,46.50962108991199],[4.813075009242934,46.5094658254908],[4.813073997170906,46.5094353983576],[4.813084921185335,46.509293186990966],[4.81311129177744,46.50910551626259],[4.813132351417439,46.50895035442578],[4.813140194625127,46.50888024676329],[4.813156423832258,46.5087759601954],[4.813177129376994,46.50862584779375],[4.813189989479317,46.508522245118634],[4.813196253638248,46.50847918306433],[4.813191542048357,46.50842773853812],[4.813196195965601,46.50840685889281],[4.813134104293873,46.5084147787654],[4.813087763419385,46.50841776528761],[4.81303931711151,46.50841628174477],[4.812934312563854,46.50840866957734],[4.812876312801782,46.50839842064484],[4.812857821267744,46.50839547134845],[4.812780519127825,46.50838534825587],[4.812687358728685,46.508369081641845],[4.812514129106669,46.50832616292627],[4.812464793204538,46.50831361480714],[4.812404346683673,46.50829646914074],[4.812284369415455,46.50826225326788],[4.812228447047393,46.5082517008798],[4.812229775364481,46.50851531054918],[4.81223080643096,46.50906426213999],[4.81237261975089,46.50905679052126],[4.812368631683853,46.509156559636885],[4.812187528810242,46.50917510187791],[4.811988771506874,46.50919626537528],[4.811995795119793,46.50959984133447],[4.812010569817853,46.50978136554044],[4.812015530081809,46.509844244852445],[4.812056402054696,46.50984152558807],[4.81209083935422,46.51026132976353],[4.812112988315596,46.510935411980356],[4.811952755955781,46.51093443841336],[4.811884320557549,46.51093606321061],[4.811807460400527,46.510947188579244],[4.811729549861061,46.51095418738563],[4.811598404075661,46.510956985698066],[4.811283053755301,46.510963692530574],[4.811166794795739,46.51096301207534],[4.810993467539451,46.5109919671763],[4.810823039119938,46.51101394083182],[4.810818934326939,46.511031749328495],[4.810816988097705,46.511043849327166],[4.810798484478473,46.5111112433739],[4.810774711473746,46.51119673455751],[4.810755789073717,46.51127116056786],[4.810747929297559,46.51129767509629],[4.810745442948119,46.51131707919343],[4.810715625233299,46.511424822925115],[4.810694195382701,46.51149838793964],[4.810677692755885,46.51155926534097],[4.810659256958425,46.51163656581303],[4.810635595338877,46.511729350736225],[4.810632545423595,46.51178677265115],[4.810623182750762,46.5119408479302],[4.810533348980676,46.51193848742619],[4.810519676377793,46.511990313139925],[4.810497723211843,46.51207955830261]]],[[[4.81080769337314,46.509287570482414],[4.810765215856533,46.50920267805739],[4.810639355364753,46.508901050097535],[4.81053665198649,46.50865246597534],[4.810492194286677,46.508621826061706],[4.810321402812002,46.50857373153081],[4.810026947427262,46.50858857074587],[4.809775044608423,46.508647409694625],[4.809790815628217,46.50867057789266],[4.809814207133522,46.508711098765055],[4.809846399868422,46.508835964587945],[4.809927982276349,46.50902606885964],[4.809991054359156,46.509177286278515],[4.810030703363907,46.50927132066463],[4.810034202277317,46.50930990466737],[4.81002554378123,46.509351653374374],[4.810040464945443,46.50939636136493],[4.810147365080787,46.50968099692054],[4.810157460886662,46.509792522041586],[4.810161883632254,46.50980785374146],[4.810307434474271,46.509775376577686],[4.81034382622305,46.50976345179907],[4.810404375626883,46.50974438939706],[4.810603203289999,46.50966243133623],[4.810683340062353,46.50962432437832],[4.81077966827082,46.509567046569465],[4.810913203559443,46.50951062052884],[4.810841744519619,46.509366201471266],[4.810823284408069,46.509321009207454],[4.81080769337314,46.509287570482414]]],[[[4.81199627532674,46.51850670584136],[4.81202674047008,46.518426242401425],[4.812061727387631,46.51835228230008],[4.812101502298458,46.518237895669415],[4.812127486191206,46.51811291933058],[4.812142932070422,46.51800062947043],[4.81216876246933,46.517823956269226],[4.812207924830581,46.51768724231696],[4.812222083336978,46.51762649197573],[4.812255018022027,46.5175418461689],[4.812276047952973,46.51746801707569],[4.812309536620376,46.51732941147505],[4.812321638787841,46.51726175843129],[4.812351148555853,46.51713690626682],[4.81235147159491,46.51705637995958],[4.812349520717395,46.51694670751069],[4.81235219114239,46.51683083716959],[4.812350024421783,46.516785296872214],[4.812061932038559,46.51681625209311],[4.811912735723123,46.51682987455479],[4.811838446639993,46.51684402139287],[4.811741052152865,46.516838178757304],[4.811661231492353,46.516838992915204],[4.811580494248591,46.516827932504356],[4.811475336560157,46.51680834208045],[4.811457645601647,46.51680601031599],[4.811376524469726,46.516799098990596],[4.811102338069264,46.516785247662625],[4.81106262016408,46.51679929684366],[4.810875306336034,46.516808387679305],[4.810653297875263,46.51682172032337],[4.810547237802954,46.51682601146477],[4.810495011054912,46.516903396427935],[4.810470047317895,46.51694135015228],[4.810455003487038,46.517010850905514],[4.810439445052817,46.51710413785755],[4.810416938014837,46.51712178728762],[4.810345668183447,46.51715615073455],[4.810296950226707,46.51717421505085],[4.810136259388595,46.517218910578016],[4.81003311124361,46.517251977021225],[4.809970972881876,46.517278449822356],[4.809892130654053,46.51732446157424],[4.809866964790164,46.517320986901254],[4.809735110500511,46.5173775648597],[4.809567427997828,46.51743570032602],[4.809604221262138,46.51752608719162],[4.809653939925366,46.51759708495834],[4.809657769055598,46.517618100364764],[4.809655358629472,46.51763588197421],[4.809311262790951,46.51768573000189],[4.809031300819672,46.51772204302295],[4.809033686086293,46.51773101212703],[4.809052812078948,46.517855184040855],[4.80906916763843,46.517970573076404],[4.809084835386225,46.51808489216842],[4.809103637815083,46.51819537880039],[4.809117301321259,46.51828469059162],[4.809130017255003,46.518376899556834],[4.809113608822162,46.51846038226142],[4.80908787627507,46.518565628854915],[4.809204128572325,46.51861278704589],[4.809517532439277,46.51874653400373],[4.809734216610988,46.518835875796825],[4.80981286549796,46.518862552419996],[4.809955863917882,46.51889784793288],[4.810014238614266,46.51890728194683],[4.810079018198745,46.51891706490331],[4.810106744428508,46.51867155007752],[4.810320239672885,46.51868843621113],[4.810425453228037,46.51870568507945],[4.810645116630687,46.518743278761846],[4.810834245465055,46.51796398492748],[4.810982719084022,46.51797955753213],[4.811079734511383,46.51798964006062],[4.811097031633623,46.51799188805733],[4.811176486174471,46.51799963661615],[4.811192900390566,46.5180027992649],[4.811306874439828,46.51801279316425],[4.811304090954179,46.51805859199651],[4.811398952033868,46.51807843576515],[4.811482821292831,46.518081610769805],[4.811532367259748,46.518084518780874],[4.811611129815446,46.51808714410252],[4.811656511828693,46.51809038822473],[4.81163864864025,46.518153538943025],[4.81160761593209,46.518267967056104],[4.811564191530437,46.51845707801081],[4.811747098531137,46.51844085047681],[4.811880918740847,46.51843161505507],[4.811787940157139,46.51860971220824],[4.811920357085377,46.51864066948764],[4.811942138264977,46.51860510765544],[4.81199627532674,46.51850670584136]]],[[[4.812474124093439,46.516691820593834],[4.812418253757931,46.5167301745205],[4.812399120940897,46.516759029435626],[4.812388746309404,46.51678054007361],[4.812380585360095,46.516837232391836],[4.812382478917325,46.51698833723665],[4.812388882352672,46.51704750079375],[4.812394451775258,46.517120818312996],[4.812391582796707,46.51715617060955],[4.812379821419436,46.51721445114508],[4.812308531759467,46.51749929647072],[4.812269716473858,46.51762681798804],[4.812232513744084,46.51775575502856],[4.812213233548011,46.51781550570641],[4.812197236832453,46.51785628998077],[4.812180884263509,46.51796877435745],[4.812159113433154,46.5181341246784],[4.812137525150698,46.51821471771358],[4.812125089800551,46.51825274348922],[4.812117111744731,46.518299255137016],[4.812089723057594,46.51837021267688],[4.81200226976428,46.51855749951848],[4.811970742004346,46.51860600549884],[4.811949838626405,46.51865227156993],[4.811925165413244,46.51869895763611],[4.811903842510823,46.51876792758152],[4.811879902043467,46.51881703387358],[4.811850406215503,46.518871722342816],[4.8118237741721,46.51891051339586],[4.811804196840154,46.51896135191487],[4.811793539792602,46.51898223647548],[4.811754284868704,46.518974932324035],[4.811711462944629,46.51903694726153],[4.811659070537679,46.519144688391414],[4.811612148257915,46.519240363747954],[4.811916621248503,46.51936028513415],[4.812263075831593,46.51949097918718],[4.812534929361986,46.51959511346428],[4.812602484050965,46.51962160375423],[4.812768228725767,46.51972084414996],[4.812854056293105,46.519774965872315],[4.812928774697029,46.5197226226271],[4.812962780803848,46.51969371201738],[4.812998289158149,46.51965505019352],[4.8130198734753,46.5196253457258],[4.813033128801746,46.51957667878462],[4.813046848274435,46.51949882231408],[4.81304896252821,46.51943294877957],[4.813055811145816,46.5193015204453],[4.81306657611564,46.51926820460775],[4.813111029003453,46.519161129072685],[4.813166753979897,46.51899677142214],[4.813216853586827,46.51886726933861],[4.813257309334219,46.518773407093995],[4.813284593721688,46.51868758961943],[4.813317133872547,46.51857935182943],[4.813351109248687,46.51843974744978],[4.813370406832411,46.5183648647952],[4.81338593460289,46.518290402183844],[4.813389388905101,46.5182608950285],[4.813389504256022,46.518209464113326],[4.813400329275821,46.51810346203687],[4.813399247014888,46.51805132956211],[4.813394118495935,46.51797170029779],[4.813405443551514,46.51793954642221],[4.813402417211464,46.517887805045795],[4.813406571546052,46.51780091317899],[4.813409449101819,46.517757994964406],[4.81342837548237,46.51770725651969],[4.813487378243041,46.51757482096275],[4.813568061169792,46.51747833916054],[4.81361807868503,46.517424855921305],[4.813648482643001,46.51739753335573],[4.813697272109617,46.51735812023583],[4.813747142090436,46.51732373379195],[4.813787567364563,46.5172995847869],[4.813946683473492,46.517235093998295],[4.813963058600011,46.51715476338461],[4.813984261679468,46.51706661029764],[4.813999312880025,46.51700530512532],[4.813994286886906,46.51693269957684],[4.81399247939138,46.51683527414161],[4.81399352000115,46.516811659691236],[4.813983098082899,46.51674157157868],[4.813961351803195,46.51661347884163],[4.813934438268964,46.51653005196358],[4.81390192929242,46.5164627460213],[4.813781118683987,46.51645502482112],[4.813683099818837,46.51644216840713],[4.813553461193749,46.51642792190492],[4.813479671339844,46.51641783348664],[4.813387707938241,46.516406592098384],[4.813316539514222,46.51640078529566],[4.813292235745339,46.51639576654547],[4.813225695385279,46.516403576713266],[4.813125179286448,46.51640192790955],[4.813109958380005,46.51640325004778],[4.813025906493156,46.516421965808505],[4.81293640303991,46.516445451488934],[4.812918203866547,46.516447451294134],[4.812835523967819,46.51644858181241],[4.812807069409981,46.51645605820512],[4.812706082912682,46.51648341853314],[4.812641803755414,46.51650037949945],[4.812622132228581,46.516513030672165],[4.812594603053152,46.51654048754141],[4.812580439600699,46.51655791510192],[4.812556285157472,46.51660054004216],[4.812520983038071,46.51665712212991],[4.812509950826199,46.51667062710993],[4.812474124093439,46.516691820593834]]],[[[4.81404073944642,46.51695637130709],[4.814045683663669,46.51699123945466],[4.814044389822427,46.51701116511387],[4.814041769427153,46.5170343542806],[4.814033031999394,46.51706583670861],[4.814001688766957,46.51717468626196],[4.813999702510142,46.51718948899904],[4.814003032912471,46.51719547076139],[4.814006937423974,46.51719910163664],[4.814052788075124,46.51719684318807],[4.81408246285328,46.517194661174855],[4.814180119556964,46.5171613178779],[4.814252876791536,46.51713251265402],[4.814494247324225,46.517022762742194],[4.814666166679758,46.51694707942672],[4.814840972375024,46.51687189045142],[4.8149406814779,46.51682968720225],[4.815000824934134,46.51680999845209],[4.815035498046158,46.51675027314606],[4.815076214521507,46.51669963890074],[4.815082160440612,46.51667837842855],[4.81507991208405,46.51665787849025],[4.815072853910848,46.51664574119405],[4.815061465552842,46.51664069796745],[4.814997632056667,46.51662793058132],[4.81491384576705,46.51661151679641],[4.814874906891796,46.516605829950976],[4.814803120524739,46.51659715168078],[4.814759587669961,46.51659063701287],[4.814508386655957,46.516550039031245],[4.814302856099693,46.51651745261315],[4.814072756555227,46.51648363432746],[4.814021850973956,46.5164790377019],[4.813964321804709,46.516483192690636],[4.813984589352081,46.51657077806257],[4.814009243831687,46.51667648768071],[4.81401279046458,46.51674776566999],[4.81402336261771,46.51679884694571],[4.814031579759131,46.51686933030135],[4.81404073944642,46.51695637130709]]],[[[4.81406272657672,46.50459140697189],[4.814048180458385,46.50467954479312],[4.814044793028637,46.504726704457426],[4.814044110215256,46.504788502404985],[4.814050109237053,46.50485902106965],[4.814062433515261,46.50493538391028],[4.81409170298151,46.50503489575144],[4.814118067177244,46.505113737885736],[4.814198971395871,46.50527926139198],[4.81431227428669,46.50549326810767],[4.814328647175516,46.505522730965424],[4.814464808366922,46.50576897967958],[4.814537358766936,46.50591076732887],[4.814570649056414,46.505966441867606],[4.814600808748591,46.50604954695778],[4.814643442306787,46.506201716882586],[4.814675193690642,46.50629344328505],[4.814695353580868,46.50640922184635],[4.814711125701951,46.50652642107211],[4.814730702566714,46.50671480422468],[4.814767665922855,46.50702576507971],[4.814799989171214,46.50701318285661],[4.814834954443376,46.50698984051854],[4.814905761575982,46.50693422509664],[4.814968775877117,46.50687179803839],[4.815026856895434,46.506911947402195],[4.81499329145843,46.50694598575293],[4.814920019210132,46.507002000633115],[4.814821982485872,46.50706255168486],[4.81478710701858,46.50711210257339],[4.814800063546128,46.507289692469634],[4.814803706522652,46.50735601525171],[4.814787842125665,46.50742805176606],[4.814755719049291,46.507579876945556],[4.814736774830947,46.50766520242035],[4.814729161721746,46.507710807917206],[4.814697603274562,46.5078678480882],[4.814681840481922,46.507942945298396],[4.814608032156078,46.50816316358659],[4.814572218812274,46.50826686052213],[4.814535227487994,46.508358687075855],[4.81449475763663,46.50845966574585],[4.81440636306698,46.50868065573525],[4.814508631967137,46.50866876508063],[4.814714139332354,46.50862317149716],[4.814771285518963,46.50860776349155],[4.814845279408313,46.508565517807334],[4.814901416915514,46.50853940757588],[4.815006053166194,46.5084575856251],[4.815033836300526,46.50842616100117],[4.815045934737289,46.50840948639454],[4.815064604646839,46.508382529715824],[4.815076458800839,46.5083702723471],[4.815113575355208,46.508344914281864],[4.815114508946654,46.50832985799702],[4.815120476465588,46.508321026608435],[4.815203747551402,46.50824791999977],[4.815266608666311,46.50818477469278],[4.815325652686195,46.50812844509817],[4.8153619731539,46.50809877628974],[4.815408610083431,46.5080655210681],[4.815502544496914,46.50798359833425],[4.815567183854044,46.5079229465373],[4.815626848885566,46.507842198304246],[4.815658446681461,46.50779999477014],[4.815706041794203,46.507732858381026],[4.815751862333927,46.507659445341964],[4.815790425060175,46.50759137152133],[4.815807045803691,46.507569491094785],[4.815841333281748,46.507525803691216],[4.815896019369475,46.50746008577003],[4.815999508313543,46.50743790653183],[4.81610464993693,46.50740660401103],[4.81613227646972,46.50739400594033],[4.816200748358039,46.50735445902709],[4.816250856368834,46.5073197072059],[4.816316708308834,46.50727200558437],[4.816345888250337,46.507239477601054],[4.816372988026427,46.50714843799685],[4.816418144987186,46.50702774913182],[4.8164881115689,46.50687649308843],[4.816504290612259,46.50683354348849],[4.81653593786927,46.50668325644159],[4.816565276980006,46.50657722979012],[4.816591018296463,46.50648459045822],[4.816600105816867,46.50644022233748],[4.816611875422322,46.50628844968594],[4.816622146799546,46.50619740715291],[4.816632472499488,46.50616670980042],[4.816638864790156,46.50614715339448],[4.816659671019448,46.50610214873251],[4.816663519034579,46.50609236017148],[4.816671821684313,46.50606358640039],[4.816739767168489,46.50589479885638],[4.816749756990664,46.5058618551082],[4.81677910099752,46.50570511959699],[4.816788391199506,46.50554942326964],[4.816842546332745,46.50538959142468],[4.816856668079506,46.50528885030908],[4.81686113918416,46.50523122533349],[4.816862679725583,46.5050230519777],[4.816864735790099,46.504857743148456],[4.81687569785277,46.50474047957663],[4.816865594586623,46.504527357310096],[4.816843829268019,46.50446528552254],[4.816840571059838,46.50445362835821],[4.816826616088557,46.50439107218279],[4.816808070058842,46.50429643441116],[4.816780546017091,46.50405764914106],[4.816758785350042,46.50399179437488],[4.816732525879438,46.50391619359369],[4.816706456335019,46.50382671919922],[4.816491167196192,46.50382869870589],[4.816311303948254,46.50387605010376],[4.816281333777433,46.503876976546785],[4.816200195465886,46.50387682435196],[4.816101465818544,46.50386154976711],[4.815885840673586,46.50385344576969],[4.815772798979566,46.503843171852],[4.815687944390476,46.50384109680122],[4.815576235087312,46.50384341115396],[4.815475572966749,46.503719183553045],[4.81530779447292,46.50374166264378],[4.815277374821742,46.503744757610555],[4.815279929417589,46.503692206983075],[4.815301623424545,46.503505420274884],[4.815309072847719,46.50335308583978],[4.815297594038806,46.503306072074714],[4.815267560545879,46.5032032400798],[4.815248469369291,46.50313914404231],[4.815236714886145,46.50308384832404],[4.81519668298143,46.50283742534616],[4.815174863591907,46.502836330658816],[4.815134633813581,46.502822918627245],[4.815088422148819,46.50281788787129],[4.814958434946596,46.50281571818048],[4.814864226969512,46.502818654734284],[4.81479075644012,46.5028293682342],[4.814724863686926,46.50284437477734],[4.814711987204278,46.5028533158228],[4.814682600323434,46.5028913409122],[4.814635832336939,46.50295972481254],[4.814626250893709,46.50298536633253],[4.814563750709206,46.50320027148927],[4.81454442696147,46.50330550822513],[4.814508899409016,46.503476482068116],[4.814471089617683,46.503622002666006],[4.814343781431777,46.503900263671504],[4.814299891853922,46.504008141884114],[4.814221403529305,46.504181688743046],[4.814111401039354,46.50443913916334],[4.814075169802128,46.504530233048115],[4.81406272657672,46.50459140697189]]],[[[4.814688957939055,46.51004152150966],[4.814733213463284,46.51018745087513],[4.814803116062802,46.5104336698951],[4.81487082821244,46.51066109929779],[4.81493382000696,46.51087212102574],[4.814989530028643,46.51105641785243],[4.815060964985913,46.51126631474421],[4.815130338322987,46.51149263680315],[4.815199964062209,46.511726520576225],[4.815266595805324,46.51194099701721],[4.815312817733611,46.51208320213148],[4.815355363457924,46.51222078202038],[4.815371418185433,46.51224844841455],[4.815449804703992,46.512341866082586],[4.815543807402756,46.512477187872264],[4.815674930960072,46.51267334698375],[4.815787133400192,46.512853684117694],[4.815854553849551,46.51296249724284],[4.815876489205918,46.51310400696758],[4.815916666831647,46.513362316180896],[4.815927274822736,46.51342618649997],[4.815934453328158,46.51347326845028],[4.815943021184199,46.51351897730839],[4.815980890670379,46.513516124225696],[4.816000432138389,46.51361317805217],[4.815956054903051,46.51361649475739],[4.815972096571861,46.513706398676014],[4.816299494007505,46.51368489670471],[4.816646083059962,46.51366380946545],[4.816631859799961,46.51357369659904],[4.816634728456318,46.51357365102793],[4.816677416501435,46.51357054103031],[4.81674292476425,46.5135631955277],[4.816918277704966,46.513540054083215],[4.816947365785104,46.51353598917257],[4.817172245335091,46.51350746691508],[4.817253440998689,46.51349716977554],[4.817254476392066,46.5133169259944],[4.817262972914555,46.51328220461822],[4.817273830850325,46.513267440950855],[4.817289236186927,46.513256027624564],[4.81734626511422,46.513240890479594],[4.817490749571761,46.51318410268571],[4.817511673166793,46.513138645746366],[4.817458644892678,46.51299988215639],[4.817414900155558,46.5128930354372],[4.817371623127804,46.51278456003337],[4.817337648448873,46.51269683270374],[4.81727948811592,46.512564545467825],[4.817246499162417,46.512494636038724],[4.817230092922679,46.51243689255172],[4.817216924146722,46.51234712324592],[4.817207609409967,46.51231034312467],[4.817190398579726,46.51225585488886],[4.817170740057778,46.512194470261],[4.817159500878093,46.51215474845171],[4.817133822524302,46.51206932108058],[4.817120012321761,46.512011176049974],[4.817098673908294,46.51195026844747],[4.817027172756125,46.511766043331335],[4.816974385469983,46.51163051816673],[4.816950189534627,46.51149561951101],[4.816945717498933,46.511459302833046],[4.816951758909775,46.51142137800566],[4.816958745624526,46.51133354012319],[4.816959155666937,46.5111579897985],[4.81694990691863,46.51107230132516],[4.816939852161503,46.51099374108122],[4.816919622794077,46.51087607256652],[4.81690421539561,46.51077390930918],[4.816888513265114,46.51072552172311],[4.816827993600342,46.510534096639205],[4.816795595654474,46.510427069404564],[4.816802487841598,46.51033247787048],[4.816801468492504,46.510282325819304],[4.816793494282209,46.51011744671716],[4.816812064352851,46.51011489995234],[4.816836046457696,46.5100359790308],[4.816860876015563,46.50997857104973],[4.81693163849955,46.50988242423638],[4.817019217320412,46.509785920088646],[4.817040069331084,46.50973442973023],[4.817074001208214,46.50963310367285],[4.817073610156831,46.50959789303165],[4.817061247906489,46.50952837631648],[4.817061989650743,46.50948801375863],[4.817066335366355,46.50936401018888],[4.817081094544419,46.50929802550886],[4.81710185976296,46.50918132677805],[4.817101564096404,46.50913332486391],[4.817099190596005,46.509105171081174],[4.817086972375825,46.50907519223147],[4.817063206095821,46.509058817126025],[4.816943632608536,46.50904468497382],[4.816906851061097,46.5090409461265],[4.816827296933782,46.50904941567644],[4.816684819212123,46.509068252038674],[4.816673781940026,46.50907761439993],[4.816665663218829,46.509108006463045],[4.81665921571569,46.509145487399756],[4.816550244951117,46.509175500174116],[4.816504870526259,46.50918792993074],[4.816382978911088,46.50924516840452],[4.816330823272429,46.50926941473651],[4.816305607525989,46.50929566498086],[4.816297239599403,46.50931858527191],[4.816314177445046,46.50937668072377],[4.816202289599627,46.50940529839217],[4.815959569088324,46.50946949934287],[4.815863407612738,46.50948462682689],[4.815861978731112,46.50979025245303],[4.815812775810967,46.50978959269787],[4.815816432182498,46.50967613820631],[4.815788660019021,46.50956300265356],[4.815763574347331,46.50949918205472],[4.816037691607271,46.509406291400715],[4.816183733457287,46.50935344336734],[4.816198306217646,46.509344475244205],[4.816268310940024,46.5092568973955],[4.816288149781071,46.50924154080705],[4.816430209805604,46.50916317619102],[4.816548800528922,46.50908518423724],[4.816713137444156,46.50901376091525],[4.81673922848565,46.50895507194115],[4.816863522777177,46.50897777588754],[4.816946118185322,46.50898619089855],[4.816970350898489,46.50893437661658],[4.817083814842481,46.50870262821565],[4.817138225746879,46.5086951885308],[4.817178441725823,46.50865717091172],[4.817423923625126,46.50842944868586],[4.817550279192055,46.50829882215696],[4.817668411176359,46.50816805599633],[4.817804456219308,46.50799161028712],[4.817855562244229,46.50793594594806],[4.817915015895691,46.50786069402109],[4.818032912697354,46.5077111968866],[4.817964056853302,46.50764924354647],[4.817611638347813,46.507556941485],[4.81728848625952,46.50747381056936],[4.817086201776314,46.507416319061335],[4.817048790121808,46.50740538479197],[4.816867285189443,46.507372511721066],[4.816768519022147,46.507356337510906],[4.816754485565823,46.5073853824732],[4.81673515835744,46.50743955064474],[4.816692406352834,46.50758542065939],[4.816650515273664,46.5077140738505],[4.81663284314595,46.50779442569462],[4.816618478217527,46.50786833011364],[4.81660804783141,46.50786849582504],[4.81658094971004,46.507963498470566],[4.816568650654349,46.50801719467103],[4.816532028620441,46.508112168467996],[4.816522477858193,46.508162218252146],[4.816517827544757,46.50821056894779],[4.816509060651748,46.50826456929896],[4.816506181184764,46.50834648748164],[4.816488792517191,46.50834532262277],[4.816486668156332,46.5082659157872],[4.816498799827487,46.50817196155437],[4.816554784882384,46.50800039197143],[4.816583410246909,46.5079081571999],[4.816595148986291,46.50786113498179],[4.816608133036759,46.50776536581043],[4.81664225374579,46.507677547145406],[4.816674826780925,46.50755894955944],[4.816750890644676,46.5073479710085],[4.816457521099694,46.50730903864815],[4.81636836738923,46.50729946654299],[4.816207113847765,46.50739281725116],[4.816188380264616,46.50741392068157],[4.81617786053178,46.507434893642646],[4.816012347472915,46.50746697494204],[4.815988061166385,46.507474115811824],[4.815968087930473,46.50748542140527],[4.81591633264199,46.50752164035633],[4.815897396550495,46.507540585303765],[4.815876127185903,46.50756389059941],[4.815820014621931,46.50764944627098],[4.815772340568032,46.50773378708317],[4.815741066748219,46.5077857129237],[4.815716759738312,46.50782356748003],[4.815623413920551,46.507946642438526],[4.815572080635854,46.50798771822763],[4.815539013865488,46.5080171553071],[4.815510939118297,46.50805939293407],[4.815517462937765,46.508086850362915],[4.81537839249766,46.50814526124507],[4.815370079655627,46.5081502569312],[4.815257202249524,46.50825878032329],[4.815194451913603,46.508317420431446],[4.815144420318977,46.508370184276046],[4.815048529042027,46.50847564567074],[4.815047229833795,46.50851889924475],[4.815007007897453,46.50851368323768],[4.814877664965022,46.50860571481524],[4.814851399777754,46.50863180125514],[4.81482778269184,46.5086394716566],[4.814648811841683,46.508678879922144],[4.814417885723161,46.5087250568662],[4.814403351789364,46.508735195037474],[4.814397861637037,46.50880148259454],[4.814402283522642,46.50886770293786],[4.814414252405625,46.508956861094155],[4.814427401042455,46.509014836784495],[4.814457974197333,46.509114237752065],[4.814455967056244,46.509167590226184],[4.814462607214928,46.509214230473944],[4.814488162867263,46.509335327520006],[4.814516774620962,46.50942674348796],[4.814525025999775,46.509463000272376],[4.814545886767617,46.50955670087697],[4.814688957939055,46.51004152150966]]],[[[4.815155356401331,46.5171328733233],[4.815177066448173,46.5172049438284],[4.815241001843839,46.517342184195805],[4.815266399189467,46.517391769097415],[4.815337165120931,46.5174872893403],[4.81545196911342,46.51763579131],[4.815503916720892,46.517695132433325],[4.815677658531064,46.51787386225521],[4.815757878954281,46.517943742758426],[4.815932297672228,46.51808400220597],[4.816231212756401,46.51832676383174],[4.816491070974735,46.518540692652394],[4.816544991425805,46.51859261637078],[4.816948602872224,46.51900124066468],[4.817100228492981,46.51915816292394],[4.817155566924869,46.51921735938988],[4.817201764296945,46.51929588567254],[4.817259969294847,46.51939799923469],[4.817280959594375,46.51944837429],[4.817312929623424,46.51956585606878],[4.817338757905429,46.519667403233534],[4.817360201758571,46.51976658821223],[4.817373290801494,46.51983825490971],[4.817373143722193,46.51996687510804],[4.817366382864165,46.5201201891068],[4.817402862329322,46.5202046341188],[4.817447861873505,46.52028633174004],[4.817496676630445,46.52040417626284],[4.817534087928822,46.52046960196804],[4.817564043233753,46.52053055265746],[4.817594916709859,46.520575996961334],[4.81761455838463,46.52058982556842],[4.81763076998001,46.520594701832344],[4.817651317749172,46.52059266397253],[4.81771272474136,46.520567729804185],[4.817726360759031,46.520565801780656],[4.817773008559606,46.520563889489466],[4.817884222215496,46.52074126813979],[4.81793836068649,46.52082309052383],[4.818065200725941,46.52099950007484],[4.818097124182264,46.52104510769667],[4.818132277017406,46.52107409136362],[4.81820118605259,46.52113712470712],[4.81826795081632,46.52121018970758],[4.818386973353104,46.52139861224881],[4.818479958373121,46.521506657189384],[4.818535295722381,46.521581344830196],[4.81870184016868,46.521774415558575],[4.818870901570925,46.52195294499519],[4.819057550109195,46.522146235925774],[4.819268115132709,46.52235625916802],[4.81931326444985,46.522379769437066],[4.819348871779399,46.52237542015702],[4.819410746383327,46.522352729379875],[4.819664401438783,46.522665194942654],[4.819950651592588,46.522574354753566],[4.819883298542464,46.52248769969914],[4.819842649022551,46.522415300895815],[4.819776022618242,46.52230350509284],[4.819732990549647,46.522136301971386],[4.819717458137732,46.52208926310583],[4.819665074986094,46.521966342330465],[4.819647726593428,46.52192743851806],[4.819642219657134,46.52191491653394],[4.819522508009025,46.52176073224373],[4.819502249943105,46.521736285668865],[4.819438262446916,46.521668311085925],[4.8193608533572,46.52158523831741],[4.81928461513941,46.521482511929264],[4.819261839696516,46.52142955362512],[4.819254844779155,46.5213841802692],[4.819256926431957,46.52134100431878],[4.819274802313505,46.521290191513216],[4.819291661357349,46.52125191440833],[4.819218098743375,46.52117850776889],[4.819071728330407,46.5210347446803],[4.818966889400625,46.52091166714651],[4.818914617049193,46.52085062138284],[4.818856948771771,46.520772548383555],[4.818765819722826,46.52061844919738],[4.818702569673583,46.52051776761227],[4.818621678628625,46.52033027021606],[4.818400765493691,46.51985281672268],[4.818157229096848,46.51933852416438],[4.817987634324316,46.51897941477358],[4.817851152285179,46.51869372511076],[4.817720791617276,46.51843504863827],[4.817700245660539,46.51839799673945],[4.817658568649058,46.51834155566883],[4.817627043446646,46.51830783065465],[4.817595914579933,46.51828598838343],[4.817579375123042,46.51827517280913],[4.817516238430727,46.518248164885826],[4.8174676727718,46.5182238075634],[4.817439240847551,46.51820849739648],[4.817356242040415,46.518141454311454],[4.81727991404201,46.51805142775492],[4.81726763436131,46.51803532047213],[4.817198402188198,46.51790374957425],[4.817081086730561,46.51768008193823],[4.817004930144376,46.5175364616932],[4.816936980028196,46.517384604850776],[4.816851630580218,46.51721176820938],[4.816767369098459,46.517016757358526],[4.816603827420758,46.516635212866554],[4.816591509252393,46.51661793523547],[4.816575616503607,46.51660692911426],[4.816551076927006,46.516598762396534],[4.816503673846079,46.516593570824526],[4.816107462272415,46.516656966960554],[4.81583789460244,46.516715198530164],[4.815697631428071,46.51674237452525],[4.815675301407836,46.51674570131289],[4.815644295936374,46.51674709425408],[4.815498144743036,46.51674635216817],[4.815389279481224,46.51676825570302],[4.815084659548535,46.5168356884684],[4.815124973496594,46.516949255505864],[4.815148898812859,46.51703299976406],[4.815155356401331,46.5171328733233]]],[[[4.815528732282158,46.518349986910664],[4.815605925057173,46.51839163407456],[4.815715296584229,46.5184357425703],[4.815912020659099,46.51849746846001],[4.816067523733354,46.51863775785895],[4.816106257713945,46.51866074073032],[4.816142205209306,46.51868232674232],[4.816190597055668,46.51871713533095],[4.81638253202646,46.51888566768376],[4.81657117939441,46.519049478316084],[4.816615688024806,46.51908128608213],[4.816715366827809,46.51917508529953],[4.816883236427521,46.51933787446344],[4.816959662201979,46.5194464538457],[4.81701958021605,46.519549080719344],[4.817097101476775,46.51967484569886],[4.817179564941808,46.51979620881382],[4.817278012681137,46.51993127851107],[4.817274277781328,46.51983883747905],[4.817238356731631,46.51965764995381],[4.817197708558958,46.519483382733455],[4.817170849661784,46.51942526494723],[4.817127600565557,46.51934516064417],[4.81707976230471,46.519276117599794],[4.817047842390057,46.51923447266903],[4.816908743390587,46.51908149448841],[4.816785875012489,46.518957440518264],[4.816689465385699,46.51885602367653],[4.816629440590147,46.51879320862523],[4.81646551376126,46.518619458197655],[4.816414122067732,46.51856902544486],[4.816180804354016,46.5183841273867],[4.815747897719521,46.51803577111747],[4.815628805918631,46.517938766624106],[4.815576228559414,46.51789186500678],[4.815502850868638,46.51781980417831],[4.815385278099812,46.51769395340379],[4.81533863970501,46.51763732007769],[4.815294679904177,46.517578842846056],[4.815215607077727,46.5174767893578],[4.815176884634695,46.517418859433775],[4.815160114989171,46.51738543997694],[4.815080741133728,46.517192061707],[4.815059644298671,46.51713448248388],[4.815046825845231,46.51710217119228],[4.814986339982994,46.51686868280342],[4.81489225010032,46.51691115719061],[4.814759015581335,46.51696136808241],[4.814566907904317,46.51705376433119],[4.814244309801015,46.51720830609311],[4.814243931552987,46.51725181517445],[4.814259748634943,46.517299750895155],[4.814311950118353,46.51743339501399],[4.814365293901202,46.517577829206104],[4.814429850857125,46.51775730225203],[4.814445911007851,46.517812529638725],[4.814496891611621,46.517976095783155],[4.814520173663518,46.51802094077014],[4.814536435062895,46.51804301974876],[4.814564004158782,46.51806771143588],[4.81492321098456,46.517966268725],[4.815023175608226,46.51805312954653],[4.81505874756107,46.51807913520464],[4.815256525183797,46.51819605746451],[4.815345585951737,46.5182493153976],[4.815528732282158,46.518349986910664]]],[[[4.816843447178931,46.510254097829076],[4.816850690465119,46.510342250036544],[4.816868146964966,46.51041979200162],[4.816879516243866,46.51046734774918],[4.816912120152742,46.51062751220159],[4.816962621778005,46.51074929321333],[4.816970063710993,46.510772953091],[4.81698992585036,46.510848295163996],[4.817005966457141,46.51092640001714],[4.817001698943741,46.5109470935509],[4.81699998200695,46.51100125209785],[4.817002306027974,46.51106705535986],[4.817014456698812,46.51116152444759],[4.817015284946432,46.51118637023641],[4.817007329355627,46.51125296731867],[4.817005841085054,46.51132963939321],[4.817006584874266,46.51145761513236],[4.817004894030776,46.51148907595934],[4.817013650483346,46.511552165015424],[4.817033414851275,46.51164804428221],[4.817078700782685,46.511773781069174],[4.817108925557999,46.51184688687213],[4.817141503106775,46.5119122994448],[4.817151085529656,46.51193754653129],[4.817161141824537,46.51196918096081],[4.817197184324447,46.51206417104257],[4.817222989494556,46.512169051213775],[4.817232829447477,46.512221585001285],[4.817251123122753,46.51229289886028],[4.817285746703823,46.512388361806835],[4.817298406643272,46.512423737730586],[4.817312896744981,46.512463137656866],[4.817326177331882,46.51250147597954],[4.817354472665486,46.5125792959527],[4.817362700719261,46.51261086935133],[4.817370603289595,46.512636593460236],[4.817413899168556,46.51273390005388],[4.817423278708032,46.51274131675113],[4.817749060190793,46.51266372343687],[4.817756190906345,46.51268585704509],[4.817663390414381,46.512700211976615],[4.817626520074533,46.51270953468876],[4.817484126857758,46.5127468346164],[4.817439316264551,46.51276060676062],[4.817495401817599,46.5128697792545],[4.817522826490386,46.512941038014844],[4.817563328755793,46.513060185567674],[4.817582364396566,46.51311851769726],[4.817606126309786,46.51318947438066],[4.817671480771354,46.51320491814791],[4.817762949616789,46.51330317019892],[4.817748695180563,46.51330997179512],[4.817750654483153,46.513317866691274],[4.817844642666705,46.51349164622609],[4.817849864823305,46.513499579321305],[4.817882403074564,46.51355202243405],[4.817890982871929,46.513566747368586],[4.817950441941591,46.51366748963947],[4.817977034160976,46.51370984949613],[4.817985976886105,46.51372763098817],[4.818024652096718,46.513791955628875],[4.818092630235325,46.51390949529872],[4.818108996955101,46.51393472451688],[4.818126577201466,46.51397677727552],[4.818203588752532,46.51396618571835],[4.818220399679335,46.51402428291428],[4.81822536889858,46.514036363172586],[4.818259279290906,46.51411427379397],[4.818280588943188,46.51411168325384],[4.818387817429109,46.51409565734281],[4.818548949363065,46.51407246933892],[4.818696819967711,46.514050662904324],[4.818732922366657,46.51415123583628],[4.819000897480528,46.51411220712443],[4.819436232589047,46.51404898874957],[4.819412328925682,46.51394651063132],[4.819381824503115,46.5139511391138],[4.819337549024017,46.51375035988842],[4.819334906822384,46.51373373921884],[4.81936616945035,46.513728378134545],[4.819354724021549,46.513682535132226],[4.819315491977846,46.51358984814082],[4.81930433611506,46.51350968435908],[4.819292596315291,46.513455019302725],[4.81928295673137,46.51342418903338],[4.819258980327037,46.513323423343124],[4.819247033288664,46.513262546839435],[4.819241691845974,46.51320805019271],[4.819248799030159,46.51317082882748],[4.819258176898461,46.51311564766862],[4.819254552214374,46.513069590165856],[4.819227471319516,46.51299697528593],[4.819183988715461,46.512894178108986],[4.819174916509794,46.51285298090485],[4.819142509554815,46.51272631945188],[4.819128414030674,46.51267142164546],[4.819116598881522,46.512626214979925],[4.819115082241206,46.512588590393705],[4.819107329076107,46.51256736744998],[4.819074116052115,46.512498632968224],[4.819024177790649,46.512319650243796],[4.818980789942877,46.51216884487115],[4.818993614436804,46.51216611895011],[4.819022247248368,46.512257893829606],[4.819048777087861,46.51234528878879],[4.819078673733567,46.5124397456108],[4.819104924340681,46.512518768610605],[4.819119373105869,46.51254907204822],[4.819131146178023,46.51259301842154],[4.819155251218979,46.51269765504984],[4.819169677860313,46.512750746211914],[4.819187255643304,46.51285134351037],[4.819204266731361,46.51289196407434],[4.819216620986878,46.5129298665906],[4.819240319410785,46.51298713353878],[4.819273879113371,46.5130740563341],[4.819277149254757,46.51310949137185],[4.819263478723627,46.51318068298207],[4.81925847823637,46.51321066533821],[4.819275859834316,46.51330928423001],[4.81928480962574,46.513354626532234],[4.819303265543444,46.51341116625256],[4.819321098396824,46.513472489522734],[4.819341228013633,46.513559625961356],[4.81936188818614,46.51362747925739],[4.819389440815047,46.51372593631146],[4.819397297934502,46.513804981674724],[4.819407412439571,46.51385003522975],[4.819431636818199,46.51393476471767],[4.81945950826809,46.51404276396138],[4.819515067062809,46.514186800484744],[4.819538080809663,46.51425479643867],[4.819594708761398,46.514434753314724],[4.819627128933499,46.51453439382236],[4.819696768540227,46.514525719942725],[4.819724807981527,46.51459183451664],[4.819824679285813,46.51482433375011],[4.819827467557198,46.51482969349964],[4.819901799976603,46.51506313948895],[4.819958807996769,46.51524660282166],[4.819956190098091,46.515301045961436],[4.819949507253746,46.515483811575706],[4.82015466001843,46.515583224812495],[4.820305542542844,46.51565540011754],[4.82050874803547,46.5157394419883],[4.820760938470113,46.51584477044022],[4.820978190228387,46.51593525294409],[4.821141799692686,46.51593922265873],[4.821365416768582,46.51594295698998],[4.821599593181994,46.51594643262076],[4.821628700249746,46.51594290664594],[4.821666881127617,46.515925905957005],[4.821716857079275,46.515902682760725],[4.821729564999924,46.515884736791826],[4.821737393079791,46.51583399347775],[4.821748376867926,46.51575275666806],[4.821756691381343,46.515708760755416],[4.821764745058434,46.515676477929375],[4.821780435073151,46.51563065321542],[4.821794586336167,46.515601245517495],[4.821842546846614,46.515502126438165],[4.821846202029066,46.5154631585219],[4.821841531810946,46.515428826672355],[4.82181167784295,46.515367064784336],[4.821778997302026,46.51531831781278],[4.821703656924176,46.51524232909727],[4.821668690600524,46.51519154692728],[4.821578946084411,46.5150476055638],[4.821510918787932,46.51494447962485],[4.821446671923744,46.514880293188874],[4.821359696453082,46.51478404397824],[4.82129604582619,46.5147142637052],[4.821228652361643,46.51461446005532],[4.821141070425861,46.5144766085992],[4.821106635890008,46.51441437907127],[4.82106363002957,46.51438065767204],[4.821061880399507,46.51433610152013],[4.821051235958502,46.514283040415194],[4.82103985091285,46.514254669930786],[4.821011110830677,46.51419496168856],[4.820966240498661,46.51410542734129],[4.820942613893894,46.51405428425438],[4.82091914181974,46.51405853096246],[4.820886581225962,46.514009421565206],[4.8208404060075,46.51393548983681],[4.820783375843615,46.513825613369896],[4.820762910137951,46.51377144765215],[4.820747973212996,46.513714852116145],[4.820740212399515,46.5136856132806],[4.820695070116496,46.51359572288787],[4.820716500822248,46.513592859755114],[4.820700922646625,46.51350925380705],[4.820616474343693,46.51341044190365],[4.820541231319252,46.51342316860053],[4.820512642856544,46.51335625232902],[4.820475838127178,46.51327379489383],[4.820452498286343,46.51321949474108],[4.8204266701176,46.51316100096627],[4.820358833632905,46.51303220175861],[4.820406502525802,46.513010276777045],[4.820351024202489,46.512888216125305],[4.820317918424252,46.51283055872572],[4.820302131592343,46.51281099490635],[4.820291065579043,46.51280387549047],[4.820257272369608,46.51279594694939],[4.820216746061437,46.51271922300355],[4.820201347465568,46.51269956292252],[4.820174493228357,46.512657207726505],[4.820111365571537,46.51251311181565],[4.820088249997418,46.51246160015306],[4.820041603309583,46.512400825657416],[4.820011294931904,46.51236050691319],[4.819984303469097,46.51232184667653],[4.819930362017422,46.51223795050866],[4.819908016623113,46.51219777521275],[4.819898393086337,46.51216352211987],[4.819893619466109,46.51214558434753],[4.819880397988469,46.51211688270546],[4.819856049454887,46.51208313415832],[4.819836082665502,46.51205949363899],[4.819788488711113,46.51197423542962],[4.819750778836787,46.51190368124888],[4.819693904166601,46.51182568612059],[4.819669876078773,46.51178589783258],[4.819611833107379,46.511661175592074],[4.819568771064983,46.511582690404914],[4.819521897324036,46.51151507409952],[4.819450117580265,46.5114243461261],[4.819385153234819,46.511358008364276],[4.819311820183608,46.51129108316377],[4.819288671157448,46.51127370792469],[4.8192502769742,46.51125297247544],[4.819150830078009,46.5112166356487],[4.819081209639199,46.51118666948454],[4.819044746171543,46.5111690556593],[4.819012114449067,46.511145076060004],[4.818923275051985,46.511078667490615],[4.81888550733559,46.511033693474886],[4.818809066609417,46.510940066990194],[4.818741651099698,46.51084323457424],[4.818738792952456,46.510820132375244],[4.818732891662172,46.51076447370479],[4.818730362703183,46.51075514678223],[4.818716135807821,46.51071583289724],[4.818703170607781,46.51069478289161],[4.818666090234136,46.510635206744524],[4.81863754318512,46.510592878131],[4.818554879301264,46.510429997554404],[4.818517849289164,46.51035627977356],[4.818509739796503,46.51033218025792],[4.818483280875987,46.51024685562509],[4.818445226761466,46.51016198558809],[4.818419826889527,46.51011231130904],[4.818371649002388,46.50999769942958],[4.818341955361617,46.509920982731785],[4.818734889360062,46.50986645682749],[4.818742942061767,46.509849756101026],[4.818751263986307,46.509825485318906],[4.81874804176839,46.50980319952612],[4.818724660210545,46.509728003758426],[4.818701525012274,46.509660189703155],[4.818312753795268,46.50968303520369],[4.818310505350581,46.50960390055655],[4.818307454005335,46.50957890997491],[4.818271216907269,46.50941943409001],[4.818267858225754,46.50941651523007],[4.81823022463307,46.50935595699095],[4.818213496999218,46.50928858136972],[4.818195163244604,46.50922780630105],[4.817874090758776,46.50919562271587],[4.817575652935989,46.509165420236485],[4.817185987483506,46.50912612877277],[4.817161176941887,46.509227129789444],[4.817118021203835,46.50936481007945],[4.817112202372665,46.50948766616975],[4.817115638019961,46.509653337954425],[4.817106567678323,46.50971779113309],[4.817068248165,46.5097931570731],[4.817039962280141,46.509832966567565],[4.816944815396454,46.50993724682142],[4.81691729365183,46.509976503727984],[4.816887672916371,46.51003497860545],[4.816872689054295,46.51007466676324],[4.816857497890143,46.510143360324015],[4.816848884855198,46.51018240683998],[4.816843447178931,46.510254097829076]]],[[[4.816864523470432,46.50733661818739],[4.817046400373378,46.50738065387086],[4.817130975056515,46.50740155681145],[4.817193174013714,46.50742038344506],[4.81731693049405,46.50745444405846],[4.817395019109834,46.5074686046709],[4.817537082902098,46.50750399530293],[4.81768167210855,46.50754078671492],[4.817751121608721,46.50755796662099],[4.817950093361925,46.507606052423135],[4.818039558824057,46.50762885845506],[4.818050152565699,46.50762968077109],[4.818071681419934,46.50762591584788],[4.818093800387358,46.50761637713809],[4.818106825834495,46.50760797377203],[4.818205709965343,46.5074790442144],[4.818357637949129,46.50729784177034],[4.818405353426606,46.50725006706057],[4.818548788382083,46.50710367587475],[4.818616664901263,46.50702288545449],[4.818707450668694,46.50690543288454],[4.818775496242228,46.50680626564113],[4.818829591232965,46.506707320265825],[4.818886783316533,46.506583916953836],[4.81891222983729,46.506509925963954],[4.818973972885663,46.50628836529508],[4.81900966900621,46.506189262165194],[4.819051728795705,46.506042411389245],[4.819085802438442,46.50589469689031],[4.819151006442016,46.505604898935935],[4.819183105941389,46.50547622031501],[4.819209446666848,46.50537042071467],[4.819221347827051,46.50532834936192],[4.819220368405539,46.505279457583235],[4.819031222244201,46.5052676055677],[4.818895751568919,46.50526156446892],[4.818890764335328,46.50526065304946],[4.818862389914488,46.50522732862857],[4.818895739623782,46.50524165945429],[4.819387597835807,46.50524824486979],[4.819409644678713,46.505232672419794],[4.819420453005829,46.50522430416854],[4.819447843180608,46.50518513872319],[4.819468292315155,46.50514905599531],[4.819486027482061,46.50509419206863],[4.819490964516808,46.50505061026498],[4.819491815881804,46.5048924358703],[4.819494227676005,46.50475756446448],[4.819497062603215,46.504486862532445],[4.819502903821085,46.50445083211542],[4.819523800887721,46.50434610979205],[4.819566178877811,46.50422059998543],[4.819585308839467,46.50418408787322],[4.81961638646545,46.50413036260392],[4.819649684017239,46.50408452805216],[4.819681957263965,46.50404708619364],[4.819597756392689,46.504037257712625],[4.819567021994103,46.50403873759162],[4.819181949998285,46.5040539620605],[4.819192349789629,46.50415062057593],[4.81919312372907,46.50421680884704],[4.819266843869346,46.50435425178093],[4.819164381045908,46.50437569722491],[4.819031406403445,46.504413119845374],[4.818953214087903,46.50444264543008],[4.818828591839105,46.504499750070224],[4.818671114396927,46.50456125013929],[4.818551403866834,46.50459747044683],[4.818528057040426,46.504601444534465],[4.818336502597455,46.504618992139235],[4.818144402058888,46.50462799157002],[4.818098038928549,46.50462629695682],[4.81798074225394,46.50461366099349],[4.817849953858376,46.50459151198996],[4.817778208145287,46.504579682759214],[4.817686575995652,46.504577806994114],[4.817679280128105,46.504734552583905],[4.817628390141983,46.50503916356868],[4.817608071856696,46.505169185593836],[4.817444365687876,46.50518872081911],[4.817266385313522,46.50516353837134],[4.817070870414512,46.505132779843244],[4.8170600204636,46.50512034264666],[4.817032681345379,46.505051514248095],[4.817026314808479,46.505032700985865],[4.817027153448962,46.50501872700152],[4.817032899599902,46.50499936097116],[4.817044328450428,46.504986119375175],[4.817053848365824,46.50497822217146],[4.817032720861476,46.50491181698191],[4.817023977930583,46.50489997677897],[4.817011759949192,46.50488954283135],[4.816899223954294,46.504839721772534],[4.81690261529938,46.505008006378816],[4.8169021435451,46.50522084632924],[4.81690053906105,46.50527446272998],[4.816881126360848,46.50538474514648],[4.816855601838159,46.50551908295983],[4.816841022344565,46.50560217787096],[4.816813065783729,46.50578879417893],[4.816815925851516,46.50581198646711],[4.816813702661717,46.5058313865712],[4.816810127716136,46.50584936705439],[4.816803712883766,46.50586433032515],[4.816776165262178,46.50592232196403],[4.816709186487417,46.50609271540743],[4.816689125695124,46.50615617232441],[4.816652222873722,46.50632878991509],[4.816649830728294,46.50636269376185],[4.816638016976317,46.50644268234753],[4.816617393298327,46.506579283988074],[4.816582869447776,46.50669412969239],[4.816496465603401,46.50700975213084],[4.816430418184912,46.50723164984686],[4.81639881970912,46.50726989060099],[4.81644614290054,46.50728075769336],[4.816469918382956,46.50728569404521],[4.81653455032207,46.5072914224183],[4.816616714611662,46.507302636607314],[4.816697593151048,46.50731441157841],[4.81678291359607,46.50732638612157],[4.816864523470432,46.50733661818739]]],[[[4.817283379453869,46.517912757177655],[4.81733015351058,46.51796947765673],[4.817400395471728,46.51804915294246],[4.817438155771383,46.51808205838216],[4.817527104780063,46.51813972978427],[4.817552441322617,46.518152206928924],[4.817727883005741,46.51823300220661],[4.817894426799516,46.51829736604237],[4.818032871704794,46.51834857596986],[4.818196395874368,46.518412356897954],[4.818299082838634,46.51845548840571],[4.818369350392562,46.51848112156814],[4.818614050183882,46.51858459242801],[4.818859907746863,46.51868363100344],[4.819076182710079,46.518771971093265],[4.819390448780165,46.518895589998614],[4.819489036215978,46.518952656245425],[4.819554061835629,46.51899710636134],[4.819604178474027,46.51903269671927],[4.819645027299319,46.519068164307036],[4.819680846744095,46.51909758723786],[4.819744259259116,46.519152330736574],[4.819820160008915,46.519229392639815],[4.819861316885681,46.5192701692997],[4.819988177658322,46.519415863083424],[4.820068336689942,46.519514923874425],[4.820136275262854,46.51959967805231],[4.820191049221349,46.519673112928224],[4.820238346085628,46.51974144280259],[4.820313738511258,46.51986183548547],[4.820513893451269,46.5201704671336],[4.820559531106121,46.520232068147905],[4.820616149772127,46.520274760071004],[4.820672465864737,46.520304486903996],[4.82073775320545,46.52033326027266],[4.820824320354717,46.5203662883205],[4.820907747891795,46.52039126011552],[4.820937343788263,46.52039448172133],[4.821014506114603,46.520395955213345],[4.821084343388997,46.5204007877592],[4.82128110116957,46.520420171813164],[4.821466981869044,46.520445943496526],[4.821759748561975,46.520488026105305],[4.821926606926233,46.52050680448775],[4.822171113530023,46.52053767570273],[4.822208844205274,46.52055004444694],[4.822269052680758,46.520579078014556],[4.822377611531357,46.52063760421126],[4.822472229843322,46.52070454869648],[4.822513604387985,46.52073613396981],[4.822602159178295,46.520820738362296],[4.822731145139262,46.5209399151872],[4.822776946082572,46.520978995592536],[4.822978294827997,46.52113944118875],[4.823118634849751,46.52124303488019],[4.823286946780969,46.52134807392948],[4.823442658142779,46.52143917285197],[4.82367876273928,46.52157753672855],[4.823909579718844,46.52171382280772],[4.823956924620143,46.521662539256646],[4.823870154264476,46.521557281687606],[4.823708854618676,46.521388903450045],[4.823626921578606,46.52128780180018],[4.823590846046336,46.521235236493865],[4.823498115735944,46.521111699676055],[4.823440408936619,46.52101318390772],[4.823378201219552,46.52091663131088],[4.823285078593741,46.5207891375628],[4.823252332663303,46.52071517280003],[4.823239159154044,46.52067242005034],[4.823225807159619,46.52055022957465],[4.823159859543581,46.520279453598974],[4.823122839908007,46.52017133082992],[4.823045170470348,46.51994406467443],[4.822983669503979,46.51977886827625],[4.822941682314493,46.51968604623781],[4.822798131100741,46.51937318393884],[4.822708428139298,46.519180065247205],[4.822654226608226,46.51907311685185],[4.82259865324396,46.51898366361873],[4.822556704023406,46.51893875738004],[4.822489092560876,46.51885607095007],[4.822459905703703,46.51875971222208],[4.822439180859363,46.51862376856018],[4.822405945934239,46.51845316765951],[4.822389336558839,46.51836615577099],[4.822380788552706,46.518313421662434],[4.822360605230795,46.51823268145834],[4.822346796049853,46.51819038908057],[4.822326415415303,46.51813496131582],[4.822303251187331,46.51807822687142],[4.822257888904323,46.51797023676441],[4.822235720941718,46.5179198813096],[4.822221826896836,46.51791406808866],[4.822195269304484,46.517845588693184],[4.822165810662206,46.517748873945656],[4.822139380451712,46.51764517564988],[4.822098256693819,46.51747271883535],[4.822089386221304,46.5174493522352],[4.822075592537642,46.517419218852055],[4.822065793190059,46.51738758072951],[4.822058537708243,46.51735788358804],[4.82201992905281,46.517135758821546],[4.822008777567707,46.51707928327584],[4.821963501910909,46.516934813853126],[4.821932614759556,46.516818757032645],[4.821924506797601,46.516779165906236],[4.821915572285859,46.51669923716951],[4.821904833268666,46.51665509445339],[4.821886478877915,46.51658999698034],[4.821822852716552,46.51638052003202],[4.821805023071477,46.51635063104928],[4.821793363335738,46.516337486623655],[4.821774876666475,46.516326972874054],[4.821754038785722,46.51632027946152],[4.82155975914437,46.51630824260115],[4.821426641977559,46.51631099331545],[4.821437271392567,46.51633235043813],[4.821393889309313,46.51633817529514],[4.821367190979873,46.516281046614054],[4.821355489247755,46.51626664185272],[4.821310753857191,46.51619683053128],[4.821281610399421,46.51612118662181],[4.821208672164506,46.51610928823649],[4.821163243259663,46.51609289863823],[4.821049481803864,46.51603454432124],[4.820971923208477,46.51598588126821],[4.820918690724781,46.51596241033739],[4.820875764745461,46.51594282837064],[4.82083492517988,46.515923213168506],[4.820741414599452,46.515900833798405],[4.820633505542455,46.51585751744055],[4.820580809959946,46.515834488152116],[4.820451406256017,46.515760890463426],[4.82041269956487,46.51573871923914],[4.820357360595894,46.515734196007024],[4.820322660234449,46.5157108801569],[4.820168176364824,46.51564416631231],[4.820033654677645,46.51558136779489],[4.820035899916584,46.515629068455866],[4.820048345349878,46.51579468680108],[4.819769220071544,46.515796967115264],[4.819758590934886,46.51573652004549],[4.819747825412104,46.515675895007405],[4.819737720921363,46.51561552965542],[4.819726020927363,46.51554645303035],[4.819716590670867,46.51548283447541],[4.819711087620104,46.515439148671774],[4.819618956090921,46.5154033262285],[4.819589689896039,46.5154020805877],[4.819572590431256,46.515409648220626],[4.819550966776132,46.51542629470052],[4.819546212513046,46.51544411387034],[4.819548141761376,46.51548236235383],[4.81955493814791,46.515490540534124],[4.819614361443424,46.51570729098694],[4.819637135230469,46.51579933906395],[4.819683661691206,46.51601665496052],[4.819661290134067,46.516018722235145],[4.819646244493655,46.51603310241311],[4.8195643087002,46.516103398689616],[4.819511170325035,46.51614135243145],[4.819388759745165,46.51619905244257],[4.819332139975481,46.516226523452424],[4.819316928283539,46.516228116479155],[4.819195001613239,46.516269055811215],[4.81910802914222,46.51628620130191],[4.818925189800144,46.516319822931244],[4.819014010429145,46.51658087017663],[4.819034063810833,46.51664224821835],[4.818897591264744,46.51666567505899],[4.818851969613146,46.51653012682751],[4.818790705836848,46.51634808173482],[4.818506036858373,46.51637980945549],[4.818423780168134,46.51638580099219],[4.818137453346316,46.51642259799155],[4.81797031243436,46.516437954779335],[4.817810998449594,46.51645327697868],[4.817465467386453,46.516487050319846],[4.81718594122261,46.51652436731984],[4.816651972191094,46.51658436996957],[4.816889103034526,46.51710300054773],[4.817125357242666,46.517626508289986],[4.817164223946901,46.51771217641165],[4.817193000689937,46.51777305585503],[4.817221540370449,46.517826823642224],[4.817283379453869,46.517912757177655]]],[[[4.818065836761755,46.508608388450995],[4.818180741171537,46.50854513455599],[4.81824562383774,46.50853095281104],[4.818306861799202,46.508517009124304],[4.818344445410312,46.50850569328432],[4.818364493601661,46.50849663780235],[4.818411399071684,46.50849102816643],[4.818729356530937,46.50835176884126],[4.819048867325323,46.508204377703386],[4.819265379120014,46.508078259446215],[4.819284970949963,46.508063356588444],[4.819314072059568,46.50803632327986],[4.81939649878898,46.50793809776601],[4.819486153051081,46.50782192356095],[4.81941416053197,46.50779893068925],[4.819486487792498,46.50766781055826],[4.819560457879338,46.50752729707707],[4.819623843176235,46.50735497756494],[4.819646493652774,46.507361372265144],[4.81961647418812,46.50748983773554],[4.819616001617804,46.50751866726657],[4.819651129670443,46.50754323743306],[4.819783043251546,46.50745818472491],[4.819811227689354,46.507442784740824],[4.81991963044945,46.507388098958046],[4.819986773621441,46.507351813359264],[4.820039296292098,46.50731522002948],[4.820109939978719,46.5072626662517],[4.820242009418281,46.507084659499505],[4.820336953631797,46.507044958835046],[4.820352016540916,46.507035081667006],[4.820360818310345,46.507025214108126],[4.820366625507922,46.50701161133345],[4.820366327632065,46.50694019150844],[4.820387533635781,46.506844741230104],[4.820388564950639,46.50683265558978],[4.820374284556908,46.506799557481656],[4.820367041208429,46.506777966215594],[4.820361123006975,46.5067452753879],[4.820361908018331,46.5066828452012],[4.820360449768824,46.506576677282666],[4.820390144959301,46.506524505013715],[4.820395497515846,46.506520726974976],[4.820427645447648,46.50655372074876],[4.820409499531944,46.50657283403389],[4.820403484961261,46.50658022536578],[4.820397804080518,46.506597609023494],[4.820398570499404,46.50666352719584],[4.820406638983862,46.50669420227388],[4.820429005913854,46.5067585155804],[4.820454027618083,46.506859354554464],[4.820430879171161,46.506877106386],[4.820415927552213,46.50689031433988],[4.820404888037094,46.50691129599456],[4.820402916707282,46.50693429492706],[4.820406524388005,46.506999357241256],[4.820451128559683,46.50699909744196],[4.820482846694958,46.506987964326655],[4.820605951823924,46.5069595240117],[4.820797886472223,46.506910172382675],[4.820867187313378,46.50689555847305],[4.821097582777387,46.506845593842485],[4.821130575445299,46.506829666596154],[4.821318454154406,46.50680730926015],[4.8214699404071,46.50679282693336],[4.821810792202898,46.50676145676605],[4.822081655285323,46.506731921457146],[4.822186359905884,46.506718904207055],[4.822166558351335,46.50665725239434],[4.822154561438462,46.50660664474116],[4.822147920163019,46.5065874758409],[4.822124995633058,46.506514344974676],[4.822094366932411,46.506440976600395],[4.822028672815534,46.50622783970532],[4.822022020588256,46.50620443773574],[4.822013594259376,46.506182595207015],[4.821989589974886,46.50611227365506],[4.821969452910333,46.50606008438629],[4.821960613408495,46.50601807301124],[4.821949988794658,46.505985096967336],[4.821930192791501,46.50592749812509],[4.821895970346682,46.50583635332802],[4.821867874611632,46.50576069281296],[4.821855303512189,46.505728017982335],[4.821837344967077,46.50568245907528],[4.821810883079046,46.50560884409749],[4.821776974923059,46.50552318845961],[4.821741990790817,46.50543655919801],[4.821679024754779,46.50530498103828],[4.821660365673504,46.505215029311984],[4.821657139530745,46.50519265356254],[4.821631699249561,46.50507542893342],[4.821627939658234,46.50504099245275],[4.82163745016313,46.504974280031554],[4.821646823235841,46.504911262621995],[4.821627324673956,46.50487815772365],[4.821571510751774,46.50478492496851],[4.821554299774358,46.50475781822814],[4.821542137231144,46.50472955023021],[4.821501455772346,46.504636346566876],[4.821489223155759,46.504598172103414],[4.821460896925457,46.50452728881404],[4.821394172289055,46.50435343800909],[4.821371116219734,46.50429192797568],[4.821358710252631,46.504256368257664],[4.821348421701578,46.50418267567202],[4.821341633291336,46.50409271492966],[4.821334532676703,46.50403635485235],[4.821279347516146,46.50397751825968],[4.821242840237101,46.50385695714502],[4.821232493164452,46.50383226295211],[4.821216768758339,46.50381449964821],[4.821179335296235,46.50375601072718],[4.821145705797373,46.50369034576246],[4.821092376230627,46.503577708405714],[4.821074201815828,46.503572503681276],[4.820954923714844,46.50358250963964],[4.820734576766922,46.503612679195086],[4.82055191869365,46.503630899528076],[4.820392866733842,46.50363730497508],[4.820348297265724,46.503642427961616],[4.820294334050708,46.50365139331044],[4.820232487404045,46.50366255572392],[4.820173861656051,46.503680331923086],[4.820145682271201,46.50369582202749],[4.820078205566156,46.50373760732523],[4.819998236882999,46.503792020932934],[4.819938716969987,46.50384944153458],[4.819847903757175,46.50394239697788],[4.81974692734251,46.50403569423745],[4.819704291763217,46.504071409592086],[4.819646686090855,46.50414321057685],[4.819625504466951,46.5041768731496],[4.81960974731588,46.50420891821911],[4.819564483238982,46.504333933560766],[4.819543719468656,46.504419198904785],[4.819533562325578,46.5044705196399],[4.819532174924158,46.50459699835206],[4.819529888033992,46.5048606661931],[4.819531722518942,46.50504068457192],[4.819527125049896,46.50509443875065],[4.81951886260703,46.50513609196121],[4.819487393992213,46.50521720432593],[4.819467396577267,46.50524337229876],[4.81942972360601,46.505267569815864],[4.819311190926223,46.50533520616925],[4.819272628051931,46.505364011301175],[4.819259384068639,46.505385388200004],[4.819240851314143,46.50543981443012],[4.819218589458626,46.50554275700575],[4.819204007510695,46.505606127246445],[4.819188655263348,46.505650325085384],[4.819172062333105,46.50569643410611],[4.81915152271769,46.50576890600531],[4.819109032043472,46.505957555608326],[4.819075725667479,46.50606571770688],[4.819058362266811,46.50613174416464],[4.819013861248996,46.506338349382254],[4.818981526539544,46.50646000629901],[4.818958067033813,46.506530993427056],[4.818927296724108,46.50661353558384],[4.818892825918863,46.506690732469345],[4.818845739604591,46.50678470267481],[4.818810954416428,46.50684857435247],[4.818759167119937,46.50692676718966],[4.818720289653616,46.5069774638196],[4.818654994564559,46.50704569368815],[4.818603666710241,46.50709856981578],[4.818549880116114,46.50715986141815],[4.818415933113936,46.50731303700631],[4.818295685684348,46.50744284690033],[4.818203434730223,46.50754771277835],[4.818122011712951,46.507640877604906],[4.818057380344626,46.5077329647622],[4.818004667294328,46.50779910272414],[4.817902429541845,46.50792529327143],[4.817822086641058,46.50803132051701],[4.81779308427514,46.50806916011167],[4.817684647296041,46.50819725036962],[4.817610325633229,46.508284357368765],[4.817532109935724,46.50836423064537],[4.817424033483378,46.50847186930267],[4.817274675386856,46.50862078492936],[4.817227776022544,46.508669626975646],[4.817194860113959,46.508711401552524],[4.817095825884399,46.50887509903723],[4.817056482203003,46.508958857657255],[4.817057178399067,46.50897974253092],[4.817068792682651,46.509011172079944],[4.8171226398974,46.509065078146136],[4.817371378399248,46.5089584467347],[4.817466306955666,46.5089181183193],[4.817512645579344,46.508895495083905],[4.817599669945877,46.50885286033524],[4.817677778865922,46.50881279909701],[4.817752137911271,46.508769825147795],[4.817815018943713,46.50873081650799],[4.817919372425172,46.50867583680495],[4.818065836761755,46.508608388450995]]],[[[4.819295126668213,46.521433887841575],[4.819315797435848,46.52146679433063],[4.819459144554235,46.521645011408964],[4.819642444499756,46.52186303346714],[4.819676004561706,46.52191852217393],[4.81995346831241,46.52184601554553],[4.819822757501345,46.521655528810456],[4.819797546861309,46.52159999736404],[4.81974517694355,46.52145401885544],[4.819728007627838,46.52140484438735],[4.819738387403885,46.52127804282927],[4.819705516104012,46.521090772860944],[4.819693625606148,46.5210160249917],[4.819648331894984,46.520941268161685],[4.819596807298686,46.52085183919999],[4.819559672948639,46.52074398742585],[4.819522428866168,46.52064847678047],[4.819487477680778,46.52056301732668],[4.8194864920203,46.520553035395466],[4.819734800152718,46.520463339558056],[4.819895170307487,46.5204011623958],[4.82002112059969,46.52035151187102],[4.820358217392917,46.520197353650346],[4.820455438506301,46.52015482497308],[4.820462485811881,46.52014705696671],[4.820297652496298,46.51988415832157],[4.820212588063845,46.519755453113376],[4.820137467722798,46.51967054306843],[4.81999058640732,46.51949580567399],[4.81981127879207,46.51929555424512],[4.819614880405522,46.519114849150846],[4.819518233969788,46.51902604797979],[4.819447487847307,46.518974393294116],[4.819396826343041,46.51894592695692],[4.819331270359346,46.51892075987105],[4.819047031260322,46.51882503482148],[4.818920371215509,46.51876733386026],[4.818678200570061,46.51866931760126],[4.818626497041299,46.51864870346953],[4.818552328477819,46.51861565679886],[4.818349528279665,46.51852052649315],[4.818236205778773,46.51846756650569],[4.818206637643607,46.518457318428894],[4.818084912076286,46.518422325466],[4.818066440430423,46.51841226122503],[4.817993773882673,46.51836946291815],[4.817885032077524,46.51833255204912],[4.817737072109932,46.51827771029975],[4.817676920715608,46.51830109341083],[4.817732016027673,46.51838821472174],[4.817772116691251,46.518452156512815],[4.817934329294803,46.5187856239439],[4.81803288194544,46.51899815031228],[4.818090183529584,46.519112256956795],[4.818245969292504,46.5194406922281],[4.818541794389094,46.52005953340909],[4.818663221659293,46.520320062354436],[4.818751850306556,46.520504824689645],[4.818761001141971,46.52052098157824],[4.81885779596368,46.52067282901873],[4.818905381034949,46.52075763738197],[4.818959271669933,46.520831987558466],[4.818999713339318,46.52088259337333],[4.819110366104564,46.52101566608555],[4.819242073326135,46.521138406186246],[4.819341262806353,46.52123293154502],[4.81932798676166,46.52125737117298],[4.819293409908353,46.521335560285316],[4.819288497657985,46.52137211618946],[4.819290355997745,46.52140433117263],[4.819295126668213,46.521433887841575]]],[[[4.819694988907307,46.50290957945144],[4.819688714766843,46.502995154653036],[4.819691398624085,46.50301303563961],[4.819762164055499,46.50312449540376],[4.819769274247673,46.50317337969237],[4.819759890505419,46.50320487300813],[4.819780878614776,46.503392062304854],[4.819791841447516,46.503657951196644],[4.819747254583088,46.50372116863006],[4.819791210740189,46.50376018937609],[4.819820209507087,46.50377314807503],[4.819873788102346,46.503783914152976],[4.819921307011771,46.503781176265235],[4.819970410665697,46.5037712076238],[4.819999648856834,46.50376398704422],[4.820153438692836,46.5036507541894],[4.820163054106524,46.50364573739731],[4.820181094325823,46.503643018342366],[4.820237707789433,46.503643107809125],[4.820328615134623,46.503619413489645],[4.820433172596478,46.503613875808],[4.820535368354801,46.50360792529137],[4.820631242398395,46.5035923479108],[4.820658441509004,46.50359047369292],[4.820751477182442,46.50358755105104],[4.820784004474029,46.50358117857777],[4.82091016232176,46.503558453586976],[4.821035143733535,46.503535657123834],[4.821051558415894,46.5035233264503],[4.821066381948131,46.50348679258786],[4.820960193625361,46.503053000811484],[4.820941021042755,46.50296323728057],[4.820935790171792,46.50291207139326],[4.820936633692586,46.50278893378633],[4.820936134545572,46.502773990300206],[4.820894979846867,46.502592346314856],[4.820889758075149,46.50254145048525],[4.820892528636756,46.50249943425576],[4.820898283880111,46.502441338227165],[4.82090052888397,46.502403113260485],[4.820896388063304,46.50230257225178],[4.820900881065926,46.502226212337405],[4.820891692928016,46.50213466853315],[4.820515106122554,46.5021262545964],[4.820156424651041,46.50211890540186],[4.819922052274292,46.502107775019965],[4.819768778452753,46.50209958660539],[4.819695432836777,46.502094449179445],[4.819665530968405,46.502093483992866],[4.819611725906418,46.50209542115583],[4.819505229634548,46.50210531229325],[4.819504479762365,46.50216882277554],[4.819501948508756,46.50221804065754],[4.819430424318417,46.50260359277481],[4.819377046776102,46.503001375609664],[4.819420231659735,46.50300167915851],[4.819476664185475,46.5029963677398],[4.81955348986962,46.502976771075375],[4.819587407080672,46.50296515282488],[4.81960109804989,46.50295718901319],[4.819636004383939,46.502912679874115],[4.819694988907307,46.50290957945144]]],[[[4.823218488261679,46.52400537951935],[4.823410907597889,46.52419496890081],[4.82366046577912,46.524442551837794],[4.823708907097405,46.52449023639281],[4.823895455796419,46.52467586551342],[4.824054435797774,46.524833112037015],[4.824158934181923,46.52492205454693],[4.824345008359228,46.52508562372149],[4.824366690228766,46.52510572347459],[4.824545503698721,46.52525896018464],[4.824743877955391,46.52538450370373],[4.824719791198998,46.52540560375137],[4.824538431614293,46.525542699115604],[4.824170146744092,46.52581832872002],[4.823788443049959,46.5261064203563],[4.82356238766267,46.52627674149636],[4.823646373054267,46.52629467718816],[4.823862483255364,46.52635355891005],[4.824005329572211,46.52635614479341],[4.824107333120974,46.5263821692017],[4.824227656384468,46.526409702721956],[4.824281052336272,46.52641821825895],[4.82444437895965,46.52643227594362],[4.824559922029096,46.52646123639372],[4.824677595612393,46.526499259672484],[4.824775404277338,46.52652859288258],[4.824879720766214,46.52654962593925],[4.82504538117733,46.526574904118924],[4.825096107080896,46.52658940641146],[4.825148724514444,46.52660973296055],[4.825266293328145,46.526629023041004],[4.825283288459266,46.526626049780525],[4.825324545555628,46.5266071975419],[4.825373431320163,46.52657066016247],[4.825395741403656,46.526515992737956],[4.825411805425786,46.52649691203098],[4.825441230733741,46.52647545644086],[4.825577963026014,46.526381224081945],[4.825652232044186,46.526346713301294],[4.825740610649575,46.52628153405436],[4.825806877513161,46.526234090942886],[4.825852509512257,46.52619003951675],[4.825917146310207,46.52614847682032],[4.826057159545958,46.52606653088847],[4.826170813489966,46.52599239125358],[4.826175835957774,46.525943673987314],[4.826165002562468,46.52588908520049],[4.826141594119393,46.52581749406366],[4.826090574935444,46.525766969455496],[4.826073907645874,46.52573688240692],[4.825953463002885,46.52558109499316],[4.82587574601422,46.525423094229275],[4.825802228878653,46.52530474665668],[4.825762609019467,46.525236116282144],[4.825680736162453,46.52507088616804],[4.825602260020509,46.52490965487362],[4.825523374989076,46.52474788964216],[4.82548919657839,46.524681964459354],[4.825396469670652,46.52456662528785],[4.825363196909246,46.524523833263494],[4.825236058041302,46.52439400167649],[4.825102580600224,46.52425022038668],[4.82504922166276,46.524188203884854],[4.824976157066111,46.524098850699595],[4.824935556335668,46.52400087332066],[4.82491002717771,46.52395939871739],[4.824845774092222,46.52388377543797],[4.824724553748336,46.52373187212915],[4.82463399570853,46.5236305484817],[4.824588055453629,46.523544545230955],[4.824558921937268,46.52349673317712],[4.824539315091561,46.52339049472129],[4.824518693812488,46.52332020984058],[4.824501270214033,46.52321681874728],[4.82446150497481,46.523061904484265],[4.824390867076922,46.5229397272426],[4.824292598099277,46.522740531629324],[4.824237406364606,46.52262369218566],[4.824201310284867,46.52254716912284],[4.824133158984012,46.52246025898876],[4.824076413076642,46.522296968826126],[4.824079611844845,46.522162535355584],[4.824099986366757,46.52201107517881],[4.824101730692077,46.52198132469666],[4.824066504531836,46.52186839997371],[4.823969666077769,46.5217976192105],[4.823899967925133,46.52175801966871],[4.823734092617975,46.52166348067093],[4.823595545844995,46.52158624923359],[4.823466168366796,46.5215061693853],[4.823383235758025,46.52145318017046],[4.823290362788263,46.52139557572604],[4.823204270518541,46.52134173606988],[4.823123251247345,46.52127961923778],[4.823075162624135,46.52124237680389],[4.822926645695453,46.52112837535706],[4.82275088628106,46.52099958629427],[4.822618009202731,46.520904519829315],[4.822530370274422,46.52083169984655],[4.822520438680649,46.520803936827335],[4.822465152058055,46.520750416354375],[4.822318411434825,46.52065043655377],[4.822289152279659,46.52063387977665],[4.822237073330061,46.52060994067437],[4.822116888166774,46.52055880506727],[4.821931580586363,46.52054239243813],[4.821884276888259,46.52053639083587],[4.821770057891827,46.52051929584498],[4.821515853128965,46.520487137138026],[4.82136620003218,46.52046781395705],[4.821193718267338,46.52045254691529],[4.82107491108366,46.520446512668784],[4.821020745919017,46.52044602408205],[4.820994691041822,46.520447249548134],[4.821207026220699,46.52084296260373],[4.821345397376192,46.52110249853768],[4.821535118440766,46.521453897108806],[4.821625365801106,46.5216281836255],[4.821562476721658,46.52165170240585],[4.821658749460688,46.52185399434006],[4.821698126893244,46.521939022404055],[4.821736604605277,46.52202055211008],[4.821775765605544,46.522099098656],[4.821813461063532,46.5221806407975],[4.821845248887441,46.522249397218154],[4.821861521550703,46.52224436437497],[4.821959347292783,46.522383763441205],[4.822012863502677,46.522462351439],[4.822191319317549,46.522745836568504],[4.822353878093172,46.523006517160894],[4.822537300268452,46.5232862298376],[4.822620348946796,46.52324509612829],[4.822714350821144,46.523359786649074],[4.82291150740983,46.52360919696503],[4.823093953598645,46.52385568903243],[4.823167508437641,46.523948097887846],[4.823218488261679,46.52400537951935]]],[[[4.827367610964049,46.511934702580625],[4.827291163072013,46.51209039240167],[4.827184365492997,46.51231366844551],[4.827103626708362,46.512500950792116],[4.827069732333147,46.512587328006774],[4.827062788908314,46.51260203010666],[4.827013873103304,46.51266450883846],[4.826862659588309,46.51286273444009],[4.826855194506889,46.51287744485899],[4.826854402873236,46.51289664217934],[4.82685911785484,46.51291665221765],[4.826868602367606,46.512938837781974],[4.826886291860061,46.512964495020846],[4.826907517677652,46.51298667314334],[4.827004617607838,46.51307338935576],[4.82704123117408,46.51314206736215],[4.827125410417116,46.51326753939647],[4.827244682340603,46.51343964674015],[4.827316371392886,46.51355054692025],[4.827373693331872,46.51366095609124],[4.827427115160559,46.51377566079771],[4.827468396725059,46.513862908339846],[4.827546566061547,46.513999734734675],[4.827656425399084,46.51419063635801],[4.82774969439697,46.51434586555688],[4.827785801518679,46.51442662066419],[4.827818275211439,46.51451184721102],[4.827832960646164,46.514556827069335],[4.827847032915446,46.514626315464334],[4.827862370761927,46.51472964953063],[4.827878030680594,46.51486981662055],[4.827884808663814,46.514927982851276],[4.827896656887981,46.51496616281514],[4.827918135203139,46.51501139436009],[4.827973711939509,46.515089136136574],[4.82800407112995,46.51512296709785],[4.828030738676476,46.515143977212176],[4.828057959153764,46.51515813324637],[4.828269445481341,46.51525535932167],[4.828322033947487,46.515282890270235],[4.828348972092625,46.51530029323109],[4.828381053434962,46.51533878014556],[4.82843550739795,46.51536357915118],[4.828475619305811,46.515376988559154],[4.828529088251745,46.515376313773366],[4.82857670139758,46.51537609287142],[4.828608546053047,46.51537252133441],[4.828681009255877,46.51535857283447],[4.828772014022476,46.51533730240713],[4.828802482687868,46.515327718203196],[4.828821085199264,46.51531832375473],[4.828833562058541,46.51530911733408],[4.828843662576266,46.51529130229999],[4.828844405722401,46.51526679167323],[4.828834501659972,46.51522047450513],[4.82882659330539,46.51519475120015],[4.828781440721444,46.515003896709636],[4.828766814410066,46.51491793466328],[4.828768062075659,46.51488512962814],[4.828789042401719,46.51482606918695],[4.828834540160864,46.514743378874705],[4.828883730642553,46.51466576341262],[4.828949720835747,46.51456392091187],[4.829041491176464,46.51442554840033],[4.829062957405355,46.51438098122195],[4.829080706082252,46.5143344919828],[4.829109910520248,46.51419784064838],[4.829115725851339,46.514180634536416],[4.829136541996451,46.51414391373483],[4.829145191781548,46.51413341745347],[4.829206577053251,46.514084879173446],[4.829258746532648,46.514037749241204],[4.829273438137788,46.51401679837545],[4.829284361823469,46.51398464916363],[4.829291269045787,46.51389113718377],[4.829292728658664,46.51383355978282],[4.829293193778586,46.51375023857256],[4.829297479415463,46.513644699285855],[4.829294844992552,46.513589529165486],[4.829291235172828,46.513575265948305],[4.829260864293492,46.51351387441075],[4.829252413265533,46.51348752932651],[4.829252012881079,46.513463937667744],[4.829275849491283,46.513373397353234],[4.82929151742279,46.513327121487656],[4.829301365539304,46.51328625278553],[4.829432623033335,46.51310005207314],[4.829437094014375,46.51308944247865],[4.829412050913893,46.513054626154464],[4.829374206704791,46.51300767516453],[4.829302187569306,46.512914254865784],[4.829285441661099,46.51285066385822],[4.829261067891995,46.51282412313952],[4.829253109425756,46.51281245141421],[4.829228164691406,46.512768896789865],[4.829159131362426,46.51264003154511],[4.829108981460434,46.51255292641832],[4.829055300083459,46.512457771550345],[4.829100877260243,46.51244749523119],[4.829074760287498,46.51239621339527],[4.829015764378655,46.51231762613482],[4.828998593628469,46.512284124913585],[4.828977138633606,46.51222403180213],[4.828941957521081,46.512132003604926],[4.828893775861526,46.512025772290094],[4.828844678614033,46.51194279339025],[4.828832646607982,46.5119185771321],[4.828819326378148,46.51186763099481],[4.82879603821234,46.511822878891586],[4.828741581733473,46.51175124427865],[4.828622671569372,46.511519957338734],[4.828554600325874,46.511384681468236],[4.828518100257686,46.51132329768451],[4.828470196699012,46.51125642188894],[4.828380834653683,46.511135897394325],[4.828305750052987,46.51119987598579],[4.828259129837594,46.511237369504876],[4.82818941722167,46.51128649081777],[4.828167343821566,46.51129738178422],[4.828145353050119,46.51130295735725],[4.828010615095279,46.5113192521908],[4.82794078181143,46.51134144466128],[4.827904874589172,46.51135606940344],[4.827854670677207,46.511387855623674],[4.827830976435008,46.51140877008416],[4.827790528061793,46.511455261711795],[4.827757646319434,46.51149397652089],[4.827735707411873,46.51151666428171],[4.827656548121669,46.51158755278912],[4.827572738095758,46.5116520306035],[4.827501957074205,46.51171990288741],[4.827452385799099,46.511774466247125],[4.827431291146975,46.51180677782723],[4.82741008961508,46.511843684625866],[4.827367610964049,46.511934702580625]]],[[[4.828927141807771,46.51465308997631],[4.828846436831598,46.51478687204252],[4.828812594681124,46.51485532521226],[4.828801606087223,46.51489332988406],[4.828799928036607,46.51490164305904],[4.828845049440114,46.51505268758639],[4.828853543763159,46.51511920273503],[4.828874549657463,46.515189210617535],[4.828899195136023,46.51527825489785],[4.82892379840398,46.515366038883144],[4.828769928053143,46.51538011849343],[4.828660653522329,46.51539348479286],[4.828464750637624,46.515422466990366],[4.828528049941606,46.51553980541815],[4.828617816508454,46.51570715918214],[4.828660288673457,46.51578312866926],[4.828690989985625,46.51582713177132],[4.828732209272169,46.515885197557964],[4.828760447266887,46.51591410845933],[4.828791778612458,46.515941889059974],[4.828912452246769,46.51603101889461],[4.829102355281998,46.51617308269872],[4.829175704869654,46.516232165602936],[4.829312256096165,46.51636283304204],[4.829393354816692,46.51644286798052],[4.829461327535972,46.51650888195781],[4.829575311996784,46.51661243908534],[4.829648557679814,46.516687825833436],[4.82973959760111,46.51677247514205],[4.829837809850336,46.51685700962153],[4.829869497656259,46.51687983044644],[4.830005178151588,46.516961153266145],[4.830044312371293,46.51699979708488],[4.8301262484833,46.51703865663472],[4.830334929963777,46.51700541406024],[4.830829322769628,46.51690553999868],[4.831242949717525,46.51681335197338],[4.831447361006313,46.51676567461959],[4.831384684891836,46.516682643999616],[4.831315195220867,46.51659485873228],[4.831246533543689,46.516508411200675],[4.831187633574097,46.5164251398738],[4.831131214053883,46.51634579183541],[4.831090788221979,46.51623376286646],[4.83107259258961,46.516204781796716],[4.831059327246326,46.51618274716214],[4.83101598258007,46.516123635375784],[4.831012626891595,46.516109188002574],[4.830973206068937,46.515988226076914],[4.830893960079465,46.51582746078444],[4.830835899220693,46.51570310441116],[4.830796636453118,46.51564897105879],[4.830759948871657,46.515621006532626],[4.830731640421106,46.515590025650916],[4.830452951867259,46.515636368782516],[4.830331845087058,46.51541007247536],[4.830216342118097,46.5151952151874],[4.830541928409909,46.5151235330861],[4.830441072029772,46.514967977137694],[4.830407530907424,46.514928793592325],[4.830317417083949,46.514852236204014],[4.830287141659318,46.51481705345968],[4.830218101832298,46.514587131558635],[4.830186662414301,46.514521163836754],[4.830147114396318,46.514454605323955],[4.830094826565866,46.51436609371675],[4.830081944602533,46.514339909668024],[4.830045836735978,46.51426311827673],[4.830005358607183,46.514192161223555],[4.829982429432939,46.51414650291415],[4.829886352262835,46.513966101062984],[4.829818317524384,46.51385541414318],[4.82975120354906,46.5137566015543],[4.82970919772497,46.513686749673646],[4.829630248454266,46.513538498391334],[4.829593092113985,46.513465416467305],[4.829565090547097,46.51339299868523],[4.82950834620152,46.513261054820134],[4.829453285604891,46.51312485075054],[4.829349344808149,46.51327755919454],[4.829319996399503,46.51333603308591],[4.829314101242301,46.51336251759185],[4.829303211261882,46.51344231274583],[4.829306774018312,46.51349404539718],[4.829312206483191,46.513531517245475],[4.829334307988064,46.513618620635725],[4.829334703729415,46.513754798547225],[4.82932504119972,46.513913924797805],[4.829325795341775,46.51404523324615],[4.829331555310236,46.51410800922324],[4.82928214144815,46.51411285277782],[4.829229096722843,46.514126130800705],[4.829192559241537,46.51414923247745],[4.829171242108867,46.51416713689663],[4.829159759412853,46.51418263228428],[4.829118796877287,46.51430713226064],[4.829098352320721,46.514378253443226],[4.829086110374644,46.51440222744484],[4.829012780261471,46.5145185984559],[4.828927141807771,46.51465308997631]]]]}}]}
