{"type": "FeatureCollection","name": "aoc_geojson","features": [{"type":"Feature","properties":{"dt":"Colmar","type_prod":"Vins","categorie":"Vin mousseux \"Crémant\"","type_denom":"appellation","signe":"AOC","id_app":2,"app":"Crémant d'Alsace","id_denom":3,"denom":"Crémant d’Alsace","insee":"68066","cvi":"1B001M 1, 1B001M 3, 1B001M 4, 1B001M 5, 1B001M 6, 1B001M 7, 1B001M00, 1S001M00","nomcom":"COLMAR","insee2011":"68066","nomcom2011":"COLMAR","id_aire":16,"crinao":null,"grp_name1":null,"grp_name2":null},"geometry":{"type":"MultiPolygon","coordinates":[[[[7.327495892052091,48.09181642364471],[7.326876158910492,48.091694825137246],[7.326819165440467,48.091918797417875],[7.326817529373352,48.091951391218615],[7.328010418966554,48.09192962965535],[7.327495892052091,48.09181642364471]]],[[[7.329960382543515,48.08992447679259],[7.32999940325977,48.08967998458051],[7.330007125100609,48.08963139556949],[7.330009430337219,48.08959057594884],[7.329945383648303,48.08958707341891],[7.329800862612036,48.089579861277606],[7.329682936419661,48.09024208331949],[7.328544958608073,48.09016027795117],[7.328546259851724,48.08992816797696],[7.328485533427206,48.089868306936275],[7.32848488218476,48.08954173152431],[7.328014413556183,48.08925666969457],[7.327905729844313,48.08931419677203],[7.327513125086711,48.0895216671434],[7.327376061633652,48.08959402530581],[7.32736110074592,48.089601874984346],[7.327328943221294,48.08961819723276],[7.327193179611885,48.08968672229777],[7.326965176852873,48.08980171490543],[7.326944835602244,48.09013816362143],[7.326914405578195,48.09063891325617],[7.326853406840984,48.09165024022991],[7.327061045646783,48.09168730985787],[7.327515271145232,48.09178038395387],[7.328006196638987,48.091891213036796],[7.328007440476249,48.0918916179222],[7.328256830163311,48.0919473379737],[7.329430624682906,48.09192401090296],[7.329801373910348,48.0919175878255],[7.329962460373021,48.09191346659492],[7.330043077213574,48.091912304401774],[7.330047443238507,48.09186708324204],[7.330050748801999,48.09183190453253],[7.330073232701013,48.091630197508316],[7.330100760303743,48.091383334466784],[7.330147536571328,48.090965884910275],[7.330079078784635,48.09096110267725],[7.330086778340191,48.0908974642748],[7.32980971488614,48.09087007256515],[7.329891914096158,48.0903529980853],[7.329903819311125,48.090278300337715],[7.329907103050156,48.090257631925695],[7.329931871393893,48.08999843343297],[7.32993914308554,48.089923004843925],[7.329960382543515,48.08992447679259]]],[[[7.330569842537071,48.09190554865377],[7.330658359049579,48.09190229307176],[7.330876068603333,48.09189969284109],[7.330921815272541,48.09189981262125],[7.331034619881317,48.09189746581348],[7.33299951671157,48.09187564259468],[7.333053487844962,48.09184481761532],[7.333090892857571,48.09184163867035],[7.333141679269401,48.09187041096959],[7.333291594038965,48.091861289017615],[7.33340932102816,48.09185335149069],[7.333876485054522,48.091841564715416],[7.333968420417345,48.09184719294274],[7.334170330482473,48.09184877301727],[7.334205347878783,48.09184928646225],[7.33453229473422,48.0918336462407],[7.3346343698121,48.09183169095979],[7.334930013177297,48.09182801659946],[7.335080369742647,48.09182428338232],[7.335240865855295,48.0918129669244],[7.335344886086715,48.09180192725348],[7.335486605948883,48.09179130179095],[7.335530288608234,48.09176626174334],[7.335566395257985,48.09171446417148],[7.335587813066533,48.09162463542624],[7.335618591341456,48.09149805288038],[7.334258139122434,48.09147604270868],[7.333651204518242,48.09148937067509],[7.333484105760373,48.091551396005016],[7.333440422309923,48.091576435297824],[7.333450532128946,48.09160129722043],[7.333432670122765,48.09158032546377],[7.333401986052807,48.09156703531477],[7.333364139205693,48.091564823341955],[7.333308105676927,48.091570490388776],[7.333174727546481,48.09158441110865],[7.333106283699127,48.091635595479545],[7.333079902714515,48.09164197360176],[7.333058296969829,48.09164096627487],[7.332995750269244,48.091600009726044],[7.332939127324615,48.091598488572856],[7.332725899745286,48.091590113171925],[7.332462390806722,48.09158701213003],[7.332200641660906,48.091582403810214],[7.331985173870936,48.09157951678067],[7.331770745299613,48.0915728961513],[7.331770760029113,48.091573075852075],[7.33176941151455,48.09157303534185],[7.331556184223036,48.09156465782465],[7.331342956999057,48.09155627992162],[7.331342420539143,48.09155629965574],[7.331127328931123,48.09154979237377],[7.331127194816139,48.091549797307046],[7.331002778139689,48.091541756803984],[7.330933890446182,48.091587548888924],[7.330910959372088,48.09157036808989],[7.330885935072183,48.09156047398166],[7.330624132046581,48.091550276634315],[7.330589556647435,48.091555153152804],[7.330563911669393,48.09157051575801],[7.330563799642406,48.09157079024202],[7.33056289765028,48.09157127402284],[7.330560298941021,48.09157731760393],[7.330552267203799,48.09159257313199],[7.330548490647717,48.09164498235513],[7.330537666187781,48.09174271141185],[7.330528934989096,48.09183315377353],[7.330529197745014,48.09186919260368],[7.330538717235597,48.0918868667358],[7.330553159606258,48.09189895253538],[7.330569842537071,48.09190554865377]]],[[[7.335360461090111,48.11244634542458],[7.336106855110264,48.112404362662815],[7.335680569451818,48.111868697762176],[7.335330598784916,48.11142656133442],[7.334745288762905,48.110577900323904],[7.33458111966307,48.11045002293293],[7.334290738533217,48.11031408270164],[7.334260675857213,48.110301941232294],[7.334048558413507,48.11017844099856],[7.333221725711532,48.11079464364043],[7.333337545803101,48.11095980891461],[7.333603274194385,48.111344759582025],[7.333620871915193,48.11134438250705],[7.333697913064226,48.11138949204624],[7.333697155679065,48.111491806410676],[7.333709034198066,48.11151849557983],[7.333772598742732,48.11155680116045],[7.333770236267811,48.11162150430664],[7.333875319454025,48.11175417022914],[7.334000439803041,48.11185221360744],[7.33415436513774,48.111937210990995],[7.334381606421896,48.1120350110934],[7.33454169583224,48.11213771511894],[7.334614603093198,48.11214882064117],[7.334681627559805,48.11214563323732],[7.334737321483411,48.11213556301506],[7.334860002070346,48.112172683894386],[7.335032272178463,48.11224997571095],[7.335210994979829,48.11234685627406],[7.335336448143478,48.11245218583465],[7.335360461090111,48.11244634542458]]],[[[7.340008967819942,48.087397075421855],[7.339618741981795,48.08736414541428],[7.339542869350286,48.08735747918306],[7.339531645968771,48.08741737342373],[7.339997537072435,48.08745607614762],[7.339877824960248,48.088094948291605],[7.339881539994119,48.08810742843805],[7.339884735965106,48.088116863568025],[7.339884973363266,48.08811811652592],[7.33987990514072,48.08813010933315],[7.339812560235105,48.08828300538497],[7.339713265780698,48.08851368272098],[7.339694605767974,48.088556727856805],[7.339679789709315,48.08859088946923],[7.339590879509845,48.08879405714443],[7.339468471122698,48.08907253959518],[7.339384871200836,48.08926667932129],[7.339354870193806,48.089338710998696],[7.339341636126436,48.08936920935225],[7.339654829987764,48.08941561444165],[7.339796450122536,48.08943661999664],[7.340115715282199,48.08948487291034],[7.340110067183654,48.089504547457096],[7.340099999182762,48.08953592054144],[7.340124954341246,48.08954004747709],[7.340168487756556,48.08954763518112],[7.340150108304445,48.089621942342035],[7.34011415428593,48.08976070367551],[7.340111354562172,48.08977738931882],[7.340049473277829,48.09002795631985],[7.340038582733353,48.09007224713997],[7.340031632525836,48.09009899917979],[7.340019376117261,48.090146314365526],[7.339972884915121,48.090333679215],[7.339938797531616,48.09047552585737],[7.339937018073933,48.090483341931716],[7.339905923471429,48.09060921677686],[7.339890488091381,48.0906718796994],[7.339867792405183,48.09075752093896],[7.339849702470165,48.09083208765706],[7.339831612484149,48.09090665436874],[7.339795284792978,48.09105399077447],[7.339796096848785,48.0910540509655],[7.339795999627409,48.0910545051582],[7.340144149619931,48.09109727768747],[7.340444904358886,48.09113458662449],[7.340531917443149,48.091145798482266],[7.340604546121067,48.09115384555991],[7.340605633785212,48.091153985707045],[7.34066511940091,48.091162517265595],[7.340757497102985,48.091173531190925],[7.34071233599571,48.09137706917531],[7.340674951724599,48.09154427165225],[7.340643482306669,48.091693411908196],[7.340638016109244,48.09171857717889],[7.340638150223767,48.09171857223478],[7.340638157603598,48.091718662084595],[7.340752315279812,48.09170003412598],[7.340740649545647,48.0917545373217],[7.340736760962248,48.09177270505292],[7.342342837551058,48.09173871919942],[7.342769532840491,48.09084158867677],[7.342737050604847,48.090839181851095],[7.342736097053627,48.0908390367771],[7.342736559669284,48.09083811849369],[7.342694528374897,48.09083245897458],[7.342299267811415,48.090781157476776],[7.342322144162404,48.09070758531648],[7.342350955758577,48.09061784265037],[7.342392164400697,48.090489070517194],[7.342410430352109,48.090433061909344],[7.342436934726709,48.09034962271021],[7.342438331181396,48.09034533547004],[7.342441535027569,48.09033521375854],[7.342504675422932,48.09013939293997],[7.342520007979222,48.09009025163936],[7.342560804867802,48.08996302663417],[7.342586501676136,48.0898828615391],[7.342618334096223,48.089787329615994],[7.342663628548769,48.08964281544393],[7.342673904203709,48.08961071345142],[7.342730449615232,48.08943451186376],[7.342764502172342,48.089328353673295],[7.342787404357482,48.08925838523864],[7.342808815317825,48.08918991375273],[7.34284353192508,48.089082018695834],[7.342898784401357,48.08890973986905],[7.342955067484541,48.08873363783547],[7.342959577697195,48.088719772894095],[7.342967519232069,48.088700193805344],[7.34301232585415,48.088557950376156],[7.343067884768531,48.08838286627738],[7.34306849743273,48.08838050049956],[7.343124517359527,48.08820612031199],[7.343145650062701,48.08803933557529],[7.343153488530472,48.08797758304517],[7.343160003466448,48.08793246183111],[7.343167270965383,48.08786703534419],[7.343178131756444,48.0877782247539],[7.343182276060613,48.08774517724426],[7.343185786944512,48.08772242703937],[7.343188493012762,48.08768988319501],[7.342762781889145,48.087642591206404],[7.342771554402437,48.08756764639724],[7.34277198128652,48.0875646566167],[7.342835409393368,48.087026990662935],[7.342827610151347,48.08709577129367],[7.342928990641681,48.08710347718133],[7.342984645783464,48.087108003109115],[7.343133262556066,48.0871209057738],[7.343175178327233,48.086896036420974],[7.343025481976545,48.086883083531994],[7.342889536726704,48.086872146637525],[7.342871114277195,48.08687057313598],[7.342656585220494,48.08685271136474],[7.342626963567317,48.087012779683036],[7.342625176024176,48.08702212821173],[7.34262399376628,48.08702902111274],[7.342598733144867,48.0871652263845],[7.342571915021384,48.08716297116042],[7.34241019432964,48.087149379514585],[7.342356297293674,48.087144968716615],[7.34220960975448,48.0871326247796],[7.342092191121424,48.087122896225914],[7.342062929665348,48.0871203705099],[7.341916622426875,48.08710774182076],[7.341869392463778,48.087104256516724],[7.341816300135091,48.08709981579853],[7.341770315258249,48.08709511294989],[7.341556366357867,48.087077768497025],[7.341470645353734,48.0870707457021],[7.341357421078018,48.08706131236897],[7.34121088286678,48.08704914194334],[7.34116835397452,48.08704557314113],[7.341063361725258,48.08703646684724],[7.341015297747074,48.08703265146811],[7.340877825742897,48.08702113769368],[7.340860349399025,48.08701961911729],[7.340843901599706,48.08701752188298],[7.34079518190054,48.087013910835985],[7.340665115150886,48.087002484276866],[7.340529475182284,48.08699198402305],[7.340491684244554,48.08698878103711],[7.340435344171129,48.08698409895091],[7.340318418332347,48.08697380975279],[7.340204694951661,48.08696484433723],[7.340132100305479,48.08695877863752],[7.340093758249045,48.08695541559783],[7.340090912583618,48.0869551600108],[7.340089392799343,48.08696449861437],[7.34007317155343,48.08705197431109],[7.340068172078127,48.08707135461956],[7.340065121231079,48.08709480871195],[7.340062128504352,48.08711078052582],[7.340049762648391,48.08717477245934],[7.340031205583057,48.087276393286785],[7.340027508917791,48.087296897151354],[7.340008967819942,48.087397075421855]]],[[[7.343905959302853,48.121783971137575],[7.343871386571291,48.12160581637273],[7.343849907713873,48.12149521963061],[7.34379518120726,48.12124057480459],[7.343793462160516,48.121226218937146],[7.343691139817139,48.12075451676516],[7.343667105914288,48.12064230187133],[7.343643388652692,48.12053557263431],[7.343627729452963,48.12044990481368],[7.343613648884566,48.120376885753906],[7.343588790931928,48.120280832753735],[7.343531055329563,48.1202497971223],[7.340849112932995,48.12004629331377],[7.340806534607744,48.120071924245515],[7.340748114799152,48.1201455420616],[7.340760833740624,48.120162736984256],[7.34081837564664,48.12023893125873],[7.340880164615964,48.12032749572417],[7.340954947352389,48.120434957219906],[7.341016757666424,48.120525413356255],[7.341127187112122,48.12068338036395],[7.341126128377933,48.12068359961662],[7.341218680244141,48.120728854118774],[7.341205383918195,48.12076358973852],[7.341168804396806,48.12078197035247],[7.341143158226861,48.12079418039009],[7.341222657430928,48.1212996187777],[7.341224811494606,48.12131927571496],[7.341241419549712,48.12142635729949],[7.341260727163254,48.12155154366794],[7.341282087001622,48.121683683774],[7.341307171749041,48.12184803973176],[7.341318437320423,48.12194252108768],[7.340696011469011,48.12197798176859],[7.340650923626994,48.12200749005294],[7.340672437192297,48.12214151703718],[7.340709951791708,48.12213941391434],[7.341620212831834,48.12210307947177],[7.342403130103483,48.12210423539492],[7.344092414113279,48.12210360182113],[7.343959876058801,48.12201566504742],[7.34395986127939,48.122015485351795],[7.343960644256662,48.12201518612167],[7.343928113732408,48.12187823117753],[7.343905959302853,48.121783971137575]]],[[[7.344093701179109,48.1221044557655],[7.344092419558167,48.12210360181904],[7.344092414113279,48.12210360182113],[7.344093701179109,48.1221044557655]]],[[[7.34181804821827,48.09258494054394],[7.341653865056792,48.09319490121328],[7.341613983608916,48.09334642460427],[7.341570078139242,48.09351774288853],[7.341541084994176,48.09362659760489],[7.341536158895264,48.093676346235675],[7.34151492427798,48.09383051649847],[7.341488561809058,48.094015607335294],[7.341465995200925,48.09419614221592],[7.341451687093429,48.09430526649774],[7.34141063427902,48.094611211416],[7.341392136161278,48.094887125233285],[7.34138723268167,48.0948880269932],[7.341386419163936,48.09489941232531],[7.341424518174385,48.09492594538928],[7.341440633639286,48.094937067049706],[7.341438369023621,48.094975001673056],[7.341381864758255,48.0950077263185],[7.341339944436436,48.09564372867433],[7.341392554947964,48.09602210250824],[7.341529483037478,48.09624776562157],[7.341544444677841,48.09636437215704],[7.341544542323337,48.09643105858193],[7.341598906123598,48.096470510185036],[7.341600128026182,48.09647064537732],[7.341603568525747,48.09647322217718],[7.341823203521938,48.096490538427396],[7.341930883670319,48.09649774314166],[7.341982260271521,48.096497561065384],[7.342044928189566,48.09646451881321],[7.342045369952285,48.096461708751754],[7.342085329773836,48.096463389550784],[7.342070194187998,48.09657389610599],[7.342060177663168,48.09661572142081],[7.342043713056036,48.096710055063184],[7.342087495003834,48.09675169907708],[7.342092099624876,48.09675207001843],[7.342093700534614,48.09675354305555],[7.34318835814264,48.09684141724034],[7.344321564491302,48.0969301122843],[7.344403226320952,48.09693665246627],[7.344408091842171,48.09693692357108],[7.345058815486168,48.09699068968311],[7.345756779544596,48.09704793594318],[7.345822215859926,48.09701749312205],[7.345855535790419,48.09692370825851],[7.345891597684803,48.09681909767448],[7.345908672679648,48.09676989179888],[7.345960200445349,48.09662595796471],[7.346022388255917,48.096452971877525],[7.34607349341608,48.096326807561226],[7.346082142902517,48.096296207354136],[7.346147753623489,48.09616157687826],[7.346251815733964,48.09602174200433],[7.34632203741814,48.09593173181614],[7.346483010158097,48.09572653043734],[7.346485485711807,48.09572391564435],[7.346603992020858,48.09559778647166],[7.346733074374392,48.095477575287674],[7.346839189119616,48.09537254118753],[7.346916582689101,48.095296144584466],[7.346931579441497,48.09527729619029],[7.347045427077878,48.09517305785934],[7.347477377750802,48.094759041429135],[7.347582042745717,48.09465604271573],[7.34759998868336,48.09463870752235],[7.347859395037467,48.09438733167831],[7.348178879928961,48.09404866124535],[7.348241072977284,48.093978863065765],[7.348211396713733,48.09398933165426],[7.348344752579943,48.09385084591762],[7.348416097481982,48.09373042143903],[7.348464662395427,48.09364868951123],[7.348622241736776,48.09330761513591],[7.34864253824393,48.09326000196219],[7.348658346933826,48.09316929582533],[7.348666944541794,48.09312337641585],[7.348666743881487,48.093122572725996],[7.348868495888879,48.092474802265414],[7.348786695602628,48.09246160145182],[7.347798400165273,48.09228721246123],[7.347300793047299,48.09221843748627],[7.346418598791549,48.09209581534167],[7.345488297971522,48.092008127118056],[7.344556109625486,48.091959614302034],[7.344556124398525,48.09195979400115],[7.344490990825867,48.091949670307834],[7.344489642291981,48.091949629943166],[7.344489829271016,48.091948631700966],[7.343769495064226,48.091939159140125],[7.343071929027586,48.091951372880295],[7.342823388199876,48.09195531305781],[7.342823283619262,48.091955677403085],[7.342822613044666,48.09195570213605],[7.342821650998854,48.09196691274736],[7.34281994333136,48.09197887183546],[7.342816646131198,48.09200422760599],[7.342268127671689,48.09200823545535],[7.342209215498691,48.092077098279326],[7.34218042378019,48.09211961615216],[7.342132978858486,48.092197068233205],[7.34207197457119,48.09227321787167],[7.341949817826543,48.09242372004845],[7.341900539059727,48.09248213377666],[7.341901252695084,48.092484270387224],[7.34181804821827,48.09258494054394]]],[[[7.343815530317966,48.09152217830496],[7.343828226762914,48.09148025374556],[7.343828443293636,48.09147961490264],[7.343828711520874,48.09147960500715],[7.343970010480993,48.09099746586891],[7.343956153769035,48.090995814162234],[7.343947042688569,48.090994618226006],[7.343888852366691,48.09098712198858],[7.343729769699094,48.09096649501639],[7.343513308998888,48.090938431571146],[7.343334246290069,48.09091529673898],[7.343297124137028,48.09091044768324],[7.343080544551224,48.0908825680887],[7.343079315390068,48.090882343061544],[7.343027919527922,48.09087567725055],[7.342853863693059,48.090852897753166],[7.34285375173136,48.09085317224899],[7.342853207899402,48.09085310218579],[7.342849125593073,48.09086235508744],[7.34284461141497,48.09087126342984],[7.342635351164623,48.09133680159677],[7.342539824506745,48.091549407849506],[7.342458323596412,48.09173626253711],[7.342828922249981,48.09172800148574],[7.343427810420274,48.09171492309806],[7.343761152202222,48.09171163833407],[7.343815530317966,48.09152217830496]]],[[[7.354806780668673,48.10436416769315],[7.35470749199416,48.10355133336171],[7.354666952817305,48.103549227448475],[7.35475460089713,48.10318748097512],[7.354806765312762,48.10296006662558],[7.354888095073038,48.1026212642511],[7.354906041943312,48.10254516838662],[7.354945044728857,48.10254823222608],[7.355000505935331,48.10242776083774],[7.355204719943283,48.10196869690421],[7.355281331626769,48.10169675879918],[7.355319112455685,48.10115778252007],[7.355305830114284,48.100988483434556],[7.355292749476405,48.10081836577183],[7.355279326591593,48.10064735952623],[7.355250495769616,48.10041347701052],[7.355233013758214,48.10041358281059],[7.355236403022716,48.100299633025735],[7.35523124975827,48.09997267968237],[7.355226728132023,48.09973663633104],[7.355234467019852,48.09967056082893],[7.355303974609021,48.09933859305223],[7.355314439552689,48.09928926958026],[7.355317024310819,48.09927655685595],[7.355386282894637,48.09912439224143],[7.355412929947267,48.09906572838316],[7.355488088931858,48.09890027769311],[7.355519301147084,48.09883171172835],[7.355534353425207,48.09880213558919],[7.355540932413807,48.098788914630916],[7.355608630392417,48.09865537272641],[7.355630872917654,48.09861183201411],[7.355684413638933,48.098505670155745],[7.355738639608361,48.09839966315625],[7.355807619447029,48.09826373046851],[7.355868849166658,48.09814313484024],[7.355894768648125,48.09809197787358],[7.356078066428036,48.097718939779],[7.356143705320013,48.09758493280646],[7.356196769119991,48.09747464257371],[7.356290574140257,48.097233519299984],[7.356292738177598,48.09722713066614],[7.356367435523106,48.09698923756294],[7.356370131025082,48.09697787252402],[7.356390274384979,48.096866456819335],[7.356390461156805,48.09686545856152],[7.356392147126641,48.09686143079607],[7.356423231566257,48.09668364058227],[7.356258265004978,48.09667352143375],[7.355524194180378,48.09661415784634],[7.355429417618704,48.09660684869707],[7.353725386222427,48.09646618692213],[7.353728183758181,48.09644625655747],[7.353733973922479,48.09640386518598],[7.353815209420826,48.095819031146995],[7.353471484587239,48.095796231278385],[7.353494730259221,48.095676680596505],[7.353519007927529,48.09555006219028],[7.353557900986425,48.09534774126254],[7.353569519938207,48.095287920972716],[7.353725144915694,48.09529901996435],[7.353747229819892,48.09514742847321],[7.353759673775654,48.095063334690344],[7.353614457405845,48.09505446448504],[7.353079049588903,48.095022077899],[7.352946686028184,48.095014083568785],[7.352922202763048,48.09501246521474],[7.352892797732904,48.09488413637987],[7.352893752286678,48.09488265913371],[7.352607242848335,48.094873333067206],[7.352532659283341,48.094871043123],[7.352376458658011,48.09486600208962],[7.351870371425546,48.09484982984415],[7.351855149112159,48.094849581329925],[7.351855022390069,48.09484967613574],[7.351743689623088,48.09484874386618],[7.351540454081325,48.09485084733541],[7.351580973217597,48.09514522167103],[7.351539381109777,48.094850886987416],[7.351488266985372,48.09485097346763],[7.351405012999004,48.09423202537174],[7.351388269400474,48.094094035861225],[7.351382331708369,48.09405460142453],[7.351333698138436,48.09405702950343],[7.350411132998457,48.09404425485219],[7.350353698590227,48.093629290537],[7.35025214666651,48.09288592783082],[7.350237601229924,48.09277786771332],[7.350238644575258,48.09277746867648],[7.349002106632325,48.092561792171246],[7.348936149888499,48.09270842404064],[7.34885635798988,48.09281771545552],[7.348821130334724,48.092912743762945],[7.348737221748489,48.093168185238696],[7.34866258369,48.09337281572651],[7.348619603969726,48.09347173510113],[7.348567816935806,48.0935944114993],[7.34849053671133,48.09373425133235],[7.348428631826831,48.09383206705305],[7.348372703760083,48.09390442778342],[7.348306045977896,48.093977184710226],[7.348305792525174,48.09397737431429],[7.348305189508523,48.09397658548273],[7.348235043385164,48.094051093377736],[7.348158462512955,48.09413241775773],[7.347896679526661,48.094410468198525],[7.34751679456404,48.094780296897646],[7.34717448878189,48.095103315214466],[7.347043528463038,48.09522684070534],[7.346973413885782,48.09529359599925],[7.346899606944716,48.095366165236754],[7.346787833707312,48.09547600450087],[7.346647928255559,48.095613468083265],[7.346534323293353,48.095741939798785],[7.34647183849569,48.095818056145745],[7.346295427054494,48.09603347037756],[7.346197803050494,48.096173067669],[7.346122461854771,48.096328424870535],[7.346044167474973,48.096541118412354],[7.345988899254426,48.096685370594734],[7.345935675541027,48.09682504117607],[7.345919526475139,48.096882233730945],[7.345852057605677,48.09707280810713],[7.345848540730088,48.09707257741094],[7.345840175133919,48.097101725148356],[7.345785259134847,48.097122677415854],[7.345750713997488,48.09708051354407],[7.345747055604928,48.0970801979456],[7.345746899309518,48.097079933347935],[7.345739060792511,48.097079501648565],[7.345236952098482,48.097036657590266],[7.345108788106598,48.09702741790016],[7.345054776205294,48.09702337271108],[7.344761167845599,48.09699653515057],[7.344582874520384,48.09698301617775],[7.344457400709574,48.096973766656745],[7.344391977274185,48.09700601065488],[7.344387380001848,48.09700572965271],[7.344344583185771,48.09700063953085],[7.344300447414674,48.096961262387204],[7.34429842072902,48.096961156912464],[7.344297549483176,48.096960377958474],[7.342087470339227,48.09678414378683],[7.342014721606827,48.09681566519558],[7.341955901098316,48.09714767928634],[7.341935719978668,48.09722953287461],[7.341908179808726,48.09738555752246],[7.341928434399321,48.09740283502692],[7.341894569709803,48.097449144478496],[7.341871238035516,48.097558150678964],[7.341847438489872,48.097694210593595],[7.341782809238024,48.09782456616415],[7.341780569597508,48.0978300560351],[7.34172115757394,48.09795841675697],[7.341667726005132,48.09806132289656],[7.341660711718059,48.09807419852494],[7.341540805089076,48.098186765154836],[7.341549715532848,48.09818877980606],[7.341505322231059,48.098262513720755],[7.341486018213942,48.09837470575098],[7.341451694057492,48.098561170918586],[7.341420046176077,48.09874582507105],[7.341364845247095,48.09874533671536],[7.341473432642277,48.098142926536916],[7.341464193638258,48.09814182520884],[7.341464388078409,48.09814091682491],[7.341510769278279,48.09811757769817],[7.341519598504811,48.09811860400851],[7.341583577801523,48.09809822091048],[7.341622478480563,48.098064072577515],[7.341652121908187,48.09800404015844],[7.341675234598251,48.09795785686717],[7.341707216020165,48.09789025813481],[7.341756629584366,48.09778921241034],[7.3418027364316,48.097695408177465],[7.341807085360636,48.09766974341911],[7.341839310693444,48.09750687709582],[7.34188841690408,48.09724164100545],[7.341908251162065,48.097145741243416],[7.341988135110042,48.096747522198996],[7.342022736718805,48.096574294194106],[7.341976159221852,48.09653464579328],[7.341972098509749,48.09653434491437],[7.341969931572554,48.09653253226],[7.341891547527771,48.09652821272956],[7.341753557199316,48.09651888116335],[7.341542548000724,48.09650503186471],[7.341495889344483,48.09649386472067],[7.341495306435059,48.09637050967258],[7.341488254807331,48.09633544196851],[7.341468460486268,48.09626317321635],[7.341424678873996,48.09617403486489],[7.341419515659633,48.09617341412872],[7.34141822120034,48.09617075820335],[7.341321750552414,48.09616079661838],[7.341317339504036,48.096064529068144],[7.341310461450175,48.09595952054116],[7.341299985495686,48.0957763289177],[7.341290751560374,48.09564428060113],[7.341304460792629,48.09540504281176],[7.341298656561576,48.09540480619248],[7.341298702107774,48.095403723052925],[7.341249033785486,48.09537392148739],[7.341250792156778,48.09537403690423],[7.341305912626412,48.0953392004437],[7.341330910344279,48.09493606560489],[7.341348277539881,48.094610356187545],[7.341481758859952,48.093620043194726],[7.341747344895738,48.092647839199635],[7.341744086696611,48.0926507531197],[7.341744901266425,48.09264756881742],[7.34174171379906,48.09257766163972],[7.341743093117864,48.09257643919464],[7.341763081539038,48.092559390084574],[7.341880941213927,48.09241715757223],[7.341944486763659,48.09234082422397],[7.3420050126715,48.09226703547546],[7.342069982690664,48.092188396461374],[7.342081930076799,48.09217335612676],[7.342120801496399,48.092112712550055],[7.342120794113995,48.09211262270036],[7.342179464047544,48.09200970276199],[7.341284928240825,48.09202646584578],[7.341285741800609,48.09193811638584],[7.340985028878302,48.091945598459866],[7.340986484048254,48.09179954734999],[7.340765650307323,48.091796874152614],[7.34068518147743,48.09179984067613],[7.340328141050157,48.091809397608635],[7.33999432976826,48.09183972648706],[7.339831004723313,48.09184935128413],[7.339762002792845,48.091860906708],[7.339741646627515,48.09197340802151],[7.339642253770492,48.09197526886592],[7.339658573622525,48.091879138266606],[7.339565430904925,48.09189158331119],[7.339435031026658,48.09190900624977],[7.339368416126831,48.09191686859262],[7.339354951935822,48.09198225248281],[7.338645937567061,48.091997565534],[7.338508992304781,48.092000809131676],[7.338342541624374,48.09200513970255],[7.338256707722682,48.0920083022273],[7.338173556120629,48.09201136586355],[7.338036610793663,48.09201460891232],[7.337934682994299,48.09201836413892],[7.337904882566752,48.09201585716277],[7.337902200256119,48.09201595598267],[7.337813536498074,48.092017420005],[7.337730237357336,48.092018686328885],[7.337646938212612,48.09201995259389],[7.337539498259654,48.09202210810687],[7.337434740609869,48.09202416471275],[7.337217178348244,48.09202857405821],[7.33702912149481,48.09203189620595],[7.336862523126213,48.09203442768605],[7.336644960774692,48.09203883597525],[7.33659653165819,48.09203881720659],[7.336521426855643,48.09204158330653],[7.336443492275392,48.09204265114402],[7.33623665911644,48.092046663532415],[7.334570055030389,48.09209721332905],[7.334575300507633,48.091898752972085],[7.335703049640789,48.091871651064366],[7.335987963928204,48.09186836912921],[7.336248589977643,48.09186417854616],[7.336404606070223,48.09186384007869],[7.336437854045943,48.09184278884172],[7.336433549745728,48.09182312061127],[7.336243871649224,48.09180667448934],[7.336154470973219,48.09179915225477],[7.336116771288231,48.091798738168116],[7.335969392048599,48.0918059679359],[7.335771048986259,48.09181507418634],[7.335685362667939,48.0918200318413],[7.335602211212949,48.09182309366389],[7.335476437702793,48.09183132967557],[7.335452444370913,48.091834015557815],[7.335324725587222,48.09185133518541],[7.335097761308852,48.0918723086897],[7.334576803688699,48.09188427819754],[7.33345353421822,48.091900389860555],[7.33302763566581,48.091923273372224],[7.333028225020586,48.09193046139499],[7.333033967501814,48.092164565660724],[7.332988073260887,48.0921626496949],[7.332590204770938,48.09216647577606],[7.332591419184847,48.092166521211844],[7.33124545585083,48.09217701705852],[7.331253503375039,48.09224566379673],[7.331273165614839,48.092400219447825],[7.331277434998864,48.092430973988186],[7.331327990105246,48.09269163750613],[7.331344146486643,48.092765663576024],[7.331353648551204,48.09284056526953],[7.331318860746997,48.092941338763225],[7.331315315409816,48.092955528087224],[7.331303697903022,48.0932356015447],[7.331331698770629,48.093513226283285],[7.331398163811141,48.09416001431126],[7.331467636916038,48.09444629704166],[7.331470486760657,48.094458088200994],[7.331506213467984,48.09468387925352],[7.331569456413284,48.09476284210548],[7.33161787984415,48.0947791751649],[7.331621459206423,48.094822842363136],[7.331631067227891,48.09482681473763],[7.331532715486651,48.09479384348081],[7.331518067445637,48.094777619781],[7.331455617254638,48.094703404162864],[7.331454298550835,48.09469552201188],[7.331439097184687,48.094580636023224],[7.331429658972206,48.094516366351655],[7.331422924449424,48.094468669633905],[7.33141075764643,48.09441378280443],[7.331397522134541,48.0943622697665],[7.331350128869565,48.094166467538784],[7.331343814681516,48.09411569122902],[7.331334593598077,48.09401960078264],[7.331329987307125,48.093974889883874],[7.331312772636905,48.0938157382857],[7.331294879648063,48.09366472252904],[7.331285311698733,48.09358081117477],[7.331276775224047,48.093501277812514],[7.331269273991175,48.09343765781643],[7.331262712074926,48.09336580223784],[7.331252827111076,48.0932862283466],[7.331248617512319,48.09323979053328],[7.331249232151865,48.093212821686215],[7.331253944113985,48.09313244049252],[7.331262428984512,48.09294873172264],[7.331299155033681,48.09284698574059],[7.331291731093041,48.09277281869407],[7.331263556743084,48.09262930061703],[7.331238388442529,48.09249783831754],[7.331225782013763,48.0924359381356],[7.331209832711556,48.09230206391662],[7.331193921876525,48.09216701669533],[7.331067148058074,48.09216798491885],[7.330914252532724,48.09216865211318],[7.330912632590097,48.092148885024514],[7.330598210834657,48.09215323988392],[7.330602365735173,48.09217111131472],[7.329979180996393,48.09218321527874],[7.329979917175732,48.09219220032471],[7.329082544886327,48.092207172426086],[7.328868870566375,48.0922114233633],[7.328868602332635,48.092211433224726],[7.327587582803765,48.09223797441261],[7.327586421574477,48.092236935639384],[7.327457522040257,48.0922398706404],[7.3269122708545,48.092250896492594],[7.326910765565826,48.09226537116583],[7.326912020719695,48.09226920024423],[7.326917138628152,48.09239085573848],[7.326947204177809,48.092552689619374],[7.326970241347935,48.092574463417414],[7.327030858811576,48.09263297737273],[7.327032507285558,48.09263832405216],[7.327068116225469,48.092757777573205],[7.327086445902423,48.092814060431145],[7.32710400599854,48.09287244434884],[7.327156326020686,48.09304319339407],[7.327174859200593,48.09313317399135],[7.327197497558739,48.09323057387945],[7.327209365428367,48.09328186716393],[7.32722043764814,48.09333165763006],[7.327226909644933,48.09338441089927],[7.327241222017172,48.09348527097775],[7.327228925510544,48.0936094589012],[7.327232083372966,48.09362502389246],[7.3272552142582,48.093700506266075],[7.327275726711287,48.09377193929805],[7.327295927909074,48.093834642035],[7.327332348649618,48.093955777897214],[7.327342848305049,48.093990358947444],[7.327353930794442,48.094087913089744],[7.327375045610959,48.09428990913829],[7.327404277285704,48.09433146205015],[7.327426037675046,48.094363916956155],[7.327492191641243,48.094460438487594],[7.327519240747705,48.09450162098007],[7.327572629225982,48.09461474325379],[7.327595167084578,48.094666545547504],[7.327630881674737,48.094787256644935],[7.3276450812694,48.09483251618792],[7.327699086020734,48.09502050619664],[7.327737401624757,48.09514833132705],[7.327921690515948,48.09512515609377],[7.327942093634986,48.09517388255405],[7.327965169285636,48.09523224383755],[7.327975438429015,48.09525250408045],[7.328000399795381,48.095281326523136],[7.328017919059042,48.095301410407245],[7.328041114513865,48.09534480720815],[7.328086792420543,48.09542946410256],[7.328099869966143,48.09545773198949],[7.328150833335227,48.09556914072937],[7.328285655714521,48.09555301016211],[7.328285962229281,48.09556660714751],[7.328345604309102,48.09587758488845],[7.328342183263247,48.09587852172424],[7.328351270585303,48.09592541102882],[7.328356602552462,48.095957658548315],[7.328383861339135,48.096101570917014],[7.328387848344319,48.096100973760855],[7.328437418679871,48.09635960091036],[7.328497301644299,48.09654539179759],[7.328568902093875,48.09666892904549],[7.328653805499026,48.09676106580444],[7.328700385279527,48.0968402820613],[7.328742019772714,48.09688047753103],[7.328752996920383,48.0969159420997],[7.328791594596686,48.097019243640034],[7.328830261985492,48.097105329527835],[7.328857839335615,48.09716442635279],[7.328878252295392,48.097205041411065],[7.32888031329361,48.09721541966138],[7.328884388682517,48.09723068050562],[7.328908137714165,48.09731037547409],[7.328942367754355,48.09742275947755],[7.32895923297055,48.09747918595955],[7.328989353432045,48.097580816401376],[7.329007147033338,48.09764036297337],[7.329025460842045,48.09770133235079],[7.329048048089547,48.097773409723814],[7.329057713813709,48.09783884256914],[7.329065179442547,48.097883988994326],[7.329118431241486,48.098184206315544],[7.329139779913919,48.098310131289445],[7.329178441146709,48.09852256657242],[7.32919777888278,48.09864036445656],[7.329219874615834,48.09875733997452],[7.329228842172218,48.09880603598664],[7.329241990051307,48.098869628480266],[7.329266602595998,48.098981194331145],[7.329311163400809,48.09918187717647],[7.329322147244656,48.099233833515335],[7.32933463766366,48.099284472775665],[7.329243269026104,48.09929576236409],[7.329219644100519,48.09929149399006],[7.329155140828067,48.09930062430705],[7.329165501127246,48.09930556056664],[7.328460378515295,48.09941718471239],[7.328507315157857,48.09960912879758],[7.328556421167908,48.09980784228303],[7.328606410039385,48.1000107589541],[7.328658128356447,48.10021343178078],[7.328770068249976,48.10066343495056],[7.32899515770317,48.101492741792406],[7.329272875650747,48.10245358187426],[7.329374268649159,48.10243156011811],[7.329478031957077,48.10240891041046],[7.329585111928524,48.10238568807442],[7.329732836079105,48.10235439258661],[7.329784276626051,48.10231059533457],[7.329783147805461,48.10230667153063],[7.329807607506458,48.102304690824774],[7.329855770078255,48.10243269373148],[7.329943490382422,48.10264936280052],[7.330081270393003,48.10288582019926],[7.330155917129598,48.10291011180938],[7.330158862565797,48.10294605173344],[7.330132001769593,48.10297948273336],[7.330091755676271,48.10296122606749],[7.33009129433636,48.102960522065196],[7.330082227935379,48.10295004094355],[7.330038982126942,48.10287547908956],[7.330000491320392,48.1028080421612],[7.329914059193242,48.10265963715843],[7.329886004020051,48.10258983386835],[7.329858156694083,48.1025209241351],[7.329807428990896,48.102394457469664],[7.329740344354904,48.10238034163204],[7.329274562410981,48.102480736266436],[7.328755310325869,48.10259526060822],[7.328454199939774,48.102661030915215],[7.328008608237262,48.10276157949558],[7.328064855388394,48.10290127186366],[7.32809699889089,48.10297173632821],[7.328124630715149,48.10303804080889],[7.328184700762,48.10317840370815],[7.328213747856605,48.10324555735901],[7.32824187477446,48.10331625951574],[7.328283807865633,48.103404388232214],[7.328301283002489,48.10344853583884],[7.32833194584578,48.103517342366125],[7.328362688081455,48.103588759459],[7.328422680069822,48.10372651160926],[7.328482530863365,48.103864178796776],[7.328523351512885,48.10395514204383],[7.328573833733654,48.10399158782981],[7.328557223265379,48.10399084651265],[7.328628860555027,48.104044088234865],[7.328810105644669,48.1041870265158],[7.32886679084418,48.10428768027415],[7.328924425149731,48.10433422688803],[7.328932261295308,48.10439702313405],[7.328961602841368,48.10451373199369],[7.328984700033698,48.10452631096246],[7.329103430488249,48.104986787694884],[7.32914212229489,48.105099367746654],[7.329204493571131,48.105261184297035],[7.329240565641119,48.10534835654813],[7.329300287498246,48.105425286943905],[7.329474944235271,48.10562731507721],[7.329497080156121,48.105647859885366],[7.329722611416932,48.105863157744714],[7.329818508326437,48.10595624138493],[7.329908082230691,48.106037841762394],[7.329914466089261,48.106048421513165],[7.330070796390896,48.106240218015174],[7.330108077611965,48.106237044979146],[7.330388816372359,48.106216359508394],[7.330439926551308,48.10658875018166],[7.330442376540879,48.10659073287012],[7.330446786514689,48.10662319429351],[7.330574121047246,48.106732064114944],[7.33066404033908,48.106844111946096],[7.330690218574742,48.10690082641759],[7.330696615841197,48.10691320804345],[7.330703455015137,48.10693098064111],[7.330824677526491,48.10719508193979],[7.330884852511211,48.107239731857355],[7.33095980038475,48.1072676168685],[7.331072606344578,48.10729771452924],[7.33105111011616,48.107330948315024],[7.331033359611355,48.10734421788303],[7.331146089239797,48.1074226227917],[7.331209263345013,48.107441477971896],[7.331314983654265,48.10751644555183],[7.331391720840433,48.10759076660687],[7.331546284980338,48.10774612752898],[7.331565126795014,48.10778391599223],[7.331899507862754,48.10845509104053],[7.3321641569184,48.10878285803436],[7.332370513289711,48.109029857918905],[7.332716603521991,48.10924305921308],[7.332911027296493,48.109359281964444],[7.333480683943457,48.10972728448113],[7.333460139594507,48.10973110441709],[7.333508437054442,48.109762131315584],[7.333591114848351,48.10981856891051],[7.333615063348147,48.10981687671623],[7.33381127351316,48.10994826270516],[7.334001845453451,48.11007652139774],[7.334211338102726,48.11021724115915],[7.334327142183509,48.11029525978416],[7.334352696427417,48.110306575814015],[7.33451358242193,48.11037969100489],[7.334513448259509,48.11037969594196],[7.334622145270339,48.110430128634746],[7.334795054195784,48.110561199028176],[7.334899723826521,48.110715057657856],[7.334984916308776,48.1108381810062],[7.335064166087303,48.11095611578736],[7.335179281708595,48.111124099117966],[7.335301796519542,48.1113035256636],[7.335381161185516,48.11141956349061],[7.335445998733326,48.11150288154322],[7.335729733002385,48.111859408144326],[7.336164161055939,48.112409012166786],[7.336216177320377,48.1124623411231],[7.336428135708498,48.11267389124351],[7.336678262497149,48.11287168932925],[7.336889241823703,48.11301225988703],[7.337167672001656,48.11319414508909],[7.337266652505657,48.11317202592629],[7.337307120169901,48.1130207557841],[7.337339176075572,48.11289160447621],[7.337379916288171,48.11289280796649],[7.337460860044825,48.11289523466651],[7.337473330340454,48.11289468535784],[7.337380626163332,48.11327678483422],[7.337421084280928,48.113338469486415],[7.337730365673838,48.11347974471961],[7.33776622840952,48.11349365443797],[7.337788482330132,48.11350572215911],[7.337830023897464,48.11346751338666],[7.3378652255816,48.11345206816757],[7.338087300554872,48.11340648995012],[7.338404880486694,48.11334072158819],[7.338448815658456,48.113336580065386],[7.338663440782718,48.11341167604038],[7.338922753197243,48.11349341670008],[7.339139296998003,48.11357547057309],[7.339274927302544,48.11365383582313],[7.339261920165456,48.11365440509193],[7.339370237010457,48.11372791856008],[7.339409576134739,48.11374809828897],[7.339926719236542,48.114112959739124],[7.340045598105375,48.11421672446928],[7.340155124195935,48.11427216861898],[7.340467551852517,48.114503982363125],[7.340662012287486,48.114610368779495],[7.340704331339496,48.1146340431215],[7.340872131238406,48.114710770646795],[7.340885843858355,48.11471387015367],[7.341030134474208,48.11473378665499],[7.341071124708957,48.1147412881471],[7.341186340466866,48.114767683153815],[7.341301260972656,48.11479048411131],[7.34141647695264,48.114816878892285],[7.341555991895959,48.11484418041687],[7.341635880015525,48.11486646979379],[7.34169907663014,48.11488216467609],[7.341856022003783,48.11492504512159],[7.341958855165877,48.114964512681574],[7.342036355587093,48.11499049463008],[7.342060949931596,48.11499499531643],[7.34212131564473,48.11500899191718],[7.342152015509151,48.115022279589525],[7.342240988574615,48.115056850575286],[7.342332645229337,48.115091322573974],[7.342505226217284,48.11535712488263],[7.342761786786416,48.11576041912527],[7.342850393398475,48.115888728600744],[7.34290224240501,48.11593007498861],[7.34293070271191,48.115948852276205],[7.34287954990738,48.11596344510727],[7.342852062019686,48.11594012593013],[7.342835462249308,48.115929743189795],[7.342740479028874,48.11578607792277],[7.342682838122354,48.115695558914915],[7.342564754005571,48.11551480436549],[7.342506993072956,48.11542609211347],[7.342460754156401,48.11534984233914],[7.342449276702208,48.115347742058894],[7.342420142212014,48.11530438660035],[7.342418378236278,48.11530093692312],[7.342431793206877,48.11530368674788],[7.3423352007774,48.115122410092965],[7.342131181657163,48.1150618895103],[7.34185532880347,48.11495426973504],[7.341613333830385,48.1148836125877],[7.341445206849918,48.11484222537497],[7.341296215019796,48.11480932502529],[7.341212231702663,48.11479124177053],[7.341087601623725,48.11476492336262],[7.341073994881229,48.11475983732501],[7.340909364123098,48.11473805692594],[7.340860807277988,48.11473182553484],[7.340786774414785,48.11469562156936],[7.340715297041694,48.114661035682936],[7.340454284201338,48.11452267557613],[7.340140246808774,48.11428109797325],[7.340028077683198,48.11423115841794],[7.339921928619414,48.11413818973487],[7.339894393491079,48.114120819615835],[7.339758514465598,48.11402471045182],[7.339622925110331,48.113930483001965],[7.339536743874791,48.11386759958698],[7.339444805338562,48.113790328687564],[7.339392599757205,48.11376260222576],[7.339356524211312,48.11373464202666],[7.339245492346118,48.1136542892832],[7.339124477353288,48.11358674080958],[7.33907543127862,48.11356962216934],[7.338996349151619,48.11354072266729],[7.338941782712027,48.11352029261895],[7.338661227684561,48.11342897056111],[7.33843503842812,48.11334907350757],[7.337834678056348,48.113481581019414],[7.337798607390409,48.11351102688976],[7.338179188016053,48.1136847322387],[7.338318056879943,48.1137304458021],[7.338528084715406,48.11380526076784],[7.33875884518855,48.11386705535833],[7.339030735161891,48.113947881973836],[7.339535728772165,48.11408131263538],[7.339523050236195,48.114080968618914],[7.339487791642537,48.1141759927959],[7.339496057120405,48.114204526852994],[7.339396896430484,48.11498952392029],[7.339380053415119,48.11515145989276],[7.339367445576451,48.115228977266575],[7.33935485852615,48.11530838639601],[7.339345551469806,48.11539659661191],[7.339323682792673,48.11556944197397],[7.339314544080864,48.11566134090212],[7.339291213525298,48.1157983721699],[7.339263687677792,48.11602522769081],[7.339205258143313,48.11648861575865],[7.339201792658242,48.11651523877852],[7.339275856750325,48.11656982714109],[7.340187397519719,48.11657644040057],[7.341432146710109,48.11657950883511],[7.341432257479868,48.11658085655944],[7.341487650736497,48.11666533072699],[7.341430251793828,48.11669727595972],[7.341432881149691,48.11669979255121],[7.3414062583435,48.11671483248042],[7.341402636221711,48.1167526363069],[7.341334206433585,48.11708103356337],[7.341307714844811,48.11726306171698],[7.341281878608991,48.1174072151254],[7.341256016472024,48.117546142482084],[7.341234581239843,48.11766688260634],[7.341216306990112,48.11779660838401],[7.341202908736556,48.11785793335794],[7.341181614822201,48.117978758351],[7.341154503107105,48.118094300373784],[7.341031358442877,48.11880997751662],[7.340965761167221,48.119141784241464],[7.340921487635883,48.11941044190434],[7.340937199250256,48.119423110648576],[7.340934842998036,48.119423918432155],[7.340988422340605,48.11946664380199],[7.34096569518791,48.11955039186064],[7.340895450482299,48.119580016251014],[7.340843252448977,48.11958193957533],[7.340843424826436,48.11958076166092],[7.340787918769635,48.119542432990926],[7.340453428978969,48.11954042801826],[7.340070355831104,48.1198120143421],[7.34059052947674,48.120101601889246],[7.340688303759637,48.12013017236368],[7.340773769228143,48.11999914283073],[7.340773761844132,48.11999905298259],[7.34081475612456,48.12000655453747],[7.34081489031082,48.12000654959324],[7.340814658858697,48.12000700872229],[7.342230460573031,48.12011696005775],[7.343563308689701,48.12022301379344],[7.343589763378962,48.12009298607301],[7.343608575033462,48.12003695859072],[7.343622447763924,48.11998634018078],[7.343646750749087,48.119872703539436],[7.343663005351192,48.11981668019354],[7.343682888007816,48.119722942870844],[7.3436797721909,48.119722697271],[7.343679757413081,48.11972251757507],[7.343798183258188,48.11965686922392],[7.345610740173896,48.119995565739494],[7.345687999001773,48.119953062868596],[7.34581009675472,48.11996478062878],[7.34585678914964,48.11999081532868],[7.345890447857018,48.12001057177418],[7.347315008184571,48.12006976194759],[7.347315000789437,48.12006967209988],[7.347315403346876,48.12006965724505],[7.347376389294126,48.120058394716864],[7.34738545435181,48.12010312050244],[7.347386602862736,48.12010235715558],[7.347468685729191,48.120497841400784],[7.347689453691267,48.12051132332389],[7.34783210068216,48.12051921659845],[7.347834180019696,48.120577177528794],[7.34783593605401,48.12061649542456],[7.348080630630402,48.12050860235133],[7.348084888676994,48.12050637242375],[7.348114708737336,48.1204925648315],[7.348158704993564,48.1204711144867],[7.348190022212088,48.1204591441497],[7.348190097225394,48.12045842041603],[7.349072968274542,48.12006201454325],[7.349199963998876,48.12022963709151],[7.349219632323195,48.12018898751789],[7.349257428581649,48.12011513512073],[7.349270120788598,48.12009601156452],[7.349311640775317,48.120039595210265],[7.349353400460727,48.11998118733054],[7.349398599098544,48.11991877727595],[7.34944178384545,48.11985806372259],[7.349626944427838,48.119597717844755],[7.349841770305814,48.11930374262025],[7.349968815035836,48.11930689216452],[7.350102270008022,48.11931106656337],[7.350248941596485,48.119315563854755],[7.350396657077806,48.119319661932515],[7.350438200241517,48.11932074132755],[7.350383093312456,48.119239955265144],[7.350237923069322,48.11840719201434],[7.350149881787034,48.11791342637514],[7.350048257177683,48.11733968415723],[7.349984450921251,48.1173003142814],[7.349984316742716,48.117300319236065],[7.349983750431448,48.11729997966385],[7.349979616144504,48.11727102326381],[7.34998176299987,48.11727094398936],[7.349980431130753,48.117254771401186],[7.350105142569569,48.117237819688434],[7.350447879550291,48.117248594414036],[7.35053823280309,48.11723444313141],[7.350722510791096,48.11721682296844],[7.350895906384515,48.11719780202021],[7.351005488430741,48.117188347439765],[7.351217489883704,48.117180517053875],[7.351370897015697,48.117180257902824],[7.351615841319606,48.11718022206258],[7.351814276798252,48.11717108930208],[7.35193161320197,48.11715774255205],[7.352062811508469,48.117149290838974],[7.352303739533091,48.11713318014426],[7.352410637636452,48.11712382340356],[7.352561657186738,48.1171272557545],[7.352736828768916,48.117129795512284],[7.352968058882692,48.11712665873956],[7.353045733921433,48.11712198609251],[7.353143692650018,48.11710214447187],[7.353386877122431,48.117048097272914],[7.353471565937816,48.11703054818144],[7.353629006744853,48.117013915196296],[7.353773622166225,48.11700496569766],[7.353862623614309,48.117007083593144],[7.353967726360199,48.117008606319615],[7.354040478409155,48.117009522233126],[7.354171689960496,48.117002870081635],[7.354179459959384,48.11706774052726],[7.35451272469184,48.11724440623571],[7.354607294665261,48.11728957593664],[7.354200979395907,48.11431977764293],[7.354148644233195,48.11433793398958],[7.354146911868817,48.11435773460463],[7.354130258164436,48.114361414307545],[7.354046611518152,48.11438992035483],[7.353918606508532,48.114433764340795],[7.353716072256394,48.11450244250429],[7.353570288574323,48.11454775427167],[7.353513309692532,48.11456509060674],[7.353458142528495,48.11458154886452],[7.353450762221383,48.11458344380474],[7.353407166920159,48.114593346122476],[7.353227673119464,48.11463134173753],[7.353030190870102,48.11467315605438],[7.352776514541302,48.114727140077186],[7.35251283311367,48.114783836366286],[7.352215275918996,48.11484917358269],[7.352068230627399,48.11489389916338],[7.351899781331132,48.11494509293405],[7.351872473051037,48.11495340162077],[7.351755730492755,48.115031073099225],[7.351680885805206,48.11508313431355],[7.351530174415044,48.11518792517984],[7.351363288374508,48.115303857474835],[7.351270687393694,48.11536910112637],[7.351157139102821,48.115398979860636],[7.350999415734727,48.11544644156886],[7.350832657065926,48.115495318220916],[7.350692387019216,48.1155357362688],[7.350572299927601,48.11555486113819],[7.350480399640061,48.115568168492466],[7.350254597491968,48.11560444497547],[7.350024769804461,48.11564086966653],[7.35001720325838,48.11564214041058],[7.35001666755149,48.11564053801415],[7.349857434070632,48.11566804701986],[7.349805783901241,48.11565859899178],[7.349805851486871,48.115657785406945],[7.349821049910536,48.11562171651263],[7.349883696929998,48.11562742398349],[7.349889809756606,48.11562647729158],[7.349889705177866,48.11562684163739],[7.35068126257801,48.11550361341713],[7.351008378528981,48.11540330299214],[7.351190166084121,48.11535062658243],[7.351241682469343,48.11533394381778],[7.351382797199181,48.11523680767366],[7.35158738300253,48.11509821407745],[7.3518464567561,48.114918584639895],[7.35220613182016,48.1148198615435],[7.353433833780447,48.11455766388761],[7.353433677394915,48.11455739930324],[7.353434601784146,48.11455718489778],[7.353539717294145,48.11452626367936],[7.353615609486921,48.11450327164489],[7.353716632129702,48.114473312619204],[7.353969317363868,48.11437304073787],[7.354103529710934,48.11431797243865],[7.354151394533291,48.11429619625317],[7.354024832869946,48.11334198266814],[7.354028187072726,48.11334185868639],[7.354008677044353,48.11318189332539],[7.354003727650257,48.11318225651295],[7.353904912624822,48.11243727007865],[7.353917665783583,48.112436888807935],[7.353894714733721,48.11225965710032],[7.35388147679242,48.11226068713942],[7.353776712467627,48.111469597710176],[7.353786662772769,48.111469500287804],[7.353768477887961,48.11132886188884],[7.353665414384658,48.11058286004044],[7.353645517413096,48.11043940095459],[7.35354010458743,48.109661582467915],[7.353532971997985,48.10959299318306],[7.353534053553783,48.10959142113945],[7.353526676789769,48.10956069195865],[7.353522306340937,48.10953868357809],[7.353496194327163,48.1093540882855],[7.353562803351839,48.10935243739322],[7.352591399277385,48.10213533671175],[7.352504818873778,48.10212637013486],[7.352726737270059,48.10214655663915],[7.352756013464959,48.10233860605446],[7.352853566662393,48.10307850684217],[7.352873373681961,48.10322746734572],[7.352990500484838,48.10414121041737],[7.352997444561248,48.10419773056201],[7.353016100290786,48.10432780791449],[7.352983392833551,48.10432604278852],[7.352995742879311,48.10440408249583],[7.353003430167163,48.10447778844389],[7.353035884232814,48.10447974317704],[7.353055738501007,48.10462599814687],[7.353088143275891,48.1048657863401],[7.35310809293566,48.105001763855505],[7.353111662671687,48.10502875859569],[7.353130350621726,48.105169018458916],[7.353092665274527,48.10516563489738],[7.353110639375736,48.105276000680625],[7.35312657822808,48.10538779350882],[7.353158614712798,48.105391205611674],[7.353175906417183,48.105509617442756],[7.353232356552537,48.105935068925184],[7.353236253319706,48.105977462393],[7.35320898573898,48.10597477525176],[7.353241758633255,48.10622554449824],[7.353272856581933,48.10622899127696],[7.353304503440494,48.106454658120384],[7.353273390550354,48.10645103165421],[7.353306090611313,48.10668621244973],[7.353337471944656,48.106689828989694],[7.35343707621155,48.1074838151117],[7.353453788836796,48.10762784276238],[7.353459279174516,48.10767324142311],[7.353517121698768,48.10802735458782],[7.353521490597008,48.108065675073206],[7.353594362159606,48.10862011387397],[7.353643721967687,48.10899373628275],[7.353690106260028,48.10934430732542],[7.353710845690855,48.1095143212406],[7.353717508602823,48.10955598151867],[7.353767433785406,48.109934809863304],[7.353822303527879,48.11035076568957],[7.353829719725946,48.110419524699985],[7.353848106561616,48.11057241223946],[7.353938800006538,48.111318510787],[7.353969348085305,48.11154710140971],[7.353987447321351,48.11168179492512],[7.354059711022312,48.11222057379742],[7.354116272832905,48.11260312153498],[7.354190622431138,48.113106765744085],[7.354223741458949,48.11334039799522],[7.354242024004086,48.11346913656674],[7.354260098409201,48.11359698160731],[7.354318154898675,48.114005789205564],[7.354353917142223,48.11424698393388],[7.354811096004768,48.114127975742],[7.354806795576486,48.113568120061366],[7.354662219450691,48.11270730735447],[7.354485689085183,48.111928965074284],[7.354421418993597,48.11165863320114],[7.354389678422474,48.11152498472605],[7.354283428574018,48.11107839476398],[7.354152634662907,48.110538084261115],[7.354101981069142,48.11031699586663],[7.35415048962685,48.110311237341215],[7.354148345154077,48.11029338241272],[7.354151555504748,48.11031110781798],[7.354202434505855,48.11030472091433],[7.354276106805298,48.110295688948256],[7.354272776869139,48.11025039074756],[7.354248615321836,48.109909903175655],[7.354188970209228,48.10896583053988],[7.354197180248468,48.10848094257297],[7.354213078935712,48.10809913986012],[7.354293885200613,48.10806731358396],[7.354316421036959,48.10801420982733],[7.354341522300717,48.107802847505866],[7.354343295924532,48.107803142422455],[7.354356745133252,48.10768224250405],[7.354367888580327,48.10758071388064],[7.354399057420823,48.10729603836171],[7.354417497068826,48.10718018095145],[7.354474215709825,48.10682021018998],[7.354494815862468,48.106591800762544],[7.354514732566368,48.10637305959967],[7.354524410596179,48.106265186378025],[7.354548021869133,48.10612065911846],[7.354614091737965,48.105717444184066],[7.354622779325802,48.105664491768984],[7.354641881250699,48.10554851955008],[7.354660325467468,48.105435996268056],[7.354678059297609,48.10532791521348],[7.35470360640594,48.10517096951674],[7.354716766786182,48.10505801070319],[7.354713697271407,48.105041992366225],[7.354791225063471,48.10446928441159],[7.354806780668673,48.10436416769315]],[[7.354782435958106,48.104445907309646],[7.354718601712272,48.104268924827785],[7.354782689437776,48.10444571769296],[7.354791225063471,48.10446928441159],[7.354782435958106,48.104445907309646]],[[7.339534085876802,48.11382705316736],[7.339420943723838,48.1137472289214],[7.339479343294008,48.11377499755187],[7.339534085876802,48.11382705316736]],[[7.339805506414858,48.0960076047992],[7.339615837852976,48.0959963902566],[7.33953250822156,48.0959908095072],[7.339615830474282,48.09599630040697],[7.339805506414858,48.0960076047992]],[[7.339796784326666,48.096040640377375],[7.340656501129623,48.09611015933733],[7.341321920329501,48.096162863157204],[7.340656650016229,48.09611033409233],[7.339796784326666,48.096040640377375]],[[7.347971434795912,48.120279220019334],[7.348114739372402,48.12049130201208],[7.348037611160543,48.120380055898764],[7.347971434795912,48.120279220019334]],[[7.352041915953921,48.09713043425354],[7.352221037940916,48.09845582090038],[7.352023135322479,48.098437900706045],[7.351863590772264,48.09728482515024],[7.352020159608514,48.09712763343057],[7.352041915953921,48.09713043425354]],[[7.35351796436878,48.10961499683376],[7.353518315015402,48.10961435302202],[7.353528645774156,48.10959928135742],[7.353528653178381,48.109599371205356],[7.35351796436878,48.10961499683376]]],[[[7.362000954646908,48.101244202169035],[7.361972745003672,48.101099698951884],[7.360377191899826,48.10124845863872],[7.360262710482234,48.100651940360585],[7.360154145804632,48.10064884027219],[7.360046826110547,48.10064452239726],[7.359940021419501,48.10063829278474],[7.359832964688428,48.10062900824044],[7.359728802432585,48.10061240664055],[7.359627146418065,48.10059030481727],[7.359529689237005,48.10056038705607],[7.359432672337778,48.10052928132631],[7.35933714656792,48.10049667836181],[7.359309878320647,48.100484169383925],[7.359278360125333,48.100477225072645],[7.359245266553657,48.10047727850322],[7.359213660459862,48.10048394592999],[7.35918646315337,48.100496758727516],[7.35916668560971,48.100514704218675],[7.359102563822153,48.10059692628721],[7.359085696568417,48.100622424448424],[7.359073366953752,48.100649106482074],[7.359067020825271,48.100676558381515],[7.359064631333509,48.100704674927066],[7.359067719163788,48.100732318360826],[7.359076157601306,48.10075958349557],[7.359310116703499,48.10134158606589],[7.359362960954013,48.101473281567],[7.360027037186564,48.10141562254483],[7.360343920627846,48.10138820888466],[7.360403098715924,48.10138304372698],[7.360437162813686,48.10138007013584],[7.360771521384985,48.10135083667509],[7.360806390263589,48.101347833175296],[7.361207028200275,48.101313079984585],[7.362000954646908,48.101244202169035]]]]}}]}
