{"type": "FeatureCollection","name": "aoc_geojson","features": [{"type":"Feature","properties":{"dt":"Bordeaux","type_prod":"Vins","categorie":"Vin tranquille","type_denom":"appellation","signe":"AOC","id_app":64,"app":"Premières Côtes de Bordeaux","id_denom":123,"denom":"Premières Côtes de Bordeaux","insee":"33510","cvi":"1B153D","nomcom":"SEMENS","insee2011":"33510","nomcom2011":"SEMENS","id_aire":122,"crinao":null,"grp_name1":null,"grp_name2":null},"geometry":{"type":"MultiPolygon","coordinates":[[[[-0.244037831269716,44.61235937258449],[-0.24403077704276,44.612315700164956],[-0.244024207613905,44.61227606808953],[-0.244004813349638,44.612158243866645],[-0.244003079568258,44.612147842973116],[-0.243999596478548,44.61212677133687],[-0.244113817951062,44.61212792255642],[-0.244138682231923,44.612128183573894],[-0.244177177534928,44.61212858493665],[-0.24537734253524,44.61214100068402],[-0.245367768024061,44.61216750155694],[-0.245363309346499,44.61217988637409],[-0.245342651072037,44.612237347438494],[-0.245362930295284,44.61223684184758],[-0.245374263612071,44.61223650893506],[-0.245782965063686,44.61222576410856],[-0.245797053203428,44.61222507991465],[-0.245804876133588,44.6122251203934],[-0.245816148311783,44.612208390699685],[-0.245821028032176,44.61220112929544],[-0.245829053961543,44.61218936046961],[-0.245834049245779,44.61218191546597],[-0.245839049707924,44.61217456041179],[-0.24585698486397,44.612179349501524],[-0.245912239305568,44.612192592961655],[-0.245931423370985,44.612197165143556],[-0.246007343573538,44.61221223414906],[-0.246084236579427,44.61222448136469],[-0.246156853324972,44.612236944274095],[-0.246270338622543,44.61224063775512],[-0.246462224380002,44.61219075942815],[-0.246488940938458,44.61218375734132],[-0.246507707042287,44.61217888101143],[-0.246551627945442,44.61218587975656],[-0.246658817693345,44.612202912705584],[-0.246795751349505,44.61218447233632],[-0.246912844961245,44.6121829233091],[-0.24709524997138,44.61216774140735],[-0.247120105496052,44.61216565936353],[-0.247254103379301,44.6122013658376],[-0.247403512066996,44.612228690217144],[-0.247397804938849,44.6122412920293],[-0.247401443289883,44.612245329774325],[-0.247411823553037,44.612256918116586],[-0.24742099276298,44.612267190526325],[-0.247452801702546,44.612263192088676],[-0.247470730069541,44.61233573775329],[-0.247481138830686,44.61235876819486],[-0.247517089176088,44.61243979431331],[-0.247597913869934,44.612581581587676],[-0.247713306117018,44.61273658879673],[-0.247717546692652,44.61274232076763],[-0.247724518277463,44.61275166663758],[-0.247643436487693,44.61272584816528],[-0.247631229892185,44.6127219721874],[-0.247626991397781,44.61272065514675],[-0.247606089125998,44.61271910711862],[-0.247417342586914,44.613237335064824],[-0.247310255556953,44.61352430368893],[-0.24731015035525,44.61352466718876],[-0.247293815307627,44.613541095344274],[-0.247291909266227,44.61354304350634],[-0.247266868495593,44.61356819711332],[-0.247247319887464,44.613587963381654],[-0.247240909930941,44.6135927469755],[-0.24709342724106,44.61370403252965],[-0.24701766101818,44.61375518458948],[-0.246835889593736,44.613858106879974],[-0.246629765289928,44.61396967344311],[-0.246614125714007,44.613995992266545],[-0.246610332681257,44.61400241085967],[-0.246589985863318,44.614036796971114],[-0.24650219382229,44.61418579231515],[-0.246476512021683,44.614204206922324],[-0.246462222118977,44.614214538023525],[-0.246177120078052,44.61445736015816],[-0.245922984970836,44.61467719678306],[-0.245795587271422,44.61478906175164],[-0.245786204868683,44.61479699604304],[-0.245755521849482,44.61482276554657],[-0.24556678302372,44.61498661899123],[-0.245483127384322,44.615058544920636],[-0.245173274497709,44.61532515741722],[-0.24504021945992,44.6151876053656],[-0.244914688863688,44.61507118634033],[-0.244850321962779,44.615011447035876],[-0.244777010341554,44.61494314040425],[-0.244513965372998,44.61468614592915],[-0.244495252936798,44.614667864144664],[-0.244937383569257,44.61431717807723],[-0.244779312812797,44.61418108137078],[-0.244292499718384,44.61446991745865],[-0.244031655323055,44.61422258839145],[-0.24393354342834,44.61408058536429],[-0.243690205415521,44.61369461559763],[-0.243635511835093,44.61360783147927],[-0.243827111379308,44.61356382292288],[-0.243781922570149,44.61346027119335],[-0.243741024200334,44.61336551356487],[-0.243576354964922,44.613406208524715],[-0.24351565751189,44.61342114531088],[-0.243384044289693,44.613209846063164],[-0.243321387117292,44.61310960015012],[-0.243290213828729,44.61303257725762],[-0.243271995667946,44.612987790886734],[-0.243237301695078,44.612858342031245],[-0.243214965974932,44.612720060839756],[-0.243207958915686,44.61265088820831],[-0.243206837650651,44.61259631948316],[-0.244035222563694,44.61256172760885],[-0.244037831269716,44.61235937258449]]],[[[-0.24115827647582,44.60484878191553],[-0.241101516801027,44.604813595797694],[-0.241121252483625,44.60479490638589],[-0.241065067109605,44.60476312725314],[-0.241093590829077,44.60473715210538],[-0.24113087812874,44.604758313129494],[-0.241223066981348,44.60468361729059],[-0.24124102073668,44.60466903469963],[-0.241294162691878,44.604625938723274],[-0.241339115096786,44.60458957031492],[-0.241362496808776,44.604570683773666],[-0.241612545286634,44.604368006770045],[-0.241737935341857,44.604267558320736],[-0.241378072945579,44.60410233049891],[-0.241213642976904,44.60423888332027],[-0.241013608305216,44.6044054931258],[-0.2407678550286,44.604263855696495],[-0.240678526394166,44.604212775923834],[-0.240636561868059,44.604195806536225],[-0.240559193793165,44.60416410798321],[-0.240503952569883,44.604245287920556],[-0.24050197756974,44.604248229097806],[-0.240205343972352,44.60449623934263],[-0.240166122527228,44.60452919552578],[-0.240162210854601,44.60452696762733],[-0.240117601762551,44.60448592846355],[-0.239718775401514,44.60411884004899],[-0.239718649493524,44.60411884374157],[-0.240038043316079,44.603928913294745],[-0.240046462136606,44.60392398109996],[-0.240022527158235,44.60390251821731],[-0.240022647896531,44.60390242457474],[-0.240247716820395,44.603767608868],[-0.24006908616729,44.603545162562696],[-0.240618814017884,44.60336919743327],[-0.240715764814959,44.60333788122685],[-0.240799943649689,44.60331036348322],[-0.240966766158447,44.60325275990087],[-0.240989136315271,44.60324480536902],[-0.241118902076563,44.603198560317175],[-0.241159590825171,44.60318457208831],[-0.241301508904844,44.603134726604736],[-0.241594105977065,44.603033876968844],[-0.241601837925593,44.60303455108633],[-0.241611605048069,44.6030355258857],[-0.241716834183026,44.60304072717364],[-0.241773876136367,44.603043558256054],[-0.242034210198631,44.60305718189374],[-0.24207798038591,44.603059501320956],[-0.242604217852488,44.60310901831506],[-0.242919947290555,44.60314507084133],[-0.243302231227665,44.60318925977574],[-0.243462123032806,44.603234841724564],[-0.243738485264161,44.60331439550495],[-0.243924181721814,44.60336786880287],[-0.244405658181307,44.6035073516275],[-0.244642634721209,44.603575265591324],[-0.244525721086622,44.60372646596792],[-0.244362478374865,44.603973363126876],[-0.24426767789727,44.60411436299424],[-0.24417278558088,44.60425815861674],[-0.244102585715879,44.60436203486939],[-0.243972144134756,44.60457408997588],[-0.243740837726612,44.60494894672896],[-0.243567948384417,44.60523216647538],[-0.243547868588235,44.60528213166053],[-0.243352591564883,44.60579666816239],[-0.243324666955141,44.60586812757689],[-0.243218823590488,44.606139557234144],[-0.243171942753215,44.60625860610634],[-0.243109101767997,44.60641812856614],[-0.243060123051245,44.60654237476313],[-0.243014545537011,44.606657781246945],[-0.242543146452649,44.60650312896753],[-0.242554409857726,44.60648405725837],[-0.242144441632596,44.606329492352714],[-0.242114833972506,44.606288374017005],[-0.242040023328077,44.60618497066996],[-0.241868910360815,44.60595753062654],[-0.241832271104265,44.6059125640195],[-0.241809159253971,44.60588350878824],[-0.241779960674001,44.60584949639063],[-0.241748925175773,44.60581643890551],[-0.241660606741161,44.605725955841194],[-0.241632582726408,44.60569920715791],[-0.241573597442644,44.605645075151884],[-0.241513021972533,44.60559180069239],[-0.241504906967934,44.60558447029522],[-0.2414717070191,44.60555544071717],[-0.241436801237716,44.60552745229901],[-0.241400441446315,44.6055004976501],[-0.24176223644015,44.605177139293886],[-0.241604778677502,44.60509499224836],[-0.241655023224044,44.605047566149715],[-0.241664473605126,44.60503863909897],[-0.241630802704622,44.60502115637752],[-0.241391765370622,44.60486697921459],[-0.241365351157643,44.60489235193722],[-0.241312050049559,44.60494365183957],[-0.241304462862062,44.6049389188853],[-0.241239350028415,44.60489884214931],[-0.24115827647582,44.60484878191553]]],[[[-0.239546673432823,44.604222908520384],[-0.239527871608732,44.604198591957584],[-0.239528002685344,44.60419867821489],[-0.239546799341058,44.604222904828],[-0.239546673432823,44.604222908520384]]],[[[-0.229692250142771,44.60797835929395],[-0.229713376550329,44.607862772895466],[-0.2294482760851,44.60780808287279],[-0.229347076578493,44.607805094497984],[-0.22929280738117,44.60779568855895],[-0.229396289816388,44.607365134863905],[-0.229403809020711,44.60731364765721],[-0.229341273321533,44.60730304179359],[-0.229253643710879,44.607288123773344],[-0.229088928368329,44.607259601150645],[-0.229000484735768,44.607525551123615],[-0.22900036397142,44.60752564475427],[-0.228841303990894,44.60749677624227],[-0.228692149826716,44.60794479216491],[-0.228658250354295,44.60804660577117],[-0.228658124436814,44.60804660945115],[-0.228692023909464,44.607944795844915],[-0.228841298839201,44.60749668629199],[-0.228362359907061,44.60741238333715],[-0.228442174863505,44.60714767724225],[-0.228508752562957,44.60690290982898],[-0.229008262454031,44.606983096810836],[-0.229371827827432,44.607041576891966],[-0.229449187389829,44.607013726814564],[-0.229586053438372,44.60696782880624],[-0.229591020685131,44.60693344525867],[-0.229612058252514,44.60679209266945],[-0.229622267363383,44.606721515529216],[-0.229626138730703,44.60669662461126],[-0.229695154042108,44.60639763447896],[-0.229752992376217,44.60616114068166],[-0.229766479194237,44.6061015501143],[-0.229829808989482,44.60610402340151],[-0.230601274417292,44.606198055938606],[-0.230580336745298,44.60630588830543],[-0.230858543846071,44.6063428927124],[-0.231038764625652,44.60636690459519],[-0.231242093138439,44.60625274627659],[-0.23139452027717,44.6062913559703],[-0.2313782218314,44.606367877908056],[-0.232085762905428,44.60637195720453],[-0.233009766136149,44.60640078212951],[-0.233460531986129,44.60647327534079],[-0.23360004318603,44.60647576917838],[-0.233715825878983,44.606477966312276],[-0.23387156755994,44.606481966931185],[-0.233943817192301,44.60648381636067],[-0.234017524990838,44.60651328408346],[-0.234172948720655,44.60657549888482],[-0.234278284865555,44.60661764574673],[-0.234373916484653,44.60660934972865],[-0.234478567429169,44.606599978642],[-0.234624887552605,44.606587044753134],[-0.234670019421686,44.60658887681271],[-0.234755598551467,44.606592227543175],[-0.234940538224703,44.606599516357576],[-0.235018662662656,44.60660263467554],[-0.235130839531967,44.60660133188361],[-0.235172558303168,44.606600830960154],[-0.235578513835291,44.60659569933063],[-0.235642786653238,44.606594807948966],[-0.235654005449793,44.60664304387557],[-0.235663219966558,44.6066915187093],[-0.235670654200338,44.606741937811634],[-0.235685614079741,44.60677844111551],[-0.235702330216098,44.606799395578875],[-0.235719692562849,44.60682501637301],[-0.235727671021734,44.60684316332034],[-0.235731816941393,44.60688683105032],[-0.235880453045959,44.60689446084361],[-0.235927635973348,44.606896863028105],[-0.235964956274249,44.6068988332814],[-0.236061100439256,44.60690385577007],[-0.236145100037819,44.60690824282382],[-0.236227079854745,44.60691259888154],[-0.236283637280455,44.606915717405975],[-0.236449038830713,44.6069253781268],[-0.236486992706057,44.606923004785884],[-0.236559438789755,44.60691727826869],[-0.2366887691677,44.60690718204446],[-0.236645960828884,44.60605607900688],[-0.23757377677874,44.60603051305022],[-0.238270334217252,44.60612885015154],[-0.238883483880262,44.60632964082888],[-0.238882936870349,44.60635524563297],[-0.23906361998153,44.606448699080694],[-0.23909796434821,44.60636155523689],[-0.239559076700875,44.60594888524552],[-0.239466830279417,44.605890952177994],[-0.239280904587052,44.6057764793671],[-0.239295054125867,44.605763720585585],[-0.239203706574903,44.60571044622866],[-0.239012454208017,44.605617393096786],[-0.238870681279387,44.605533791221575],[-0.238625662433104,44.605380774690005],[-0.238579086537088,44.605351595827806],[-0.238501768086684,44.605298810663676],[-0.238525687591127,44.60527828716555],[-0.238480390250022,44.605245016229105],[-0.23836729370811,44.605162194916666],[-0.23822286175874,44.60505641523621],[-0.238164014743732,44.60500462011834],[-0.23809679121464,44.60494532180665],[-0.238170827863646,44.60490584968407],[-0.238043983306259,44.60485154265639],[-0.23788014732711,44.60478120051279],[-0.23792507753844,44.604748798661646],[-0.238215282892908,44.60455116964599],[-0.238570156707159,44.604309116184716],[-0.239002963234594,44.604012067259085],[-0.239128816601061,44.603926204708955],[-0.239249565856024,44.60401492764165],[-0.238901007727681,44.60425706852294],[-0.239376928655019,44.60455459343315],[-0.239562359726683,44.60441688699988],[-0.23959437652937,44.6043924316419],[-0.239638208207688,44.60444628817955],[-0.239602487932559,44.604476528539095],[-0.2390677569539,44.60493352483688],[-0.23934590643167,44.605114401236186],[-0.239423262943954,44.60504491728055],[-0.239700057541164,44.60479613956915],[-0.239726614749014,44.604812750266234],[-0.239829834096716,44.604877299031095],[-0.239990871727157,44.60497790437455],[-0.239724252688478,44.60521719409295],[-0.239740685979054,44.60522662329292],[-0.239834451399685,44.60528027678281],[-0.240033905199862,44.60510125230434],[-0.240135282171922,44.605155673406216],[-0.240137626099287,44.6051569561764],[-0.240141144575282,44.60515892530641],[-0.240203864982148,44.605192495457075],[-0.240788117207431,44.60555981937503],[-0.241012315972953,44.605348351437094],[-0.241046002389951,44.605366104198175],[-0.241213696642687,44.60545299738035],[-0.241269494712095,44.605484607630004],[-0.241336450147495,44.60553039680126],[-0.241545105334926,44.60570231468107],[-0.241607635075228,44.605758865535485],[-0.241661604732758,44.60581350511627],[-0.241724184306256,44.60588627270514],[-0.241822585590702,44.606009527066014],[-0.241923061898043,44.606149118922524],[-0.242131259663392,44.606462148142356],[-0.242181373389116,44.60653744381481],[-0.242226155968945,44.60660118274569],[-0.242272911881813,44.606664142935074],[-0.24230180244962,44.606697173158494],[-0.242327923053598,44.6067237072671],[-0.242355628828403,44.60674929383086],[-0.242385045688541,44.606773929152894],[-0.242416052894245,44.606797706877124],[-0.242515841390689,44.60685730839609],[-0.24287021203599,44.607027559997114],[-0.242770356535889,44.60729133502501],[-0.242752655594889,44.60734321246922],[-0.242720255946463,44.60752328530542],[-0.24268556018717,44.6077138773118],[-0.242654966203887,44.607879300695245],[-0.24262928823076,44.608018360237246],[-0.242611902110791,44.608115189084636],[-0.242609248841195,44.60815238879248],[-0.242608257447146,44.608275496583126],[-0.242608253601749,44.60831270862951],[-0.242619494080357,44.60837436855917],[-0.24264256551689,44.608448745952764],[-0.242664398786813,44.608497210443495],[-0.242694366629316,44.608555527536936],[-0.242711648108068,44.608588447958695],[-0.242783972175535,44.60872309920641],[-0.242858028400376,44.60885715896956],[-0.242268145827664,44.608960789870544],[-0.24221333830326,44.608970597601825],[-0.242144137891864,44.609265278263145],[-0.242117920413777,44.609375250739085],[-0.243127542597158,44.609608713730495],[-0.243106846434238,44.60984971237015],[-0.243063096791569,44.60985442051078],[-0.24149376912369,44.60952574467148],[-0.24147900904038,44.60952131226294],[-0.241189013510723,44.609437646741256],[-0.240902135804762,44.60935334841442],[-0.240616183581601,44.6092675806001],[-0.239843609742214,44.60904561449712],[-0.239115735030889,44.60886170694126],[-0.239072585370234,44.60885270051103],[-0.239043084726451,44.60884635733572],[-0.238953333489158,44.60883412199494],[-0.238934169916098,44.60883207089611],[-0.238896796553937,44.608829202145124],[-0.238859002205969,44.608827787345874],[-0.238821552716129,44.608827984248286],[-0.238784059990167,44.60882962402751],[-0.238746655111388,44.608832792941925],[-0.238668724583379,44.608844087693946],[-0.238642172626779,44.608849551350794],[-0.23859126615619,44.60886140534202],[-0.238541192685574,44.6088745864107],[-0.238410865391802,44.60891570877805],[-0.238267155676384,44.608961007510004],[-0.237714961244436,44.609121444276646],[-0.23756016825593,44.60916265191188],[-0.237435807579796,44.609189091926076],[-0.237312142958386,44.60920569035687],[-0.237231645493063,44.60921183341706],[-0.237209897571845,44.60921310139216],[-0.237174514184279,44.60921413820051],[-0.237139153413322,44.60921337230859],[-0.237103846252508,44.6092113434162],[-0.237068697963856,44.60920768803398],[-0.237034096638743,44.60920257499342],[-0.23694802028971,44.60918185092107],[-0.236838098265827,44.60915002216973],[-0.236483516479281,44.60902651997628],[-0.236391544647853,44.60899317381851],[-0.236275363126234,44.608951166256695],[-0.236016184730737,44.6088570340022],[-0.235718086617485,44.60874845358265],[-0.235654426960379,44.60872490954678],[-0.235479667088592,44.60865776667748],[-0.235453827790749,44.60864708057314],[-0.235387111295583,44.60862741016613],[-0.23535785988442,44.608618806194265],[-0.235389096945949,44.60856310985395],[-0.235419971678412,44.608507694419146],[-0.235453605102333,44.60844760302067],[-0.235469099289426,44.60845165430535],[-0.235520468850522,44.608359958531274],[-0.235435131223324,44.60833668887283],[-0.235067352052729,44.60823582391409],[-0.234917512966546,44.60851502019382],[-0.234889401183444,44.60851088779073],[-0.234861004555058,44.6085083855425],[-0.234833949691666,44.60850728561751],[-0.23479386644287,44.608507738482864],[-0.234753991690954,44.60850962684757],[-0.234718218572497,44.608512656518236],[-0.234648269026504,44.60852236322227],[-0.234481433712056,44.60855373767893],[-0.234419283783887,44.60856528820559],[-0.233853771513013,44.60867176437358],[-0.233650059705465,44.60870673983025],[-0.233556003488498,44.6087205752804],[-0.233437972219448,44.60872763396898],[-0.233337623233536,44.6087329136014],[-0.23322042691336,44.608739136709346],[-0.23286062362485,44.60873993534038],[-0.232378972584674,44.60873402645738],[-0.23219986664858,44.60873620329127],[-0.232052319906072,44.608736645640526],[-0.231847485257368,44.60873885380512],[-0.231514881230795,44.6087432673172],[-0.23145893934335,44.60874211052247],[-0.231353682075141,44.6087343771674],[-0.231299584762354,44.60873019300587],[-0.231356609886367,44.608468583627555],[-0.231342448149362,44.60847016916523],[-0.23113441960892,44.60849805814043],[-0.231090875862417,44.608708816520334],[-0.230804120178939,44.60865710555216],[-0.230710807730311,44.60863550712288],[-0.230643191595398,44.60861991475463],[-0.230453907263311,44.60857652501836],[-0.230220678484083,44.60852342756305],[-0.229987992124283,44.60846878205461],[-0.229902816372587,44.60844829658252],[-0.229965580461462,44.60816786944992],[-0.229665479967245,44.608107715923076],[-0.229692250142771,44.60797835929395]]],[[[-0.228715516126891,44.61835348429074],[-0.228570436549907,44.61864190282597],[-0.228598270123592,44.618645504508244],[-0.228866947062127,44.61870009375589],[-0.229404045463025,44.61880918770686],[-0.229538646456303,44.618617572693665],[-0.229609622216224,44.6186431592878],[-0.229943541940496,44.61877296569455],[-0.230080033106042,44.61882790201922],[-0.230183343082701,44.618869572188785],[-0.230628215085404,44.61904226491335],[-0.230718070689847,44.61908468838873],[-0.230794341659192,44.61913660923722],[-0.230899072076016,44.61919643771969],[-0.231023295278294,44.619283807752204],[-0.231034439438518,44.619295555469115],[-0.231232512498512,44.619500420455985],[-0.231392932383948,44.619620609747834],[-0.231477644265539,44.619665705923204],[-0.231695098686559,44.6197244895774],[-0.231935948572011,44.61977105553954],[-0.232158595499053,44.619801574780794],[-0.232381038853953,44.619815340664005],[-0.232550863361874,44.61984208834983],[-0.233501585744859,44.620040335889456],[-0.233585243181596,44.62006041315658],[-0.233679701879753,44.62008404863223],[-0.234044031656666,44.62014988221749],[-0.234174532471842,44.62015525299559],[-0.234405780354672,44.62013334724327],[-0.23505676979176,44.62004148790281],[-0.23559327259547,44.619966131984484],[-0.236791141007088,44.619777606137205],[-0.237004765865137,44.61976080629471],[-0.23812649013549,44.61967216662864],[-0.238167428637025,44.619668894567255],[-0.238199702919279,44.61966632691266],[-0.239943262831708,44.61933445923027],[-0.240081758690547,44.6193099450706],[-0.240439242121774,44.61922810129979],[-0.240599177998524,44.61917935103855],[-0.240997703791774,44.61903025707415],[-0.241303377373343,44.61890307712228],[-0.242202778230675,44.618368875822405],[-0.242315609075998,44.61830177285566],[-0.242347445544656,44.618436351869605],[-0.242521154943351,44.61839025801949],[-0.242733251545964,44.61833384692653],[-0.243013189428356,44.61825940613783],[-0.243226534087527,44.61820277723786],[-0.243229618682743,44.61806564169028],[-0.24323355031018,44.61788622349412],[-0.243840607693525,44.61767171068963],[-0.244236212281763,44.61750944535155],[-0.244308896225683,44.617720222094846],[-0.244413075674772,44.617686978945265],[-0.244406995109049,44.61771941398896],[-0.244405045867462,44.61772938243963],[-0.244397475299522,44.61778853141253],[-0.244394591309004,44.617812943623015],[-0.2443771473866,44.617950410801875],[-0.244272009492805,44.61878234590494],[-0.244251396680563,44.61878367194005],[-0.244193221699758,44.61923048383283],[-0.24416668427455,44.61943354196629],[-0.244102861543838,44.619900612452284],[-0.243830783762513,44.62041425261954],[-0.242416933677209,44.620740831954265],[-0.241936891439979,44.619703157306425],[-0.241524816009454,44.61976146900797],[-0.241719153578603,44.620503883915966],[-0.240712059280614,44.620820129037035],[-0.23932809550246,44.621149125355544],[-0.239228845648386,44.62099390615309],[-0.239103608934609,44.620761870996205],[-0.238830239815554,44.62044596813759],[-0.238739810950498,44.62047934339241],[-0.238659695304217,44.62051656097588],[-0.238105146155164,44.62073238863447],[-0.23778709661754,44.620848659249624],[-0.237028202228654,44.621124439703905],[-0.236704180314054,44.621242233575344],[-0.235869274173084,44.62154564094997],[-0.235741856001496,44.621427014093285],[-0.235545284887926,44.62128608455471],[-0.235488443924532,44.62124531102252],[-0.235193181358242,44.62107735686567],[-0.234714304136549,44.621106243152006],[-0.234664265287555,44.62110923968693],[-0.233462546069881,44.621092692977946],[-0.233461591419219,44.62120579837191],[-0.233460922417687,44.62127330401973],[-0.233465129180167,44.621799644420484],[-0.233466084038998,44.62193503916354],[-0.233466365067351,44.62198611854137],[-0.233466294747172,44.62199368913268],[-0.233463776661695,44.622068547137786],[-0.233459754357297,44.62208199987344],[-0.233447088651851,44.622122916210806],[-0.23344524376654,44.62212594354776],[-0.233412559274833,44.62217636571893],[-0.233404752369853,44.622185424115045],[-0.233270880005918,44.622253313430924],[-0.233204250476767,44.622279410214524],[-0.232997415927912,44.62230699614344],[-0.232883722232541,44.622346182901275],[-0.232489458034595,44.622013799330794],[-0.232106498087409,44.621695860536654],[-0.232687147682242,44.62133847156961],[-0.232412543814944,44.62105763935172],[-0.232291512982889,44.620935848588765],[-0.232195918579102,44.62083962331242],[-0.231243682755159,44.62134131655522],[-0.230909821028257,44.621518757658286],[-0.230851162977506,44.621430821799734],[-0.230786511212838,44.621343962176795],[-0.230728405223778,44.62126565098263],[-0.230667301711275,44.621183462940515],[-0.230633480929068,44.621137058399405],[-0.230589247887408,44.621076271734374],[-0.230393759987521,44.62080870932169],[-0.230140435398554,44.62066339302533],[-0.229993027649275,44.620585349349994],[-0.229599430691552,44.62037637590698],[-0.229579476942736,44.620373805559254],[-0.229576789276754,44.62037974070081],[-0.229548630925786,44.62044534656618],[-0.229129217825411,44.62032740759996],[-0.228862214731634,44.62026033582805],[-0.228844015341098,44.62038088258435],[-0.228811397955959,44.620494192030144],[-0.228735827864166,44.62060866644057],[-0.228684833456783,44.62071170065907],[-0.228646049828773,44.62079005071173],[-0.228549281205365,44.620981550301906],[-0.228529038754459,44.62097394252024],[-0.228365646904231,44.62121370057132],[-0.228123262089516,44.6211271665703],[-0.227615401156656,44.62096279054743],[-0.227300507204942,44.62085692864229],[-0.226935964172404,44.620734405459785],[-0.227139243230577,44.62062935746935],[-0.227313704818583,44.62051677134306],[-0.227861664380008,44.620150001546364],[-0.227971498343138,44.62001920962482],[-0.227990514496936,44.619985586938355],[-0.227963013016536,44.61997017211613],[-0.22766024358534,44.619758718972825],[-0.227138118889553,44.61938022692197],[-0.226837116329738,44.61929648363152],[-0.226757014203601,44.619195206481685],[-0.226707660033033,44.6190382498728],[-0.226649677300904,44.61884955931598],[-0.226537922849182,44.61860522471449],[-0.228332796068242,44.61707198504737],[-0.22880181761742,44.61828545886511],[-0.228759223621984,44.61832148259597],[-0.228715516126891,44.61835348429074]]],[[[-0.226270909694874,44.61173849422909],[-0.226390944581569,44.61139386694369],[-0.226613774745703,44.6110073138279],[-0.226786681312244,44.611077408038184],[-0.229165108200394,44.61210399484244],[-0.229211148920526,44.612123822903506],[-0.22923580386365,44.61209841459205],[-0.229609117949747,44.6122846436539],[-0.229640312148583,44.61230292331309],[-0.229807152844414,44.612401301915554],[-0.230074969462894,44.612575656766886],[-0.230319360068914,44.612735198571045],[-0.230478933244396,44.612851989163794],[-0.230801275741674,44.61315890870937],[-0.230749321810225,44.61320980337647],[-0.231051889031405,44.613721830278905],[-0.231229161824073,44.614116515066065],[-0.231251264096651,44.61420281633781],[-0.231386151667541,44.61470965522373],[-0.231468651948095,44.6151255824223],[-0.231536320689125,44.615467609902666],[-0.231595949152152,44.61578599573398],[-0.232080343126031,44.61620170044576],[-0.232088564180152,44.61619767570554],[-0.23222912797653,44.61624230861608],[-0.232344009692012,44.61627904294887],[-0.232675506985369,44.61645252068248],[-0.232939771871476,44.61654245851747],[-0.233273163060525,44.61685445511086],[-0.233443205718146,44.61703689000279],[-0.233525704760825,44.61711601749015],[-0.23397685226376,44.61701775802572],[-0.234084636589717,44.616869179504405],[-0.233900747061791,44.61675544772336],[-0.234157570344823,44.616625482748574],[-0.234609098358429,44.61640863593085],[-0.234873742317523,44.61632268007914],[-0.235072463826822,44.616266224806964],[-0.235352323639775,44.61628055571199],[-0.235379901472599,44.61628191061372],[-0.236132797791934,44.61638825630717],[-0.237268605597556,44.61640102581828],[-0.237283514440798,44.61639923747707],[-0.237649784736018,44.61635642923977],[-0.237996753442524,44.616315807252555],[-0.23841722251525,44.61621734711704],[-0.23892555766836,44.61605422961523],[-0.239183118033939,44.6160251448048],[-0.239998917315791,44.615933108367614],[-0.24049975663668,44.61587670345751],[-0.240515017758194,44.61589860109038],[-0.240836933525236,44.61579968819931],[-0.240725349048097,44.615686549707256],[-0.24040163439363,44.61571685754815],[-0.240110554355305,44.615731160437235],[-0.239672275154196,44.615686437254205],[-0.239067313298796,44.61572435663052],[-0.238834806310735,44.61573279434397],[-0.238772993399653,44.6157349666979],[-0.23764154239483,44.6157758759972],[-0.237653813568954,44.61570181333514],[-0.23735724357181,44.61569960104174],[-0.236918667007967,44.615713351619235],[-0.236791615030426,44.61571734400879],[-0.236362850724299,44.615730624718026],[-0.236337170489638,44.61573155712543],[-0.236189633457072,44.61557648899969],[-0.236215334192571,44.61535399646304],[-0.236010266542197,44.6152646753755],[-0.23573223193424,44.61514361270704],[-0.235568731250118,44.61507298593703],[-0.235442180820789,44.615215357940635],[-0.235065999823986,44.61503481746234],[-0.234540556310319,44.61484044510214],[-0.234359563754578,44.614759516534235],[-0.234132632542464,44.614636413438106],[-0.233808392981752,44.61444641961126],[-0.233797526865845,44.61443511457614],[-0.233415159941058,44.614562175602174],[-0.233090675017866,44.614669160855144],[-0.23241034697673,44.61387878592804],[-0.232288580472052,44.61366250127462],[-0.232878909880947,44.613145437665565],[-0.234250713542224,44.61227536565933],[-0.234199202501644,44.612223984125244],[-0.234466092127208,44.61217310259867],[-0.234426279750424,44.61213435326475],[-0.234477325280539,44.61212925481406],[-0.234638677984758,44.61211425937975],[-0.23480025976162,44.61210105902654],[-0.234981283537585,44.61207936024738],[-0.235312495955743,44.612012987906716],[-0.2353263531562,44.61202366457918],[-0.236078128412172,44.61175990525054],[-0.236052141834696,44.61174228573807],[-0.236262291845765,44.61162593617755],[-0.236539559557751,44.61147248047033],[-0.236977068310514,44.61175483490265],[-0.237237375326339,44.61154547085276],[-0.237574981112321,44.61132915570165],[-0.237529917984467,44.611205595702856],[-0.238335194565213,44.61132021040463],[-0.238595841244296,44.6113430244661],[-0.23866061742286,44.611348604034674],[-0.238849127681119,44.61136506257668],[-0.238837523288986,44.611459468703586],[-0.239573737418771,44.61144112712498],[-0.239575437142618,44.61140485648049],[-0.239869479239697,44.611477595677904],[-0.239983743241009,44.6114948780493],[-0.240180968306857,44.61152468410544],[-0.240348422182512,44.611550047004194],[-0.240443420018063,44.611567893975426],[-0.24052235492696,44.611582788152255],[-0.240662876766876,44.61160921083202],[-0.240699487699658,44.611616336183225],[-0.240766600371663,44.611614277466465],[-0.240848949645621,44.611618349173376],[-0.240910433181802,44.611628078597214],[-0.240999150347931,44.61165295706101],[-0.241066085809051,44.61136699329635],[-0.240756955051412,44.61131704504443],[-0.240767323610136,44.61128457464436],[-0.240459277421286,44.611187650867706],[-0.240741468750484,44.61031701185154],[-0.240534248402174,44.61028002168035],[-0.240025766908857,44.61018942638203],[-0.240054512079205,44.61011677248011],[-0.240071784699158,44.61007274689985],[-0.239945336890852,44.61005411009571],[-0.239826956606648,44.61003757920308],[-0.239746719762297,44.61002632684509],[-0.23970209238141,44.61002015710655],[-0.239708938012531,44.610003197490514],[-0.239227329412724,44.60989288930128],[-0.239298060829417,44.60969042983309],[-0.238866869669705,44.60961017737862],[-0.23882506036145,44.60983746752971],[-0.238693265551461,44.60982673479923],[-0.238669132058276,44.60997529868799],[-0.23866115724322,44.61002310601466],[-0.238346611960018,44.60994240527599],[-0.238319285209357,44.61000465542997],[-0.23816324795997,44.610358011564756],[-0.237719906859802,44.61046597200629],[-0.235181496663957,44.611084275494605],[-0.235088320504023,44.611106916311414],[-0.234876720246849,44.61115843314756],[-0.2348099610228,44.611175434759836],[-0.234042223816799,44.610562877644306],[-0.233939360837762,44.61064752038976],[-0.23385106861261,44.61072011347646],[-0.233778061514769,44.610779915221954],[-0.233628948270691,44.61090267270599],[-0.233567271890599,44.61095331274593],[-0.233134722963089,44.610730627622715],[-0.232872387435283,44.61059468319762],[-0.232157931997753,44.61023554094714],[-0.231851511823161,44.61008079145181],[-0.231922516099861,44.61001023748754],[-0.231997153449067,44.60993705435944],[-0.232104991783476,44.60977856523816],[-0.232001659632478,44.609742844779326],[-0.231907836565573,44.60971017979008],[-0.23175686581402,44.6096641395803],[-0.23145890122877,44.610026502117684],[-0.23142798830259,44.61001091781271],[-0.231314656630771,44.6101880376106],[-0.231216873621458,44.61034596150372],[-0.231136826440022,44.610470029195234],[-0.231187498481788,44.61049584782441],[-0.230930120115209,44.610697182484174],[-0.230810429339596,44.61079420764056],[-0.230471745458767,44.61106252125832],[-0.230327673706299,44.61119855171428],[-0.229811515634278,44.61091874172202],[-0.229684678868013,44.61100336036232],[-0.22941631988784,44.610839202194335],[-0.229176210756151,44.61069476075302],[-0.22875802728588,44.61095818445373],[-0.228625746833281,44.61089492502017],[-0.228550752839687,44.61085846327702],[-0.228356125850939,44.61076152569637],[-0.228264534953543,44.610717169364555],[-0.228158153411368,44.61066342413563],[-0.228033135589811,44.610590401130054],[-0.228001325148515,44.61058556411687],[-0.227980601636414,44.61058490820438],[-0.227964980232452,44.61059185189574],[-0.227950433167651,44.61059993550719],[-0.227941696329864,44.61060595723643],[-0.227831082026592,44.61069856918351],[-0.227360040624262,44.61045301998114],[-0.227123749306531,44.61033107809897],[-0.227124018509211,44.6102520517631],[-0.227117949428119,44.61023637128832],[-0.227200454689082,44.60951612762571],[-0.227200188772878,44.6094806356562],[-0.22716330980203,44.60905012988505],[-0.227203900436683,44.60903209531427],[-0.227815306125485,44.60876204110107],[-0.227899938089167,44.608814890274544],[-0.228254744631606,44.60853521140533],[-0.228346960448318,44.608570719455834],[-0.228395154191115,44.608511466350016],[-0.228680898609964,44.60861384973468],[-0.228818407857063,44.60865398034151],[-0.228982605296955,44.608699818010145],[-0.228863736694186,44.60878915840059],[-0.228728576659332,44.60888915618568],[-0.228768604254284,44.608911953189825],[-0.228999976551257,44.60902953014483],[-0.229008151637969,44.60903352594669],[-0.229141207170361,44.60909937503323],[-0.229206245755174,44.609131622241485],[-0.229258940734676,44.60915756275192],[-0.229476450898248,44.608995690423434],[-0.22973969984876,44.608802206567475],[-0.229808552081517,44.60883497263296],[-0.230070564345722,44.60895894980188],[-0.230131992193712,44.608890749358],[-0.230257108831218,44.60875419215052],[-0.230383913347831,44.60861848644601],[-0.230578715363622,44.60866351697451],[-0.230679061589962,44.60868680194507],[-0.230898181883402,44.60873139107802],[-0.231049814217537,44.608758221485914],[-0.231112742107499,44.608766832752785],[-0.231188051317493,44.6087758026652],[-0.23126364550621,44.60878314237343],[-0.23148232514526,44.6088024248732],[-0.23186312554098,44.608796060934864],[-0.232284644072186,44.608789315273555],[-0.232326747400944,44.608788894321584],[-0.232414657279494,44.60878884502759],[-0.232502785914457,44.6087904110823],[-0.232761422969931,44.608793835432316],[-0.232974019250267,44.60879500248592],[-0.233403680134181,44.60878287851025],[-0.233554214048712,44.60877513883761],[-0.233610105536898,44.60876881765559],[-0.233793224674649,44.6087398511288],[-0.234017351878152,44.60869797069805],[-0.23467093665201,44.60857449881138],[-0.234753391405209,44.60856730917607],[-0.234857456645499,44.60856525317321],[-0.234910043045082,44.60856947983854],[-0.235286065229087,44.608649110411505],[-0.235342655509052,44.60866376146132],[-0.235389626418289,44.608675630755876],[-0.235735732051623,44.60880316881761],[-0.236041980239359,44.60891529472333],[-0.236349028457931,44.6090259547644],[-0.236646838075619,44.609131658783866],[-0.236884638525569,44.60920929675243],[-0.237029101298801,44.60924957403923],[-0.237071705938387,44.6092578764271],[-0.237114988632709,44.609264807411336],[-0.237158435369994,44.60927020184987],[-0.237186465055148,44.6092728944777],[-0.237270700139642,44.60927033608434],[-0.237334974713231,44.60926502879009],[-0.237404676096708,44.60925758020174],[-0.237539064010558,44.60923003546444],[-0.237729343224676,44.60917859753794],[-0.238339689973219,44.60900068839169],[-0.238584318373822,44.60892269774251],[-0.238634379641944,44.60891149924286],[-0.238685032412917,44.60890181510293],[-0.238737273705019,44.6088934358904],[-0.23881922800583,44.608888510425594],[-0.23891901056573,44.60888873860034],[-0.239024498438573,44.60889826005741],[-0.239057607521279,44.60890593906436],[-0.239535349110676,44.60903690421032],[-0.240393118210629,44.60927304236057],[-0.241360125817298,44.609555254642814],[-0.241471172327563,44.60958902824077],[-0.241774482674644,44.60964977697508],[-0.242468000512634,44.609788634091665],[-0.242810896849952,44.609857768978834],[-0.243114934572036,44.609911374748236],[-0.24320529041749,44.6102015525555],[-0.243255998897655,44.61035287631272],[-0.243330079241113,44.61055964726264],[-0.243341867719433,44.61060011723421],[-0.243367136925788,44.61068416105502],[-0.243399911685238,44.610810963022075],[-0.243431608470861,44.6109343727737],[-0.243442914136721,44.61098179474768],[-0.243484141855304,44.61115466081548],[-0.243490745254702,44.61119050762272],[-0.24351813873668,44.61133557801948],[-0.243534245572999,44.6114489035791],[-0.2435409962086,44.61157719040351],[-0.243535319794528,44.61166926078368],[-0.24351010963203,44.61178794403266],[-0.243492697752491,44.61183828145071],[-0.243473124413647,44.611888321914726],[-0.243450832439595,44.611939343204526],[-0.243394727052079,44.612040642783896],[-0.243387599358206,44.6120504929129],[-0.243219045577348,44.61228231706819],[-0.24319165407729,44.61231925193023],[-0.243166192833503,44.61235685093659],[-0.243155796148031,44.61237346453569],[-0.243137278061927,44.61240239016116],[-0.243110481540724,44.612462824081334],[-0.243096741690408,44.6125002592024],[-0.243085042521215,44.612538084928524],[-0.243080184819006,44.61255669837054],[-0.243066705348935,44.61261620076345],[-0.243064916433639,44.61264211246516],[-0.243065399374958,44.612668047581636],[-0.243068412918812,44.61269850360343],[-0.243074474510241,44.61276220778848],[-0.243108495250373,44.6129128503439],[-0.243151125806797,44.61309036079],[-0.243147470439017,44.61310137039945],[-0.243142031379958,44.61311207196044],[-0.243134410145096,44.61312211676287],[-0.243125100095107,44.61313131012076],[-0.243114573891387,44.613139097548846],[-0.24309263308869,44.61315019339299],[-0.243069602055295,44.61315987960687],[-0.243045360039257,44.613168249836015],[-0.243020526332043,44.61317510569816],[-0.24300645688777,44.61317831183007],[-0.24193081417413,44.6133464738429],[-0.241872619555951,44.61335448854747],[-0.241670019000071,44.613382688266235],[-0.241509561554628,44.6133979379584],[-0.241343732482508,44.61340532595861],[-0.241268722200824,44.613406084929096],[-0.241221452418767,44.61340666075445],[-0.241003817212666,44.61339934974594],[-0.241007081526929,44.61338591894605],[-0.241072664329207,44.61311369016959],[-0.241081120065802,44.6130786628874],[-0.24089672647637,44.613057131607],[-0.24082821818133,44.613388192326454],[-0.240729999609213,44.61337800858714],[-0.240474949228566,44.61335179144233],[-0.240400536119925,44.613347576721964],[-0.24024806432698,44.613350336545544],[-0.240039320906433,44.61336384664517],[-0.239807934221506,44.613380633280485],[-0.239475775711314,44.61339109371132],[-0.239280564104716,44.61339204189523],[-0.239083207015498,44.613386385118964],[-0.238885903539111,44.61337946499828],[-0.23880712952083,44.61337618796305],[-0.23883924214295,44.6133203747525],[-0.238939463226982,44.61314588340273],[-0.239076096665648,44.612911398047686],[-0.239765206105658,44.61290714103129],[-0.23976868876066,44.61285360868012],[-0.239787718046826,44.61256139192614],[-0.239806312222796,44.61224404962541],[-0.239529266111245,44.6123047026449],[-0.239008412039512,44.61241836460474],[-0.238992980856484,44.612707412155096],[-0.238965073417808,44.61270687878179],[-0.238957522953395,44.61270719023559],[-0.238950438131467,44.61270901976378],[-0.238944433082779,44.61271207905791],[-0.238939885588817,44.612716357043034],[-0.238937021662762,44.61272139658591],[-0.238936293331297,44.61272628341982],[-0.238931447829155,44.61286148765178],[-0.238756667086948,44.612846969260126],[-0.238652665780479,44.61307202808369],[-0.238634011092537,44.613116184049154],[-0.238543913717109,44.61332858139024],[-0.238537680112849,44.613340837715185],[-0.238408974831679,44.61331595799514],[-0.238310311861224,44.613304613828916],[-0.23777273793721,44.61325036005016],[-0.237696557592519,44.61313410907086],[-0.237626030734458,44.61305039921646],[-0.237576105822801,44.61300473914313],[-0.237292604959504,44.613036562874846],[-0.237209364824127,44.61308729624751],[-0.237144901609658,44.61318604407955],[-0.237082489185012,44.6132853624952],[-0.237061039616171,44.61332040969995],[-0.23704818345161,44.61336232313969],[-0.237028464203609,44.61342750362872],[-0.237351543437567,44.61344344603323],[-0.237500899622061,44.613463306881556],[-0.237548104195907,44.61349454038319],[-0.237878781140264,44.61336384369624],[-0.23826812442738,44.613360722161225],[-0.238357735340924,44.613361609609036],[-0.238409857582681,44.613362064097124],[-0.238695566801006,44.6134037857412],[-0.238837699407042,44.6134164682166],[-0.23883567514413,44.61364907964048],[-0.238869905355138,44.613649878215675],[-0.239073140674526,44.61365464225587],[-0.239295201523519,44.6136599351997],[-0.239318138708459,44.6135476268608],[-0.239429266427421,44.61354977472495],[-0.239453446525749,44.613419589800614],[-0.239926614350724,44.6134044538567],[-0.240131234449531,44.61340259790278],[-0.240466718438647,44.61339951639972],[-0.240726760217317,44.61341162141035],[-0.240844930924592,44.613417796036444],[-0.240963429539232,44.61342089746243],[-0.241051367316073,44.61342120109934],[-0.241147680252036,44.61342017775466],[-0.241588507864183,44.61341517377695],[-0.241745535839457,44.61340389896792],[-0.241802851882143,44.613558273338775],[-0.241755502096498,44.61357939491969],[-0.24176813943379,44.6135951523248],[-0.241752261862831,44.61360201541261],[-0.241765271818608,44.613617671783565],[-0.241781301185873,44.61361125474841],[-0.241809744815819,44.61364303697704],[-0.241783984302978,44.61365352381363],[-0.241815079420554,44.613683155904724],[-0.241844416069773,44.61366905016415],[-0.241884418848112,44.61364958575165],[-0.24209485691902,44.61354709208034],[-0.242095545497789,44.61353274570476],[-0.242149619312335,44.61351449011594],[-0.242414676868821,44.613515091179806],[-0.24242634434754,44.6134460011663],[-0.242450822745419,44.6133211226337],[-0.243143352653096,44.61320519836632],[-0.243162573069125,44.61320382325256],[-0.243181586477827,44.61320542756928],[-0.243199889169969,44.613210026102784],[-0.243216206342139,44.613217385969776],[-0.243229882479675,44.613227075905044],[-0.243240256891234,44.613238574693646],[-0.243245202594886,44.6132478000939],[-0.243298456529072,44.61332931062359],[-0.243627657614922,44.613833046195914],[-0.243851746945074,44.61417606209748],[-0.243945620271553,44.614316748019924],[-0.243985559787434,44.61435756280443],[-0.244345062545964,44.614708134995226],[-0.244631737777967,44.61498777229989],[-0.245112856491903,44.615439198929074],[-0.245432703090914,44.61572299600028],[-0.245555932323974,44.615819119104344],[-0.245685623545362,44.61589820319758],[-0.246083291998891,44.61609627808294],[-0.246193674483643,44.61616205319663],[-0.246267417047017,44.61622683237954],[-0.246381403142228,44.61637269222253],[-0.246354858749436,44.61637833764777],[-0.246305632488592,44.61638879417777],[-0.24623138235929,44.616321777371525],[-0.246161951649655,44.616272729427436],[-0.245891209930483,44.61640367262856],[-0.24580788684942,44.61642882610033],[-0.245802214288995,44.61642232519434],[-0.245483463744287,44.6165542271653],[-0.245441205307818,44.616571776890936],[-0.245134021749955,44.61669865275273],[-0.245405610701344,44.61706658119151],[-0.245412577258575,44.61707583727325],[-0.245289567403007,44.61710188571612],[-0.245096093601825,44.61713982466167],[-0.244880248121229,44.61719454851946],[-0.244663058676917,44.617263187111185],[-0.244318255762991,44.61739188610477],[-0.24407709743367,44.61748465379327],[-0.243817615629165,44.61713627930399],[-0.243771824041565,44.61707491272676],[-0.243749274184635,44.6170447598882],[-0.243594927947755,44.61683755157429],[-0.243267138698953,44.6169703430107],[-0.243241376937338,44.61698083020058],[-0.243280672629068,44.617027971352265],[-0.243347322605349,44.61710764723703],[-0.24376300507063,44.617605601568314],[-0.243542704007878,44.61769036737262],[-0.243105907384236,44.617855911536445],[-0.242903309989101,44.617932677933936],[-0.242872204808761,44.61794458327949],[-0.242446479422779,44.61815133677224],[-0.242188665476902,44.61830775035286],[-0.242059646798621,44.618380734275],[-0.241961916441263,44.61843622128091],[-0.241748243620974,44.618557370239294],[-0.241276796201987,44.61882474744232],[-0.240947165726934,44.61897407425094],[-0.240878072891929,44.61900547400121],[-0.240782347673257,44.61903882615217],[-0.240673011863148,44.61907681218429],[-0.240539199760869,44.61912353499568],[-0.240416756868047,44.619166139947154],[-0.239926678897445,44.61926322447034],[-0.239915946141794,44.619265251107564],[-0.239057695363986,44.619433855133444],[-0.238716640938734,44.61950088662414],[-0.238364983943935,44.61957002981063],[-0.238316704109831,44.61957946381487],[-0.238186985887812,44.619592095365505],[-0.238001440147707,44.619610147028006],[-0.237588986121035,44.61964214535606],[-0.237209939442603,44.61967154157275],[-0.236800337164049,44.6197114724338],[-0.236756375167763,44.61972140997409],[-0.236680407365088,44.619738592136066],[-0.236148855293989,44.61982101656686],[-0.236058700889716,44.61983500971346],[-0.235843501611379,44.61986834241575],[-0.235247309238052,44.61996094472809],[-0.234455961745047,44.62007349253821],[-0.234221062772283,44.62009992024543],[-0.234108141570498,44.62009971139367],[-0.234003028969148,44.620088281498155],[-0.233368426305093,44.619957825124594],[-0.23264398521229,44.61980503539903],[-0.232381835566971,44.61976323871242],[-0.231841368472242,44.6196968752596],[-0.231661687757748,44.619656629252205],[-0.231548592940474,44.619615967353475],[-0.231444582791177,44.619553325225766],[-0.231365146402138,44.61948581970893],[-0.231215623484228,44.61935765312019],[-0.23090751988726,44.619088519567185],[-0.230115961608931,44.618757023198626],[-0.229481832086425,44.6185176891027],[-0.228956006193062,44.61833005831793],[-0.22892177312771,44.61830943440124],[-0.228868922190926,44.61821925576183],[-0.228803507291718,44.618046280804904],[-0.22853976687328,44.6173708400433],[-0.228439018759085,44.617054465207445],[-0.228430198048272,44.61697534379851],[-0.228412690600141,44.61685908422004],[-0.228480484301773,44.616666178969915],[-0.228720654348988,44.61614837753994],[-0.228772860726863,44.61610621633592],[-0.229004824142157,44.61591869462975],[-0.2291290619291,44.61581712379466],[-0.22946927454976,44.61553525495037],[-0.22950845865607,44.61548599560521],[-0.229562016943802,44.615348557546476],[-0.229521119828371,44.61524901984809],[-0.229472522263042,44.6151625916869],[-0.229338966437128,44.615008998512295],[-0.229126194718414,44.6148224007674],[-0.22896693395509,44.614680280504786],[-0.228804513113396,44.61454023461687],[-0.228670585787195,44.614428548636056],[-0.228451154982527,44.61424673951226],[-0.228216784516794,44.61405293257319],[-0.228065265960078,44.61392698336148],[-0.227733030293072,44.61365197053409],[-0.227284229101499,44.61329296383349],[-0.22629865859792,44.61243272229329],[-0.226210985419629,44.61232680097272],[-0.226178617842666,44.61225052965703],[-0.226156679349148,44.612147103732745],[-0.226158566405959,44.61203901765084],[-0.226270909694874,44.61173849422909]],[[-0.236155408846851,44.61866734369732],[-0.236129748543112,44.61862250382321],[-0.236354237882514,44.618564300594244],[-0.236372518000303,44.6183663525616],[-0.236330274973918,44.61826559484815],[-0.236170218397367,44.61831884749864],[-0.236115036476824,44.61823441665371],[-0.236161442746863,44.61821873135546],[-0.236029177014622,44.61804411388346],[-0.235936160421274,44.617933490261585],[-0.235927773836147,44.61792364449842],[-0.235645664515241,44.61785928421123],[-0.235523910078131,44.61789411480161],[-0.235405748313052,44.61800912052686],[-0.235474174616618,44.618058384662035],[-0.235496423904807,44.61807458214403],[-0.235497415698166,44.61811383737711],[-0.235373412256768,44.61808971713142],[-0.235278436710032,44.6181779143416],[-0.235220448589938,44.61830611479464],[-0.23515137932309,44.61856654832472],[-0.235147050863953,44.618638395890684],[-0.235509529248812,44.61865012754937],[-0.236155408846851,44.61866734369732]]],[[[-0.224716981978771,44.61000878521593],[-0.225078858324845,44.60980378446686],[-0.225379915183064,44.61005475615417],[-0.225383137695571,44.61005376106608],[-0.225591748941059,44.61017038782217],[-0.226367845025048,44.61082276137166],[-0.226543934496643,44.610970520036396],[-0.226388529781355,44.611237071826565],[-0.2262968587714,44.61143373606796],[-0.226109142112342,44.61190053417734],[-0.226066932200734,44.61206223640016],[-0.226051781376199,44.61219864105313],[-0.226082063623518,44.612353090773595],[-0.226134836568054,44.612400204289216],[-0.226215652611473,44.61247226776138],[-0.226484184232702,44.6127122036048],[-0.227191309677542,44.613304778196046],[-0.22765985121993,44.61369132009831],[-0.228245435557536,44.614178777536196],[-0.228828115842043,44.61466820925154],[-0.228750458824953,44.61472408880119],[-0.228471873990958,44.61493666889358],[-0.228211554751416,44.615166464480026],[-0.228453339813084,44.615502865279744],[-0.22846128797039,44.615513895677324],[-0.228363656784097,44.61558666687204],[-0.228099811585683,44.615783588167126],[-0.228362709160975,44.615975390848554],[-0.228381366484092,44.615961961241396],[-0.228589475737362,44.61609355489006],[-0.228638173347029,44.61612447821753],[-0.22860418862648,44.61618304592308],[-0.228561948801947,44.61628249045773],[-0.228362702408671,44.61672854658582],[-0.228292977398398,44.61691637241596],[-0.228298401073022,44.61698243831013],[-0.228298710174608,44.616987835349285],[-0.227415322299676,44.61675478173533],[-0.227264948733709,44.61671502445387],[-0.226407682401027,44.61654147770363],[-0.226328897928412,44.6165204420603],[-0.226251596237671,44.616496660034734],[-0.226182344248707,44.616472462714775],[-0.226089517311663,44.616428680957405],[-0.226003518445267,44.6163741579452],[-0.225932061564813,44.616289386854554],[-0.225882643660356,44.61614225307052],[-0.225837219913142,44.615994371960724],[-0.22579510638737,44.61584260996166],[-0.225768347064933,44.61566156736973],[-0.225730661044221,44.61555851085851],[-0.225697226040112,44.61545478962918],[-0.225681256291129,44.615400564557376],[-0.225623658657047,44.61531106388473],[-0.225441805941424,44.615159777280994],[-0.225254888549753,44.615043417229806],[-0.225416113729602,44.61489815327962],[-0.225801662024341,44.614550820833436],[-0.225873067219273,44.61447602456539],[-0.226088026889331,44.6142800856456],[-0.226284980891934,44.61410016942892],[-0.225572998637676,44.613519714057475],[-0.225366059982362,44.6133553745436],[-0.225232249989721,44.61349028747258],[-0.224633660213859,44.61319384818576],[-0.224572114170877,44.61315212575289],[-0.224095479978663,44.61346390905657],[-0.223233420942194,44.61280618771325],[-0.223319586997189,44.61274024293004],[-0.224003251975481,44.6122174425035],[-0.224209304204426,44.612059879919975],[-0.224165916761507,44.6119783434497],[-0.223245364365258,44.61073181006094],[-0.222831412670247,44.610171746953064],[-0.223316790979401,44.60990737704177],[-0.223293368659207,44.60988598574116],[-0.224016478425592,44.60949772562774],[-0.224716981978771,44.61000878521593]]],[[[-0.223817189067573,44.60457467741081],[-0.22386123791277,44.60464583273597],[-0.223932778854387,44.60476547070853],[-0.224018125991767,44.60492362915238],[-0.224068499089073,44.60499288793698],[-0.224132651212823,44.60507372792585],[-0.223952025658,44.605139547060894],[-0.223864386457409,44.60514642953246],[-0.223824454669894,44.6051494869822],[-0.223751935086948,44.605156108327414],[-0.223679502922193,44.60516425878269],[-0.223242319811937,44.60515683315496],[-0.222851870247819,44.60513957294929],[-0.222716815639258,44.60512450177741],[-0.222689184495844,44.605124316752374],[-0.222580363610979,44.60512469818987],[-0.222471509357011,44.60512670230223],[-0.222108639596703,44.60508665044325],[-0.222475476276031,44.604657703728506],[-0.222572835238052,44.60452962397348],[-0.222619711477276,44.604495820321844],[-0.223817189067573,44.60457467741081]]],[[[-0.221378436368802,44.60520651611456],[-0.221462550418435,44.60519532350328],[-0.221545885850762,44.6051859555422],[-0.221629555318163,44.605178019383075],[-0.221945824421962,44.605164020205734],[-0.222025076819,44.60516927713973],[-0.222371339531799,44.60520783150381],[-0.222645488490017,44.60523803688873],[-0.222899622795378,44.605264500699654],[-0.223468708025469,44.605328896772725],[-0.223693795977057,44.60535467463316],[-0.224253220882105,44.605413311888505],[-0.224408159118861,44.60540554600821],[-0.22446191001993,44.60583375691879],[-0.224604296423685,44.606118102937096],[-0.224760778596409,44.60643717662542],[-0.22485816461364,44.60655876278315],[-0.22494597579903,44.60667170842182],[-0.225011010070941,44.60675468471073],[-0.225029547997998,44.60679432842522],[-0.225074652564441,44.60692356753322],[-0.225111867887495,44.60700969852958],[-0.2251491208274,44.60708105191082],[-0.225157185816938,44.60709856629366],[-0.225169442360971,44.607121003944926],[-0.225183808606544,44.60714283939989],[-0.225200158639913,44.60716407633378],[-0.225219713184932,44.60718621081871],[-0.225239617030959,44.60720563208255],[-0.225261358169135,44.60722409869674],[-0.225284553706453,44.60724153173819],[-0.22537517932946,44.6073022266526],[-0.225459986265203,44.60734939608053],[-0.225543690290572,44.60738830838587],[-0.225667754903483,44.60743162841082],[-0.225817126146088,44.60747195683609],[-0.226242419750949,44.607568829672445],[-0.22626668575005,44.6077680545707],[-0.226271497554203,44.60781026140085],[-0.226287219123653,44.60795053964984],[-0.226237070727733,44.60795362598293],[-0.226239747863356,44.60797616309116],[-0.226243903544966,44.60800910870878],[-0.226245608583783,44.608023475037065],[-0.226248888393817,44.608060951271874],[-0.226351338698579,44.6080813855118],[-0.2264428773717,44.60809628178673],[-0.226566655210526,44.60847613568486],[-0.226673774934953,44.60880511862416],[-0.226700876156901,44.60909571310532],[-0.22605508890162,44.608549100304245],[-0.224248758196963,44.608299275040736],[-0.2240925075937,44.60827761585527],[-0.223561242681096,44.608109764147656],[-0.223549079700104,44.60810219019655],[-0.223549914835886,44.60810135492234],[-0.223506703861118,44.60808901057382],[-0.223328098376347,44.60816386968518],[-0.223234620150611,44.60821651280763],[-0.223125997892908,44.60826238962745],[-0.222995375729628,44.608309538866486],[-0.222902772697061,44.60834440634126],[-0.222717187288518,44.60827512688037],[-0.222545908329859,44.6082111962441],[-0.222487337264882,44.60816623263555],[-0.222385889172051,44.60808828144532],[-0.222176006584897,44.60792708645321],[-0.222088456811989,44.608023885145904],[-0.221947237314822,44.607931956649054],[-0.221673323582696,44.60775379718444],[-0.221441476574573,44.60725671602625],[-0.221665127345439,44.607016653525264],[-0.221606355342385,44.60698800357916],[-0.221564109233616,44.60696824213521],[-0.221425676330908,44.606900739184915],[-0.221341176684059,44.60685887375655],[-0.221250538147744,44.60681331295044],[-0.221006785066426,44.60654038799466],[-0.220654191971581,44.60584581222669],[-0.220728223830733,44.60583031901717],[-0.220679196568543,44.6053363763086],[-0.221023375664458,44.605278858499965],[-0.221378436368802,44.60520651611456]]]]}}]}
