{"type": "FeatureCollection","name": "aoc_geojson","features": [{"type":"Feature","properties":{"dt":"Mâcon","type_prod":"Vins","categorie":"Vin primeur, Vin tranquille","type_denom":"appellation","signe":"AOC","id_app":583,"app":"Mâcon","id_denom":1713,"denom":"Mâcon","insee":"71487","cvi":"1B369, 1B369 01, 1R371, 1S371, 1S371 01","nomcom":"SAINT-VERAND","insee2011":"71487","nomcom2011":"SAINT-VERAND","id_aire":1783,"crinao":null,"grp_name1":null,"grp_name2":null},"geometry":{"type":"MultiPolygon","coordinates":[[[[4.719936263488656,46.257103774018596],[4.719955436861968,46.25725534105293],[4.720087456037442,46.2572211011842],[4.72043692236984,46.25712331816681],[4.720499292757594,46.257079232196965],[4.720040841682077,46.25708057703653],[4.719936263488656,46.257103774018596]]],[[[4.720331776683175,46.25621908079313],[4.719398355509721,46.256571936087816],[4.719852628794071,46.25699587387587],[4.719925416693631,46.257043681592876],[4.720521231951508,46.25703773889848],[4.720596434451823,46.25703426027783],[4.720669968200835,46.25701486457292],[4.720749286709125,46.25700600953822],[4.720752960998106,46.25701550133225],[4.720919176833511,46.25700344093422],[4.721176303922946,46.25694650208135],[4.72135525936781,46.25688534076215],[4.721755900006953,46.256738592582536],[4.722013325048908,46.25669119464571],[4.722414412589664,46.2566082964876],[4.722685506296772,46.256537272134146],[4.722971957716839,46.256455026178216],[4.723136281492886,46.25642416665839],[4.723589582280337,46.25637073710498],[4.723513236673222,46.25625534348156],[4.723627408992389,46.25622353135165],[4.72374249704376,46.25618368906317],[4.72381588118207,46.256159609949336],[4.723833745475418,46.256153755081066],[4.724029277113198,46.256095490836],[4.724065448809163,46.256085485634124],[4.724246856804016,46.25603229869614],[4.724282985900937,46.25602094302854],[4.724460285135269,46.255965115909085],[4.724568745824606,46.25593338935554],[4.724519752117681,46.25583721705695],[4.724497185687031,46.255792704426504],[4.724738753082109,46.25576148277093],[4.724872155038274,46.25591564146395],[4.725097935468884,46.25606749917824],[4.725374351182224,46.25626038107834],[4.72603975949102,46.2561803981277],[4.726164130097013,46.256167343347876],[4.726554720588642,46.256130705194614],[4.726828690432262,46.25610583284595],[4.726994772385065,46.256093765544776],[4.727026092463817,46.25607815863534],[4.727030118193767,46.256061704910394],[4.726540581599927,46.25556690488105],[4.726485385611012,46.25551297996071],[4.72646398723319,46.255522041292096],[4.726386304412705,46.255479716107615],[4.726339967548627,46.25545555979217],[4.726311313843365,46.25544041239702],[4.726310663985542,46.25541979635396],[4.72617584786482,46.25534032830181],[4.726164628510761,46.25534689339039],[4.726140200967623,46.255329880468764],[4.726053935236781,46.255377754662],[4.726088204383865,46.255414523689616],[4.726023187261549,46.25545270838189],[4.725955783211164,46.25541103765415],[4.725741685143162,46.255481566032756],[4.725684293661464,46.255502161433725],[4.725397815689472,46.25506399370961],[4.725330244420998,46.254926311166585],[4.725437274958176,46.25489460542366],[4.725732176382023,46.25483780392759],[4.726034556242487,46.25477935706343],[4.72602805144394,46.25475423627136],[4.726081110397526,46.25474451472063],[4.72613561603792,46.2547312584959],[4.726158905754178,46.25474513624222],[4.726512272647641,46.25467717804386],[4.726630903655507,46.254856958381076],[4.726740444555474,46.25482665442617],[4.726853004892772,46.25475622364504],[4.726995851639682,46.254699203881806],[4.727021551429703,46.25465774223813],[4.727038815046652,46.254571103664986],[4.72702533292463,46.25434532397657],[4.72653096984769,46.2543765128099],[4.726490616856184,46.2543773951662],[4.726219238778258,46.254302971002254],[4.725800513623552,46.25426221484445],[4.725599960985809,46.25427624424099],[4.725398339412662,46.2543099246211],[4.724921408482934,46.25441226722071],[4.724588504412245,46.2544249680763],[4.724214932064398,46.254445039276824],[4.724166918535692,46.25444180360091],[4.723890358050174,46.25453263968099],[4.723252723969672,46.25493355728805],[4.72243622492353,46.25544814362689],[4.721975595143246,46.25561102373432],[4.721329022871961,46.25583994291282],[4.721329025701602,46.25584003293934],[4.721139293850066,46.25590937340568],[4.720333077354675,46.256219151202735],[4.720332673861521,46.256218706955174],[4.720331776683175,46.25621908079313]]],[[[4.724309054654782,46.257211805603305],[4.724371592935523,46.25719788816153],[4.724457095753024,46.257208121620394],[4.724519132127397,46.25721537800378],[4.724864499305733,46.257243290168695],[4.724940044925661,46.25725070187413],[4.72509778937722,46.25726650512822],[4.725340861866584,46.25729110250362],[4.725697762525631,46.25732649321943],[4.725696505089513,46.25734839914878],[4.72601063415592,46.2573903819614],[4.726288290533691,46.257416344330046],[4.726539032493414,46.25740821771131],[4.726996038224917,46.25738975547926],[4.728010588715074,46.257432181512506],[4.728037715259705,46.25729189180065],[4.728067859851636,46.25695097156436],[4.728201231689566,46.25609157524469],[4.728192834539716,46.255932459918284],[4.727657439487576,46.25601345438641],[4.727391682605936,46.25604757131708],[4.727230719339232,46.256090185134234],[4.727049494113428,46.256112029928026],[4.726679328420212,46.25614989110744],[4.726422008303126,46.25617982463746],[4.725815773624585,46.25624215967433],[4.725446630221053,46.25629603367107],[4.725359649865083,46.25630068482277],[4.7252449905817,46.25631701414771],[4.725008708818839,46.25635121909315],[4.724911319825899,46.256371699727694],[4.724689311690044,46.25637263221889],[4.724580142404748,46.256369512760365],[4.724371398419565,46.256375197464024],[4.724213253375443,46.25637957485195],[4.724111780482801,46.25637345613113],[4.72381662879481,46.25638549258791],[4.723610039383685,46.25640600470479],[4.723344079235484,46.25642966715124],[4.723171360998569,46.25645371872458],[4.723233083761871,46.256711013044814],[4.722931884636429,46.25675376231149],[4.7227251972994,46.256795980986944],[4.722661056321183,46.256808480673456],[4.72254087432211,46.25683092547833],[4.722357779472361,46.256900797979384],[4.722163634196296,46.256933098338585],[4.722081086837736,46.25695488312888],[4.722008738728547,46.256974802231895],[4.721911818104384,46.25698959881263],[4.721798566804559,46.2567782081184],[4.72174868790545,46.25679004118749],[4.721548906411775,46.25686196618299],[4.721370510786466,46.25693266668988],[4.72118737018435,46.256984614183054],[4.721038753776771,46.25701955666159],[4.720837615129228,46.257044214529024],[4.72071809077696,46.25705043497659],[4.720658422495987,46.257081330105706],[4.720579960244609,46.2571091767482],[4.720200426162811,46.25720876568437],[4.719971478646403,46.25728238962306],[4.719933859748052,46.25753163931318],[4.720637454434212,46.257414092785964],[4.721052510203553,46.25739944103588],[4.721361385776269,46.257385943313295],[4.721657846921627,46.25734516139953],[4.722472360633276,46.25722457453894],[4.722690098564589,46.25715796044739],[4.722725550585121,46.257162197533034],[4.72269988269066,46.257031445092686],[4.722692130268244,46.25696662244419],[4.722684135347241,46.25692711294679],[4.722843222603863,46.25690723152179],[4.722847736072762,46.25694751426296],[4.722847942327975,46.256949943012884],[4.722863669668288,46.2570495017689],[4.723015308124364,46.257048737490486],[4.723021660955181,46.257201128703876],[4.723108706801525,46.25721088946613],[4.723477307876566,46.257238544154255],[4.723904070729287,46.257245231277835],[4.724144304618524,46.25723330603131],[4.724309054654782,46.257211805603305]]],[[[4.725862037746522,46.25408438553552],[4.72568345532999,46.2541816663553],[4.725682834801066,46.25419905916357],[4.725707492177946,46.2542110248025],[4.726131586675026,46.254240891528994],[4.726541581339984,46.25433419933174],[4.727057227049496,46.254269722069175],[4.72692558442088,46.25426613531893],[4.726922121741912,46.254057496924986],[4.726885264508497,46.25405805617347],[4.726882635894945,46.253974691739316],[4.727087161431728,46.25382729696426],[4.727114810053133,46.25391352421766],[4.727164132060865,46.25392943858362],[4.727133183201295,46.25377561925426],[4.72724785363754,46.253759828181764],[4.72735445303818,46.253747492061],[4.72738889703386,46.253938006636396],[4.727397389310593,46.253980840881205],[4.727432045304891,46.25411631977926],[4.727470954338918,46.254271369258475],[4.727811929335615,46.25427583076171],[4.727816708122248,46.25413921288142],[4.727824406054216,46.253971656849444],[4.727833054068345,46.25390829678237],[4.728347703299693,46.253853556221195],[4.728388335497822,46.25371342151588],[4.728441952477335,46.25349103627556],[4.728390830654057,46.25347569021308],[4.728363085860019,46.25346052953535],[4.728345550194187,46.253415040531],[4.728315249935358,46.253170781840545],[4.727773793670762,46.25311640482542],[4.727607367344833,46.253096684105785],[4.72736247836553,46.25304275674728],[4.727220676243898,46.253009241374684],[4.727065851667331,46.25301978727851],[4.72691862455029,46.25307363117231],[4.726819590091883,46.25314466748271],[4.726698411107032,46.25325873260141],[4.726571239688889,46.25340513335673],[4.726457847276281,46.253539705977246],[4.726430125058311,46.25358290949804],[4.726397016610478,46.25373121569322],[4.726296308096786,46.25386865809064],[4.726437453454265,46.254033685993754],[4.726383483410917,46.254055670987434],[4.726279897421354,46.25408948707596],[4.726249502345907,46.254175604139846],[4.726231392415101,46.2542065925017],[4.726082046586773,46.25417273975035],[4.725977337855879,46.25412974335683],[4.725904946462523,46.2540986863767],[4.725862037746522,46.25408438553552]]],[[[4.726571608391355,46.25553788219614],[4.726844713628446,46.25581511579178],[4.727361089928754,46.25554283604714],[4.727611654936286,46.255772222790384],[4.72757754926421,46.25578183749476],[4.727614899820519,46.25580099576358],[4.727726708246637,46.2559495344186],[4.727771530083409,46.255942098800986],[4.727929770561771,46.2559160983248],[4.72810963640578,46.25588823809944],[4.728223575034844,46.25586146874535],[4.728317029635189,46.25583158769322],[4.728567208379296,46.2557359175039],[4.728427755133985,46.25536154492512],[4.728330508471951,46.25506552220359],[4.728287258242742,46.25486352263506],[4.728246605236738,46.25462860824942],[4.727925650692702,46.25464969400239],[4.727891970305399,46.25431883972347],[4.727320604360038,46.25434156359388],[4.727111552047067,46.254345456735244],[4.727075969706434,46.25434527614022],[4.72707356609761,46.25453256702119],[4.727069277761713,46.25464774086316],[4.727055449695153,46.25471568293032],[4.72662011771758,46.254901976594745],[4.726628759837237,46.25502370944576],[4.726671612456382,46.25513915884756],[4.726755712272773,46.25535206807541],[4.726762437300636,46.255375924517146],[4.726616540894336,46.25545983091113],[4.726571839814278,46.25550815577096],[4.726571608391355,46.25553788219614]]]]}}]}
