{"type": "FeatureCollection","name": "aoc_geojson","features": [{"type":"Feature","properties":{"dt":"Bordeaux","type_prod":"Vins","categorie":"Vin tranquille","type_denom":"appellation","signe":"AOC","id_app":14,"app":"Bordeaux","id_denom":67,"denom":"Bordeaux","insee":"33015","cvi":"1B105D, 1B105S, 1R105S, 1R105S1, 1S105S, 1S105S1","nomcom":"ARVEYRES","insee2011":"33015","nomcom2011":"ARVEYRES","id_aire":79,"crinao":null,"grp_name1":null,"grp_name2":null},"geometry":{"type":"MultiPolygon","coordinates":[[[[-0.311654904633963,44.868893734293216],[-0.311320026075736,44.86907268930224],[-0.310738275594406,44.869380210684525],[-0.310066258710483,44.86973655918396],[-0.30945206937255,44.87006153172083],[-0.309245386510177,44.870171144890364],[-0.309008549154106,44.87029805736003],[-0.308738668996941,44.870371796499896],[-0.308388896781878,44.87047468026745],[-0.308366734194121,44.87047921582449],[-0.308305170881412,44.87049682086835],[-0.308220318555639,44.870523500635706],[-0.307607467269697,44.870703791168616],[-0.30714676987823,44.87084043508616],[-0.306722356123911,44.87096274931604],[-0.306702102051755,44.87096957060337],[-0.306422224777509,44.87105225266156],[-0.306276864436238,44.87109298898102],[-0.30615279199381,44.87112939628936],[-0.306039982031921,44.871161232638165],[-0.305734098303524,44.87125207689599],[-0.305520214254569,44.871327834632304],[-0.305082354657244,44.871475864615505],[-0.305058600495127,44.871483510732425],[-0.30498736110129,44.871513296946674],[-0.30468904275709,44.87165734989102],[-0.304512558861645,44.8717506452975],[-0.304315369755547,44.87186248935489],[-0.304056476682485,44.87201113388611],[-0.30388541095312,44.87211039461195],[-0.303818673157059,44.87214563302729],[-0.30345495763193,44.87235642045999],[-0.303008247671372,44.8726148232719],[-0.302884099941671,44.87268664337819],[-0.302838132058344,44.872713062774956],[-0.30277466616676,44.872747932817774],[-0.302736172080881,44.87277214726988],[-0.302586149425985,44.87287159066944],[-0.302244753983973,44.87310649074523],[-0.301704542858531,44.87347535489657],[-0.301331459275081,44.87372966781703],[-0.300933327920142,44.87400418875176],[-0.300905791895301,44.87417162631648],[-0.301141098462545,44.87431971175871],[-0.301210567688943,44.874360989715356],[-0.301449906584502,44.87452373312673],[-0.301610370179767,44.87463394375512],[-0.301706333179234,44.87469470868057],[-0.301716676337485,44.87469818572275],[-0.301918429047682,44.874777790829164],[-0.302169900703896,44.87487529058272],[-0.302318736249004,44.874684508710274],[-0.302514089441003,44.8748017901404],[-0.302602666199491,44.874853312261976],[-0.30286747953725,44.87500520213637],[-0.302903282600357,44.875025673649695],[-0.303727491740784,44.87551109183651],[-0.304039440752409,44.875692845262286],[-0.304090851803749,44.87572654895816],[-0.304373158579757,44.87595153709143],[-0.304522212462405,44.87607442903283],[-0.304736593743722,44.87626070762739],[-0.304801073586319,44.876311864284524],[-0.304964171679236,44.87644938640554],[-0.305101510090237,44.876556225940824],[-0.305157636059097,44.876592492183526],[-0.305903206542912,44.87705031990609],[-0.305668420796805,44.877247091115684],[-0.30560015336645,44.8773295953453],[-0.305547220018598,44.87739271909214],[-0.305394114508832,44.87760562033205],[-0.305282388436997,44.877761509064385],[-0.304968874483412,44.87828719308047],[-0.304907907389189,44.878409760030905],[-0.304868706936792,44.87849734573529],[-0.304831847115001,44.878603154696464],[-0.304803272946827,44.87866888694016],[-0.30479812994975,44.87880105580265],[-0.304804741776582,44.87889394580134],[-0.304814236099695,44.87901855991435],[-0.304869562827435,44.87919614760156],[-0.304898592125763,44.87929521872674],[-0.304982652916732,44.879657223478056],[-0.305030876747094,44.8798777362919],[-0.305102323501063,44.88022137312313],[-0.305135205445075,44.88038367909948],[-0.305157241901202,44.880488815808334],[-0.305177024238201,44.88058365662228],[-0.305214752274502,44.88074861181315],[-0.305230995451118,44.88083715997988],[-0.305300008967961,44.8811286937616],[-0.305324155217644,44.881235209466155],[-0.305356919899227,44.88128577855502],[-0.305466025254233,44.88141445529083],[-0.305613397661476,44.881568755965],[-0.305680817131772,44.88164172237852],[-0.305741805140515,44.8817152407508],[-0.305762491386825,44.88174580386553],[-0.305780141700368,44.88177862011169],[-0.305799123058382,44.881836177861835],[-0.305802184534005,44.881881683995935],[-0.30581672590874,44.88207039867073],[-0.305840640067144,44.88264190577769],[-0.3058486059244,44.88270826225821],[-0.30586437606858,44.882762941923374],[-0.305898195859328,44.882861509881074],[-0.305919997761529,44.88291745171584],[-0.305940063870758,44.88295253895946],[-0.305980158702433,44.88298766047727],[-0.306033050108931,44.88300978499214],[-0.306081877410468,44.88303392290826],[-0.306122120589441,44.88305435149172],[-0.306139303667824,44.88307492621835],[-0.306151674727524,44.88309987959298],[-0.306151317497473,44.88313683669246],[-0.306130791143313,44.88317998154509],[-0.306078096169404,44.88331176476227],[-0.306041072715799,44.883436322702686],[-0.3059805123103,44.88373793340317],[-0.305971649545118,44.883837051679194],[-0.305979675582877,44.88392593472508],[-0.30600083614865,44.884052724758654],[-0.306042201452883,44.884234152516896],[-0.306081082709055,44.88441213984059],[-0.306103071104858,44.88453791398393],[-0.306123283284163,44.88469807422254],[-0.306118942183026,44.88475776844665],[-0.306051741500703,44.88495531588743],[-0.305901050683516,44.885327826740166],[-0.305871939806527,44.88540384824066],[-0.305854027651756,44.88549782924152],[-0.305840247191062,44.88565332474281],[-0.305853285207557,44.88625534442021],[-0.305881063182413,44.88666651563296],[-0.305870560045215,44.886681877357624],[-0.305851388067479,44.88669425315751],[-0.305831681390143,44.886699706145215],[-0.305801069250315,44.886698635271614],[-0.305757155343616,44.88668264122868],[-0.305627664872631,44.88661692973847],[-0.305293282147341,44.88642773595535],[-0.305126302307023,44.886332411511006],[-0.305008010893829,44.886263121832755],[-0.304936062306897,44.88622309086464],[-0.304871632458225,44.886183737143185],[-0.304819554922359,44.88614104190703],[-0.304787114961931,44.88610893607914],[-0.304752221249204,44.88606960411263],[-0.304720659912561,44.88603089383828],[-0.304684196364334,44.885977821249554],[-0.304620901843374,44.885888871273785],[-0.304453912368795,44.885860049826896],[-0.304416153635539,44.88586676084307],[-0.304164209221074,44.88596230101432],[-0.304000292174937,44.88602223914139],[-0.303867133667501,44.886081441798],[-0.303831707750024,44.88609763518768],[-0.303709625816564,44.88615551673736],[-0.303578338841273,44.886216375485354],[-0.303461516783086,44.88626887364624],[-0.303352286128374,44.88631898305756],[-0.30330965435801,44.88634196897119],[-0.303249333215623,44.886383143447986],[-0.303218069652182,44.8864097560268],[-0.30315714850483,44.88647518877311],[-0.30310457108236,44.88653163222608],[-0.303037053265178,44.88659482812883],[-0.302953049091399,44.88664067209631],[-0.302920884160107,44.88666920378289],[-0.302895909324825,44.886712209991586],[-0.302840974079033,44.88678674611486],[-0.302810202612685,44.886821724461726],[-0.302782049650039,44.88684950594534],[-0.302538677536869,44.887073559038],[-0.302232908239746,44.88702146835423],[-0.302182273755628,44.88700972793319],[-0.301692728178216,44.8868266709908],[-0.301623453254741,44.88680404035872],[-0.301450151771317,44.88675413536939],[-0.301311619750577,44.886715631732244],[-0.301173159230799,44.886689110854924],[-0.30107208816186,44.886673282792515],[-0.300981323446811,44.88665165126588],[-0.300941877799068,44.88664047871661],[-0.300894811000557,44.88661826862643],[-0.300733482681623,44.8865133078463],[-0.300790277174165,44.88592525285578],[-0.300885339127562,44.88474023205599],[-0.301145259792245,44.88473286313062],[-0.301103034534991,44.8847110498849],[-0.3017226725778,44.88455916362602],[-0.301066756681106,44.883448202376435],[-0.301489126137622,44.883325973257314],[-0.301564349217518,44.88330544295272],[-0.302160328386575,44.88312443006482],[-0.302152648672022,44.88311024042548],[-0.301774082852444,44.88251215679403],[-0.301690905665382,44.88238027229786],[-0.301403164863513,44.8819168184906],[-0.302173523359819,44.881679614563296],[-0.303589757572404,44.880865113531975],[-0.303684447099747,44.880811471469606],[-0.303808876531295,44.88063006483168],[-0.3032679124719,44.88066427792309],[-0.302920929839907,44.880690914012966],[-0.302899330648113,44.88046825649893],[-0.302894214687061,44.88043948243253],[-0.302885959496773,44.88038106446176],[-0.30287842999486,44.880315596077715],[-0.302859983159268,44.88029289581611],[-0.302819818633644,44.880258676521635],[-0.302800973340039,44.88024427851126],[-0.302791346106295,44.88022068501331],[-0.302792708011038,44.8802072176408],[-0.302839462823357,44.87977851022868],[-0.302845693700544,44.87971641714564],[-0.302856625220282,44.879607145170375],[-0.302872338095632,44.879436994718596],[-0.302898312090135,44.87931628133305],[-0.3029161555333,44.879270603720194],[-0.302630236421673,44.87920621012416],[-0.302444312918582,44.87916542400618],[-0.302674371242636,44.87889878291017],[-0.30270268162168,44.87886297666237],[-0.302744343907935,44.878761170820276],[-0.3028248336798,44.878584767462144],[-0.302823419096535,44.8785779609657],[-0.302775444276224,44.878568214525124],[-0.302724654837586,44.87856017385082],[-0.302157745323398,44.87909645275882],[-0.301988068134941,44.87926280292195],[-0.301979945401143,44.87928845643362],[-0.301986372581836,44.87931367709978],[-0.302102940242204,44.879478900831145],[-0.301477184427493,44.8793341404489],[-0.301388059877044,44.87962452213371],[-0.301224452483755,44.88015690970328],[-0.301126096062759,44.88047784371346],[-0.301078853249598,44.88063135948174],[-0.300197375426322,44.8807074037311],[-0.300153564154309,44.880475403878705],[-0.300142976183653,44.88041606390362],[-0.300087729592303,44.88010384308357],[-0.299986891696037,44.87953363276391],[-0.299954643084175,44.879351662319834],[-0.299948634627156,44.879307685628206],[-0.300215980717008,44.878198737414536],[-0.299405539690181,44.87822778801792],[-0.299360222357717,44.87818993603525],[-0.299235278682688,44.87808037818604],[-0.298727109079622,44.87763077051541],[-0.298513791314961,44.87761539303845],[-0.298699143925012,44.87681662155199],[-0.29875810185914,44.87657129442061],[-0.298892503464275,44.87598814493753],[-0.298944597984873,44.87577915693919],[-0.299123400985588,44.87581547425664],[-0.299838768182017,44.87529957847917],[-0.300011465593187,44.87488298872802],[-0.299880459296278,44.87484263855317],[-0.299713396684495,44.8748248971742],[-0.299445305379998,44.87499858480625],[-0.299271109681097,44.875057830875406],[-0.299174898828861,44.87509412270171],[-0.298679507023937,44.875232211875634],[-0.298373546907319,44.87532231633013],[-0.298282140551063,44.87534765104645],[-0.297855071651345,44.875238058788966],[-0.298116232725768,44.87503907920922],[-0.29830702637393,44.874906440546496],[-0.298868788485937,44.87452415725561],[-0.299149437874678,44.874335589576],[-0.299118132382887,44.8743118292715],[-0.298965043888186,44.874311874201496],[-0.298773216483851,44.874310457081556],[-0.298972901466806,44.87369752249214],[-0.298747825141,44.873695291448584],[-0.298963229628444,44.873179481748195],[-0.299249674452808,44.872503321867946],[-0.299157247304402,44.8724853435769],[-0.298954204034947,44.872456866118355],[-0.299162430110697,44.87227603798403],[-0.299661897372284,44.87183702864619],[-0.299829496662481,44.87168948718777],[-0.300429510195854,44.87191305701189],[-0.300477622512618,44.871856296983566],[-0.300615234335112,44.87140578597994],[-0.300616021753134,44.871391164301144],[-0.30034951560969,44.87127473455302],[-0.300691619227844,44.870802011845704],[-0.300726153750323,44.87075142273398],[-0.300805283951868,44.870599392000265],[-0.300996307374406,44.87022758230949],[-0.300968828445962,44.870150362063484],[-0.300998112799234,44.87010101037501],[-0.301016652832468,44.870065044610826],[-0.301206557713094,44.869702279066885],[-0.301392354743929,44.869745773319636],[-0.301777228937708,44.8698409265185],[-0.302013673925814,44.869903098122116],[-0.302632951410656,44.8700601198687],[-0.30265751474954,44.869982252332356],[-0.302810735888598,44.86980810012212],[-0.302854147013195,44.86964784919799],[-0.30286803587599,44.86960823678113],[-0.302928540466941,44.869389624689894],[-0.302971032364807,44.86924390923625],[-0.302979199135515,44.86921257726179],[-0.303080663190151,44.86885883842175],[-0.303135429007801,44.868650399548855],[-0.303150816512251,44.868619032862796],[-0.303267050023136,44.86847319493366],[-0.303351723454168,44.868391825824254],[-0.303415204679657,44.86833577838654],[-0.303579190074566,44.868230511181295],[-0.304035805559561,44.86796234855266],[-0.304161866273344,44.86787587168191],[-0.304211183961822,44.86782033558299],[-0.304241861962279,44.867755982735936],[-0.304270825715011,44.86766897250041],[-0.304172353743795,44.8676493763334],[-0.303839331095207,44.867586750747854],[-0.303094593979799,44.86744851979285],[-0.302839646287583,44.86740122942866],[-0.302949948123059,44.86707281980876],[-0.303212073357055,44.867121518252524],[-0.303407491762031,44.86657727766213],[-0.303261758737393,44.86652971089846],[-0.302914537130582,44.86641731268599],[-0.302393971442944,44.866251048408024],[-0.302465624908095,44.86612933651687],[-0.302485642772978,44.866068996088394],[-0.302534591971206,44.865994277739105],[-0.302604890206922,44.865851699946305],[-0.302708151632334,44.86569651650626],[-0.302798371277122,44.86557380123618],[-0.302862284184422,44.86550575625479],[-0.302948836894795,44.865430549252025],[-0.302985370276097,44.86540540175191],[-0.303205559676984,44.86544786882577],[-0.303621389846841,44.86553335230852],[-0.303725715736775,44.86538985079689],[-0.303929312317547,44.865331253432146],[-0.304069026088901,44.865274467707096],[-0.303941969444827,44.86504044335156],[-0.303990782529993,44.86486660439025],[-0.304063857999324,44.86451731448687],[-0.304176752058759,44.86395336195557],[-0.304435894436964,44.86395808077524],[-0.304454708014896,44.86429913774094],[-0.304797497032905,44.86430199559965],[-0.304843671759247,44.864199604051144],[-0.305151974348555,44.863741660191366],[-0.305764503099765,44.86283210887659],[-0.305813171208845,44.86279145992712],[-0.305947246028406,44.86267779828242],[-0.306030166972037,44.86269380086127],[-0.306162157520421,44.86270608852617],[-0.306307804427153,44.86272220442174],[-0.306925383026758,44.86280634925466],[-0.307542338594374,44.862897087515705],[-0.307627530974008,44.86291076839934],[-0.307878727637784,44.8629935733754],[-0.308379590795033,44.86322131507374],[-0.308640743582031,44.86335689804624],[-0.309004874914518,44.863582135782174],[-0.309178293900819,44.86365446129549],[-0.30947282402329,44.863767239735786],[-0.309979898339422,44.86395396825695],[-0.310099288602553,44.863999608558316],[-0.310208405241804,44.86405366537925],[-0.310546711271209,44.8642898515915],[-0.310953023145313,44.86457690410381],[-0.311105773608632,44.86469183616299],[-0.311266691573645,44.864814183922675],[-0.311406966097573,44.86492381077701],[-0.311780685441894,44.86527680471521],[-0.311832246606005,44.86532816225333],[-0.311905033469067,44.86539564730975],[-0.311912122846146,44.865447070520474],[-0.311948179470861,44.86577463683002],[-0.311997002817064,44.866254113297494],[-0.312018697372872,44.86643062818752],[-0.312054139123229,44.86678425564964],[-0.312112858622957,44.86729182255351],[-0.312190231412098,44.86804457141561],[-0.31223700529316,44.86850428451246],[-0.311844032213812,44.86878527110641],[-0.311654904633963,44.868893734293216]],[[-0.304329331420734,44.87037142627557],[-0.304309135201767,44.87039644819911],[-0.304340447570878,44.87040741077909],[-0.304358799858507,44.87038550759019],[-0.304385798736201,44.870353344414774],[-0.304353795620324,44.870341411173925],[-0.304329331420734,44.87037142627557]]],[[[-0.300144894741986,44.86601752173722],[-0.299865671828252,44.86661534150576],[-0.299637743994438,44.86709430876597],[-0.299530304590346,44.86752130265803],[-0.299534742866725,44.867549375924646],[-0.299613369219731,44.86759569887931],[-0.299592474646643,44.86808085542584],[-0.299571120821655,44.868278025871724],[-0.299247233733438,44.868778138251],[-0.299452715680366,44.86883754097417],[-0.29963718268804,44.868892972433144],[-0.299235539174228,44.8696159923327],[-0.298995345820127,44.87004828407195],[-0.298961304568151,44.87003830226933],[-0.298545152455682,44.870894216243435],[-0.298397900785018,44.87085326617749],[-0.298088864686694,44.87076341690066],[-0.297698357978241,44.87065003529547],[-0.297653784834658,44.87076273889168],[-0.297584738324171,44.870937716544226],[-0.297600225210968,44.870942482899274],[-0.297562337541344,44.871037415856016],[-0.297537147501181,44.87110043211591],[-0.297594485871649,44.87113594488615],[-0.297780001969055,44.871189726442076],[-0.297948543601244,44.87123067546497],[-0.298083449204771,44.87125991796504],[-0.297683694157871,44.87180436253056],[-0.297521219787886,44.872028434115386],[-0.297706200293665,44.8720773657288],[-0.297101583002683,44.8730133066767],[-0.297206100382534,44.873051563283795],[-0.297031364181899,44.87343802082372],[-0.296753843994967,44.874046595024566],[-0.296701288048192,44.87403644152504],[-0.296635312279956,44.87399631867073],[-0.296591948665038,44.87398084577094],[-0.296336833486857,44.87392678619044],[-0.29618568285113,44.87412808127202],[-0.295979999259602,44.874402094458375],[-0.295911321573987,44.874492894878344],[-0.295837705049348,44.874588077207214],[-0.295998781233154,44.874594557841114],[-0.29598544090143,44.87468029063703],[-0.295961652838527,44.874728396298615],[-0.29593993877089,44.874755714467526],[-0.295895154747774,44.87480237103592],[-0.295804592884162,44.87487660975722],[-0.295791680404192,44.87504946869703],[-0.295787098343497,44.87511818044624],[-0.295757205958662,44.875403283235364],[-0.295823660337141,44.87558315710071],[-0.295888143467173,44.87576182791045],[-0.296003765627258,44.87594375601943],[-0.295942363188308,44.876052723372524],[-0.295802258350532,44.876010656091886],[-0.295574395643979,44.876496280676115],[-0.294478753673791,44.8761593462534],[-0.29351584126746,44.87585522875376],[-0.293531654264366,44.87584178330999],[-0.292834246031608,44.87553527802578],[-0.29275654071765,44.87560408639142],[-0.292772998886849,44.87561459183476],[-0.292812947205342,44.87563449296416],[-0.293059185493423,44.87576181528993],[-0.293419023379322,44.87593740072943],[-0.293598639561163,44.87602002055545],[-0.293936744034519,44.87617074752003],[-0.294338612061862,44.87635193133902],[-0.294264408567675,44.876428566764325],[-0.29501134658644,44.87682929289828],[-0.294874956960287,44.87696490626653],[-0.295025305474009,44.87704541909491],[-0.294992278310386,44.87708082259892],[-0.295677274547902,44.87749050249077],[-0.295620888523968,44.87776044213203],[-0.295801040358803,44.87795559353763],[-0.295929561773797,44.87802693113232],[-0.296035866346443,44.8780803651287],[-0.296132612077887,44.87808542204244],[-0.296512166608608,44.87810001215907],[-0.296527153948742,44.878100558269644],[-0.296453585355517,44.878295854808286],[-0.296429396098649,44.878347937466245],[-0.296388454968561,44.878410430032595],[-0.29621294524325,44.87866759750014],[-0.296131519945096,44.878750756571485],[-0.295853006068048,44.879179042438125],[-0.295719544475066,44.879319255751696],[-0.29568909890654,44.87931015724194],[-0.295668654008611,44.879341853179],[-0.295585804176264,44.87946984012781],[-0.295471356813229,44.87961228205371],[-0.295227832598057,44.87990922437567],[-0.295162098636487,44.87995316836897],[-0.295284070086083,44.88018483160546],[-0.295404026005964,44.88019010132072],[-0.295474120849164,44.88019450835452],[-0.295530288117395,44.88020347404512],[-0.295585221017024,44.88020652891716],[-0.29568931546131,44.88022227177926],[-0.295828279387494,44.88024905427875],[-0.295991006768028,44.88029847017068],[-0.296117569466246,44.880347157514606],[-0.296193863253232,44.880381567796064],[-0.296317819376918,44.88044844499607],[-0.296382231992388,44.880492039046935],[-0.296674739024136,44.88072251117517],[-0.296803040616212,44.88082449292454],[-0.297089846553927,44.881052790483096],[-0.297237556334319,44.88115933171671],[-0.297322592291662,44.88141795268829],[-0.297427074381399,44.881722764534636],[-0.297498274619039,44.88192709796707],[-0.297556315653519,44.88209514637063],[-0.297596286567004,44.88221236724687],[-0.297645300566662,44.882369149360045],[-0.297695732359295,44.88252201449223],[-0.297732762126867,44.88260859423115],[-0.297748997763505,44.88262604435342],[-0.297764718193855,44.882651980392886],[-0.297839227562958,44.882740059885606],[-0.297991529971675,44.88290738023449],[-0.298038776466332,44.88295643971466],[-0.298073211785532,44.882975151314014],[-0.298128612497373,44.88298395834332],[-0.29816371522506,44.88299030461435],[-0.298202357428263,44.88300726914527],[-0.298299214512072,44.88314343545624],[-0.298351749089699,44.88321991225331],[-0.298395024768298,44.88328981557194],[-0.298417072814105,44.88334791406638],[-0.298449058808162,44.88352115195212],[-0.298474817628127,44.88363158592278],[-0.298524917281774,44.883852045437926],[-0.298551245995128,44.88396354383239],[-0.298561361451403,44.8840105525582],[-0.298558700089124,44.88404505480037],[-0.298553269688763,44.88407342153075],[-0.298534669255637,44.88413002452556],[-0.298516814374849,44.88422733643079],[-0.298497995300252,44.884385863702285],[-0.297757687077296,44.88442786450799],[-0.297644041489728,44.88516412933902],[-0.297834500067433,44.88517613339945],[-0.298008813670895,44.885180867089],[-0.298010704917332,44.88544376060209],[-0.298010232772557,44.88545729157845],[-0.298010738916373,44.88548746439378],[-0.298008900192023,44.88552518625393],[-0.298007566476225,44.885616780682696],[-0.298006231245001,44.88569972431101],[-0.29816643342768,44.885710193716875],[-0.298193030082692,44.88581546650718],[-0.298190243411848,44.8858586233231],[-0.298168671596771,44.885903509738796],[-0.29805537087237,44.88606772770118],[-0.297848248787134,44.886026752017315],[-0.297692604531866,44.88600542327873],[-0.297483646989808,44.88598928252631],[-0.297119460787921,44.88597613001004],[-0.297073970596489,44.88594188651504],[-0.297050068876004,44.88589537723281],[-0.297019978517492,44.88585572011402],[-0.296968898400686,44.885812631312],[-0.29686319411691,44.88575242131839],[-0.296756938320039,44.88570439285813],[-0.296757174214895,44.8856954646713],[-0.296726720719405,44.88569276457413],[-0.296668062994405,44.88567387072954],[-0.296451291454085,44.885608848596554],[-0.296288148773051,44.88556773554771],[-0.296118047490989,44.88553115430735],[-0.295907159458402,44.8854929002072],[-0.295742111529214,44.885471127105795],[-0.295655322688286,44.885463160582766],[-0.295530171964868,44.88545164700227],[-0.295453100542301,44.88544726668916],[-0.295139315836443,44.88542891689756],[-0.295027884201319,44.88542005935392],[-0.294755102747724,44.88540274419542],[-0.294706839982195,44.88540327552648],[-0.294633518691603,44.885410948575995],[-0.294493636217026,44.885435645859445],[-0.294359974983905,44.88546051878663],[-0.294142015728164,44.88549825610455],[-0.294087743911333,44.88551302308081],[-0.294026882773812,44.88553861887256],[-0.293984506353687,44.885563846348404],[-0.293913761682448,44.885611092089164],[-0.293675205743821,44.88579028592546],[-0.29356602360899,44.88587805118118],[-0.293536754532244,44.88591063928412],[-0.293499826209348,44.88595958481121],[-0.293437134682246,44.88604038359495],[-0.293408973797392,44.88608537434807],[-0.293358517030054,44.88619969250954],[-0.293249985495492,44.88620786853345],[-0.293240653852987,44.886154708489364],[-0.293227990411417,44.88610525180012],[-0.293202157370417,44.88606465640633],[-0.293239081284328,44.88608041209495],[-0.293301269252153,44.88579236897434],[-0.293336721919113,44.88563407038575],[-0.293397110394441,44.885339141925996],[-0.293431766734046,44.885184561562305],[-0.29347587559642,44.88496860428621],[-0.293484001410003,44.88492564974875],[-0.293491633062774,44.88489802904194],[-0.293279381377152,44.88483430863435],[-0.293221554524966,44.88482737338107],[-0.293222533954863,44.88481382741217],[-0.293312770902306,44.88448971813753],[-0.293363885203464,44.884317528127774],[-0.293393805614599,44.884209676603504],[-0.293408031146686,44.88416482896567],[-0.293421123144422,44.884120105069854],[-0.293430198977895,44.884089017240086],[-0.293516503795136,44.8837994475314],[-0.293517731123485,44.88378796679921],[-0.293366481284936,44.88376794366619],[-0.293159778822512,44.883746862082276],[-0.293103489024788,44.883759615887335],[-0.293038081775077,44.883750922979196],[-0.292199231262799,44.88358233325833],[-0.292178179247795,44.88357782120653],[-0.292177397873358,44.883562345002964],[-0.292096905832048,44.88368323038227],[-0.29210933546351,44.88387993814668],[-0.29212786163589,44.883951568952014],[-0.292141909288026,44.88398791830003],[-0.292260481809522,44.88429348813451],[-0.292279897435866,44.884339230211744],[-0.292319619276554,44.8844955690864],[-0.292341511611185,44.88459431408135],[-0.292370525263281,44.88467185160311],[-0.292460575322877,44.88488013457812],[-0.292531890130709,44.8850434662927],[-0.292564575803921,44.88514684733911],[-0.292566614555094,44.885261500368635],[-0.292552087741716,44.885376824976916],[-0.292531827474952,44.88546141097587],[-0.292480820775587,44.88557069867817],[-0.292383775265783,44.885744340634545],[-0.292349653523503,44.885756887078394],[-0.292073834148107,44.88565972542997],[-0.292010517599587,44.88564565319798],[-0.291935860494218,44.885634890956204],[-0.291461652783843,44.885589298017706],[-0.291089887875656,44.885554903752215],[-0.290986396726817,44.885545266073265],[-0.290669955301057,44.885518331630614],[-0.290339695731706,44.885500006126236],[-0.290255887389741,44.88551690825839],[-0.28999853638749,44.88558112656621],[-0.289903708833613,44.8856046628921],[-0.289843214431047,44.88561925172552],[-0.289691482634402,44.885653755876604],[-0.289456855268249,44.8857661405073],[-0.289410026701361,44.88578897494993],[-0.289252273852814,44.885861323959624],[-0.289141180432168,44.88589498362849],[-0.289086522032209,44.88590966945428],[-0.289020432941921,44.88591315951896],[-0.288943451044443,44.885910303945764],[-0.288863110413791,44.885886912051],[-0.288567345687291,44.885767263962684],[-0.288393500364547,44.88578133507446],[-0.288348717113913,44.88583690943375],[-0.288299188661565,44.885902356491265],[-0.288259814668359,44.88595074179901],[-0.288139678213226,44.886111276432885],[-0.288095616767124,44.8861661985126],[-0.288047432199108,44.88622863192731],[-0.287982333552972,44.886316076911],[-0.287840246501631,44.88646545660286],[-0.28758968758944,44.88673438386505],[-0.287416354122286,44.88686324155606],[-0.287355762739403,44.88688269792947],[-0.286760093811282,44.88696873134239],[-0.286158407276763,44.88705160548246],[-0.286006105733811,44.88707215386613],[-0.285938106712822,44.887069030265124],[-0.285888662137418,44.88705157020951],[-0.28576987127595,44.88697551703706],[-0.285654408027937,44.8868913452513],[-0.285534711695734,44.88679981931132],[-0.28538352083302,44.88665533812451],[-0.285316300832395,44.886585417799274],[-0.285270347090637,44.88646954153181],[-0.285257509179025,44.886360705218486],[-0.285271381331552,44.88625125866136],[-0.285282825222452,44.88619775366127],[-0.285292306694668,44.8861648523668],[-0.285357381144817,44.88600982549324],[-0.285418948219998,44.88587283475215],[-0.285637515666135,44.8854925794923],[-0.285597704915872,44.8854794299462],[-0.285651624130201,44.885382855557474],[-0.285689710930749,44.88539254172541],[-0.285729682643071,44.885341346214595],[-0.285775157880791,44.885306208018534],[-0.285633285337069,44.885188755575435],[-0.285566321872192,44.88518812431291],[-0.285456147890341,44.88516173819903],[-0.285392011137203,44.885146605189064],[-0.28524861728329,44.885107054413226],[-0.285037250351559,44.88502581052195],[-0.285722920385905,44.88457658225791],[-0.285855600031505,44.884489481177994],[-0.286028987038573,44.88437891713811],[-0.286050639666258,44.88438935998906],[-0.28635751610636,44.88419040836558],[-0.286705946345803,44.883969499637665],[-0.286723023201118,44.88396025310719],[-0.286938911660089,44.88382662192643],[-0.287199992299642,44.88367903627673],[-0.287212086731135,44.88367345159799],[-0.2874757123277,44.88353038563386],[-0.287676708586046,44.883423867265144],[-0.28788205360561,44.88331370531903],[-0.288189713755758,44.88315212179153],[-0.288301350576671,44.883095378070976],[-0.288542416796887,44.8829719013475],[-0.288612060880215,44.88293613599332],[-0.288717507481078,44.88288624355099],[-0.288493580484767,44.88279609693189],[-0.288460450713813,44.88278662536799],[-0.288388787310946,44.88276198498909],[-0.288225384659879,44.88271834510747],[-0.288143672884562,44.88269742651356],[-0.288056093368993,44.882673707963164],[-0.287860083686159,44.88260571183745],[-0.287801737959562,44.88258554269754],[-0.287777723456486,44.882623470421564],[-0.287496328096175,44.882556200443425],[-0.28746407385529,44.88254219704149],[-0.287417010675679,44.882511240518205],[-0.287366461680363,44.88255058477326],[-0.287311015032439,44.88257989134612],[-0.287249289434444,44.882601544058524],[-0.287233072209229,44.882623290847064],[-0.287128865338055,44.88258834937514],[-0.286859465588712,44.882489994260325],[-0.286602956750801,44.882397474594015],[-0.286503005877495,44.882515237109416],[-0.286475453039687,44.88255119670349],[-0.286457364068237,44.88256912395602],[-0.286295479173855,44.882759097701076],[-0.286264743175733,44.882753699793014],[-0.286218180872188,44.88273561401208],[-0.286153841518077,44.882708322360095],[-0.28606807161585,44.88267220330229],[-0.285962531937534,44.882627477965315],[-0.28589662715061,44.8825972588067],[-0.286057553629004,44.88240172708656],[-0.285973088228727,44.88232078352729],[-0.285825067396799,44.882273530932736],[-0.285506209706494,44.882168166132516],[-0.285472864731607,44.882157168165854],[-0.285580671591932,44.88194410562147],[-0.285636296603537,44.88182477245639],[-0.28568407531385,44.88173594925068],[-0.285779115915816,44.88155164976003],[-0.285791295526602,44.88151938946793],[-0.285594952970013,44.88149969961083],[-0.285463371012275,44.88148422022417],[-0.285382489158349,44.881475260059005],[-0.285164653459717,44.881449987858986],[-0.284995494787979,44.881500590986974],[-0.284950446615312,44.88148885788477],[-0.284632084644738,44.881394019243224],[-0.284325738372698,44.8813008967766],[-0.284103989260335,44.8816028456751],[-0.283960339933335,44.88179696211398],[-0.283818888316585,44.88198749895637],[-0.283475402488431,44.88241632135832],[-0.28335786570149,44.88256073358773],[-0.283321527070731,44.882602539174165],[-0.283193262912494,44.88254631829247],[-0.282983554283324,44.88245637111177],[-0.282815440992163,44.882384116961084],[-0.282732496736329,44.88248506258052],[-0.282604491251189,44.88264555318367],[-0.282573092309852,44.88263098242916],[-0.282545653119727,44.88266459469604],[-0.282284946044603,44.88254785910499],[-0.282024039616321,44.88243202995413],[-0.28188014134991,44.88236635753232],[-0.282079014672468,44.88215844601699],[-0.282031917236294,44.882133345614875],[-0.281845693948824,44.88203963817731],[-0.281610365544292,44.88192115957234],[-0.281568445140986,44.881900051091286],[-0.28131680737707,44.88177358352908],[-0.281240753099146,44.88173663300849],[-0.280967993343701,44.88160006574839],[-0.280915145549873,44.8815719809537],[-0.280933799663377,44.88155719187031],[-0.281189428286651,44.88133147436503],[-0.281214999683155,44.88131143447676],[-0.281249043906476,44.881284565935914],[-0.281275221590357,44.88126405754999],[-0.281358937387906,44.88119796364841],[-0.281423112942057,44.88115101043057],[-0.281513390699016,44.8810952655297],[-0.281748728236008,44.88096476420961],[-0.281976915370449,44.88083988051144],[-0.282257794459799,44.88066027206772],[-0.282396791447124,44.880570735502495],[-0.282422378076558,44.88054880251322],[-0.282369525057617,44.880522791160644],[-0.282656656633046,44.88031362019575],[-0.282773285505454,44.8802057309847],[-0.282837307968215,44.88013670395389],[-0.283155023142789,44.879806958165176],[-0.283207333225895,44.879769546249975],[-0.283527711111944,44.879446388843434],[-0.283526852675413,44.87943605134272],[-0.28355392449354,44.87942002153753],[-0.283618998512247,44.87936249726373],[-0.283687562375794,44.87930396858406],[-0.283773634895549,44.87922843134882],[-0.283853862191643,44.87913531488444],[-0.28391035480714,44.87905677784652],[-0.284006553216231,44.878916060087285],[-0.284027737184791,44.87888605675552],[-0.284045025155655,44.878787323016475],[-0.284074824602845,44.87873561807482],[-0.284249710482117,44.87862275943846],[-0.284342586981306,44.87854656983827],[-0.284404663206653,44.87851364427613],[-0.284479096658179,44.87847314403659],[-0.284630129388385,44.87823429292482],[-0.28466080283619,44.878186707104966],[-0.284695755888103,44.87815377301966],[-0.285031650007515,44.87785565346795],[-0.28464292977876,44.87763890363474],[-0.285018927718602,44.8772378606525],[-0.285365604870184,44.876846965751014],[-0.285631983362668,44.87654144007292],[-0.285707432518047,44.87657894598998],[-0.285856992221358,44.87665273573964],[-0.286092687134791,44.87676903121796],[-0.286351201669269,44.876299011456524],[-0.285590274154822,44.876000109575806],[-0.28571198166621,44.87586881771959],[-0.285852044408988,44.87571986100063],[-0.285975576799958,44.87553318595089],[-0.286231194950224,44.87514795767613],[-0.286299546212392,44.875064292236274],[-0.286380459853008,44.874950607878034],[-0.286708781228959,44.87450636483085],[-0.28688201256864,44.87425306581228],[-0.286891696886982,44.87421069663485],[-0.287058932699214,44.873976228088054],[-0.287206815704614,44.87378351372153],[-0.287194815078892,44.87367384223281],[-0.287265526427959,44.873481250770176],[-0.287351661373311,44.87324909374302],[-0.287353227065409,44.873239044919515],[-0.287558418687321,44.87273969305151],[-0.287642284833284,44.87249480706851],[-0.287691502602885,44.8723377254193],[-0.287713178093067,44.872251296561814],[-0.287724189761182,44.87220780664294],[-0.287794866451154,44.87192816753931],[-0.287835628557429,44.871769534082844],[-0.287863165121656,44.87166202555056],[-0.287939975897749,44.87137896059894],[-0.287985402105478,44.87119829166691],[-0.288306932470532,44.871272389289565],[-0.288560478206934,44.87133029790085],[-0.289051710739947,44.871443609738506],[-0.289394291230781,44.87152437953678],[-0.289442835013467,44.87142075349203],[-0.289626804276243,44.87102673673225],[-0.28964221579777,44.87099564176258],[-0.289645979029677,44.87098633877004],[-0.289806449526558,44.87065843967969],[-0.289938594006175,44.870385627597116],[-0.28956164878774,44.87033246140933],[-0.289274288679852,44.870287812688325],[-0.288871111415673,44.8702281226044],[-0.28844752610069,44.870163989531505],[-0.288447146596646,44.870164000776825],[-0.288527658378884,44.86998094028128],[-0.288561333983094,44.86998039294523],[-0.288634425208449,44.86998426453627],[-0.289351480732236,44.87001572899788],[-0.289475130403763,44.8700238686579],[-0.289641078681941,44.869406817846105],[-0.289778279688643,44.86890037557053],[-0.290410266654511,44.86890975393888],[-0.29053159451771,44.868908589528246],[-0.290630094975018,44.868427353469706],[-0.290668241558143,44.86836044045589],[-0.290667618956743,44.868345500299604],[-0.290651499001485,44.86829749795792],[-0.290666111878077,44.86823335535544],[-0.290649081231635,44.86808986114172],[-0.290508531401035,44.867797740010545],[-0.290409118650965,44.86759559250221],[-0.290875796900751,44.86757805959127],[-0.290887415958722,44.86752121471414],[-0.291585592977765,44.86754457290082],[-0.291847665675032,44.86755148745439],[-0.291795477967185,44.866927476777434],[-0.291728020844518,44.86619001742226],[-0.291698417320019,44.86578250734719],[-0.291641716119708,44.86575985899998],[-0.291405470081803,44.865259805610464],[-0.291309605821053,44.86506196935016],[-0.291648527082739,44.86501181649719],[-0.2912459880679,44.86440711939912],[-0.291602864021779,44.864224600064354],[-0.291969472048461,44.86404386338541],[-0.292177747393821,44.86393747970847],[-0.292200010812612,44.86396060877843],[-0.292441849876914,44.86417583016483],[-0.292472044279892,44.864254232937775],[-0.292583904920598,44.8644957485286],[-0.293080171286221,44.86411913182793],[-0.293170719020475,44.8640405702103],[-0.29366100596392,44.863661514934314],[-0.293821089029556,44.863539347064844],[-0.294113122315395,44.863312246166316],[-0.294181550739664,44.86325840025416],[-0.294590748812348,44.86294005041688],[-0.294834510543562,44.862749794789345],[-0.294961378595652,44.86265113946243],[-0.295159697810078,44.862498367436956],[-0.295486973995954,44.862243723099134],[-0.295637582127089,44.86250625255732],[-0.295741017000046,44.86268178288756],[-0.295801712262944,44.8627875741548],[-0.295826570380555,44.86281603218715],[-0.295997236056916,44.862973435330254],[-0.296206282937964,44.863147900807384],[-0.29666141888835,44.86345436869078],[-0.296897678639438,44.863619644087215],[-0.297079648267687,44.863704079376205],[-0.297135880976525,44.86372953233777],[-0.29765844808372,44.86396289420818],[-0.297812969339867,44.86403084250136],[-0.29799142496019,44.864107180594424],[-0.29821534141304,44.86420460518612],[-0.29841155591912,44.864292039295734],[-0.29858461162449,44.86437133048559],[-0.298705663047003,44.86443892084758],[-0.298932000867634,44.86456240470815],[-0.298700219210369,44.86554061718108],[-0.298690169901174,44.86557660044567],[-0.299265885714663,44.86564238845368],[-0.300192867570827,44.865749452041015],[-0.300193171522469,44.86591407860933],[-0.300144894741986,44.86601752173722]],[[-0.295127635169911,44.878187983054836],[-0.295103425956452,44.878216005902],[-0.295131657153557,44.87822841434395],[-0.295153805342492,44.87820198459303],[-0.295127635169911,44.878187983054836]]],[[[-0.295320543490983,44.886733958707424],[-0.295256885383026,44.8869968153465],[-0.295249497366886,44.887028574171545],[-0.295191673913327,44.887280714370405],[-0.295185511541463,44.88729017892139],[-0.295031749628492,44.88737647541723],[-0.294919224283206,44.88742460146165],[-0.29483280014151,44.887448793684584],[-0.294722053591495,44.88747109443832],[-0.294546148444085,44.88748685824259],[-0.294282345884354,44.887510366615075],[-0.294175256251642,44.88751507639738],[-0.294120738152779,44.88751272920517],[-0.294079427536044,44.887508638382556],[-0.293984097938308,44.887484793693886],[-0.293970626375231,44.88748203947946],[-0.293913386716477,44.88747004075382],[-0.293845065251047,44.8874679227746],[-0.293817215891251,44.88746856887385],[-0.293777109285108,44.88748282523719],[-0.293650040467718,44.88752507357443],[-0.293479293955092,44.88756825714884],[-0.293458646975485,44.88757067195848],[-0.293466458958742,44.88755043514408],[-0.293650819198325,44.88707412583174],[-0.293712919188975,44.886920623423194],[-0.293827234722917,44.88663743122984],[-0.294521266436925,44.886588270223],[-0.294703058697314,44.88657782853729],[-0.294809773949412,44.88658835838036],[-0.294885414251191,44.886605037015016],[-0.295296549328055,44.88673980740808],[-0.295320543490983,44.886733958707424]]],[[[-0.287501474421352,44.91338698570338],[-0.287270496583711,44.91392062473011],[-0.28723369572366,44.914063011583174],[-0.286489423083384,44.9150935855817],[-0.286422636241453,44.915217755422574],[-0.286550934555962,44.915327321498175],[-0.286498935732082,44.91538788438692],[-0.286130599048975,44.915819972499676],[-0.285784140157102,44.91608659489363],[-0.285300158177152,44.916452083195836],[-0.284810519146051,44.91665832623819],[-0.284273856562681,44.91688461095264],[-0.284032375660165,44.91695167651324],[-0.283512916660116,44.91709715788295],[-0.283481296208863,44.917100796064204],[-0.282829131791285,44.91721307056223],[-0.28220345311037,44.917316358190625],[-0.28209884299981,44.917321071502755],[-0.281952852836553,44.9173295306159],[-0.281817350045983,44.917337319209125],[-0.281430191450532,44.917359751871835],[-0.280720031911576,44.91740434012052],[-0.280371910222786,44.917424174202544],[-0.279907595792667,44.91743067741635],[-0.279468972938607,44.91743191446513],[-0.279024942766625,44.917401409423924],[-0.278498058551696,44.91737244716834],[-0.27844740014072,44.91736934670569],[-0.278266785519063,44.917358277212074],[-0.27824871706884,44.91712298495269],[-0.277922342351974,44.91710693536271],[-0.276787020744135,44.917018422840826],[-0.276387539743036,44.91698839535187],[-0.275281003698469,44.91692794465443],[-0.27452220956649,44.91687372208936],[-0.274457507522477,44.91676911634512],[-0.274271307107068,44.9167448684323],[-0.274095636636461,44.916677235926954],[-0.273883441589279,44.91666826179694],[-0.273078776786491,44.916601594372004],[-0.272702656450548,44.91658276023847],[-0.272509202851683,44.91656241775341],[-0.271697829920032,44.91651765521053],[-0.270931882169679,44.91642541139598],[-0.270402711150092,44.916413509778536],[-0.270041241587096,44.91641315893925],[-0.269737882448459,44.91641758432593],[-0.269209755347856,44.91640834968033],[-0.269001220250138,44.9164077291267],[-0.268410499297505,44.916408172740965],[-0.26811821932928,44.91640902362783],[-0.267312577283432,44.91641677636216],[-0.266326785059819,44.9164126098427],[-0.266243200871119,44.91642119551805],[-0.265791953048848,44.916471140396474],[-0.265372357155081,44.91651799017412],[-0.265155482022956,44.916541847794996],[-0.264875474885662,44.91657269717856],[-0.264767965737493,44.91658423781254],[-0.264663654068058,44.916594062336216],[-0.264509604677549,44.9166100344914],[-0.263890468076457,44.916673556757715],[-0.263599298092748,44.9167022077776],[-0.262968483978682,44.91675687653014],[-0.261722567076916,44.916855108568235],[-0.261704007969354,44.91685655470512],[-0.261404459862684,44.91688292281041],[-0.261359138220722,44.91688650641414],[-0.260777727614463,44.91693151175097],[-0.260419218835939,44.91695375084154],[-0.259671812614888,44.91694018409749],[-0.25927560144698,44.91692036230473],[-0.258538042184444,44.91688198854005],[-0.258430663997279,44.91687180215695],[-0.257501290423375,44.9167778626049],[-0.257355879006033,44.916765726842044],[-0.257256730806865,44.916755297974674],[-0.257210253402925,44.91674990258288],[-0.256554947492059,44.91664061853715],[-0.25607191697514,44.916560522961326],[-0.255980236515375,44.91654545856917],[-0.255657379185216,44.916493646587966],[-0.255180848720381,44.91641624026536],[-0.255098246667384,44.91640244099245],[-0.254878823141871,44.91636714966922],[-0.254859154514124,44.916362589685846],[-0.254668690488339,44.91632149314758],[-0.254196650297176,44.91622088249785],[-0.254177941117694,44.91621755585114],[-0.254085521689023,44.916196293867834],[-0.253853799288097,44.91614135608827],[-0.253755524944513,44.916110983853564],[-0.253685906919128,44.91608707111758],[-0.253360721911984,44.91596007750651],[-0.253153807601991,44.91587584623402],[-0.253108634113042,44.91586230091567],[-0.25297367167151,44.91579848980307],[-0.252869714729914,44.91574665644549],[-0.252700023341683,44.91564601522386],[-0.252653576914619,44.9156105197583],[-0.252473080688494,44.91546351679629],[-0.25240038218028,44.91540833464778],[-0.252403277035834,44.91533580009805],[-0.252841121750565,44.91499578217031],[-0.252871072407283,44.91498958839887],[-0.253079670919826,44.91482965818118],[-0.253163836934094,44.91481800156091],[-0.253190402068749,44.91473378003172],[-0.253278200022845,44.91466668836165],[-0.2533140701031,44.914557053082056],[-0.253545751495557,44.91442780464878],[-0.25364312187142,44.914379265598484],[-0.253802098640879,44.914288731807645],[-0.253892428060628,44.91428058862294],[-0.253986519226056,44.914236741026826],[-0.254214227349096,44.914122115524364],[-0.254244152683829,44.914060863849485],[-0.254227279445502,44.913988638090565],[-0.254428330525691,44.91392822942641],[-0.255171748091426,44.91373838466162],[-0.255819837772448,44.91355583495807],[-0.25634809058258,44.9134040087933],[-0.256345985359065,44.913367755464286],[-0.25656667106738,44.913315778303854],[-0.257409078241369,44.913068497876694],[-0.2581905674621,44.91287291999332],[-0.259178492930671,44.91259855831658],[-0.259649911843706,44.91245757521291],[-0.259811022512084,44.91260252240205],[-0.259877964679136,44.91272004596429],[-0.259783857800716,44.9127569605798],[-0.26033671718992,44.91311154288518],[-0.260867761293593,44.9134223379739],[-0.261213668279518,44.91356104646343],[-0.261170400195925,44.913643507902954],[-0.261415522592678,44.91372173626395],[-0.261653825795691,44.91378736845693],[-0.262155733718162,44.913939334886614],[-0.262251824475881,44.91393651247128],[-0.262978682636062,44.914218747966586],[-0.263272212391107,44.91425265683181],[-0.26382251365242,44.91426631371901],[-0.264333967629043,44.91427272923823],[-0.264419057273811,44.914239950600546],[-0.26456253052196,44.91400756941225],[-0.265034626503158,44.91325747502064],[-0.265298819435212,44.91314697997005],[-0.268436757399058,44.912789927853844],[-0.270128670822226,44.91258873444853],[-0.270244953230443,44.91264514516161],[-0.27047905495144,44.91260382870909],[-0.27062994835254,44.91258613861667],[-0.270723396913363,44.91257284344957],[-0.270888387097186,44.91256419966016],[-0.271132223552698,44.912563686393455],[-0.271305092948667,44.91257706769388],[-0.271669718168291,44.9126145371952],[-0.272071359594072,44.9126821839935],[-0.272084454069439,44.91274794079371],[-0.272327470404641,44.912796380195786],[-0.27270249491217,44.91287075645023],[-0.272747900382454,44.912816522381455],[-0.27277174311699,44.912777431832126],[-0.272788199521687,44.91270521729581],[-0.272562603304143,44.912099099796784],[-0.272523040170081,44.91199267123274],[-0.272314538390977,44.911336037377936],[-0.272295388139397,44.911290373927535],[-0.272662989712384,44.91116167487896],[-0.272743432491508,44.91132321901171],[-0.273915910080934,44.91111843872262],[-0.274513288598024,44.91101576045277],[-0.27527341139978,44.91091170369273],[-0.275362556794107,44.91106145505627],[-0.275477322654151,44.91127857589277],[-0.27550691320823,44.91139872444446],[-0.275517130389926,44.91144555201707],[-0.275538297128912,44.91154306040646],[-0.275519833859677,44.91161993037385],[-0.275460758512512,44.91186560765814],[-0.275485352101377,44.91194796618973],[-0.275591650196574,44.91204179230358],[-0.276187235342496,44.912561656646325],[-0.276826030211197,44.91312196553199],[-0.277229768395175,44.91406290527838],[-0.277314806547241,44.91425503962466],[-0.278236874432263,44.914150239834484],[-0.279148658245701,44.91404312265986],[-0.278904906319289,44.913431423982004],[-0.278588810822286,44.912625594952736],[-0.278490635425124,44.91237797948723],[-0.278267149690021,44.91181551425194],[-0.279204128661438,44.91128979868666],[-0.278476994535728,44.91061325283498],[-0.278658425128907,44.910506339615175],[-0.279102621111846,44.910250010535655],[-0.27935818753561,44.910090263715006],[-0.279506848179086,44.909884922275104],[-0.280006373607873,44.909178464016485],[-0.280060978990107,44.90872015957036],[-0.280033325244106,44.90864411014289],[-0.279830174918713,44.90813232220547],[-0.279661462081499,44.90770845832333],[-0.279497201319083,44.907297799520954],[-0.279431755620998,44.9072043028565],[-0.279328786727564,44.907154357326256],[-0.278502529114343,44.907013306990414],[-0.278176626512073,44.906956605186615],[-0.277105264367066,44.90676997388468],[-0.276868558433833,44.90660998031023],[-0.276809257539402,44.906358964400546],[-0.276757738550358,44.90625415178194],[-0.276677553235967,44.90615351917078],[-0.276348586321065,44.905829358519554],[-0.275995788956398,44.905481389463276],[-0.275822211800141,44.90525582205398],[-0.275723320596338,44.90504328031424],[-0.275682771243953,44.90483748810744],[-0.27567959488726,44.90479613006788],[-0.275564011022431,44.904870908643005],[-0.275034361840037,44.90524418701812],[-0.27479872793304,44.90541721344689],[-0.274322228710949,44.905145968611194],[-0.272952232510064,44.904534393259425],[-0.2733943159277,44.90414883789023],[-0.273540483649379,44.90400061959041],[-0.273415215621693,44.90389428521571],[-0.27359435892205,44.90375491699836],[-0.273664385014998,44.9036838265263],[-0.272833438191302,44.903263526226596],[-0.2726028794212,44.90315191387122],[-0.272153020662728,44.902923850434554],[-0.271998501131083,44.90297021575371],[-0.271273639360629,44.90271402679929],[-0.271036463939799,44.902630180627305],[-0.270485103556091,44.90241816703179],[-0.27028541149935,44.90165935675192],[-0.27025334908037,44.90161830878429],[-0.270106165967954,44.90103150796378],[-0.27000901832842,44.90062219622865],[-0.269910076014136,44.90020599872377],[-0.269824392222546,44.89984104499489],[-0.270411489666239,44.8999075586251],[-0.270653795289607,44.89993826866547],[-0.271125160136285,44.89999863563091],[-0.271679637864865,44.900064481609355],[-0.271812630861203,44.90007957656068],[-0.272280586400015,44.90036180524551],[-0.272781015202185,44.9006702888815],[-0.272835878764054,44.90068705468082],[-0.273074900568912,44.90076786866851],[-0.273222332413024,44.90081308442948],[-0.273560562043604,44.90052340496723],[-0.273669356545644,44.9004323380172],[-0.274145079837506,44.900028575800135],[-0.274371991290597,44.89987806538848],[-0.274856530856616,44.89954946390215],[-0.275008294772799,44.899397473868625],[-0.275065759103627,44.89925033768641],[-0.275086476438813,44.89914916129322],[-0.275102472425078,44.89905398145838],[-0.275128079977088,44.898945361720585],[-0.275220371148152,44.89854353210354],[-0.275325430522188,44.89810852490807],[-0.275340471365652,44.898036081516125],[-0.275377362756422,44.89774510208965],[-0.275413570229273,44.89739899414137],[-0.275406669226325,44.897089752255724],[-0.275389196356629,44.897029351829204],[-0.275294786775249,44.896660964581336],[-0.275248953783318,44.89655562374028],[-0.275233098776628,44.896455616319244],[-0.275218098489859,44.896376760058295],[-0.275247525242292,44.89637048526815],[-0.275582335841435,44.896322490694914],[-0.275918062796474,44.89625329168132],[-0.276482961866156,44.896137769646664],[-0.277133774221789,44.8960085349469],[-0.277603529597869,44.89607649052476],[-0.278533440176304,44.89621727503877],[-0.278677008579104,44.89623772634094],[-0.278791855584069,44.89636977375787],[-0.278940998287972,44.89667860001536],[-0.279277818523427,44.89741532403772],[-0.279436270754195,44.89761222560848],[-0.279613664166446,44.897996452015754],[-0.279774578825287,44.898354671949946],[-0.280019749971424,44.89883115353846],[-0.280347699989048,44.89934637066287],[-0.280454248353376,44.89953795602144],[-0.28069002646688,44.89990351521825],[-0.281000007119387,44.90032374251873],[-0.281173489537401,44.900634280656966],[-0.281323166942412,44.900609401982045],[-0.281287512978987,44.900637128945476],[-0.281298870621375,44.9006535542598],[-0.281303700821549,44.90065809737702],[-0.281317078870318,44.90067004746531],[-0.281555310093003,44.90062660160262],[-0.281648571143777,44.90071666137262],[-0.282030388855817,44.9010751085429],[-0.28241291957153,44.90141965615215],[-0.282529496795776,44.90158309867783],[-0.282677809350982,44.90172767048303],[-0.283589734369669,44.902798190753],[-0.28392176348452,44.903187211154304],[-0.284825699390046,44.90415081520122],[-0.284952477324832,44.90434098781672],[-0.285643626737315,44.905158680272386],[-0.286322521843885,44.90617155621768],[-0.28689137179343,44.90713677238918],[-0.287099484453156,44.907029054941724],[-0.287128728978633,44.907121276098934],[-0.287282902684131,44.90751465177444],[-0.287532137316425,44.908108418314264],[-0.287809141778118,44.908769127505444],[-0.287823433991255,44.90902588733568],[-0.287690208451437,44.91321441897791],[-0.287488316269498,44.913162542592794],[-0.287501474421352,44.91338698570338]]],[[[-0.284929802845044,44.87631081166118],[-0.284788120829707,44.87641052372854],[-0.284560600438101,44.87662649734953],[-0.284315700246929,44.87688768035364],[-0.284198484422675,44.87701135834791],[-0.283719013718151,44.87751980950716],[-0.283526141404783,44.8777215993939],[-0.283480860053387,44.87770149228293],[-0.283385550452053,44.877814068293475],[-0.283322374271377,44.87788883782699],[-0.283368288312804,44.87790892629043],[-0.283343819750775,44.87794344214323],[-0.283260912494608,44.87806871740599],[-0.28318051579914,44.87823473911189],[-0.283099147437474,44.87835600378988],[-0.283024795603755,44.87858852951288],[-0.282864873234848,44.87887269720817],[-0.282724085868128,44.87910051934594],[-0.282689471460313,44.87915660155943],[-0.28262267374845,44.87925833116265],[-0.282461208376296,44.879488026041585],[-0.282391184527308,44.879580118793015],[-0.28224421099209,44.8797455854161],[-0.282215434110174,44.879777975594145],[-0.282102053748416,44.87987423379698],[-0.281698302667185,44.88018930871559],[-0.28161958313284,44.88023894491073],[-0.281399463950503,44.8804042299277],[-0.281329324654873,44.88046839062552],[-0.281246084446854,44.880533929789344],[-0.281135437654972,44.88062496973911],[-0.280948219176446,44.88077639521585],[-0.280838156996279,44.8808644438702],[-0.280759402188253,44.88092867860951],[-0.280658456341606,44.88104259011581],[-0.280589038897193,44.881136465949396],[-0.28050499018384,44.88127925443156],[-0.280464129910617,44.88137598078337],[-0.280423384905753,44.88147684886639],[-0.280399041608975,44.88157209582585],[-0.28039234480713,44.88162014323369],[-0.280415271439881,44.88170444134129],[-0.280420603951722,44.88172410839939],[-0.280102894264401,44.88160995370271],[-0.279619998700186,44.88201990429603],[-0.279564342661686,44.881948107394784],[-0.279115146019515,44.881728979360766],[-0.279017911925336,44.881683101174524],[-0.278694645794131,44.881523690253125],[-0.278097954295209,44.88123565392856],[-0.278443588861874,44.88086256513809],[-0.278557209462986,44.880735575618736],[-0.278805170255309,44.88046530468257],[-0.278854151494378,44.88049449585811],[-0.279229652621022,44.88008393671262],[-0.27952791948201,44.879893819239896],[-0.279808128263686,44.879563930187615],[-0.279932016672666,44.8794088812572],[-0.280204311935023,44.87904993857133],[-0.280235339210843,44.879064701109485],[-0.280280888870322,44.879013523054],[-0.280310994287399,44.879023356656596],[-0.280324302242228,44.87900818499383],[-0.280346948926454,44.87897498527473],[-0.279682073270046,44.87874087781862],[-0.280013015775869,44.87815375139555],[-0.280118786275809,44.87796850945886],[-0.279646788693116,44.877779435031066],[-0.279376072783245,44.87763190078366],[-0.279168890586682,44.87752186778081],[-0.278823552603147,44.87734436696713],[-0.278447319058842,44.877143447552406],[-0.278309443433021,44.877074259104276],[-0.27800087654728,44.876827545296095],[-0.277652213135985,44.87654741190477],[-0.27729184796588,44.87625347553051],[-0.27702036833863,44.876038374765805],[-0.276606467076493,44.875697807326134],[-0.276229519878976,44.87539750895445],[-0.276051800046755,44.87525352996302],[-0.275934103011588,44.875171668251866],[-0.275863551031796,44.875220068042445],[-0.275147030226122,44.87456249358256],[-0.274452421048276,44.87410638886865],[-0.27467342942057,44.87393036831311],[-0.274730701919398,44.87388461389487],[-0.274455885963431,44.87371186840402],[-0.274402398230042,44.8737573307913],[-0.274122672638197,44.873578601797306],[-0.27447744283922,44.87324733821424],[-0.274708904322298,44.873033342502325],[-0.274733629588586,44.87299665844803],[-0.274665112724169,44.87294091862781],[-0.274557201497082,44.87285507240782],[-0.274418186463018,44.87274437188599],[-0.274378379925805,44.87276149605862],[-0.274276481444953,44.87268529435079],[-0.274010771353565,44.87250993649276],[-0.273825496616852,44.87238825468994],[-0.273561028125185,44.872273233905446],[-0.272248858439312,44.87190489709126],[-0.272136574401014,44.872015620453176],[-0.272003196500086,44.872157963904534],[-0.271753741731994,44.87241339472603],[-0.271484960978908,44.87277428425794],[-0.271350327776915,44.87296036787549],[-0.270889160462911,44.87273624653713],[-0.270686732334142,44.8726375930423],[-0.270059879905975,44.87239284960276],[-0.269982406611457,44.87237251436341],[-0.270007806899614,44.87209944965562],[-0.27006443371488,44.87172508091116],[-0.270109300219585,44.871546870475825],[-0.270268035813747,44.871352508897004],[-0.270548184441152,44.8709496560852],[-0.27084652188962,44.870554556665624],[-0.270872232973729,44.87041953308275],[-0.27060529282756,44.87038576887673],[-0.270231580714709,44.87026810290287],[-0.269380926652853,44.86999868269127],[-0.269233806402163,44.87013791316807],[-0.268758435797809,44.870380798153654],[-0.268410789289743,44.87016666038191],[-0.268438775801762,44.870127178465324],[-0.268516003455699,44.87002587183336],[-0.268779610329087,44.869752279860656],[-0.268888840176467,44.8696238980985],[-0.2689089254754,44.869629343922156],[-0.268916099337449,44.86961327304657],[-0.269020932434992,44.86947033253327],[-0.269111475012599,44.86934529444341],[-0.269282530046329,44.86915363520369],[-0.269389088352228,44.86889025497128],[-0.26946647205335,44.86861115369911],[-0.269473061694176,44.868528507850634],[-0.269574050778009,44.86828484562956],[-0.269753287380322,44.86796183280683],[-0.270034039875221,44.86760654223447],[-0.270403083995736,44.867744440598514],[-0.270916302140743,44.8676144230276],[-0.271182423784597,44.867540887748625],[-0.271356150670595,44.867501794691655],[-0.271431967889712,44.8674873045359],[-0.271864712147141,44.867420209513384],[-0.272058798552218,44.867363033480196],[-0.2723862218147,44.86730210553085],[-0.272545436576386,44.86722712366612],[-0.272768830494913,44.86721188493542],[-0.272884460447875,44.867200004286474],[-0.272983132927048,44.86719502155657],[-0.273192327118327,44.86722093107327],[-0.273327502017812,44.867203066791866],[-0.273484126497505,44.867211873347834],[-0.27369505140072,44.86721096781163],[-0.273721029784445,44.867171904133144],[-0.274114940093115,44.86645444091725],[-0.274297413219247,44.86653277045225],[-0.274353699448375,44.86652453153622],[-0.27436640499096,44.86653163588125],[-0.27493178942288,44.86676825495567],[-0.275285508979141,44.866947409953944],[-0.27532135310866,44.866975367890845],[-0.275368248609399,44.86700813598288],[-0.276313522213164,44.86766570968583],[-0.276484330264385,44.86778285785261],[-0.277480324164381,44.86835593232464],[-0.278461519588978,44.86891393655418],[-0.27903131693068,44.869234029375896],[-0.278987183817527,44.86927029668819],[-0.279450578278907,44.86953459835925],[-0.279630609141981,44.86963588025674],[-0.279888568395911,44.869784780638334],[-0.279975266911405,44.86983286103118],[-0.280147151939502,44.869926993750106],[-0.280487286427378,44.87011806926803],[-0.280848385778501,44.87030789325904],[-0.281520124173685,44.87067398136717],[-0.282001705322501,44.870943322378004],[-0.282565730158104,44.87125717124304],[-0.283003758317159,44.87150535859255],[-0.283203018594228,44.87162318755562],[-0.283094759293464,44.87171352840071],[-0.282663062173494,44.87208052805945],[-0.282460535468338,44.87225133292764],[-0.282211143228037,44.872461550631144],[-0.28227905275685,44.87249378475285],[-0.283072222191003,44.87290520420651],[-0.283115105815784,44.872932050547455],[-0.283098516110804,44.872947409773005],[-0.283135112000419,44.87296642214933],[-0.283156187568401,44.87294975876013],[-0.283164067710559,44.87295231911558],[-0.282825782357646,44.873488669687106],[-0.282559744564071,44.87391051273922],[-0.282568520475726,44.87391755224364],[-0.282445256154849,44.87408727420681],[-0.282525022076318,44.87412717756009],[-0.282797859206412,44.874272117835666],[-0.283326808645619,44.874538161059476],[-0.283438303567476,44.874580999966376],[-0.283899983634524,44.87474341945528],[-0.284175543678911,44.87493909918992],[-0.284506754916052,44.87522162145039],[-0.284653951427377,44.87532224585458],[-0.284634293250166,44.8753414808303],[-0.28498782969198,44.8755073668628],[-0.285229400948811,44.8756224086644],[-0.285600858129894,44.87579560216935],[-0.285400329264444,44.87598329440512],[-0.285205547211811,44.876128463452396],[-0.284929802845044,44.87631081166118]]],[[[-0.280539129583261,44.89206891063477],[-0.280267354862433,44.8923424119191],[-0.279720642236028,44.89293735542117],[-0.279587808948748,44.89318061774059],[-0.279561627286903,44.89325537336552],[-0.279604964282266,44.893270223309834],[-0.279722614493215,44.89328549123475],[-0.279587114267978,44.893480982684956],[-0.279415906590553,44.893590480168015],[-0.279247853992335,44.894081419819955],[-0.278952044932457,44.89406114035952],[-0.278883523036099,44.89445911762185],[-0.278847880683875,44.89468653242837],[-0.278806536236852,44.89492267629759],[-0.278716514797553,44.89537364369464],[-0.278629915212403,44.8958810104443],[-0.278605747598019,44.89591218208527],[-0.278274517838853,44.89589772243781],[-0.277898248160448,44.89585881941323],[-0.277509958185289,44.89583549894699],[-0.277022713494365,44.8957936511353],[-0.276743036660058,44.895830471131916],[-0.27645265675707,44.895907616107934],[-0.276085629972019,44.895953139729336],[-0.275773549377793,44.896027769274866],[-0.275347760059912,44.89605267630208],[-0.275164100875293,44.89607512532301],[-0.275110011171399,44.89596732465941],[-0.275106243648617,44.89595491019806],[-0.274700628183759,44.89555010548596],[-0.274492146070088,44.8953905381165],[-0.274083278777016,44.895138387207325],[-0.273436488805234,44.89470212222613],[-0.27302466972192,44.89444266560315],[-0.272314201163066,44.89399024949821],[-0.271647673302017,44.89355852173308],[-0.271564514928841,44.89349338824282],[-0.271291825471927,44.89350205411769],[-0.271176594748826,44.89359997674581],[-0.270937797374954,44.89373767466851],[-0.270420580823939,44.89403370019958],[-0.270352313213914,44.893989123256034],[-0.270154045150744,44.89408273229044],[-0.27009638889574,44.89409839784588],[-0.270031507710315,44.894083638119426],[-0.269979582556615,44.89403668726445],[-0.269875629753092,44.89393449821573],[-0.269153286556197,44.894382810352404],[-0.268605375082242,44.89472451643831],[-0.268374353286029,44.89486747648217],[-0.268172829904847,44.89499235634493],[-0.26814371523012,44.89501051483348],[-0.2679905880292,44.89491725079132],[-0.268013257149645,44.89490378765748],[-0.267819287475854,44.894714404805136],[-0.267789356632234,44.894685909300414],[-0.267405184113281,44.89432820805424],[-0.267384641103355,44.894310700150974],[-0.26726833870528,44.894205357857174],[-0.266975182745629,44.89392796979177],[-0.266880864774306,44.89388010231976],[-0.266105721727103,44.893840010123796],[-0.26576486550853,44.89380579203486],[-0.265573857350296,44.893793388010614],[-0.265391664554116,44.89378432885492],[-0.265265213219885,44.893776783947686],[-0.265044888703502,44.89377254026598],[-0.264695111394184,44.89376363231851],[-0.264649486132117,44.89379435032665],[-0.263851855015084,44.89359865022126],[-0.263773636040417,44.89372719600375],[-0.263563775753693,44.893922419180704],[-0.263301446053048,44.8938803884445],[-0.262400300356188,44.89445727314187],[-0.261572489324253,44.89390605238251],[-0.26046200209008,44.89464180933032],[-0.260355973362274,44.894728276091016],[-0.260154434101644,44.894892429956734],[-0.259988586866401,44.89503814393068],[-0.259436078766654,44.895533037344265],[-0.259226027503965,44.89571879569957],[-0.25899354108905,44.895876286391605],[-0.258538112831575,44.89612430365356],[-0.258282717275145,44.89625849548059],[-0.257962853090918,44.89643305599216],[-0.25786319937682,44.89648752382217],[-0.257659424950303,44.89661560376706],[-0.25719643421968,44.896995579959246],[-0.256911822059239,44.89723371296376],[-0.256669850425629,44.897431125725966],[-0.256528551682192,44.89749987991542],[-0.256643295648175,44.89772710945774],[-0.256063900752782,44.898478329302286],[-0.255218045951662,44.898098891343025],[-0.255096334069591,44.89806172925676],[-0.254916655768455,44.89848727579943],[-0.254853988024117,44.89864176143312],[-0.254776558716059,44.89883245393234],[-0.254757406835483,44.8988825765593],[-0.254246461341144,44.90015208243961],[-0.254207680665813,44.90027910453691],[-0.254170013327442,44.900683186359196],[-0.254162269916145,44.90078136432404],[-0.254128931251397,44.90090822691325],[-0.254102624476724,44.90102298871867],[-0.251984299297725,44.90053627061044],[-0.251657685004686,44.90039174554527],[-0.251452498424922,44.90032972013482],[-0.250002940485157,44.90009110063673],[-0.249637568983155,44.90001276449978],[-0.249707188716368,44.89986420630061],[-0.249280249351777,44.89974730117134],[-0.248610957895578,44.89962703238247],[-0.248551241460688,44.89961607384395],[-0.248550988319921,44.89961608125001],[-0.248551726901813,44.89961569919737],[-0.248975629417566,44.898837532641004],[-0.249167728400139,44.898529318575264],[-0.249249840823412,44.89845635875461],[-0.249732657230037,44.89799951311134],[-0.249896485860601,44.897873068092004],[-0.24996630744678,44.89778713101197],[-0.250604464123572,44.89728076889374],[-0.250689420858635,44.89733351973113],[-0.251338373987531,44.89676646259598],[-0.251655840282445,44.896510801915106],[-0.252132626127569,44.8962238910178],[-0.252530723530851,44.8959377512287],[-0.252636968530547,44.895990327474884],[-0.252856130298559,44.8958519841138],[-0.253311534274658,44.89554415773924],[-0.253896990405542,44.89519674386667],[-0.254396071129142,44.89489898673987],[-0.254879300374589,44.8945750190339],[-0.255241263840068,44.89436571177057],[-0.256159110529739,44.893719372258545],[-0.2560822890526,44.89366918053379],[-0.256168403848501,44.8935955571899],[-0.256443827672615,44.893400318033336],[-0.256654961780653,44.89313712776094],[-0.256797734538821,44.892958574432306],[-0.257123776321927,44.89274004168149],[-0.257414131203068,44.892544452019465],[-0.257720423228066,44.89228279289831],[-0.257903121256144,44.892126044867176],[-0.25818831102153,44.89184599011802],[-0.258439448816257,44.89159955429348],[-0.258768947627098,44.8912771067078],[-0.258871569677829,44.89117353017677],[-0.259015931089488,44.89100943503859],[-0.259122601427487,44.89088609515305],[-0.259392742421923,44.890571966205755],[-0.259464909648386,44.89047225687338],[-0.259522020028181,44.89038830848689],[-0.259645520129267,44.89022086005263],[-0.259756744920645,44.89007341616936],[-0.259862327842492,44.88992487627189],[-0.259897559569413,44.8898636473792],[-0.260038054282935,44.88964839099841],[-0.260286369281109,44.889242446397],[-0.260327062652168,44.889170513934765],[-0.260453884909964,44.88886401530971],[-0.260626722960601,44.888433253176444],[-0.260688757617113,44.88832068432665],[-0.260782769916833,44.88800370484935],[-0.260981866373293,44.88736401374355],[-0.261028647221252,44.88721584825125],[-0.261101624925378,44.88697319743756],[-0.26110804292925,44.8869375050536],[-0.261132851873267,44.88663814746558],[-0.2611513512146,44.88625859599843],[-0.261162340963195,44.886068228491425],[-0.261220735972694,44.88566632888076],[-0.261284068207195,44.88525779620583],[-0.261386097933488,44.8845403066175],[-0.261395709076204,44.88448541683498],[-0.261489101053499,44.88386577147025],[-0.261446204053232,44.88358354196942],[-0.261345981118889,44.88295399613098],[-0.261242879308365,44.88226398027434],[-0.261154688692566,44.88169526660878],[-0.261260425794696,44.88127278281757],[-0.261390294048043,44.88076614701267],[-0.261504987657315,44.88030375095373],[-0.261601499180401,44.87991451861456],[-0.261722865749142,44.8794470602697],[-0.261825633031832,44.879021599483025],[-0.261821277764592,44.87893359882162],[-0.261746328383653,44.87827654867375],[-0.261728651184174,44.87812288810981],[-0.26168754103194,44.87782555824978],[-0.261655625097977,44.87759482062833],[-0.261596946341358,44.877195821169686],[-0.261480638298324,44.876856276366176],[-0.261288518808114,44.876359282456285],[-0.261129330672969,44.87611921841115],[-0.260770953776432,44.87557439390025],[-0.260905266226425,44.87550421627639],[-0.2614228391056,44.87537997426479],[-0.261590074659605,44.87533333850803],[-0.261705057462435,44.87530346685245],[-0.261894985891302,44.875267878157096],[-0.262051321955399,44.87523868310589],[-0.262177186785122,44.875215069219145],[-0.262369390114751,44.87514886519907],[-0.262640299866503,44.87505881064953],[-0.26270893262679,44.87503606754177],[-0.26283762222472,44.87502399416955],[-0.26305164398005,44.87507149841489],[-0.263121492953998,44.8750871065954],[-0.263224876755962,44.8751062343139],[-0.263560196335148,44.87513440175152],[-0.264008495542076,44.87517888988704],[-0.264133934516871,44.87577759355352],[-0.264215384942078,44.87615600770902],[-0.264208970411068,44.87632677672579],[-0.264093834442456,44.877018521755865],[-0.264093005358663,44.87705873570878],[-0.264090836129661,44.87716305809988],[-0.264071404030726,44.87758282665192],[-0.264068877868313,44.87772023035161],[-0.264192149615081,44.87766938687421],[-0.265562117140984,44.877548709827536],[-0.265625111979281,44.877799257984755],[-0.265787377244225,44.87826162046161],[-0.26579558115043,44.87828498822759],[-0.265873762740696,44.878476336967196],[-0.266011467167972,44.87880191217058],[-0.266082236031449,44.87899870540964],[-0.266121120351271,44.879078841609065],[-0.266374879893017,44.879662774866155],[-0.266532829496271,44.87997243502104],[-0.266766994313027,44.88050702273568],[-0.266832209038553,44.88068235247453],[-0.26685863118042,44.88075303315961],[-0.267156806978637,44.88143342903943],[-0.267275725286803,44.8816625063442],[-0.267324970414646,44.881776850004464],[-0.267665695424929,44.882650092736235],[-0.267975214051978,44.88342260791257],[-0.268066535703964,44.883634745209335],[-0.268090603226359,44.88369323990828],[-0.268108595055735,44.88374317266231],[-0.268113943701735,44.883824115565645],[-0.268212836837774,44.88403783212136],[-0.26838620769995,44.88438118897561],[-0.268650094345838,44.8849075102648],[-0.268779136285036,44.88511213860366],[-0.26887918791113,44.88526733824836],[-0.268929382793315,44.885352187051694],[-0.26909823437969,44.885304591828536],[-0.269359373221242,44.885363763993325],[-0.269029727243966,44.88598010356008],[-0.269585410785338,44.88618216887668],[-0.269651149905376,44.886205283670506],[-0.26967470351456,44.886215763771105],[-0.270240156202535,44.88641789867066],[-0.270289356215106,44.88634210712066],[-0.27067312657278,44.886486964383465],[-0.270637768477518,44.886608845951415],[-0.271219277494151,44.88674273900881],[-0.271204508412405,44.886798142390255],[-0.271071261178005,44.88711511701659],[-0.270775762012861,44.88780389727223],[-0.270690820737954,44.887873262804334],[-0.270874826587457,44.88797894922601],[-0.27129282112311,44.88827139077432],[-0.271658785649216,44.8885779799344],[-0.271677465183913,44.88860049806241],[-0.271820224968469,44.88875092263353],[-0.271911380316827,44.888961981365206],[-0.27209662148713,44.89003849493164],[-0.272031150660134,44.890126571559],[-0.27207482201967,44.89021025992871],[-0.272362712436815,44.89016473838927],[-0.272799919059116,44.89009075443508],[-0.27312979801703,44.890034891727566],[-0.273246176968193,44.89000028170746],[-0.273397911103077,44.88991984345668],[-0.273769487323566,44.8896509862116],[-0.27493419943323,44.890365464594225],[-0.27504218148088,44.890430223623255],[-0.275412882074721,44.89065231703136],[-0.276484866010958,44.88997160707521],[-0.277056619714903,44.88966420966837],[-0.277652487166091,44.8893704250525],[-0.278251679718111,44.889111952970445],[-0.278441674036437,44.88908768907896],[-0.278800534863668,44.889037711736066],[-0.279182093126234,44.888992199168726],[-0.279437080110324,44.889288255030934],[-0.279289900871084,44.88940524294459],[-0.279865977248122,44.88981391492493],[-0.280512518003182,44.89040640370871],[-0.280968940034944,44.89082581529934],[-0.280755638701354,44.89106073386868],[-0.280790864375469,44.891077805471795],[-0.28082543628172,44.89109453593533],[-0.280800255149133,44.89111915985542],[-0.28089629557315,44.89115516006158],[-0.280917400802512,44.89113020601173],[-0.281170842250949,44.89128681039319],[-0.281293009541743,44.891286173369096],[-0.280962982942091,44.891634299084075],[-0.280744274516393,44.891863520091455],[-0.280539129583261,44.89206891063477]]],[[[-0.255554563867631,44.90790964352119],[-0.255690667357214,44.908170311311395],[-0.255697070157046,44.90823473363631],[-0.255667055527663,44.90823975869579],[-0.255356407073275,44.908281665978365],[-0.255230111126886,44.90827951083755],[-0.255090880900697,44.90827953690517],[-0.255047661669282,44.90827990258748],[-0.254988011908201,44.90828120039508],[-0.254730176448137,44.90828704519721],[-0.25441160534536,44.908292957157386],[-0.254133721635713,44.90829857708117],[-0.253795374998905,44.90830677886154],[-0.25373073466337,44.90830948377516],[-0.253488589506042,44.90831693854403],[-0.253181763505121,44.908324214994664],[-0.253017654894851,44.90833037393447],[-0.252914039142873,44.908336653060516],[-0.252765669342125,44.908343071503374],[-0.252745656353252,44.908345640138464],[-0.252703013260141,44.90814386797478],[-0.252481949832837,44.908127814773266],[-0.252444503903269,44.90798284078732],[-0.252522008237443,44.907963629898056],[-0.25252762077336,44.907896422585985],[-0.252533695693471,44.90785686595165],[-0.252543476566847,44.90778719365829],[-0.252590354074807,44.90747385480002],[-0.252459817000875,44.9074838056088],[-0.252434296682014,44.90730613237622],[-0.25255072393505,44.907280284673995],[-0.252464272955521,44.907153957320666],[-0.252354649259559,44.907172486878146],[-0.252244774367708,44.90689149329376],[-0.252112134934319,44.90663774918944],[-0.252048316479934,44.90662835417929],[-0.251991028422013,44.90658506623137],[-0.251959508538455,44.906585989258446],[-0.251962408755451,44.90663600626921],[-0.251382778526359,44.90671434438812],[-0.251053897889028,44.9067544306905],[-0.250951837073315,44.90644842669371],[-0.250853531764697,44.90614375450696],[-0.250824703728183,44.90607079723324],[-0.250340114863775,44.905187563518965],[-0.251296871996431,44.90496347291225],[-0.251474965356009,44.905316811451236],[-0.254258181128312,44.90491034167655],[-0.254329539407681,44.90494699840171],[-0.254437044097024,44.90495321940747],[-0.254526333342658,44.90514154879957],[-0.254975404771484,44.90605617481534],[-0.254908623378549,44.906098412095986],[-0.254931826554559,44.906131163370596],[-0.255077447368789,44.90633964834968],[-0.2551194064788,44.9063896919031],[-0.255411831138599,44.906711198504425],[-0.25569326553688,44.907026808971175],[-0.255919576953825,44.90727527986253],[-0.256123778474382,44.90749889706488],[-0.256151767157584,44.90753105726307],[-0.256328178880276,44.90772809504483],[-0.255762488792452,44.90789814119537],[-0.255554563867631,44.90790964352119]]]]}}]}
