{"type": "FeatureCollection","name": "aoc_geojson","features": [{"type":"Feature","properties":{"dt":"Bordeaux","type_prod":"Vins","categorie":"Vin tranquille","type_denom":"appellation","signe":"AOC","id_app":38,"app":"Graves de Vayres","id_denom":97,"denom":"Graves de Vayres","insee":"33015","cvi":"1B131, 1B131D, 1R131S","nomcom":"ARVEYRES","insee2011":"33015","nomcom2011":"ARVEYRES","id_aire":100,"crinao":null,"grp_name1":null,"grp_name2":null},"geometry":{"type":"MultiPolygon","coordinates":[[[[-0.311654904633963,44.868893734293216],[-0.311320026075736,44.86907268930224],[-0.310738275594406,44.869380210684525],[-0.310066258710483,44.86973655918396],[-0.30945206937255,44.87006153172083],[-0.309245386510177,44.870171144890364],[-0.309008549154106,44.87029805736003],[-0.308738668996941,44.870371796499896],[-0.308388896781878,44.87047468026745],[-0.308366734194121,44.87047921582449],[-0.308305170881412,44.87049682086835],[-0.308220318555639,44.870523500635706],[-0.307607467269697,44.870703791168616],[-0.30714676987823,44.87084043508616],[-0.306722356123911,44.87096274931604],[-0.306702102051755,44.87096957060337],[-0.306422224777509,44.87105225266156],[-0.306276864436238,44.87109298898102],[-0.30615279199381,44.87112939628936],[-0.306039982031921,44.871161232638165],[-0.305734098303524,44.87125207689599],[-0.305520214254569,44.871327834632304],[-0.305082354657244,44.871475864615505],[-0.305058600495127,44.871483510732425],[-0.30498736110129,44.871513296946674],[-0.30468904275709,44.87165734989102],[-0.304512558861645,44.8717506452975],[-0.304315369755547,44.87186248935489],[-0.304056476682485,44.87201113388611],[-0.30388541095312,44.87211039461195],[-0.303818673157059,44.87214563302729],[-0.30345495763193,44.87235642045999],[-0.303008247671372,44.8726148232719],[-0.302884099941671,44.87268664337819],[-0.302838132058344,44.872713062774956],[-0.30277466616676,44.872747932817774],[-0.302736172080881,44.87277214726988],[-0.302586149425985,44.87287159066944],[-0.302244753983973,44.87310649074523],[-0.301704542858531,44.87347535489657],[-0.301331459275081,44.87372966781703],[-0.300933327920142,44.87400418875176],[-0.300905791895301,44.87417162631648],[-0.301141098462545,44.87431971175871],[-0.301210567688943,44.874360989715356],[-0.301449906584502,44.87452373312673],[-0.301610370179767,44.87463394375512],[-0.301706333179234,44.87469470868057],[-0.301716676337485,44.87469818572275],[-0.301918429047682,44.874777790829164],[-0.302169900703896,44.87487529058272],[-0.302318736249004,44.874684508710274],[-0.302514089441003,44.8748017901404],[-0.302602666199491,44.874853312261976],[-0.30286747953725,44.87500520213637],[-0.302903282600357,44.875025673649695],[-0.303727491740784,44.87551109183651],[-0.304039440752409,44.875692845262286],[-0.304090851803749,44.87572654895816],[-0.304373158579757,44.87595153709143],[-0.304522212462405,44.87607442903283],[-0.304736593743722,44.87626070762739],[-0.304801073586319,44.876311864284524],[-0.304964171679236,44.87644938640554],[-0.305101510090237,44.876556225940824],[-0.305157636059097,44.876592492183526],[-0.305903206542912,44.87705031990609],[-0.305668420796805,44.877247091115684],[-0.30560015336645,44.8773295953453],[-0.305547220018598,44.87739271909214],[-0.305394114508832,44.87760562033205],[-0.305282388436997,44.877761509064385],[-0.304968874483412,44.87828719308047],[-0.304907907389189,44.878409760030905],[-0.304868706936792,44.87849734573529],[-0.304831847115001,44.878603154696464],[-0.304803272946827,44.87866888694016],[-0.30479812994975,44.87880105580265],[-0.304804741776582,44.87889394580134],[-0.304814236099695,44.87901855991435],[-0.304869562827435,44.87919614760156],[-0.304898592125763,44.87929521872674],[-0.304982652916732,44.879657223478056],[-0.305030876747094,44.8798777362919],[-0.305102323501063,44.88022137312313],[-0.305135205445075,44.88038367909948],[-0.305157241901202,44.880488815808334],[-0.305177024238201,44.88058365662228],[-0.305214752274502,44.88074861181315],[-0.305230995451118,44.88083715997988],[-0.305300008967961,44.8811286937616],[-0.305324155217644,44.881235209466155],[-0.305356919899227,44.88128577855502],[-0.305466025254233,44.88141445529083],[-0.305613397661476,44.881568755965],[-0.305680817131772,44.88164172237852],[-0.305741805140515,44.8817152407508],[-0.305762491386825,44.88174580386553],[-0.305780141700368,44.88177862011169],[-0.305799123058382,44.881836177861835],[-0.305802184534005,44.881881683995935],[-0.30581672590874,44.88207039867073],[-0.305840640067144,44.88264190577769],[-0.3058486059244,44.88270826225821],[-0.30586437606858,44.882762941923374],[-0.305898195859328,44.882861509881074],[-0.305919997761529,44.88291745171584],[-0.305940063870758,44.88295253895946],[-0.305980158702433,44.88298766047727],[-0.306033050108931,44.88300978499214],[-0.306081877410468,44.88303392290826],[-0.306122120589441,44.88305435149172],[-0.306139303667824,44.88307492621835],[-0.306151674727524,44.88309987959298],[-0.306151317497473,44.88313683669246],[-0.306130791143313,44.88317998154509],[-0.306078096169404,44.88331176476227],[-0.306041072715799,44.883436322702686],[-0.3059805123103,44.88373793340317],[-0.305971649545118,44.883837051679194],[-0.305979675582877,44.88392593472508],[-0.30600083614865,44.884052724758654],[-0.306042201452883,44.884234152516896],[-0.306081082709055,44.88441213984059],[-0.306103071104858,44.88453791398393],[-0.306123283284163,44.88469807422254],[-0.306118942183026,44.88475776844665],[-0.306051741500703,44.88495531588743],[-0.305901050683516,44.885327826740166],[-0.305871939806527,44.88540384824066],[-0.305854027651756,44.88549782924152],[-0.305840247191062,44.88565332474281],[-0.305853285207557,44.88625534442021],[-0.305881063182413,44.88666651563296],[-0.305870560045215,44.886681877357624],[-0.305851388067479,44.88669425315751],[-0.305831681390143,44.886699706145215],[-0.305801069250315,44.886698635271614],[-0.305757155343616,44.88668264122868],[-0.305627664872631,44.88661692973847],[-0.305293282147341,44.88642773595535],[-0.305126302307023,44.886332411511006],[-0.305008010893829,44.886263121832755],[-0.304936062306897,44.88622309086464],[-0.304871632458225,44.886183737143185],[-0.304819554922359,44.88614104190703],[-0.304787114961931,44.88610893607914],[-0.304752221249204,44.88606960411263],[-0.304720659912561,44.88603089383828],[-0.304684196364334,44.885977821249554],[-0.304620901843374,44.885888871273785],[-0.304453912368795,44.885860049826896],[-0.304416153635539,44.88586676084307],[-0.304164209221074,44.88596230101432],[-0.304000292174937,44.88602223914139],[-0.303867133667501,44.886081441798],[-0.303831707750024,44.88609763518768],[-0.303709625816564,44.88615551673736],[-0.303578338841273,44.886216375485354],[-0.303461516783086,44.88626887364624],[-0.303352286128374,44.88631898305756],[-0.30330965435801,44.88634196897119],[-0.303249333215623,44.886383143447986],[-0.303218069652182,44.8864097560268],[-0.30315714850483,44.88647518877311],[-0.30310457108236,44.88653163222608],[-0.303037053265178,44.88659482812883],[-0.302953049091399,44.88664067209631],[-0.302920884160107,44.88666920378289],[-0.302895909324825,44.886712209991586],[-0.302840974079033,44.88678674611486],[-0.302810202612685,44.886821724461726],[-0.302782049650039,44.88684950594534],[-0.302538677536869,44.887073559038],[-0.302232908239746,44.88702146835423],[-0.302182273755628,44.88700972793319],[-0.301692728178216,44.8868266709908],[-0.301623453254741,44.88680404035872],[-0.301450151771317,44.88675413536939],[-0.301311619750577,44.886715631732244],[-0.301173159230799,44.886689110854924],[-0.30107208816186,44.886673282792515],[-0.300981323446811,44.88665165126588],[-0.300941877799068,44.88664047871661],[-0.300894811000557,44.88661826862643],[-0.300733482681623,44.8865133078463],[-0.300790277174165,44.88592525285578],[-0.300885339127562,44.88474023205599],[-0.301145259792245,44.88473286313062],[-0.301103034534991,44.8847110498849],[-0.3017226725778,44.88455916362602],[-0.301066756681106,44.883448202376435],[-0.301489126137622,44.883325973257314],[-0.301564349217518,44.88330544295272],[-0.302160328386575,44.88312443006482],[-0.302152648672022,44.88311024042548],[-0.301774082852444,44.88251215679403],[-0.301690905665382,44.88238027229786],[-0.301403164863513,44.8819168184906],[-0.302173523359819,44.881679614563296],[-0.303589757572404,44.880865113531975],[-0.303684447099747,44.880811471469606],[-0.303808876531295,44.88063006483168],[-0.3032679124719,44.88066427792309],[-0.302920929839907,44.880690914012966],[-0.302899330648113,44.88046825649893],[-0.302894214687061,44.88043948243253],[-0.302885959496773,44.88038106446176],[-0.30287842999486,44.880315596077715],[-0.302859983159268,44.88029289581611],[-0.302819818633644,44.880258676521635],[-0.302800973340039,44.88024427851126],[-0.302791346106295,44.88022068501331],[-0.302792708011038,44.8802072176408],[-0.302839462823357,44.87977851022868],[-0.302845693700544,44.87971641714564],[-0.302856625220282,44.879607145170375],[-0.302872338095632,44.879436994718596],[-0.302898312090135,44.87931628133305],[-0.3029161555333,44.879270603720194],[-0.302630236421673,44.87920621012416],[-0.302444312918582,44.87916542400618],[-0.302674371242636,44.87889878291017],[-0.30270268162168,44.87886297666237],[-0.302744343907935,44.878761170820276],[-0.3028248336798,44.878584767462144],[-0.302823419096535,44.8785779609657],[-0.302775444276224,44.878568214525124],[-0.302724654837586,44.87856017385082],[-0.302157745323398,44.87909645275882],[-0.301988068134941,44.87926280292195],[-0.301979945401143,44.87928845643362],[-0.301986372581836,44.87931367709978],[-0.302102940242204,44.879478900831145],[-0.301477184427493,44.8793341404489],[-0.301388059877044,44.87962452213371],[-0.301224452483755,44.88015690970328],[-0.301126096062759,44.88047784371346],[-0.301078853249598,44.88063135948174],[-0.300197375426322,44.8807074037311],[-0.300153564154309,44.880475403878705],[-0.300142976183653,44.88041606390362],[-0.300087729592303,44.88010384308357],[-0.299986891696037,44.87953363276391],[-0.299954643084175,44.879351662319834],[-0.299948634627156,44.879307685628206],[-0.300215980717008,44.878198737414536],[-0.299405539690181,44.87822778801792],[-0.299360222357717,44.87818993603525],[-0.299235278682688,44.87808037818604],[-0.298727109079622,44.87763077051541],[-0.298513791314961,44.87761539303845],[-0.298699143925012,44.87681662155199],[-0.29875810185914,44.87657129442061],[-0.298892503464275,44.87598814493753],[-0.298944597984873,44.87577915693919],[-0.299123400985588,44.87581547425664],[-0.299838768182017,44.87529957847917],[-0.300011465593187,44.87488298872802],[-0.299880459296278,44.87484263855317],[-0.299713396684495,44.8748248971742],[-0.299445305379998,44.87499858480625],[-0.299271109681097,44.875057830875406],[-0.299174898828861,44.87509412270171],[-0.298679507023937,44.875232211875634],[-0.298373546907319,44.87532231633013],[-0.298282140551063,44.87534765104645],[-0.297855071651345,44.875238058788966],[-0.298116232725768,44.87503907920922],[-0.29830702637393,44.874906440546496],[-0.298868788485937,44.87452415725561],[-0.299149437874678,44.874335589576],[-0.299118132382887,44.8743118292715],[-0.298965043888186,44.874311874201496],[-0.298773216483851,44.874310457081556],[-0.298972901466806,44.87369752249214],[-0.298747825141,44.873695291448584],[-0.298963229628444,44.873179481748195],[-0.299249674452808,44.872503321867946],[-0.299157247304402,44.8724853435769],[-0.298954204034947,44.872456866118355],[-0.299162430110697,44.87227603798403],[-0.299661897372284,44.87183702864619],[-0.299829496662481,44.87168948718777],[-0.300422401374306,44.87192146867762],[-0.300477622512618,44.871856296983566],[-0.300615234335112,44.87140578597994],[-0.300616021753134,44.871391164301144],[-0.30034951560969,44.87127473455302],[-0.300691619227844,44.870802011845704],[-0.300726153750323,44.87075142273398],[-0.300805283951868,44.870599392000265],[-0.300996307374406,44.87022758230949],[-0.300968828445962,44.870150362063484],[-0.300998112799234,44.87010101037501],[-0.301016652832468,44.870065044610826],[-0.301206557713094,44.869702279066885],[-0.301392354743929,44.869745773319636],[-0.301777228937708,44.8698409265185],[-0.302013673925814,44.869903098122116],[-0.302632951410656,44.8700601198687],[-0.30265751474954,44.869982252332356],[-0.302810735888598,44.86980810012212],[-0.302854147013195,44.86964784919799],[-0.30286803587599,44.86960823678113],[-0.302928540466941,44.869389624689894],[-0.302971032364807,44.86924390923625],[-0.302979199135515,44.86921257726179],[-0.303080663190151,44.86885883842175],[-0.303135429007801,44.868650399548855],[-0.303150816512251,44.868619032862796],[-0.303267050023136,44.86847319493366],[-0.303351723454168,44.868391825824254],[-0.303415204679657,44.86833577838654],[-0.303579190074566,44.868230511181295],[-0.304035805559561,44.86796234855266],[-0.304161866273344,44.86787587168191],[-0.304211183961822,44.86782033558299],[-0.304241861962279,44.867755982735936],[-0.304270825715011,44.86766897250041],[-0.304172353743795,44.8676493763334],[-0.303839331095207,44.867586750747854],[-0.303094593979799,44.86744851979285],[-0.302839646287583,44.86740122942866],[-0.302949948123059,44.86707281980876],[-0.303212073357055,44.867121518252524],[-0.303407491762031,44.86657727766213],[-0.303261758737393,44.86652971089846],[-0.302914537130582,44.86641731268599],[-0.302393971442944,44.866251048408024],[-0.302465624908095,44.86612933651687],[-0.302485642772978,44.866068996088394],[-0.302534591971206,44.865994277739105],[-0.302604890206922,44.865851699946305],[-0.302708151632334,44.86569651650626],[-0.302798371277122,44.86557380123618],[-0.302862284184422,44.86550575625479],[-0.302948836894795,44.865430549252025],[-0.302985370276097,44.86540540175191],[-0.303205559676984,44.86544786882577],[-0.303621389846841,44.86553335230852],[-0.303725715736775,44.86538985079689],[-0.303929312317547,44.865331253432146],[-0.304069026088901,44.865274467707096],[-0.303941969444827,44.86504044335156],[-0.303990782529993,44.86486660439025],[-0.304063857999324,44.86451731448687],[-0.304176752058759,44.86395336195557],[-0.304435894436964,44.86395808077524],[-0.304454708014896,44.86429913774094],[-0.304797497032905,44.86430199559965],[-0.304843671759247,44.864199604051144],[-0.305151974348555,44.863741660191366],[-0.305764503099765,44.86283210887659],[-0.305813171208845,44.86279145992712],[-0.305947246028406,44.86267779828242],[-0.306030166972037,44.86269380086127],[-0.306162157520421,44.86270608852617],[-0.306307804427153,44.86272220442174],[-0.306925383026758,44.86280634925466],[-0.307542338594374,44.862897087515705],[-0.307627530974008,44.86291076839934],[-0.307878727637784,44.8629935733754],[-0.308379590795033,44.86322131507374],[-0.308640743582031,44.86335689804624],[-0.309004874914518,44.863582135782174],[-0.309178293900819,44.86365446129549],[-0.30947282402329,44.863767239735786],[-0.309979898339422,44.86395396825695],[-0.310099288602553,44.863999608558316],[-0.310208405241804,44.86405366537925],[-0.310546711271209,44.8642898515915],[-0.310953023145313,44.86457690410381],[-0.311105773608632,44.86469183616299],[-0.311266691573645,44.864814183922675],[-0.311406966097573,44.86492381077701],[-0.311780685441894,44.86527680471521],[-0.311832246606005,44.86532816225333],[-0.311905033469067,44.86539564730975],[-0.311912122846146,44.865447070520474],[-0.311948179470861,44.86577463683002],[-0.311997002817064,44.866254113297494],[-0.312018697372872,44.86643062818752],[-0.312054139123229,44.86678425564964],[-0.312112858622957,44.86729182255351],[-0.312190231412098,44.86804457141561],[-0.31223700529316,44.86850428451246],[-0.311844032213812,44.86878527110641],[-0.311654904633963,44.868893734293216]]],[[[-0.300144894741986,44.86601752173722],[-0.299865671828252,44.86661534150576],[-0.299637743994438,44.86709430876597],[-0.299530304590346,44.86752130265803],[-0.299534742866725,44.867549375924646],[-0.299613369219731,44.86759569887931],[-0.299592474646643,44.86808085542584],[-0.299571120821655,44.868278025871724],[-0.299247233733438,44.868778138251],[-0.299452715680366,44.86883754097417],[-0.29963718268804,44.868892972433144],[-0.299235539174228,44.8696159923327],[-0.298995345820127,44.87004828407195],[-0.298961304568151,44.87003830226933],[-0.298545152455682,44.870894216243435],[-0.298397900785018,44.87085326617749],[-0.298088864686694,44.87076341690066],[-0.297698357978241,44.87065003529547],[-0.297653784834658,44.87076273889168],[-0.297584738324171,44.870937716544226],[-0.297600225210968,44.870942482899274],[-0.297562337541344,44.871037415856016],[-0.297537147501181,44.87110043211591],[-0.297594485871649,44.87113594488615],[-0.297780001969055,44.871189726442076],[-0.297948543601244,44.87123067546497],[-0.298083449204771,44.87125991796504],[-0.297683694157871,44.87180436253056],[-0.297521219787886,44.872028434115386],[-0.297706200293665,44.8720773657288],[-0.297101583002683,44.8730133066767],[-0.297206100382534,44.873051563283795],[-0.297031364181899,44.87343802082372],[-0.296753843994967,44.874046595024566],[-0.296701288048192,44.87403644152504],[-0.296635312279956,44.87399631867073],[-0.296591948665038,44.87398084577094],[-0.296336833486857,44.87392678619044],[-0.29618568285113,44.87412808127202],[-0.295979999259602,44.874402094458375],[-0.295911321573987,44.874492894878344],[-0.295837705049348,44.874588077207214],[-0.295998781233154,44.874594557841114],[-0.29598544090143,44.87468029063703],[-0.295961652838527,44.874728396298615],[-0.29593993877089,44.874755714467526],[-0.295895154747774,44.87480237103592],[-0.295804592884162,44.87487660975722],[-0.295791680404192,44.87504946869703],[-0.295787098343497,44.87511818044624],[-0.295757205958662,44.875403283235364],[-0.295823660337141,44.87558315710071],[-0.295888143467173,44.87576182791045],[-0.296003765627258,44.87594375601943],[-0.295942363188308,44.876052723372524],[-0.295802258350532,44.876010656091886],[-0.295574395643979,44.876496280676115],[-0.294478753673791,44.8761593462534],[-0.29351584126746,44.87585522875376],[-0.293531654264366,44.87584178330999],[-0.292834246031608,44.87553527802578],[-0.29275654071765,44.87560408639142],[-0.292772998886849,44.87561459183476],[-0.292812947205342,44.87563449296416],[-0.293059185493423,44.87576181528993],[-0.293419023379322,44.87593740072943],[-0.293598639561163,44.87602002055545],[-0.293936744034519,44.87617074752003],[-0.294338612061862,44.87635193133902],[-0.294264408567675,44.876428566764325],[-0.29501134658644,44.87682929289828],[-0.294874956960287,44.87696490626653],[-0.295025305474009,44.87704541909491],[-0.294992278310386,44.87708082259892],[-0.295677274547902,44.87749050249077],[-0.295620888523968,44.87776044213203],[-0.295801040358803,44.87795559353763],[-0.295929561773797,44.87802693113232],[-0.296035866346443,44.8780803651287],[-0.296132612077887,44.87808542204244],[-0.296512166608608,44.87810001215907],[-0.296527153948742,44.878100558269644],[-0.296453585355517,44.878295854808286],[-0.296429396098649,44.878347937466245],[-0.296388454968561,44.878410430032595],[-0.29621294524325,44.87866759750014],[-0.296131519945096,44.878750756571485],[-0.295853006068048,44.879179042438125],[-0.295719544475066,44.879319255751696],[-0.29568909890654,44.87931015724194],[-0.295668654008611,44.879341853179],[-0.295585804176264,44.87946984012781],[-0.295471356813229,44.87961228205371],[-0.295227832598057,44.87990922437567],[-0.295162098636487,44.87995316836897],[-0.295284070086083,44.88018483160546],[-0.295404026005964,44.88019010132072],[-0.295474120849164,44.88019450835452],[-0.295530288117395,44.88020347404512],[-0.295585221017024,44.88020652891716],[-0.29568931546131,44.88022227177926],[-0.295828279387494,44.88024905427875],[-0.295991006768028,44.88029847017068],[-0.296117569466246,44.880347157514606],[-0.296193863253232,44.880381567796064],[-0.296317819376918,44.88044844499607],[-0.296382231992388,44.880492039046935],[-0.296674739024136,44.88072251117517],[-0.296803040616212,44.88082449292454],[-0.297089846553927,44.881052790483096],[-0.297237556334319,44.88115933171671],[-0.297322592291662,44.88141795268829],[-0.297427074381399,44.881722764534636],[-0.297498274619039,44.88192709796707],[-0.297556315653519,44.88209514637063],[-0.297596286567004,44.88221236724687],[-0.297645300566662,44.882369149360045],[-0.297695732359295,44.88252201449223],[-0.297732762126867,44.88260859423115],[-0.297748997763505,44.88262604435342],[-0.297764718193855,44.882651980392886],[-0.297839227562958,44.882740059885606],[-0.297991529971675,44.88290738023449],[-0.298038776466332,44.88295643971466],[-0.298073211785532,44.882975151314014],[-0.298128612497373,44.88298395834332],[-0.29816371522506,44.88299030461435],[-0.298202357428263,44.88300726914527],[-0.298299214512072,44.88314343545624],[-0.298351749089699,44.88321991225331],[-0.298395024768298,44.88328981557194],[-0.298417072814105,44.88334791406638],[-0.298449058808162,44.88352115195212],[-0.298474817628127,44.88363158592278],[-0.298524917281774,44.883852045437926],[-0.298551245995128,44.88396354383239],[-0.298561361451403,44.8840105525582],[-0.298558700089124,44.88404505480037],[-0.298553269688763,44.88407342153075],[-0.298534669255637,44.88413002452556],[-0.298516814374849,44.88422733643079],[-0.298497995300252,44.884385863702285],[-0.297757687077296,44.88442786450799],[-0.297644041489728,44.88516412933902],[-0.297834500067433,44.88517613339945],[-0.298008813670895,44.885180867089],[-0.298010704917332,44.88544376060209],[-0.298010232772557,44.88545729157845],[-0.298010738916373,44.88548746439378],[-0.298008900192023,44.88552518625393],[-0.298007566476225,44.885616780682696],[-0.298006231245001,44.88569972431101],[-0.29816643342768,44.885710193716875],[-0.298193030082692,44.88581546650718],[-0.298190243411848,44.8858586233231],[-0.298168671596771,44.885903509738796],[-0.29805537087237,44.88606772770118],[-0.297848248787134,44.886026752017315],[-0.297692604531866,44.88600542327873],[-0.297483646989808,44.88598928252631],[-0.297119460787921,44.88597613001004],[-0.297073970596489,44.88594188651504],[-0.297050068876004,44.88589537723281],[-0.297019978517492,44.88585572011402],[-0.296968898400686,44.885812631312],[-0.29686319411691,44.88575242131839],[-0.296756938320039,44.88570439285813],[-0.296757174214895,44.8856954646713],[-0.296726720719405,44.88569276457413],[-0.296668062994405,44.88567387072954],[-0.296451291454085,44.885608848596554],[-0.296288148773051,44.88556773554771],[-0.296118047490989,44.88553115430735],[-0.295907159458402,44.8854929002072],[-0.295742111529214,44.885471127105795],[-0.295655322688286,44.885463160582766],[-0.295530171964868,44.88545164700227],[-0.295453100542301,44.88544726668916],[-0.295139315836443,44.88542891689756],[-0.295027884201319,44.88542005935392],[-0.294755102747724,44.88540274419542],[-0.294706839982195,44.88540327552648],[-0.294633518691603,44.885410948575995],[-0.294493636217026,44.885435645859445],[-0.294359974983905,44.88546051878663],[-0.294142015728164,44.88549825610455],[-0.294087743911333,44.88551302308081],[-0.294026882773812,44.88553861887256],[-0.293984506353687,44.885563846348404],[-0.293913761682448,44.885611092089164],[-0.293675205743821,44.88579028592546],[-0.29356602360899,44.88587805118118],[-0.293536754532244,44.88591063928412],[-0.293499826209348,44.88595958481121],[-0.293437134682246,44.88604038359495],[-0.293408973797392,44.88608537434807],[-0.293358517030054,44.88619969250954],[-0.293249985495492,44.88620786853345],[-0.293240653852987,44.886154708489364],[-0.293227990411417,44.88610525180012],[-0.293202157370417,44.88606465640633],[-0.293239081284328,44.88608041209495],[-0.293301269252153,44.88579236897434],[-0.293336721919113,44.88563407038575],[-0.293397110394441,44.885339141925996],[-0.293431766734046,44.885184561562305],[-0.29347587559642,44.88496860428621],[-0.293484001410003,44.88492564974875],[-0.293491633062774,44.88489802904194],[-0.293279381377152,44.88483430863435],[-0.293221554524966,44.88482737338107],[-0.293222533954863,44.88481382741217],[-0.293312770902306,44.88448971813753],[-0.293363885203464,44.884317528127774],[-0.293393805614599,44.884209676603504],[-0.293408031146686,44.88416482896567],[-0.293421123144422,44.884120105069854],[-0.293430198977895,44.884089017240086],[-0.293516503795136,44.8837994475314],[-0.293517731123485,44.88378796679921],[-0.293366481284936,44.88376794366619],[-0.293159778822512,44.883746862082276],[-0.293103489024788,44.883759615887335],[-0.293038081775077,44.883750922979196],[-0.292199231262799,44.88358233325833],[-0.292178179247795,44.88357782120653],[-0.292177397873358,44.883562345002964],[-0.292096905832048,44.88368323038227],[-0.29210933546351,44.88387993814668],[-0.29212786163589,44.883951568952014],[-0.292141909288026,44.88398791830003],[-0.292260481809522,44.88429348813451],[-0.292279897435866,44.884339230211744],[-0.292319619276554,44.8844955690864],[-0.292341511611185,44.88459431408135],[-0.292370525263281,44.88467185160311],[-0.292460575322877,44.88488013457812],[-0.292531890130709,44.8850434662927],[-0.292564575803921,44.88514684733911],[-0.292566614555094,44.885261500368635],[-0.292552087741716,44.885376824976916],[-0.292531827474952,44.88546141097587],[-0.292480820775587,44.88557069867817],[-0.292383775265783,44.885744340634545],[-0.292349653523503,44.885756887078394],[-0.292073834148107,44.88565972542997],[-0.292010517599587,44.88564565319798],[-0.291935860494218,44.885634890956204],[-0.291461652783843,44.885589298017706],[-0.291089887875656,44.885554903752215],[-0.290986396726817,44.885545266073265],[-0.290669955301057,44.885518331630614],[-0.290339695731706,44.885500006126236],[-0.290255887389741,44.88551690825839],[-0.28999853638749,44.88558112656621],[-0.289903708833613,44.8856046628921],[-0.289843214431047,44.88561925172552],[-0.289691482634402,44.885653755876604],[-0.289456855268249,44.8857661405073],[-0.289410026701361,44.88578897494993],[-0.289252273852814,44.885861323959624],[-0.289141180432168,44.88589498362849],[-0.289086522032209,44.88590966945428],[-0.289020432941921,44.88591315951896],[-0.288943451044443,44.885910303945764],[-0.288863110413791,44.885886912051],[-0.288567345687291,44.885767263962684],[-0.288393500364547,44.88578133507446],[-0.288348717113913,44.88583690943375],[-0.288299188661565,44.885902356491265],[-0.288259814668359,44.88595074179901],[-0.288139678213226,44.886111276432885],[-0.288095616767124,44.8861661985126],[-0.288047432199108,44.88622863192731],[-0.287982333552972,44.886316076911],[-0.287840246501631,44.88646545660286],[-0.28758968758944,44.88673438386505],[-0.287416354122286,44.88686324155606],[-0.287355762739403,44.88688269792947],[-0.286760093811282,44.88696873134239],[-0.286158407276763,44.88705160548246],[-0.286006105733811,44.88707215386613],[-0.285938106712822,44.887069030265124],[-0.285888662137418,44.88705157020951],[-0.28576987127595,44.88697551703706],[-0.285654408027937,44.8868913452513],[-0.285534711695734,44.88679981931132],[-0.28538352083302,44.88665533812451],[-0.285316300832395,44.886585417799274],[-0.285270347090637,44.88646954153181],[-0.285257509179025,44.886360705218486],[-0.285271381331552,44.88625125866136],[-0.285282825222452,44.88619775366127],[-0.285292306694668,44.8861648523668],[-0.285357381144817,44.88600982549324],[-0.285418948219998,44.88587283475215],[-0.285637515666135,44.8854925794923],[-0.285597704915872,44.8854794299462],[-0.285651624130201,44.885382855557474],[-0.285689710930749,44.88539254172541],[-0.285729682643071,44.885341346214595],[-0.285775157880791,44.885306208018534],[-0.285633285337069,44.885188755575435],[-0.285566321872192,44.88518812431291],[-0.285456147890341,44.88516173819903],[-0.285392011137203,44.885146605189064],[-0.28524861728329,44.885107054413226],[-0.285037250351559,44.88502581052195],[-0.285722920385905,44.88457658225791],[-0.285855600031505,44.884489481177994],[-0.286028987038573,44.88437891713811],[-0.286050639666258,44.88438935998906],[-0.28635751610636,44.88419040836558],[-0.286705946345803,44.883969499637665],[-0.286723023201118,44.88396025310719],[-0.286938911660089,44.88382662192643],[-0.287199992299642,44.88367903627673],[-0.287212086731135,44.88367345159799],[-0.2874757123277,44.88353038563386],[-0.287676708586046,44.883423867265144],[-0.28788205360561,44.88331370531903],[-0.288189713755758,44.88315212179153],[-0.288301350576671,44.883095378070976],[-0.288542416796887,44.8829719013475],[-0.288612060880215,44.88293613599332],[-0.288717507481078,44.88288624355099],[-0.288493580484767,44.88279609693189],[-0.288460450713813,44.88278662536799],[-0.288388787310946,44.88276198498909],[-0.288225384659879,44.88271834510747],[-0.288143672884562,44.88269742651356],[-0.288056093368993,44.882673707963164],[-0.287860083686159,44.88260571183745],[-0.287801737959562,44.88258554269754],[-0.287777723456486,44.882623470421564],[-0.287496328096175,44.882556200443425],[-0.28746407385529,44.88254219704149],[-0.287417010675679,44.882511240518205],[-0.287366461680363,44.88255058477326],[-0.287311015032439,44.88257989134612],[-0.287249289434444,44.882601544058524],[-0.287233072209229,44.882623290847064],[-0.287128865338055,44.88258834937514],[-0.286859465588712,44.882489994260325],[-0.286602956750801,44.882397474594015],[-0.286503005877495,44.882515237109416],[-0.286475453039687,44.88255119670349],[-0.286457364068237,44.88256912395602],[-0.286295479173855,44.882759097701076],[-0.286264743175733,44.882753699793014],[-0.286218180872188,44.88273561401208],[-0.286153841518077,44.882708322360095],[-0.28606807161585,44.88267220330229],[-0.285962531937534,44.882627477965315],[-0.28589662715061,44.8825972588067],[-0.286057553629004,44.88240172708656],[-0.285973088228727,44.88232078352729],[-0.285825067396799,44.882273530932736],[-0.285506209706494,44.882168166132516],[-0.285472864731607,44.882157168165854],[-0.285580671591932,44.88194410562147],[-0.285636296603537,44.88182477245639],[-0.28568407531385,44.88173594925068],[-0.285779115915816,44.88155164976003],[-0.285791295526602,44.88151938946793],[-0.285594952970013,44.88149969961083],[-0.285463371012275,44.88148422022417],[-0.285382489158349,44.881475260059005],[-0.285164653459717,44.881449987858986],[-0.284995494787979,44.881500590986974],[-0.284950446615312,44.88148885788477],[-0.284632084644738,44.881394019243224],[-0.284325738372698,44.8813008967766],[-0.284103989260335,44.8816028456751],[-0.283960339933335,44.88179696211398],[-0.283818888316585,44.88198749895637],[-0.283475402488431,44.88241632135832],[-0.28335786570149,44.88256073358773],[-0.283321527070731,44.882602539174165],[-0.283193262912494,44.88254631829247],[-0.282983554283324,44.88245637111177],[-0.282815440992163,44.882384116961084],[-0.282732496736329,44.88248506258052],[-0.282604491251189,44.88264555318367],[-0.282573092309852,44.88263098242916],[-0.282545653119727,44.88266459469604],[-0.282284946044603,44.88254785910499],[-0.282024039616321,44.88243202995413],[-0.28188014134991,44.88236635753232],[-0.282079014672468,44.88215844601699],[-0.282031917236294,44.882133345614875],[-0.281845693948824,44.88203963817731],[-0.281610365544292,44.88192115957234],[-0.281568445140986,44.881900051091286],[-0.28131680737707,44.88177358352908],[-0.281240753099146,44.88173663300849],[-0.280967993343701,44.88160006574839],[-0.280915145549873,44.8815719809537],[-0.280933799663377,44.88155719187031],[-0.281189428286651,44.88133147436503],[-0.281214999683155,44.88131143447676],[-0.281249043906476,44.881284565935914],[-0.281275221590357,44.88126405754999],[-0.281358937387906,44.88119796364841],[-0.281423112942057,44.88115101043057],[-0.281513390699016,44.8810952655297],[-0.281748728236008,44.88096476420961],[-0.281976915370449,44.88083988051144],[-0.282257794459799,44.88066027206772],[-0.282396791447124,44.880570735502495],[-0.282422378076558,44.88054880251322],[-0.282369525057617,44.880522791160644],[-0.282656656633046,44.88031362019575],[-0.282773285505454,44.8802057309847],[-0.282837307968215,44.88013670395389],[-0.283155023142789,44.879806958165176],[-0.283207333225895,44.879769546249975],[-0.283527711111944,44.879446388843434],[-0.283526852675413,44.87943605134272],[-0.28355392449354,44.87942002153753],[-0.283618998512247,44.87936249726373],[-0.283687562375794,44.87930396858406],[-0.283773634895549,44.87922843134882],[-0.283853862191643,44.87913531488444],[-0.28391035480714,44.87905677784652],[-0.284006553216231,44.878916060087285],[-0.284027737184791,44.87888605675552],[-0.284045025155655,44.878787323016475],[-0.284074824602845,44.87873561807482],[-0.284249710482117,44.87862275943846],[-0.284342586981306,44.87854656983827],[-0.284404663206653,44.87851364427613],[-0.284479096658179,44.87847314403659],[-0.284630129388385,44.87823429292482],[-0.28466080283619,44.878186707104966],[-0.284695755888103,44.87815377301966],[-0.285031650007515,44.87785565346795],[-0.28464292977876,44.87763890363474],[-0.285018927718602,44.8772378606525],[-0.285365604870184,44.876846965751014],[-0.285631983362668,44.87654144007292],[-0.285707432518047,44.87657894598998],[-0.285856992221358,44.87665273573964],[-0.286092687134791,44.87676903121796],[-0.286351201669269,44.876299011456524],[-0.285590274154822,44.876000109575806],[-0.28571198166621,44.87586881771959],[-0.285852044408988,44.87571986100063],[-0.285975576799958,44.87553318595089],[-0.286231194950224,44.87514795767613],[-0.286299546212392,44.875064292236274],[-0.286380459853008,44.874950607878034],[-0.286708781228959,44.87450636483085],[-0.28688201256864,44.87425306581228],[-0.286891696886982,44.87421069663485],[-0.287058932699214,44.873976228088054],[-0.287206815704614,44.87378351372153],[-0.287194815078892,44.87367384223281],[-0.287265526427959,44.873481250770176],[-0.287351661373311,44.87324909374302],[-0.287353227065409,44.873239044919515],[-0.287558418687321,44.87273969305151],[-0.287642284833284,44.87249480706851],[-0.287691502602885,44.8723377254193],[-0.287713178093067,44.872251296561814],[-0.287724189761182,44.87220780664294],[-0.287794866451154,44.87192816753931],[-0.287835628557429,44.871769534082844],[-0.287863165121656,44.87166202555056],[-0.287939975897749,44.87137896059894],[-0.287985402105478,44.87119829166691],[-0.288306932470532,44.871272389289565],[-0.288560478206934,44.87133029790085],[-0.289051710739947,44.871443609738506],[-0.289394291230781,44.87152437953678],[-0.289442835013467,44.87142075349203],[-0.289626804276243,44.87102673673225],[-0.28964221579777,44.87099564176258],[-0.289645979029677,44.87098633877004],[-0.289806449526558,44.87065843967969],[-0.289938594006175,44.870385627597116],[-0.28956164878774,44.87033246140933],[-0.289274288679852,44.870287812688325],[-0.288871111415673,44.8702281226044],[-0.28844752610069,44.870163989531505],[-0.288447146596646,44.870164000776825],[-0.288527658378884,44.86998094028128],[-0.288561333983094,44.86998039294523],[-0.288634425208449,44.86998426453627],[-0.289351480732236,44.87001572899788],[-0.289475130403763,44.8700238686579],[-0.289641078681941,44.869406817846105],[-0.289778279688643,44.86890037557053],[-0.290410266654511,44.86890975393888],[-0.29053159451771,44.868908589528246],[-0.290630094975018,44.868427353469706],[-0.290668241558143,44.86836044045589],[-0.290667618956743,44.868345500299604],[-0.290651499001485,44.86829749795792],[-0.290666111878077,44.86823335535544],[-0.290649081231635,44.86808986114172],[-0.290508531401035,44.867797740010545],[-0.290409118650965,44.86759559250221],[-0.290875796900751,44.86757805959127],[-0.290887415958722,44.86752121471414],[-0.291585592977765,44.86754457290082],[-0.291847665675032,44.86755148745439],[-0.291795477967185,44.866927476777434],[-0.291728020844518,44.86619001742226],[-0.291698417320019,44.86578250734719],[-0.291641716119708,44.86575985899998],[-0.291405470081803,44.865259805610464],[-0.291309605821053,44.86506196935016],[-0.291648527082739,44.86501181649719],[-0.2912459880679,44.86440711939912],[-0.291602864021779,44.864224600064354],[-0.291969472048461,44.86404386338541],[-0.292177747393821,44.86393747970847],[-0.292200010812612,44.86396060877843],[-0.292441849876914,44.86417583016483],[-0.292472044279892,44.864254232937775],[-0.292583904920598,44.8644957485286],[-0.293080171286221,44.86411913182793],[-0.293170719020475,44.8640405702103],[-0.29366100596392,44.863661514934314],[-0.293821089029556,44.863539347064844],[-0.294113122315395,44.863312246166316],[-0.294181550739664,44.86325840025416],[-0.294590748812348,44.86294005041688],[-0.294834510543562,44.862749794789345],[-0.294961378595652,44.86265113946243],[-0.295159697810078,44.862498367436956],[-0.295486973995954,44.862243723099134],[-0.295637582127089,44.86250625255732],[-0.295741017000046,44.86268178288756],[-0.295801712262944,44.8627875741548],[-0.295826570380555,44.86281603218715],[-0.295997236056916,44.862973435330254],[-0.296206282937964,44.863147900807384],[-0.29666141888835,44.86345436869078],[-0.296897678639438,44.863619644087215],[-0.297079648267687,44.863704079376205],[-0.297135880976525,44.86372953233777],[-0.29765844808372,44.86396289420818],[-0.297812969339867,44.86403084250136],[-0.29799142496019,44.864107180594424],[-0.29821534141304,44.86420460518612],[-0.29841155591912,44.864292039295734],[-0.29858461162449,44.86437133048559],[-0.298705663047003,44.86443892084758],[-0.298932000867634,44.86456240470815],[-0.298700219210369,44.86554061718108],[-0.298690169901174,44.86557660044567],[-0.299265885714663,44.86564238845368],[-0.300192867570827,44.865749452041015],[-0.300193171522469,44.86591407860933],[-0.300144894741986,44.86601752173722]]],[[[-0.295320543490983,44.886733958707424],[-0.295256885383026,44.8869968153465],[-0.295249497366886,44.887028574171545],[-0.295191673913327,44.887280714370405],[-0.295185511541463,44.88729017892139],[-0.295031749628492,44.88737647541723],[-0.294919224283206,44.88742460146165],[-0.29483280014151,44.887448793684584],[-0.294722053591495,44.88747109443832],[-0.294546148444085,44.88748685824259],[-0.294282345884354,44.887510366615075],[-0.294175256251642,44.88751507639738],[-0.294120738152779,44.88751272920517],[-0.294079427536044,44.887508638382556],[-0.293984097938308,44.887484793693886],[-0.293970626375231,44.88748203947946],[-0.293913386716477,44.88747004075382],[-0.293845065251047,44.8874679227746],[-0.293817215891251,44.88746856887385],[-0.293777109285108,44.88748282523719],[-0.293650040467718,44.88752507357443],[-0.293479293955092,44.88756825714884],[-0.293458646975485,44.88757067195848],[-0.293466458958742,44.88755043514408],[-0.293650819198325,44.88707412583174],[-0.293712919188975,44.886920623423194],[-0.293827234722917,44.88663743122984],[-0.294521266436925,44.886588270223],[-0.294703058697314,44.88657782853729],[-0.294809773949412,44.88658835838036],[-0.294885414251191,44.886605037015016],[-0.295296549328055,44.88673980740808],[-0.295320543490983,44.886733958707424]]]]}}]}
