{"type": "FeatureCollection","name": "aoc_geojson","features": [{"type":"Feature","properties":{"dt":"Pau","type_prod":"Vins","categorie":"Vin tranquille","type_denom":"appellation","signe":"AOC","id_app":9,"app":"Béarn","id_denom":61,"denom":"Béarn","insee":"64219","cvi":"1B101S, 1R101S, 1S101S","nomcom":"ESTIALESCQ","insee2011":"64219","nomcom2011":"ESTIALESCQ","id_aire":75,"crinao":null,"grp_name1":null,"grp_name2":null},"geometry":{"type":"MultiPolygon","coordinates":[[[[-0.570690763456671,43.215474680274085],[-0.570688778820735,43.215482399586065],[-0.570687174433058,43.215488305459594],[-0.570685499422826,43.21548710029842],[-0.570676130926456,43.21547894634691],[-0.570579459116911,43.215394894407886],[-0.570195765053404,43.21504931249552],[-0.569974911329565,43.21483844748487],[-0.569848103710158,43.21469308272221],[-0.569595084206857,43.2143960301748],[-0.569325179922564,43.21411853478372],[-0.569166272706693,43.21394973984083],[-0.568873995970725,43.213618958229596],[-0.568629061885198,43.213337033779034],[-0.568305695225638,43.212963248672295],[-0.568248675758078,43.21290714731185],[-0.56800678697377,43.21272416766451],[-0.567922930318132,43.21266805331501],[-0.567778965906986,43.212593487124835],[-0.568616375423014,43.21166050447912],[-0.568706828262707,43.21169190851003],[-0.569052304818934,43.21178826030912],[-0.569532532155962,43.211963441767445],[-0.569740537924992,43.2120324649317],[-0.570337440516721,43.21224295068601],[-0.570597956551001,43.2123309442207],[-0.571202878394916,43.21252171085314],[-0.571412954965251,43.212588321304395],[-0.571627906724251,43.21265612060434],[-0.572404225884237,43.21291693211816],[-0.572583627014689,43.21297717267854],[-0.572936092144301,43.21307481191373],[-0.573100590440015,43.21313293397658],[-0.573070262390853,43.21317995022123],[-0.573062290711003,43.213192369995824],[-0.572950882477827,43.21336542992781],[-0.572582770575604,43.21391994742634],[-0.57256201822764,43.21394665696155],[-0.572400309712106,43.21413849008745],[-0.571988092202042,43.214630985902865],[-0.571806636561501,43.214832025971674],[-0.571744837104127,43.21488377550957],[-0.57143555992069,43.2150544701559],[-0.571352936098388,43.21510393740448],[-0.570842384250613,43.21540618199969],[-0.570732339465586,43.21545619614805],[-0.570710071313415,43.21546638762753],[-0.570690763456671,43.215474680274085]]],[[[-0.555585529249555,43.2268365222507],[-0.555465746874918,43.22693888568378],[-0.555077915803743,43.22676770626445],[-0.555073789401221,43.22673470649962],[-0.55516955803452,43.226584331553205],[-0.554984527495995,43.22649903411781],[-0.555116662512279,43.226207444830024],[-0.554620298101458,43.22600931528996],[-0.554591388396397,43.225997751686734],[-0.554456982887767,43.22593068523577],[-0.554402416066089,43.22599434190932],[-0.554205525265137,43.22592834289017],[-0.554255976254143,43.22585383669682],[-0.553982096389025,43.225757327520206],[-0.55378737888386,43.22597651103689],[-0.553535017923115,43.22589351874796],[-0.552565476411946,43.22558355131274],[-0.551821782021561,43.225345829442475],[-0.551397857796351,43.22521004186724],[-0.551224371228204,43.22507006292507],[-0.551074505364946,43.22479568357123],[-0.551150487442775,43.22476184830854],[-0.551268349552096,43.224708266049845],[-0.551288888444367,43.22470587928956],[-0.552027315967751,43.22487021309796],[-0.552368689419979,43.22488913947896],[-0.552400839114789,43.224757339488484],[-0.552695344895001,43.22480500056878],[-0.552707502586709,43.22476047949794],[-0.552714958160848,43.224733581470964],[-0.552742678320817,43.2246198456466],[-0.5524458122349,43.224569831293294],[-0.5520797780844,43.22452830600096],[-0.552124959946091,43.22429216825447],[-0.552164974967571,43.2240841137395],[-0.552239060982954,43.22371547264082],[-0.552266341385191,43.223562583114635],[-0.552265045802341,43.22354353679535],[-0.55226457118556,43.22347782153193],[-0.552267689250505,43.2234004625827],[-0.552270354602749,43.22337975514923],[-0.552275754803065,43.22331546725083],[-0.551692309559625,43.22337033002035],[-0.551865168394838,43.223202113825664],[-0.552121460694777,43.22292715194939],[-0.552211779476057,43.22275823074688],[-0.552313927903274,43.22262547717551],[-0.552629084205748,43.22227276056467],[-0.552832220158522,43.22204645911464],[-0.553075445903092,43.221865388986494],[-0.553436129842396,43.22200424207909],[-0.553485141322882,43.22194238972214],[-0.553501409778928,43.22192465587982],[-0.553528159349024,43.221891179629914],[-0.553609491807824,43.22192631879528],[-0.553699183970299,43.221817295030284],[-0.553653114141607,43.221794951133],[-0.553672195416139,43.22177091170881],[-0.553635572481743,43.221754019378565],[-0.553558560862474,43.22171306528181],[-0.55368537514589,43.221519079669775],[-0.553549561805347,43.221462954183835],[-0.553500921897357,43.2214428558952],[-0.55347090039962,43.22140719741577],[-0.553433530839031,43.22143616111114],[-0.553374850858517,43.221470959001394],[-0.553330285676483,43.22145504847416],[-0.553209721588132,43.22138662486346],[-0.553168304184584,43.221345849009126],[-0.553167784295479,43.221279414984906],[-0.553135555059733,43.22127588414983],[-0.553007421970378,43.22125849338448],[-0.552996090753992,43.22131442254019],[-0.55295378151622,43.221309152601926],[-0.552902665289107,43.22130282201088],[-0.552871981079058,43.22135038418473],[-0.552779955225334,43.221475511545435],[-0.552792005885973,43.221507259819745],[-0.552692709630135,43.22164829384092],[-0.552683876092172,43.22164480291942],[-0.552652120727103,43.221632972448546],[-0.552586209045468,43.221608310025005],[-0.552404439354513,43.22186767333757],[-0.552772831650257,43.22204976520968],[-0.552666636255537,43.222172747823905],[-0.552282434373327,43.22258590493891],[-0.551884117228514,43.223121892715184],[-0.551822611099007,43.22317082934451],[-0.551695998498053,43.22310818560884],[-0.5515673593013,43.22304461797681],[-0.551443392573341,43.22315899996525],[-0.551231681885137,43.22335415615616],[-0.551373064321478,43.2234767326952],[-0.551604638558143,43.223314238041404],[-0.551698423611714,43.223253614076256],[-0.551050137250266,43.22391749246056],[-0.550848359709526,43.22412006462651],[-0.550557927642488,43.22434464253781],[-0.550173946573348,43.224591746647384],[-0.550101703337089,43.22463032048173],[-0.550020850583068,43.224655040875724],[-0.549793851263275,43.22468790068985],[-0.549556025833651,43.224696894776905],[-0.549876403999245,43.224572722105286],[-0.550015872310269,43.224482053366444],[-0.550032998440351,43.224462220880305],[-0.550045279462757,43.22443768551176],[-0.55016768924501,43.22437396017126],[-0.550141374261841,43.224298470115244],[-0.549987970986414,43.22433674266933],[-0.549903637833526,43.22433690590711],[-0.549970500978897,43.22430895410801],[-0.549935940842574,43.22420951390969],[-0.549929781361515,43.2241814432852],[-0.549846733381619,43.2239362891767],[-0.549837856450833,43.223878053770136],[-0.550572925958189,43.22286142358416],[-0.551120971821087,43.22210333181195],[-0.551275472445855,43.22127670253477],[-0.551272448939185,43.221243576512045],[-0.551245292704179,43.22124645122347],[-0.551089642784284,43.22123806763815],[-0.551029989531557,43.22058677571384],[-0.551110670921801,43.219843074587295],[-0.551120265872882,43.219842938880916],[-0.551223833346085,43.219841331039156],[-0.551467952258579,43.219836897720796],[-0.551373495868198,43.21994454552057],[-0.551507612376264,43.220017207030956],[-0.551491226037776,43.22017306889473],[-0.551565735888493,43.22018943512963],[-0.551502319263367,43.22033531967898],[-0.551620869982941,43.2203370901111],[-0.551557894844871,43.22057417278622],[-0.551507366213877,43.220695411832324],[-0.551800613244896,43.22078498549701],[-0.551832509086573,43.22078510609261],[-0.551839490611144,43.22066448999743],[-0.551879439882957,43.22058141670992],[-0.551917239252809,43.220525426806304],[-0.552031159121117,43.22054796888324],[-0.552126737332652,43.220422545226114],[-0.55219725255228,43.220330001588586],[-0.552479742648891,43.220352846130794],[-0.55253029374707,43.22021800949035],[-0.552701170697259,43.22025578351164],[-0.553077255677519,43.22035099997983],[-0.553075640838034,43.22034276928092],[-0.553076750765059,43.2201728232494],[-0.553078203943681,43.219998453874354],[-0.553112770064289,43.21982398455945],[-0.553166127453254,43.21964277357054],[-0.553423809772938,43.219698667551654],[-0.553517689724507,43.21972168791209],[-0.553638352859793,43.219767777278825],[-0.553798508096187,43.219841379252955],[-0.55392847861808,43.21991264368273],[-0.553971915673124,43.21995623400681],[-0.554049785882516,43.220075135908345],[-0.554053871773693,43.22020745334294],[-0.554018539228715,43.22048738773846],[-0.553984762860666,43.22075061310832],[-0.553920780796678,43.22086923515969],[-0.553871896640047,43.22095512478334],[-0.55380181610506,43.22105269767105],[-0.553784125459412,43.22107732160741],[-0.553702589896641,43.22116482681739],[-0.553741301068719,43.22120163970083],[-0.55379140313746,43.22122349055988],[-0.554136289402511,43.22137375659342],[-0.554178871345368,43.221331474779674],[-0.554184693969884,43.221336055223155],[-0.554234303714469,43.22135990303515],[-0.554459910345847,43.22146259295893],[-0.554678241647545,43.2215630909848],[-0.55498254818589,43.22120045975544],[-0.555153922819009,43.221286206221464],[-0.555498608513002,43.221453132479816],[-0.555808873613492,43.2216129081556],[-0.555972692895914,43.22167990347449],[-0.556808540217825,43.22201288373114],[-0.55718631203729,43.22218708830232],[-0.558024060544064,43.222600585153806],[-0.558885630252563,43.22296889934721],[-0.559609367197817,43.223467903996564],[-0.559695946757518,43.22353411053521],[-0.559637911418626,43.22357933562772],[-0.558764417701316,43.22425375392961],[-0.558715622873392,43.22429111015872],[-0.558267672672049,43.22463246757184],[-0.55778650228399,43.2250042722823],[-0.557748903419151,43.22503351523745],[-0.557417340909268,43.225289632894246],[-0.557301179947989,43.2253787328256],[-0.55711372519366,43.225523758240705],[-0.556990460755436,43.2256194850191],[-0.556644173643969,43.22588653052518],[-0.555873233173419,43.22647785639279],[-0.5558613590071,43.22648698182073],[-0.555806971002023,43.22653154431852],[-0.55577250316078,43.22656167385148],[-0.555683111670126,43.22665565259652],[-0.555682647817974,43.226656118094404],[-0.555667183518995,43.22667292538574],[-0.555544805183003,43.22681508328569],[-0.555544693372147,43.22681526705523],[-0.555550026188054,43.22681788266601],[-0.555586574306187,43.22683549734633],[-0.555585529249555,43.2268365222507]]],[[[-0.547712586371663,43.21630429865446],[-0.548056637867884,43.216507824060336],[-0.548217350912905,43.216616801598214],[-0.548374934822641,43.21672092954918],[-0.548593142474806,43.21655960155609],[-0.548720471258296,43.2164660022353],[-0.549296479947493,43.21688186597561],[-0.549512230220335,43.21709897208998],[-0.54956604113887,43.217155188629],[-0.549603258165371,43.217205828242655],[-0.549615771721307,43.21724314403441],[-0.54962627047983,43.21754795007745],[-0.549538589480497,43.21754156040896],[-0.549466417201788,43.21753511067243],[-0.549460983688448,43.21767296325138],[-0.54946130209244,43.21769015075075],[-0.549397219647293,43.21768712653366],[-0.549396311056863,43.21771038719481],[-0.549363217173154,43.2177087746382],[-0.549361485824379,43.21776069564154],[-0.54936057160555,43.21780988851323],[-0.549349247487482,43.21781593367214],[-0.548975330862605,43.218017861610335],[-0.548800524930118,43.21823638005785],[-0.548392733982451,43.218073670529485],[-0.547996046446371,43.21818765274518],[-0.54800034658533,43.21817949762666],[-0.547947864750262,43.21814088474894],[-0.547609248550159,43.217929796290456],[-0.547586655535601,43.2178186173681],[-0.546960898466314,43.2176829685233],[-0.546690570703673,43.217635399055574],[-0.546465256486712,43.21761111076954],[-0.545911290057495,43.217569800854974],[-0.545349299498823,43.217457979158695],[-0.545337657694638,43.21745485008745],[-0.545283064156144,43.217443948153],[-0.544434439990546,43.21727553960812],[-0.544078455077785,43.217210338275656],[-0.543984314473983,43.2172029857831],[-0.544726334531171,43.21692064101262],[-0.545181410867524,43.216739112058825],[-0.545258443146692,43.21671046882161],[-0.545268164722241,43.21670438672148],[-0.545328730285056,43.21668024634486],[-0.545751550135675,43.216414595617906],[-0.545878235762413,43.21632048068898],[-0.546180306638009,43.216087339754004],[-0.546443741084454,43.215886622306975],[-0.546645644867434,43.21573240738194],[-0.546766892003825,43.215794241886954],[-0.547252737872943,43.21605748782284],[-0.547314412664387,43.21609147664951],[-0.547712586371663,43.21630429865446]]],[[[-0.547291658722866,43.23200752539035],[-0.547025897814695,43.23196322551349],[-0.546174520479822,43.231689472133816],[-0.546020486497837,43.23132310797398],[-0.545770701444408,43.231095854056214],[-0.545404051186127,43.23095869982671],[-0.546491464897791,43.23013032511836],[-0.548283486819825,43.23080436463106],[-0.549903765124785,43.23141433261554],[-0.549986809731589,43.23144509677185],[-0.549306613578403,43.231862307356536],[-0.549271793484253,43.23188281173584],[-0.549263740571457,43.23188802893539],[-0.548539668992177,43.23233486084803],[-0.548499780609633,43.23235706234707],[-0.548322448700338,43.23224889895328],[-0.547993546809682,43.23213707439389],[-0.547291658722866,43.23200752539035]]],[[[-0.540161141096461,43.22734805911116],[-0.541324308809184,43.22773993424709],[-0.541209893349382,43.22824117138017],[-0.54080585773596,43.230008630061825],[-0.540505843895535,43.23125214184982],[-0.540368027536543,43.23189002057462],[-0.539652768608649,43.23183721708707],[-0.539980542394301,43.233113170678095],[-0.540660657291894,43.23311075903651],[-0.540779309921706,43.235192700420264],[-0.537359546368163,43.23425701839727],[-0.537307069740287,43.234242710861395],[-0.53715363898435,43.23420073754399],[-0.537376209655972,43.23257844467373],[-0.537557265050815,43.231315611372494],[-0.537956694329762,43.229694185655724],[-0.539099082512212,43.228134656377094],[-0.538379604769187,43.228307449549845],[-0.537982074067454,43.227328672169904],[-0.537931669652681,43.22730187150231],[-0.537791655256982,43.227189227413035],[-0.537631949573057,43.22726352525027],[-0.537091299688445,43.22751112476079],[-0.536886909641746,43.227601743001905],[-0.536775036180658,43.22721895029432],[-0.536713080552206,43.22699965819471],[-0.536806476185287,43.2268459572757],[-0.536947318933689,43.22661659675432],[-0.537104869662166,43.22636453812366],[-0.537148728442933,43.226304663396235],[-0.537381629515638,43.22615296208279],[-0.537571975023347,43.2260321890482],[-0.537653812453837,43.22598124375832],[-0.537791740072337,43.22592935990822],[-0.538004499264077,43.22584080651938],[-0.538075857845073,43.22578966421761],[-0.538275161716514,43.22581302314105],[-0.538354162647653,43.226053185313695],[-0.538456403170706,43.22636308818043],[-0.538614283607863,43.22683936467796],[-0.538686876882835,43.226862556037936],[-0.538698810082423,43.22686639667925],[-0.53934236317263,43.22707210619282],[-0.540114117277732,43.22733222368436],[-0.540161141096461,43.22734805911116]]],[[[-0.539292863669182,43.221918841322875],[-0.539382987677211,43.221874646077225],[-0.539431780629984,43.221859179155466],[-0.539461097956821,43.22183732782983],[-0.539403632826335,43.22178968999497],[-0.539416980520613,43.22149742759106],[-0.539418516126898,43.221347818280336],[-0.539409236072629,43.22131093555309],[-0.539376021251306,43.22122306409078],[-0.539814653106693,43.221326629382226],[-0.540170954098336,43.221378599185385],[-0.540177653872502,43.221381440779716],[-0.540042584865056,43.221802854693294],[-0.540028002123432,43.22185816844047],[-0.540075978323955,43.221885587805005],[-0.54013263160388,43.22190191747448],[-0.540190895643271,43.22192242622131],[-0.540287586210755,43.22199731985259],[-0.540515092832166,43.22217552080511],[-0.540652583789953,43.222285272117965],[-0.54118048508228,43.22243488565985],[-0.542231847069503,43.222477091909894],[-0.542977560998286,43.22273497982166],[-0.543038173381057,43.222857877554354],[-0.54356740778621,43.22272623549078],[-0.543545503119151,43.222688326913726],[-0.544283172491057,43.22243620318618],[-0.545174326221654,43.22177249262428],[-0.54555155621488,43.2215116722918],[-0.546739719940222,43.2211375773451],[-0.547398560672402,43.22122396896067],[-0.547445366613512,43.221268351486835],[-0.547656919513486,43.22141302658291],[-0.54770739644179,43.221372919027885],[-0.547772256842598,43.22141256587458],[-0.547652066143199,43.22166053135087],[-0.547927961802046,43.221746274004566],[-0.547999302896634,43.22176715900464],[-0.548289745588046,43.22189123053453],[-0.54749931580947,43.22257056534362],[-0.548105685837716,43.22268839226085],[-0.54878689944701,43.22282392379348],[-0.549177531389893,43.222887251247485],[-0.549127080676933,43.22296382572095],[-0.548883762343905,43.22331984143652],[-0.548840068496947,43.22331209420159],[-0.548785574022795,43.22337898691848],[-0.54864423963922,43.22353940798836],[-0.548545784837625,43.22365429808462],[-0.548377002601987,43.22393303639555],[-0.548672224072751,43.2240104885907],[-0.54944989971999,43.22421865978231],[-0.549591077193269,43.224257866319576],[-0.549536927923513,43.224430457693366],[-0.549701879119459,43.22440576245707],[-0.54973165543841,43.22446547139083],[-0.549976772305787,43.224450924511586],[-0.549845002987715,43.224546652412],[-0.549421555948866,43.22468267933766],[-0.549397667322368,43.22468265474221],[-0.548981075651833,43.224743989462006],[-0.548529381772344,43.22472507874709],[-0.54853510246815,43.224934238771],[-0.548262570885629,43.22494752276922],[-0.547828345176979,43.22497242546748],[-0.547828003970664,43.22496487314204],[-0.547842294084789,43.22484482727591],[-0.54770977798954,43.2248323463105],[-0.547701783683239,43.22489257723449],[-0.547558664024221,43.22489188005661],[-0.547321262527872,43.224891760988534],[-0.547250535251466,43.224890934591485],[-0.547227629591148,43.22489087719956],[-0.547205829863715,43.224890783447336],[-0.546836742225398,43.2248896796808],[-0.546835283688231,43.22480184650368],[-0.546634994044099,43.22478249765323],[-0.546589859317996,43.224765342409135],[-0.546520980947791,43.22476454481296],[-0.546516611045122,43.22471147355317],[-0.546436397301002,43.224714560104175],[-0.5464334799307,43.22469313592495],[-0.546402614693688,43.224693790170726],[-0.546387077865954,43.22467539195933],[-0.546356135322385,43.22467478814353],[-0.546196065752269,43.224632686630486],[-0.546108640697152,43.22485904417832],[-0.546069705708082,43.224984851908935],[-0.545602246336283,43.22495384111727],[-0.545659611944849,43.22481536234754],[-0.545579982365307,43.22479789947106],[-0.545466719312543,43.22477812004109],[-0.545422785996364,43.2247684883783],[-0.545308279264766,43.2247384848563],[-0.545219392183414,43.2249190582137],[-0.544959983989038,43.224857347881446],[-0.54492840587523,43.224870450922715],[-0.544628196313025,43.22480197643157],[-0.54451046569108,43.224781622429084],[-0.544539343802309,43.224710531110375],[-0.544565780513335,43.22464780384652],[-0.544357467145906,43.22460404288114],[-0.544214753864741,43.22457586514479],[-0.54424825640741,43.224497868884036],[-0.544161409381442,43.22448316323253],[-0.543770590034259,43.22441685214739],[-0.543767222590136,43.22441615236177],[-0.543572172881626,43.22438383987237],[-0.543556346172655,43.224410831942464],[-0.542945260247061,43.224276476117744],[-0.54293228758263,43.22427375059416],[-0.543066542730496,43.22397769673922],[-0.542889899267188,43.22394432850631],[-0.542911237164973,43.22388275960599],[-0.543023449360573,43.22390752842342],[-0.543041621863168,43.22385857924844],[-0.543024238159529,43.223854197738994],[-0.543038914848342,43.22380446293202],[-0.542955231424494,43.223781098509576],[-0.542842809858544,43.223752914916915],[-0.542838452913588,43.22374612474731],[-0.542720390119869,43.223696246085105],[-0.5425806662877,43.22372874639416],[-0.542485265203157,43.22374916647908],[-0.542346631222999,43.223809453622174],[-0.542223453043591,43.223838709029685],[-0.542197476749652,43.22384478418762],[-0.542208700199615,43.2237327638994],[-0.542028297423662,43.22373040205097],[-0.542027098952772,43.22374899000327],[-0.541839080193677,43.2237148229581],[-0.541911239957853,43.223530389866355],[-0.541611726353103,43.223471068823144],[-0.54157682610994,43.22356846895957],[-0.541560608860524,43.22360114614598],[-0.541506501740519,43.223590226116116],[-0.541418965176274,43.22357428038385],[-0.5414114815809,43.223594785392514],[-0.54103200211131,43.22348838416108],[-0.541042889403261,43.22346515627612],[-0.5411297621593,43.22328168164987],[-0.540851231312317,43.223191055791204],[-0.540756876594728,43.22316029632745],[-0.540650840689468,43.22312577816582],[-0.540589303421704,43.22326466075682],[-0.540280086759348,43.22320367358762],[-0.540127867687744,43.223174992167415],[-0.539981424043648,43.2231461210638],[-0.539910884350465,43.22313024682391],[-0.539704332679374,43.22308092689512],[-0.539694217547027,43.223108721416125],[-0.539693837888511,43.22310855378727],[-0.53964354403633,43.22309354593098],[-0.53965059959513,43.22307809744437],[-0.539638476478219,43.2230751635898],[-0.539553363426427,43.22305454477048],[-0.539352893977918,43.223006015132974],[-0.539323024603571,43.222998801095244],[-0.539299143342074,43.223045055436245],[-0.539286153849708,43.22307015290299],[-0.538930034189754,43.22298314766696],[-0.53885578824686,43.22296505322973],[-0.538855351842221,43.222965967958224],[-0.53880870067462,43.222970199198464],[-0.538771844948301,43.2229554705611],[-0.538681793531026,43.222916554507925],[-0.538510290295815,43.2228343883107],[-0.538281038633542,43.222709995178064],[-0.538252573071071,43.222687517802655],[-0.538226224622719,43.22265137472725],[-0.53821806920876,43.22261274421021],[-0.538223002085826,43.22258475962435],[-0.538248836225531,43.22254825604925],[-0.538321940536159,43.222501558410094],[-0.53840224487365,43.22245381423722],[-0.538752745775611,43.22228060517932],[-0.538873137392585,43.222222001525786],[-0.539017123941661,43.22211850350213],[-0.539070644686556,43.2220797410109],[-0.539137380849089,43.22203964461457],[-0.539186409527643,43.22199589703474],[-0.539292863669182,43.221918841322875]]]]}}]}
