{"type": "FeatureCollection","name": "aoc_geojson","features": [{"type":"Feature","properties":{"dt":"Bordeaux","type_prod":"Vins","categorie":"Vin tranquille","type_denom":"appellation","signe":"AOC","id_app":685,"app":"Côtes de Bordeaux","id_denom":1849,"denom":"Côtes de Bordeaux","insee":"33249","cvi":"1R120S","nomcom":"LORMONT","insee2011":"33249","nomcom2011":"LORMONT","id_aire":1451,"crinao":null,"grp_name1":null,"grp_name2":null},"geometry":{"type":"Polygon","coordinates":[[[-0.497393628269012,44.877566337638854],[-0.497220854817102,44.877653613353665],[-0.497171838317261,44.87764200001493],[-0.496990172952032,44.87830246465507],[-0.497292123012544,44.878380098728364],[-0.497201089279717,44.87852815477004],[-0.497082998985645,44.878602081278125],[-0.497052121767707,44.87859476291822],[-0.497028179478369,44.87860516043136],[-0.496958235260297,44.8786563909538],[-0.496852208142555,44.87895641514514],[-0.496883977214275,44.87905328731375],[-0.496891322560027,44.87910199244477],[-0.496867719408441,44.879270364126334],[-0.496866022130741,44.879281773048774],[-0.496599452093689,44.87926953349005],[-0.496549510411188,44.87926750197059],[-0.496448828774061,44.879262833154854],[-0.496451265176155,44.87925311328542],[-0.496488553332997,44.879107021490704],[-0.496580606378337,44.87892036152395],[-0.496452824687843,44.87888761716565],[-0.496347973266533,44.87908044803782],[-0.496049208239542,44.87901938364486],[-0.496536746940049,44.87873320689735],[-0.496541071342315,44.878729375634855],[-0.496708951822356,44.8785370822142],[-0.496632588804605,44.87847108506401],[-0.496628558197127,44.878467426902475],[-0.496432945443506,44.87828793714087],[-0.496391910287038,44.87825795737145],[-0.496564105002652,44.87784202436697],[-0.496930918490425,44.87695519716371],[-0.497479005367272,44.87727876970402],[-0.497393628269012,44.877566337638854]]]}}]}
