{"type": "FeatureCollection","name": "aoc_geojson","features": [{"type":"Feature","properties":{"dt":"Angers","type_prod":"Vins","categorie":"Vin tranquille","type_denom":"appellation","signe":"AOC","id_app":1028,"app":"Fiefs Vendéens","id_denom":2344,"denom":"Fiefs Vendéens Vix","insee":"85126","cvi":"1B712S, 1R712S, 1S712S","nomcom":"LONGEVES","insee2011":"85126","nomcom2011":"LONGEVES","id_aire":1689,"crinao":null,"grp_name1":null,"grp_name2":null},"geometry":{"type":"MultiPolygon","coordinates":[[[[-0.84506503977197,46.4589179492442],[-0.845115882168679,46.45885457265471],[-0.845193228030008,46.458758209134444],[-0.845206640018309,46.45874306256946],[-0.845226750359199,46.45871560997144],[-0.845253806389782,46.45867935895172],[-0.845310550080107,46.45860162956233],[-0.845392365609252,46.45848726514649],[-0.845434627047456,46.45842985701197],[-0.845457705269228,46.45839824753798],[-0.845477735958527,46.45837151878848],[-0.845563909102822,46.45825421271926],[-0.845668166605076,46.45811033349306],[-0.845770443005648,46.45796426707138],[-0.845781007303825,46.457951289858144],[-0.845880902914027,46.457976773591966],[-0.846073689111715,46.458026444198936],[-0.846191617288222,46.458054205069644],[-0.846321169271172,46.45808400833458],[-0.846335943812763,46.45811037603372],[-0.846130881122493,46.45848402490765],[-0.845820388621409,46.458896203939055],[-0.845673775900707,46.459105428054],[-0.845621879442964,46.459179748857586],[-0.845457147427727,46.45937624038175],[-0.845362763696661,46.459391950539256],[-0.845190573142348,46.4593569108733],[-0.845018512953037,46.459321866564686],[-0.844944798779703,46.45930694965703],[-0.845035716791737,46.45914404746336],[-0.844928344447879,46.4591143071103],[-0.844934523649032,46.45908353733347],[-0.845028282389912,46.45896462400858],[-0.84506503977197,46.4589179492442]]],[[[-0.844662907410641,46.45762914961814],[-0.844841112291371,46.45768111631445],[-0.844919968938796,46.45770424420859],[-0.84500550389219,46.4577295812502],[-0.845137113884463,46.45776824159514],[-0.845196142268053,46.457785816597735],[-0.8452942024178,46.45781487859157],[-0.845520797526835,46.45788153201643],[-0.845638528046742,46.45791389787377],[-0.84567224975773,46.45792222799255],[-0.845711005623355,46.457931650662275],[-0.845761413580746,46.457945368746444],[-0.845762606945085,46.457947492207786],[-0.845743909673483,46.45797462686518],[-0.845694760447011,46.458041643013836],[-0.84565629291017,46.45809549767787],[-0.845624761470987,46.458138570849144],[-0.845570513701575,46.45821468376806],[-0.845531169707475,46.458270911867004],[-0.845512427809208,46.458297416913275],[-0.845494000201807,46.45832282953977],[-0.845466258801812,46.45836045600189],[-0.845413896230905,46.45843371060409],[-0.845340007501984,46.458536538997556],[-0.845259312567008,46.458646448155825],[-0.84521458417266,46.45870772570229],[-0.845196422915395,46.458733219451624],[-0.845174515927364,46.458761093163695],[-0.845148618647958,46.45879342857931],[-0.8451303020661,46.45881487068638],[-0.845059248023356,46.45890056457336],[-0.845035026738766,46.45893077000662],[-0.844946842680582,46.45903993944015],[-0.844933081210961,46.45905753185464],[-0.844917230836339,46.45907880071319],[-0.844928344447879,46.4591143071103],[-0.844742549837909,46.459086125775514],[-0.844615566931781,46.45906317589869],[-0.844475249424822,46.45903797033241],[-0.844383014379144,46.45902124262184],[-0.844126160766534,46.4589750785748],[-0.844101449901443,46.45897059160213],[-0.844027717109842,46.4589591005443],[-0.844020860901285,46.45895806925512],[-0.843933120738429,46.458942181526744],[-0.843781043605392,46.458914846791515],[-0.843727213150504,46.4589043983803],[-0.843731232586938,46.45889479705878],[-0.843717091728132,46.45889220795527],[-0.843490311258568,46.458850709647265],[-0.843468659569062,46.458887769947516],[-0.843350557192389,46.458851988560305],[-0.843013575226219,46.45874983027108],[-0.842983453031868,46.45874074713769],[-0.842957993599207,46.45873303963716],[-0.842792357631534,46.45867433624077],[-0.842819176957217,46.45864025747426],[-0.84285558995372,46.45859422613257],[-0.842915301517505,46.458517840584236],[-0.84292542843693,46.45850605036519],[-0.843001117522407,46.4584101949661],[-0.843105330215248,46.45827668734848],[-0.843247624567893,46.45809492829479],[-0.843282824179075,46.45805019976807],[-0.843304392139613,46.458023059070335],[-0.843306519510308,46.45801622602764],[-0.843309897204501,46.4580123259225],[-0.843334672734345,46.457936304806665],[-0.843421683256548,46.457832675448884],[-0.843464793128168,46.457781730498816],[-0.843530213444636,46.45770307886911],[-0.843597036758437,46.457622126150916],[-0.843720127439197,46.45747518065725],[-0.843803933394824,46.457376076309686],[-0.843949342473663,46.457418059774625],[-0.84398385380518,46.45742834714021],[-0.844186592743477,46.45748787292733],[-0.84426544883426,46.457511001273915],[-0.844343362309508,46.45753371054682],[-0.84456944721312,46.45760056326797],[-0.844662907410641,46.45762914961814]]],[[[-0.843927104072513,46.45724508483377],[-0.843996420255718,46.45717360405977],[-0.8440048292031,46.45716520721036],[-0.844050073955432,46.45711680453608],[-0.844136490569751,46.45702329160024],[-0.844166113911193,46.45699200291519],[-0.84421321866565,46.45694038220036],[-0.844230941353933,46.45691977159471],[-0.844303387288397,46.456837186619175],[-0.844328966495581,46.45680774695955],[-0.8444563699556,46.456662818958144],[-0.844480602945011,46.456636489775015],[-0.844499788651157,46.45661628061533],[-0.844512349439793,46.45660386735331],[-0.844557443829903,46.456558895299914],[-0.844587060336664,46.45652751656454],[-0.844633483303105,46.45645698658816],[-0.844640425797373,46.456446295104605],[-0.844670614586551,46.45640083328614],[-0.844719858989218,46.4563314703839],[-0.84476261161109,46.456271792092615],[-0.84477534098839,46.456252521530615],[-0.844824896489847,46.45622272503337],[-0.844873820280109,46.45619322024527],[-0.844916126089059,46.45616420877857],[-0.844922449256767,46.45615768514684],[-0.844974837682874,46.45610146864186],[-0.845005536395638,46.45606509494419],[-0.845040660451112,46.45601748343402],[-0.845040790587098,46.45601747905101],[-0.845054786159492,46.45599951809357],[-0.845942836439785,46.45621563114014],[-0.845943103055993,46.456215712310936],[-0.846229132816303,46.456283607399065],[-0.84637769617446,46.45631853972927],[-0.846564516355628,46.456361378442935],[-0.847252933756114,46.456530386677045],[-0.84723098688054,46.45657800562337],[-0.847148862036189,46.456752603976675],[-0.847140018472492,46.45677147342371],[-0.847097317754176,46.45676344632538],[-0.847088109253894,46.45677899241918],[-0.847017520075502,46.4568989300639],[-0.846993506681875,46.456941299582454],[-0.846962427351681,46.45699445504379],[-0.846905845806534,46.45708921878304],[-0.84686260554061,46.45716415014311],[-0.846826742284792,46.457225310027226],[-0.846798211676262,46.457272068871234],[-0.846780226054856,46.4573018843245],[-0.846716511042971,46.45741203393385],[-0.846687256368337,46.45746332476717],[-0.846662245624849,46.457510055122675],[-0.846626619916944,46.457572739515136],[-0.846590819574799,46.45763479870913],[-0.846551054304428,46.457705375663764],[-0.846497194656328,46.45780176033267],[-0.846473120266712,46.45784142718752],[-0.846442744625633,46.457893476926735],[-0.846399201486418,46.45796968039882],[-0.846395903239846,46.45797655296003],[-0.84642525433322,46.457983948280706],[-0.846382624687232,46.45807310293119],[-0.84637456864749,46.458073554649026],[-0.846319287944749,46.45806288587088],[-0.846262994771626,46.458050808735905],[-0.846194893973099,46.45803408082015],[-0.845993499138756,46.457988126210616],[-0.845899723135688,46.45796432962782],[-0.845777281920865,46.45793176210272],[-0.84552158297386,46.45785752499679],[-0.845247449692257,46.457777146790775],[-0.845013440667536,46.45770893949154],[-0.844948149981368,46.45768950179622],[-0.84479495665375,46.45764444606322],[-0.844572994402848,46.457578717077055],[-0.844343611708593,46.45751134434544],[-0.844301530119385,46.45749914833772],[-0.843818170981105,46.457357836927535],[-0.843911327238986,46.457261843466654],[-0.843927104072513,46.45724508483377]]],[[[-0.842422412639396,46.456728949520084],[-0.842372638755289,46.45671124198302],[-0.842277179003291,46.45667830368045],[-0.842211345069246,46.45665482592095],[-0.842206203378199,46.45665220424191],[-0.84205379402209,46.456597832927216],[-0.84202665072598,46.45658657582997],[-0.841940072899311,46.45655009286924],[-0.841799269208161,46.456490101837176],[-0.841792870535136,46.45648815350598],[-0.841754155341932,46.45647187661865],[-0.841629428148433,46.45641603231748],[-0.841543311457455,46.45637682898716],[-0.84135574229924,46.45629181612672],[-0.841356022083394,46.45628838092585],[-0.841374157473247,46.456273616802534],[-0.841454197665353,46.45620249800891],[-0.84148970067094,46.45616947961911],[-0.841501090811986,46.45615710609786],[-0.841525819737331,46.45611002586394],[-0.841542292985866,46.45608648271465],[-0.841548568781758,46.456081132856745],[-0.841566277571414,46.45607512782625],[-0.841615829798163,46.45605822466299],[-0.841628310700084,46.45605392813016],[-0.841675288435511,46.45603936537949],[-0.841692117445795,46.45603753693972],[-0.841710891684387,46.45603924913106],[-0.841750525276378,46.45604449653638],[-0.841771924660669,46.45604458778907],[-0.841823497130006,46.45603969695852],[-0.841886854961127,46.45603359812775],[-0.841926023507595,46.45602669055943],[-0.842008395252018,46.45600904335597],[-0.842084301552542,46.455990351548266],[-0.842172094994567,46.4559681944479],[-0.842189260731268,46.455963740183336],[-0.842203957270944,46.45595756597094],[-0.84222722127187,46.455945243512815],[-0.842246089377029,46.455931626559035],[-0.842296153521451,46.45587756309502],[-0.842314489243235,46.455856391249554],[-0.842319847648886,46.45585098206929],[-0.842337963620278,46.45583594797484],[-0.842356916998568,46.45582539331011],[-0.842452051790982,46.455774140142644],[-0.842480959659962,46.45575675944175],[-0.842502824135304,46.4557412385423],[-0.842519156573186,46.4557231091137],[-0.842531003551948,46.45570981857802],[-0.842573995118383,46.45565905820535],[-0.842597371285864,46.45563537269112],[-0.842608611497649,46.45562642988251],[-0.84263267550723,46.45561065461595],[-0.84265978965338,46.45559558804906],[-0.842680225076419,46.455585704659384],[-0.842710789053774,46.455573316682596],[-0.84272721184004,46.4555694282532],[-0.842752947307721,46.455564414982305],[-0.842792981580842,46.455560543141296],[-0.842883511620712,46.455553168486595],[-0.842889941914679,46.455555566452084],[-0.842962116376477,46.4555801826398],[-0.843019967112312,46.45559960135931],[-0.843101155690663,46.45562625798567],[-0.843225023853056,46.45566806582192],[-0.843334990458142,46.45570511269246],[-0.843433740567957,46.45573848022105],[-0.843465809862631,46.455749300682925],[-0.843530681224703,46.45577578514086],[-0.843594187898685,46.45580141398558],[-0.84362090268341,46.4558121442221],[-0.843720372892183,46.455853871445896],[-0.843910458515359,46.455933837389765],[-0.843989860507517,46.45596659378255],[-0.844004327303675,46.45597196657924],[-0.844751222150519,46.456241613972544],[-0.844713808727623,46.456295613150914],[-0.844689343572691,46.456331596526596],[-0.844649863550082,46.45638773878236],[-0.844584013516951,46.456482452785934],[-0.844560878528573,46.45651325264273],[-0.844547438230552,46.456529842542295],[-0.844542673594875,46.45653442046407],[-0.844510396953099,46.45656877364595],[-0.84442530239269,46.45665881660469],[-0.844353120774937,46.45673589347441],[-0.844333052391093,46.45675838613973],[-0.844313095106129,46.45678060460253],[-0.844268761526371,46.45683267296898],[-0.844245013872477,46.456860338044024],[-0.844167260214461,46.456949051759935],[-0.84407918636507,46.457048660739204],[-0.844071180543615,46.45705722432644],[-0.844063752337837,46.45706657983598],[-0.844044604354346,46.45708732855466],[-0.844006410112387,46.45712656874508],[-0.843920555372212,46.4572151042672],[-0.843890363496053,46.45724758400216],[-0.843884713130072,46.45725255232355],[-0.843876158659238,46.457255184308316],[-0.843867344242036,46.45725412879573],[-0.843736699788122,46.45719767452592],[-0.843700760807008,46.45718193586089],[-0.843606443026117,46.4571393138626],[-0.843554608882889,46.45711644733961],[-0.843545950345701,46.45711205091666],[-0.843420378618424,46.457057228573895],[-0.843364320157788,46.457031799610725],[-0.843281289520288,46.45699384591374],[-0.843207209454508,46.45696072953869],[-0.843131379483498,46.45693794939582],[-0.84305857781324,46.456913714979954],[-0.842920243785808,46.45686103461919],[-0.84288867805415,46.45685551602673],[-0.842811218738129,46.45684478078889],[-0.842725195689484,46.456834694358626],[-0.8426837935768,46.45682842496796],[-0.842649317936701,46.45681678374318],[-0.842583997889664,46.4567931987388],[-0.842568588359782,46.456787406729134],[-0.842470545464879,46.456747433488566],[-0.842422412639396,46.456728949520084]]],[[[-0.841171128776481,46.45641170980159],[-0.841199843897577,46.456393434414096],[-0.841314783640086,46.4563196088999],[-0.841343924174473,46.45629996687444],[-0.841407322220773,46.456327764228476],[-0.841573966301089,46.456402753007374],[-0.841666253125382,46.456444363106755],[-0.841771457829198,46.45649157863953],[-0.841807773538173,46.45650712489704],[-0.841872571889814,46.45653442412421],[-0.841999924763594,46.45658864722477],[-0.842022437194377,46.45659897834439],[-0.84205239282732,46.45660941957917],[-0.842126647114345,46.456635769377726],[-0.842196251592066,46.45666092333386],[-0.842274282963513,46.456689039122914],[-0.842370520174065,46.45672375430876],[-0.842443924227583,46.456749140850995],[-0.842446977394312,46.456751742661],[-0.842485756796834,46.45676522244283],[-0.842566520944678,46.45679694231026],[-0.842619230686442,46.45681743582626],[-0.842637731854312,46.45682267300779],[-0.842651465658674,46.45682689866913],[-0.842684357670868,46.45683642954032],[-0.842727067509301,46.45684274506619],[-0.842792110007589,46.45685128389146],[-0.842867741056189,46.45686199053058],[-0.842880957704423,46.456864430525755],[-0.842897957669827,46.456868726521954],[-0.842915919313471,46.456873711363606],[-0.842932071702556,46.45687893740879],[-0.842957936330649,46.45688870475308],[-0.843027319269845,46.45691440659714],[-0.84306447052093,46.45692884252131],[-0.843097359304941,46.456940176434045],[-0.843128838957936,46.45695002518271],[-0.843194791481343,46.45696962189341],[-0.843286886970137,46.457010335671114],[-0.843377471647758,46.45705182145934],[-0.843393484303853,46.45705876504185],[-0.843509172160979,46.45711031406864],[-0.843617909165831,46.45715948257987],[-0.843729534782757,46.45720891435],[-0.8437913831111,46.45723504973364],[-0.843856027819858,46.45726199245859],[-0.843859211221661,46.457264589848975],[-0.843824130384139,46.45730543803929],[-0.843703567765232,46.45744382423227],[-0.843659217388862,46.45749381937948],[-0.843630643937318,46.45752705591786],[-0.843600264168037,46.45756242676523],[-0.843574563407483,46.45759385367789],[-0.843532885326634,46.45764475047682],[-0.843487921250925,46.45770269961558],[-0.843456725402546,46.457739450176774],[-0.843394435010461,46.45781439029636],[-0.843363654814253,46.45785148744399],[-0.843320894194233,46.45789998647913],[-0.843308250055061,46.45791492666069],[-0.843295526482445,46.45793059073356],[-0.843281534313912,46.45796712270707],[-0.843268389720357,46.45800272462211],[-0.84326286525711,46.45801688421064],[-0.843256991760066,46.458029793415264],[-0.843248613885967,46.4580423361629],[-0.843238267857609,46.4580565679064],[-0.843213055147515,46.45809122377623],[-0.84319212514209,46.45811816267405],[-0.843121471298887,46.45821141461954],[-0.842989096861073,46.45817115495722],[-0.842942834896189,46.45815702565418],[-0.842889739255202,46.45814033163191],[-0.842857246553156,46.458129074458974],[-0.842823532289081,46.458113440929615],[-0.842794585524976,46.4580988189015],[-0.842770307806416,46.45808566245361],[-0.842739485424661,46.458068489126],[-0.842658847716648,46.45802378312891],[-0.842639289790004,46.45801281175702],[-0.842619230739145,46.457998431460155],[-0.842573618862722,46.457963905708795],[-0.842558590550493,46.45795242126037],[-0.842549221256457,46.45794534411294],[-0.842528244930867,46.45793090452206],[-0.842509204669955,46.4579180225079],[-0.84249386497338,46.457909523558655],[-0.84247439585165,46.457899811304486],[-0.842456783350408,46.45789238052066],[-0.842425405110604,46.45788027435291],[-0.842404948542024,46.457873209738466],[-0.842345994064188,46.457854819463],[-0.842332539318955,46.45785085482288],[-0.842318157528841,46.45784854412273],[-0.842291771119606,46.45784618667386],[-0.842274675393331,46.45784423776244],[-0.842234012880733,46.45783181293754],[-0.842214629166671,46.45782516294569],[-0.842161791407667,46.457806566725345],[-0.842066596484944,46.45777370943209],[-0.842003541566625,46.4577526622577],[-0.841977013323982,46.45774273671813],[-0.841942302324454,46.457731463796875],[-0.841932475493463,46.45772899976667],[-0.841903144622555,46.45771817684898],[-0.841848050800268,46.457695329100346],[-0.841794071254965,46.45767163245989],[-0.841769146197891,46.4576603907943],[-0.841737241823615,46.457644515755355],[-0.841659458415938,46.45760512218791],[-0.841654941051158,46.45760951135208],[-0.841650553825718,46.45761389613693],[-0.841696807220293,46.45763902480469],[-0.841723658530578,46.457653537301375],[-0.841736820742399,46.4576607573363],[-0.841752115894264,46.457668626814105],[-0.841786823409428,46.457681702953614],[-0.841803566195072,46.457687900970086],[-0.841820588275444,46.45769436004261],[-0.84183312855955,46.45770015855886],[-0.841846605175635,46.45770628617444],[-0.841869886206429,46.45771641116804],[-0.841928176070866,46.457742036228176],[-0.841955326720477,46.457749687026116],[-0.841979465137681,46.45775716872925],[-0.842020651038096,46.45777146922603],[-0.842187102749332,46.45782699084546],[-0.842192777787181,46.45782977488394],[-0.842274546880063,46.45785722402062],[-0.842306910035886,46.45786109322029],[-0.842331826880265,46.457862959210544],[-0.842338355874345,46.45786490313122],[-0.842390013193799,46.45788155565119],[-0.842438677309125,46.45789830888855],[-0.842457397697221,46.457904800864554],[-0.8424876490573,46.45791757601737],[-0.842503617063547,46.45792758641018],[-0.842540427880499,46.457953843933666],[-0.84255637985123,46.457965477601334],[-0.842608431586296,46.45800438437829],[-0.842625469081107,46.45801661256743],[-0.842642503622201,46.45802694765471],[-0.842685260067901,46.45805057090551],[-0.84273317107744,46.45807699567322],[-0.842753490877423,46.45808767092959],[-0.842775826186658,46.45809917986603],[-0.842795035150857,46.45810890082939],[-0.842827289126039,46.4581260259567],[-0.842840467645251,46.45813162258167],[-0.842867767373343,46.45814323485828],[-0.842917152300446,46.45816095531741],[-0.842998687326531,46.45818877245152],[-0.843105751373631,46.45822528632993],[-0.84307200918965,46.45826293384962],[-0.843019394088161,46.45832339411766],[-0.842934039199134,46.45842462341931],[-0.842898902447348,46.458470251225755],[-0.842857105602058,46.458521332029676],[-0.842827616757681,46.45855640218558],[-0.84274384739454,46.45866533105005],[-0.842689532524219,46.45873315068662],[-0.842652557317453,46.45878046302161],[-0.842632264808582,46.45880720003459],[-0.842546285195854,46.458918096313205],[-0.842481366519451,46.45899835312621],[-0.842456153321663,46.45902931256492],[-0.841837308480605,46.45870188023152],[-0.841822676413849,46.458694168747805],[-0.841093278087483,46.45830833784787],[-0.840985164586145,46.45824949967652],[-0.840979737178531,46.45824652694331],[-0.84085799203153,46.45820157995226],[-0.84078299049173,46.45817390213989],[-0.840666070127366,46.458130775990696],[-0.840567498756548,46.45809442495801],[-0.840462503369206,46.45805576567839],[-0.840395941834257,46.45803122949738],[-0.840346262436214,46.45801487016806],[-0.839849258380454,46.45782604019511],[-0.840029691724191,46.45765409142375],[-0.840085438012678,46.45760100992846],[-0.840114781247934,46.45757126439429],[-0.840116854281631,46.45756921131746],[-0.840265525518007,46.45741861470501],[-0.840284783311983,46.45739569932625],[-0.840328848202697,46.45734346138733],[-0.840619791945282,46.45699776704523],[-0.840642890803721,46.45697012461425],[-0.840675602532582,46.456930799607086],[-0.840721911246486,46.45687524052171],[-0.840693038279389,46.456863500388394],[-0.840733999842466,46.456820922799466],[-0.84077103421151,46.45678370614314],[-0.840799782958368,46.456754791772006],[-0.840816074817965,46.4567379261156],[-0.840824274591984,46.45673025776905],[-0.840845140808601,46.45670981242857],[-0.840890831981208,46.45666401047993],[-0.840921326508108,46.45663395551247],[-0.840928326237516,46.45662776996721],[-0.84094006213727,46.456618450054414],[-0.840976910919961,46.45658971387699],[-0.841007877603974,46.45656451121985],[-0.84104520989967,46.45652782535104],[-0.841101567243769,46.456470485563266],[-0.841140864659842,46.4564302176027],[-0.841171128776481,46.45641170980159]]]]}}]}
