{"type": "FeatureCollection","name": "aoc_geojson","features": [{"type":"Feature","properties":{"dt":"Pau","type_prod":"Vins","categorie":"Vin tranquille","type_denom":"appellation","signe":"AOC","id_app":9,"app":"Béarn","id_denom":61,"denom":"Béarn","insee":"64420","cvi":"1B101S, 1R101S, 1S101S","nomcom":"OGENNE-CAMPTORT","insee2011":"64420","nomcom2011":"OGENNE-CAMPTORT","id_aire":75,"crinao":null,"grp_name1":null,"grp_name2":null},"geometry":{"type":"MultiPolygon","coordinates":[[[[-0.719429072490795,43.328909523438156],[-0.71962772423029,43.32894636560415],[-0.719753258779592,43.329086949584635],[-0.719579101767504,43.32921929521092],[-0.719138605660173,43.32956001489189],[-0.718884662228231,43.329759766731854],[-0.718440436211739,43.330117362650675],[-0.718015580089329,43.330427279802414],[-0.717804317713207,43.330602235653316],[-0.717616156433062,43.3306037542943],[-0.717435069194128,43.33064033225664],[-0.717428793286447,43.33051059364593],[-0.717382719257428,43.33026884014607],[-0.717101565446547,43.330255454371844],[-0.716967857836807,43.330257710952175],[-0.716564550888132,43.33023636650232],[-0.716597507336737,43.33014868711663],[-0.716591857901658,43.32983169553841],[-0.716994700181419,43.32935647353671],[-0.717081041977397,43.32925876280275],[-0.717194059545764,43.32915959423475],[-0.717276194390898,43.329109488806544],[-0.717595034194664,43.328965236282166],[-0.717809511897404,43.328880318763574],[-0.718496852074035,43.3289770821767],[-0.718930625780305,43.32898701411437],[-0.719031503643284,43.32898075129693],[-0.719429072490795,43.328909523438156]]],[[[-0.715219151507032,43.316064188581954],[-0.715193910281157,43.31650858917339],[-0.715002189484344,43.316767881522196],[-0.714677140673785,43.31649924719436],[-0.714650099621244,43.316661379497354],[-0.714631367766518,43.31666544558268],[-0.713387828249615,43.31742630221769],[-0.713355997358646,43.317416589121784],[-0.71332110742429,43.317483800093484],[-0.712928595863973,43.31764768273171],[-0.711805266871564,43.317284707023155],[-0.711984516614774,43.31707664148992],[-0.712030998323951,43.31698066478505],[-0.712183056545295,43.31665879996725],[-0.712691518562291,43.31679569030971],[-0.712713861546874,43.31678258482442],[-0.712737398969977,43.316770789156635],[-0.712887220533195,43.31669179461264],[-0.712343092154729,43.31632486340258],[-0.712240833802001,43.316265336222656],[-0.712712964464612,43.315926531041455],[-0.713194507496573,43.31557884482947],[-0.713007908110775,43.315563642855835],[-0.712644060267875,43.31544484071677],[-0.71365811264224,43.314449715791646],[-0.714118975144272,43.3145257347509],[-0.714130341504092,43.314520300869795],[-0.713360992855424,43.313728121930055],[-0.713419005656869,43.313719283984675],[-0.714219632602243,43.31358090695722],[-0.714414500166417,43.31354845231226],[-0.714959272227537,43.31348370544946],[-0.715070017173803,43.313474044311775],[-0.715151400519975,43.313510150994254],[-0.715121427219004,43.31387159056578],[-0.715137315518886,43.31414094591274],[-0.715140223922744,43.31417839980029],[-0.715141852349551,43.3142113047748],[-0.715149403334552,43.31427867817883],[-0.7150888713548,43.31429435795184],[-0.715015616427207,43.314311645845216],[-0.714948064161993,43.314327476834436],[-0.715399978193279,43.314574546641374],[-0.71534118853854,43.31465167578811],[-0.715147692512448,43.31504017149999],[-0.715165135475375,43.3150830694939],[-0.715269420195066,43.31533848901113],[-0.715281473129871,43.31561337998628],[-0.715150250961693,43.31587743686528],[-0.715198319308061,43.315911356936645],[-0.715219151507032,43.316064188581954]]],[[[-0.713901951860464,43.33026358509556],[-0.713965405775198,43.33003274673266],[-0.714047544765724,43.32989654798209],[-0.71412700740968,43.3298585146226],[-0.714151279891884,43.3297719450553],[-0.714246955889997,43.32966202829456],[-0.71434791339487,43.32957471469658],[-0.714674136489286,43.32951802419192],[-0.714712435420077,43.329509323154824],[-0.714794268048851,43.32948318558629],[-0.714892908618307,43.32948429828848],[-0.715102664310931,43.329492488793015],[-0.714954046197818,43.33034999924049],[-0.714642361724727,43.33137251745852],[-0.714605589379926,43.331494819723744],[-0.714544377515602,43.33151745663772],[-0.713712910151111,43.33133826246106],[-0.713526299765677,43.330829990335154],[-0.713634042293506,43.33075027939883],[-0.713649028965593,43.330689965759724],[-0.713753724539249,43.33051516772945],[-0.713901951860464,43.33026358509556]]],[[[-0.712900057602181,43.31792063660319],[-0.713297321782758,43.317859166197145],[-0.713681163902247,43.318303197795565],[-0.71361685433742,43.31834071030251],[-0.713427074016625,43.31840450836179],[-0.713184865885262,43.31846245263874],[-0.712842840728448,43.318571556273895],[-0.712652944245859,43.318654629214954],[-0.712191957081926,43.3188106849648],[-0.711820375907189,43.318955022349165],[-0.711597084315135,43.319030955110925],[-0.71129233614182,43.319176957721844],[-0.710815206892864,43.31941380289167],[-0.710464862669015,43.31926174781955],[-0.710405286497061,43.31931917861047],[-0.710262659127283,43.31925914412905],[-0.710374458255368,43.31919289594762],[-0.710410901390717,43.319166968992285],[-0.710776188932154,43.31878122879808],[-0.711066041880594,43.31863952157931],[-0.711607144289578,43.31837535199871],[-0.711818755397982,43.318275144644105],[-0.712267878876525,43.3180881580076],[-0.71255906923281,43.31799602229884],[-0.712900057602181,43.31792063660319]]],[[[-0.711060831203946,43.31863330644403],[-0.710485214361539,43.31815865721974],[-0.710278033950391,43.31798295437122],[-0.710197818629633,43.317919066045356],[-0.709933795866326,43.31802899451307],[-0.70943747558347,43.317463902419405],[-0.709496281536121,43.31743666780936],[-0.709589350263298,43.31736881196306],[-0.709860944609593,43.317177302728275],[-0.710132076913789,43.31698247652472],[-0.709642908046671,43.31645172247972],[-0.709541381332273,43.31633263995632],[-0.709214787324967,43.31592652614368],[-0.709425312984611,43.31585743044576],[-0.709531740749653,43.31581703376636],[-0.710112247732225,43.315598168457306],[-0.710200073885866,43.31557344928707],[-0.710623723094238,43.31516544326228],[-0.710727140527299,43.315221960109994],[-0.711000525559859,43.31540313278027],[-0.711363563218626,43.31566641983901],[-0.711506938809758,43.31571904204898],[-0.711688588130469,43.31573973001718],[-0.711851479001384,43.31579852582619],[-0.711977560536971,43.31589091637289],[-0.712086521510477,43.316018116659755],[-0.712133637328026,43.316113850026944],[-0.712157485150919,43.31622938477152],[-0.712037078721755,43.31632655004676],[-0.711671247196544,43.31644502336026],[-0.711498508050184,43.31674265176841],[-0.710881693139282,43.316522391507434],[-0.7106392028575,43.31673289676892],[-0.710607089972021,43.316833692774146],[-0.710653428481356,43.31691738580814],[-0.710879201402074,43.317113702751406],[-0.711082725016808,43.31720010300203],[-0.711350272969462,43.31723306147494],[-0.711511027756482,43.317344794989936],[-0.711583283619767,43.3174038224458],[-0.711651352559278,43.31745912120359],[-0.712209317868972,43.31796030693748],[-0.711844466434852,43.31815349458848],[-0.711607533787351,43.31832013345364],[-0.711164289678615,43.31857355778492],[-0.711066041880594,43.31863952157931],[-0.711060831203946,43.31863330644403]]],[[[-0.712613607446019,43.330458422557676],[-0.712485575630355,43.33049515105092],[-0.712364146325198,43.330498421124815],[-0.712255057384768,43.33046920650041],[-0.712176727409758,43.33045784761543],[-0.712119295807556,43.33045873933787],[-0.712028501840921,43.33050283398353],[-0.711940603306358,43.33058420328181],[-0.711506508109257,43.330397109480764],[-0.711321145162817,43.330308012623675],[-0.71110048120772,43.33020905036047],[-0.710982227603144,43.32995905641043],[-0.710375392067385,43.32993801235642],[-0.710215396170575,43.32983282313254],[-0.710253641562691,43.32978305905133],[-0.710157535421789,43.32974276990008],[-0.710151090735147,43.329638883982646],[-0.710215176480903,43.32911119540162],[-0.711511249509147,43.329164951103536],[-0.711820316376893,43.32919810596677],[-0.711981451456619,43.329242464434344],[-0.712430925677053,43.32945964747698],[-0.712940922817098,43.32972959522083],[-0.713145371647471,43.32981046872809],[-0.713171279133243,43.32978751444344],[-0.713243006354197,43.329855295760396],[-0.713302548937541,43.3299216044175],[-0.713316599105872,43.329967321614625],[-0.713258112613448,43.330122159778604],[-0.713186897797582,43.33018863772176],[-0.713047817341393,43.3302874363814],[-0.712613607446019,43.330458422557676]]],[[[-0.710130840727014,43.32998143956337],[-0.710205708270011,43.33016889228103],[-0.710343836176628,43.33018738580889],[-0.710370044736378,43.33031463885173],[-0.711105894271859,43.330337107337606],[-0.71098281073745,43.33059043415802],[-0.710894485862546,43.330682444059654],[-0.710455158449713,43.33098670298243],[-0.710775523762098,43.33117977694865],[-0.711097405763974,43.33142124933069],[-0.711052824176326,43.3314703307194],[-0.71092364940202,43.33161957927288],[-0.710879476107969,43.33166351324946],[-0.710812842915079,43.33177053858592],[-0.709885415087769,43.33147276085322],[-0.709705047102327,43.33143824504974],[-0.709568903789628,43.33141229771308],[-0.709478038762351,43.33140361848849],[-0.709512704444583,43.3311698986577],[-0.709566806711232,43.330829963667966],[-0.7094851915702,43.33101279083777],[-0.709466775239404,43.3310543993136],[-0.70934271169862,43.33105892710973],[-0.708983903246891,43.33105809143645],[-0.708834770256134,43.33104114447413],[-0.708800175071664,43.33118786541945],[-0.708780801476705,43.331279759037],[-0.708753190154385,43.3313950802439],[-0.707791785743822,43.33139330109707],[-0.707790519459915,43.33135254823046],[-0.70755756480623,43.331363510925954],[-0.707424467985174,43.33135420723011],[-0.707422126924135,43.331289085504594],[-0.707414283619479,43.33121514670349],[-0.707096366366255,43.33124586341455],[-0.70695524714089,43.33126142013222],[-0.706956739288364,43.33144562766728],[-0.706816763740048,43.33147321274075],[-0.706680247951308,43.33151238652706],[-0.706624556651435,43.33153266814536],[-0.706203263616954,43.33175334714063],[-0.706196827082745,43.33174726377595],[-0.705571067292731,43.331148488862624],[-0.706051720763353,43.33101061166754],[-0.706515991939378,43.330869331495265],[-0.706569397602403,43.33083462896924],[-0.707198617295841,43.330839166792614],[-0.707404854190154,43.330853977228344],[-0.707889086011643,43.33089635516688],[-0.708019139651822,43.33041188442117],[-0.707789457339996,43.32967444377093],[-0.708428982058562,43.32964953177066],[-0.709089223744619,43.32962066296149],[-0.709454232044133,43.32961254957367],[-0.710010565289909,43.32960804454525],[-0.710052303976025,43.32968721384801],[-0.710129975945779,43.32979180691251],[-0.710130840727014,43.32998143956337]]],[[[-0.708007580037045,43.32465947797512],[-0.707838413614917,43.32452650297184],[-0.707740030889466,43.32450817429108],[-0.707644316169044,43.324604127130755],[-0.707394561371166,43.324643044191596],[-0.707231271390126,43.32467611297932],[-0.706979725838433,43.32462395223975],[-0.706778575917503,43.32460158264395],[-0.707043685702494,43.32418020630576],[-0.707121911876691,43.323929414631785],[-0.707258626166618,43.3233837496852],[-0.707276948700643,43.3232736112754],[-0.707811727730793,43.32344879913198],[-0.708015978593917,43.323226193864365],[-0.708105037713794,43.323220436513786],[-0.708655087105897,43.323554228049034],[-0.709400916601227,43.32388246842981],[-0.709461058498186,43.32389886603142],[-0.709560704204141,43.32432376010431],[-0.709580876292194,43.32437458071973],[-0.709367032585101,43.32437921864363],[-0.708839607974941,43.32460778409046],[-0.708450599406988,43.32463923438768],[-0.7081418267024,43.324690714987284],[-0.708007580037045,43.32465947797512]]],[[[-0.708074442465339,43.33462840149144],[-0.707568864993596,43.33459990382747],[-0.707371588582962,43.33455200467339],[-0.706824673628412,43.33428950912609],[-0.706563033719592,43.33417699254177],[-0.70579704364521,43.33385743232821],[-0.705709549294872,43.33381873495465],[-0.705716045795765,43.333810407008585],[-0.705295105145043,43.333624547811006],[-0.705553469670802,43.33329886678313],[-0.705788367750893,43.33339852343981],[-0.70597985173898,43.333481116109],[-0.706470285824264,43.33334731496015],[-0.706863263689956,43.3333631981539],[-0.707025836709872,43.33340103091445],[-0.7080684908524,43.33348387503625],[-0.70810806925791,43.33352565521113],[-0.708638819526134,43.33368657258712],[-0.709161091329058,43.333874795906134],[-0.710689418081003,43.33412322685039],[-0.710664682963347,43.33422953436245],[-0.710653149509543,43.334284145449374],[-0.710230612664141,43.33434962243683],[-0.709517080270368,43.3346112349509],[-0.709188630559246,43.334689419255845],[-0.708702339047577,43.33469412700728],[-0.708074442465339,43.33462840149144]]],[[[-0.70671240049479,43.32459493657289],[-0.706543813325072,43.32479299128506],[-0.706292102901565,43.32494724646876],[-0.706068162238942,43.325013553221126],[-0.705648328411354,43.325108550231],[-0.705494149407215,43.32513563032002],[-0.705004580811267,43.32519744291205],[-0.705047034784091,43.32507116787638],[-0.705075895021871,43.32499245890458],[-0.705167769705699,43.32472165845555],[-0.705309851622567,43.324700216875236],[-0.706100929668049,43.32443381006193],[-0.706729076645886,43.32418505317514],[-0.706879324553995,43.324300126783974],[-0.706756033037919,43.324523465399075],[-0.70671240049479,43.32459493657289]]],[[[-0.702491970531233,43.30504394360975],[-0.70232084705257,43.305077094621886],[-0.702237215105194,43.30510355507922],[-0.702065177841327,43.30519734463822],[-0.701955340554259,43.30530728408557],[-0.701547430054152,43.30558575410374],[-0.701468129966128,43.305602879824875],[-0.701421686750881,43.30567462449008],[-0.70135665739236,43.30572962506159],[-0.70114278802295,43.30582493621017],[-0.70109679133603,43.305876763069165],[-0.701082823603152,43.30591272357883],[-0.701050725107077,43.30610798373636],[-0.700344787534137,43.305926115274374],[-0.700301631522947,43.306043315127255],[-0.700074925045911,43.30617112363189],[-0.699761611154975,43.30606207851895],[-0.699491491050917,43.30625702309051],[-0.698849720280641,43.30617182914554],[-0.69887266925102,43.30600489048271],[-0.699013029126674,43.30600341727837],[-0.699233368760336,43.30596273295214],[-0.699304712316577,43.305923457420775],[-0.699324354450414,43.305874064683955],[-0.699313775954923,43.30581877236972],[-0.699171252396376,43.305677041237416],[-0.69906486228925,43.30561602365775],[-0.698977372889046,43.30555552962784],[-0.69889453053579,43.30551748044856],[-0.698778716765135,43.305465250479656],[-0.698490990493545,43.30531480089186],[-0.698020320276342,43.30514782833733],[-0.697905267106541,43.305120877123],[-0.697864409893009,43.30510102235563],[-0.697808652812535,43.3049738808501],[-0.69779027192428,43.304952626407385],[-0.697534092879748,43.30483252421987],[-0.697261693033585,43.304542231050675],[-0.697277993191671,43.30433310439737],[-0.697475943720695,43.304120372948375],[-0.697858700043896,43.30371111855148],[-0.697799292502025,43.303653895262],[-0.698038001335947,43.303398071995126],[-0.6995376078561,43.30362941716],[-0.699475256909609,43.30381256413883],[-0.700088509264145,43.30389954052845],[-0.700689451943211,43.30398873626482],[-0.700738500154679,43.30387691799566],[-0.701567282210612,43.30406150840277],[-0.702058392292124,43.30417039945765],[-0.703044783068093,43.304476016805104],[-0.70290613615464,43.30463458428709],[-0.702778638697358,43.304841940027345],[-0.702721024106514,43.304914428368676],[-0.702635296100236,43.30498310716735],[-0.702588180937883,43.30501173858863],[-0.702491970531233,43.30504394360975]]],[[[-0.702772765937626,43.328938547708276],[-0.702965368423984,43.32900813815756],[-0.703053913467473,43.3290479720471],[-0.703241797910079,43.32915545783865],[-0.703667058579359,43.32924220160182],[-0.704136128822624,43.3293349171784],[-0.704309234752384,43.32939670807897],[-0.704503372026149,43.32943256172907],[-0.705149802139793,43.32956107100166],[-0.705188408080586,43.32958397315113],[-0.705277086579795,43.32969296514675],[-0.705280938384341,43.329737501781715],[-0.705267437837473,43.3298498164025],[-0.705117132150059,43.3299545727911],[-0.705106682024658,43.3300184217778],[-0.704883164954023,43.330266177614725],[-0.704525271241019,43.33071873714423],[-0.704383883160442,43.33088739807175],[-0.704345042260578,43.33108145301525],[-0.704403149507794,43.33125219259055],[-0.70422719359082,43.33113466335364],[-0.704163564254602,43.33111784170857],[-0.704181839367498,43.331208263922946],[-0.704186705671326,43.331289689581624],[-0.704059941413253,43.33160905610125],[-0.70413193363381,43.33165999335807],[-0.704064496624165,43.33223047965569],[-0.70396601564485,43.33223574556613],[-0.703871040436701,43.33223413691347],[-0.703696951976557,43.3322243419777],[-0.703496225712337,43.33221086649688],[-0.703299858234048,43.33219994304774],[-0.70312001098363,43.332186922292394],[-0.70309707234036,43.33228875308444],[-0.703064837233496,43.332284363889514],[-0.703007821006817,43.33225911969526],[-0.70283329339704,43.332186838262274],[-0.702715050150076,43.332151443464646],[-0.702551685093278,43.33213956826689],[-0.702354997120168,43.33213324704494],[-0.702301428851563,43.33211941179836],[-0.702164250195684,43.33205620671535],[-0.702140754191247,43.3320649365482],[-0.702096321476003,43.332005129001985],[-0.702052907845629,43.33187288007266],[-0.701977011113923,43.331494354962125],[-0.701938525186573,43.331315917781446],[-0.701960153832151,43.33131652789144],[-0.702068249180878,43.33086776033416],[-0.702120479922797,43.33085696563509],[-0.702305273229403,43.33122914889672],[-0.702369381127042,43.331216956629305],[-0.702493347671765,43.331475769132915],[-0.7032590840135,43.33121844866393],[-0.702992640882225,43.33100018103101],[-0.702463624439624,43.33114195245047],[-0.702348459264864,43.3311697625302],[-0.702173169180709,43.330795722878385],[-0.702148323728778,43.33074506084548],[-0.702504906452886,43.33065566745402],[-0.701773778537688,43.330178727800316],[-0.701322971653076,43.32988454790891],[-0.700977714491487,43.33006567859088],[-0.700871924374649,43.33012225472464],[-0.700817928380028,43.3300806056863],[-0.700429596421957,43.32962776314214],[-0.70014797708193,43.32926321520495],[-0.700002007718026,43.329089898277886],[-0.69999358508106,43.32898950233096],[-0.699944365465769,43.328820528292006],[-0.700709081410197,43.32866484536644],[-0.700767484166066,43.328652218921285],[-0.700887641940371,43.3286273014384],[-0.701166997325561,43.32873003753032],[-0.701455848957559,43.3288691912193],[-0.701506968630115,43.3288660897165],[-0.70212435811499,43.329076572874996],[-0.702538211252663,43.328878409173086],[-0.702772765937626,43.328938547708276]],[[-0.702293497433215,43.3320708721231],[-0.702393016793372,43.33203378175274],[-0.702362767999359,43.3319873573762],[-0.702261683071798,43.332025041689164],[-0.702293497433215,43.3320708721231]],[[-0.702090593276066,43.33129026642154],[-0.702069277858033,43.33121967073709],[-0.701994987491145,43.331232751914],[-0.702014579462225,43.331303406637964],[-0.702090593276066,43.33129026642154]]],[[[-0.701519759290551,43.32512007321482],[-0.70127519994437,43.32510746535327],[-0.701037400386684,43.3250867904785],[-0.700567498279683,43.32504578445923],[-0.700556101374841,43.32504311273797],[-0.700555271577459,43.32495722654456],[-0.700522169680926,43.32495655878865],[-0.700469312623243,43.32488839409467],[-0.700608149608483,43.324503418813215],[-0.701371395107261,43.32365767162526],[-0.701818604467693,43.32348007165462],[-0.702057509590615,43.323441268938105],[-0.702094477413287,43.32343108695996],[-0.702526042650443,43.323263475851896],[-0.702860749175802,43.32291123214503],[-0.703047356087726,43.322722832802356],[-0.703197228511915,43.3225827917726],[-0.703524337455502,43.32228709201038],[-0.704989300498305,43.32260080139017],[-0.705137650879687,43.32263471036363],[-0.705141362930418,43.32263872573883],[-0.70512521970297,43.323147202562275],[-0.705119624338926,43.3233785716365],[-0.705120132932446,43.32338647924914],[-0.705351661346916,43.32416888540357],[-0.704821091803798,43.3242892895388],[-0.704763336938243,43.32430423759614],[-0.704490454189633,43.32434988450614],[-0.703808067781979,43.324380656765875],[-0.702496302815728,43.32455492527096],[-0.702495968261114,43.32493164651944],[-0.70246994717455,43.32495478209693],[-0.702400452282176,43.32530145201416],[-0.702265346074834,43.32530671058938],[-0.702104388153976,43.325310873253336],[-0.702036064760671,43.32531303344583],[-0.701821519197732,43.3253240744253],[-0.701779086379687,43.325335614206885],[-0.70156950448297,43.32534711507434],[-0.701526443479619,43.325335441482196],[-0.701542511353999,43.325211152439365],[-0.701519759290551,43.32512007321482]]],[[[-0.700225993109243,43.32353542065835],[-0.70018297287035,43.32354932142877],[-0.700166287100964,43.32352575738924],[-0.700051986473144,43.323570646596345],[-0.700085386673662,43.32361246035713],[-0.699905155278021,43.32368329160498],[-0.699819470015329,43.32360715480262],[-0.699424440771308,43.32326243028472],[-0.699099914530368,43.32299940473423],[-0.699199452351917,43.32289558420912],[-0.699974848171255,43.322761422870826],[-0.700923735922235,43.32263788540169],[-0.701159776800365,43.32264862402968],[-0.701058274076058,43.32271604063486],[-0.700927209552514,43.323041402410325],[-0.700824871491032,43.32332048164242],[-0.70075188065574,43.323470764803844],[-0.700711623406125,43.323518072436144],[-0.700664717469997,43.32355597159865],[-0.700614689739169,43.32357983866126],[-0.700471194223217,43.32362725894665],[-0.700415029836288,43.32353255067048],[-0.700258055131442,43.323585205210804],[-0.700225993109243,43.32353542065835]]],[[[-0.699291321306998,43.31639105919466],[-0.698990308160987,43.31631499902747],[-0.699111257115809,43.31614911731359],[-0.699094414423524,43.31613843678889],[-0.698816931358421,43.31607345820752],[-0.698818221086766,43.31588222406984],[-0.698859570479397,43.3158001180947],[-0.698951152886634,43.315693598404366],[-0.699067118744419,43.31556345966885],[-0.699207775705934,43.31544139116353],[-0.699423681715207,43.315194719816226],[-0.699411288718416,43.315182266005685],[-0.699512965883701,43.314935272333734],[-0.699584769259883,43.314951005490904],[-0.699627167527945,43.31491407166837],[-0.699660483300195,43.31482980890425],[-0.699827900293322,43.31475383285514],[-0.700132340658079,43.31468172011036],[-0.700331805746122,43.31464580169784],[-0.700454515805851,43.31464763341389],[-0.700559573899012,43.31469915029658],[-0.700800797636151,43.31488324999841],[-0.700954554048294,43.31496903129354],[-0.701593632345007,43.31596865404189],[-0.701505379571112,43.31643600927967],[-0.70126617486261,43.31640250629352],[-0.700961262047474,43.31644050676671],[-0.700695372160511,43.316531113946404],[-0.700505080986269,43.316635071716554],[-0.700196924424065,43.3167454965459],[-0.699783396099354,43.316826477345494],[-0.699649064718903,43.31691455885886],[-0.699468269461076,43.31700702260641],[-0.699099636589977,43.3170899759592],[-0.69885317360854,43.316532316570374],[-0.699206525389115,43.31660712587203],[-0.699291321306998,43.31639105919466]]],[[[-0.698824601239012,43.31522468335808],[-0.698700373147099,43.31560843347911],[-0.698751267905767,43.315688462754814],[-0.698750046919132,43.3157136303096],[-0.697751790978853,43.315214209707506],[-0.698775957159657,43.31356786957464],[-0.698995251169098,43.31355270823234],[-0.699463834025467,43.31375712494064],[-0.699671784046036,43.31330791856088],[-0.699824966549056,43.31316398696391],[-0.69985961162104,43.313173427382345],[-0.699764844569125,43.31335894626242],[-0.70003832393283,43.313425139633715],[-0.700690071737169,43.31366821733021],[-0.700321329283801,43.31395074427745],[-0.699854392984373,43.31427715742733],[-0.699628709587878,43.31456739149117],[-0.699496075972718,43.314831655220324],[-0.699081396331622,43.31455064614834],[-0.698997532827762,43.31473894311799],[-0.698824601239012,43.31522468335808]]],[[[-0.699092048089349,43.327994426089646],[-0.698971914221795,43.32771809892421],[-0.698937498071702,43.32750872270998],[-0.698998641643809,43.32732939735972],[-0.699051542038064,43.327192681039136],[-0.699127798628454,43.32710847925724],[-0.699129175118474,43.32703962836545],[-0.699147841750475,43.326982613624565],[-0.699409101640494,43.32708228072006],[-0.699516535303187,43.327118588910935],[-0.699615970480184,43.32693624141816],[-0.699876927441801,43.32705230820623],[-0.699945330148875,43.32706095361471],[-0.699949806137292,43.32708646673398],[-0.699884275769025,43.327212809026825],[-0.699834248656772,43.3274384041438],[-0.699817901295484,43.32765059856708],[-0.699765284435899,43.32785701007344],[-0.699762438379722,43.32787800081098],[-0.699736848753635,43.32827089664731],[-0.699617850793988,43.328285056321675],[-0.69953553974286,43.32830381387449],[-0.699457561805572,43.32832089207574],[-0.699369669611854,43.328369919701295],[-0.699300661202932,43.32833265634662],[-0.699092048089349,43.327994426089646]]],[[[-0.698077967537402,43.3270846967525],[-0.697831745055441,43.327046291304825],[-0.697405255037903,43.32697649841045],[-0.697354004553892,43.32696024019619],[-0.697331493566214,43.32693048087555],[-0.697299217177931,43.326946534494176],[-0.696958399062584,43.32683346355431],[-0.696643258733165,43.32668799335854],[-0.695813932706317,43.32638242333753],[-0.695592826029079,43.32631433587388],[-0.695488064655641,43.32629846558232],[-0.6954346801329,43.32628930392306],[-0.695080226011289,43.32614814553606],[-0.694672331338136,43.3259488349542],[-0.694310886366194,43.32578323759013],[-0.694080593549098,43.32565647390358],[-0.694003864398366,43.3255948858215],[-0.694182252611799,43.32543163928844],[-0.694435359605633,43.32511400241196],[-0.694915211739023,43.32522367840554],[-0.695255149991326,43.32531940426736],[-0.695659768939247,43.32544461750521],[-0.696238509222357,43.325657353849394],[-0.696502480135932,43.325737932729794],[-0.696618229592057,43.32576549383487],[-0.696784000680884,43.32577288218226],[-0.696881300245436,43.32576090860961],[-0.697117102605768,43.32571970170639],[-0.697457919410603,43.325686789279864],[-0.697529602124786,43.32564471182569],[-0.697553707718942,43.32563974451605],[-0.697598449431468,43.32562956834872],[-0.697635387100364,43.325599666473956],[-0.697708084578705,43.32558493154506],[-0.697748108330409,43.325591577297246],[-0.697812198793673,43.325619553679736],[-0.697854632373706,43.325625306430396],[-0.697883253660049,43.32561766294563],[-0.698004343533203,43.32554201448841],[-0.698038151269524,43.32556904561739],[-0.698346641945116,43.32543997468231],[-0.69859138098941,43.32539197457552],[-0.698647619215746,43.325384106254106],[-0.69908354479956,43.32532821127132],[-0.699639105371554,43.3256984227132],[-0.69998649064251,43.325931036405805],[-0.699962568210609,43.32595229835765],[-0.700046538531109,43.326059293610165],[-0.699781747268372,43.3262541463656],[-0.699578295547986,43.32643221948981],[-0.699424189966087,43.326531604218296],[-0.699186435168849,43.3267172447616],[-0.698830791079389,43.32684207804384],[-0.698736051885487,43.32687089647829],[-0.69858452854572,43.32695866425537],[-0.698421917254111,43.32702744891297],[-0.698254145580786,43.32708119021257],[-0.698077967537402,43.3270846967525]],[[-0.696604446910981,43.32616969118959],[-0.69647272602995,43.326196980706044],[-0.696503704270426,43.326277963239036],[-0.696637854246198,43.326253922721136],[-0.696604446910981,43.32616969118959]]],[[[-0.695207222446102,43.30372312849286],[-0.69526496765056,43.30369485727544],[-0.695344699789003,43.30367294838452],[-0.695259551579683,43.303637316960355],[-0.695396458201114,43.3035782408091],[-0.695530459896022,43.303550783258615],[-0.695682121422203,43.30348336721122],[-0.69590071734409,43.303411770064315],[-0.696020662731407,43.303395869560575],[-0.696218861696245,43.30334271045711],[-0.696324266125271,43.303259675394564],[-0.696595825725856,43.30292960657378],[-0.696650879898503,43.30301318553109],[-0.697221952622531,43.30324246776005],[-0.697862453834972,43.30349098422153],[-0.697405321459334,43.30392295641337],[-0.697034716407672,43.304266052718056],[-0.696793757921436,43.30422359642288],[-0.696715352129874,43.304187375147364],[-0.696373124817801,43.304344343806335],[-0.696293653859167,43.30440685957932],[-0.695848573752846,43.30460597907045],[-0.695398171867401,43.30489137179536],[-0.695099633061923,43.305091329403055],[-0.694995785838317,43.30530642147931],[-0.694916291385975,43.305480155632004],[-0.694775701541931,43.30571649638064],[-0.694757993297619,43.30574033628846],[-0.694200266717525,43.305642515145664],[-0.693924776245449,43.3056173529264],[-0.693740350396096,43.30559889284503],[-0.693305936033106,43.305568355476396],[-0.692698321702265,43.305546347709395],[-0.692518436841108,43.305136889741426],[-0.692451417557915,43.30495888924085],[-0.6924180872434,43.30484862978533],[-0.692460452899113,43.304713089415074],[-0.692540585525277,43.304581931776944],[-0.692764683220937,43.30448061498121],[-0.692951592849721,43.30448017010045],[-0.693127272672211,43.30450460383134],[-0.693290194722745,43.304489668893346],[-0.693774933224522,43.304393578628776],[-0.694212686340688,43.30439554210296],[-0.694590768781207,43.30456308509444],[-0.694875976651426,43.30435331851323],[-0.694940539479129,43.304240972658945],[-0.695032873140734,43.30411750073271],[-0.695140441228862,43.30400854695746],[-0.695148676854936,43.30395044966431],[-0.695219759400738,43.30387633435292],[-0.69514458120935,43.30383657949912],[-0.695207222446102,43.30372312849286]]],[[[-0.695709318515436,43.316718589579324],[-0.69572962954853,43.316883328583245],[-0.695527345429201,43.316936985666345],[-0.695018921078648,43.31707306562899],[-0.694800425304095,43.31712781597182],[-0.694224656424024,43.31734085135882],[-0.693834617273026,43.31749404173685],[-0.693693170252741,43.31757902667069],[-0.693561702119268,43.31734640183977],[-0.693554026835836,43.31733441651207],[-0.693400052098349,43.31705852328602],[-0.693984116259138,43.316826747238174],[-0.694649327647667,43.31646413345019],[-0.695336580272736,43.31630491940589],[-0.6956425068854,43.316242314838355],[-0.69598390609278,43.31622703654323],[-0.696564343273887,43.31638882659129],[-0.696659482392642,43.316672131686886],[-0.696369970111065,43.31674453414481],[-0.696364131018731,43.31672465128679],[-0.696345152959839,43.31664992319882],[-0.696215561369552,43.316673537851905],[-0.696214132939648,43.31666665236492],[-0.696023292251144,43.316700646922406],[-0.695840289261553,43.31673185150368],[-0.695709318515436,43.316718589579324]]],[[[-0.694657256086198,43.30399030999535],[-0.694528067102814,43.3041486325499],[-0.694475907634505,43.30420634060086],[-0.69439538889182,43.30421791934231],[-0.694193969400724,43.30419013518571],[-0.694199842248581,43.30414517681943],[-0.694230221702598,43.304117031376606],[-0.694266230595403,43.30398242801058],[-0.694233496042328,43.303962294219325],[-0.69394528962791,43.30392522956001],[-0.693889060815612,43.30394831504377],[-0.693839525501143,43.30407005250576],[-0.693606472302796,43.30397580725307],[-0.692937634612113,43.30375245939173],[-0.692751785375501,43.30367127794473],[-0.692545712918066,43.30351117847747],[-0.69249790950655,43.303450223823994],[-0.692486605803121,43.30341044548295],[-0.692485910687637,43.30336688247178],[-0.692503548260593,43.30332269290392],[-0.692722192945111,43.302828471143584],[-0.692947310660825,43.302352579125206],[-0.693358751419378,43.302457927838496],[-0.693955820567196,43.30261024112477],[-0.69470743925679,43.30283246232007],[-0.696151664935376,43.30331781258551],[-0.695905826676316,43.30338376813478],[-0.69575659503803,43.30342561568685],[-0.695487040120099,43.303529394337204],[-0.69523200111798,43.30359611329375],[-0.69520366833271,43.3036177050389],[-0.694976094734607,43.303749314538976],[-0.694811958774078,43.3038433623021],[-0.694657256086198,43.30399030999535]]],[[[-0.693900193343918,43.324972713733246],[-0.69375075112262,43.32496215135038],[-0.693618098757733,43.32496911639627],[-0.69331560086598,43.325051319282835],[-0.693240081137124,43.32498932918673],[-0.693099473726289,43.32490299637694],[-0.692988232785356,43.32484564889246],[-0.692696339761246,43.32467956128454],[-0.693056103074922,43.32431883892519],[-0.692677465257298,43.32409069451829],[-0.692695758731117,43.32406818569157],[-0.6927650721391,43.32400259758065],[-0.692941673563518,43.32382689640756],[-0.693378010640073,43.32334657272761],[-0.693653693909977,43.32347538831324],[-0.694273487369632,43.32378822489745],[-0.69460854521545,43.323986874043996],[-0.694834451900803,43.324137651275436],[-0.694979616022257,43.32431424313501],[-0.695052308822631,43.32457445386472],[-0.694670673307191,43.324728619999775],[-0.694863207794719,43.32514755699966],[-0.694872637683828,43.32516956874497],[-0.694263406433119,43.32502171807812],[-0.694111572844849,43.324995027685674],[-0.693900193343918,43.324972713733246]]],[[[-0.693397452042514,43.32641837780359],[-0.693110977670177,43.32626768548123],[-0.692936513418603,43.32615549207982],[-0.693061047859111,43.32591988068137],[-0.69318127448233,43.325772942276394],[-0.69335710541248,43.3255928538686],[-0.693435578033364,43.325698960973526],[-0.693547558095827,43.32579473715184],[-0.694016284466699,43.325690462012524],[-0.694514917527439,43.325952504864226],[-0.694770817317773,43.326064973855175],[-0.695170370024871,43.326266910809146],[-0.695221319823306,43.32633811508421],[-0.69504471107453,43.32637333155553],[-0.694795050005019,43.32640816325075],[-0.694115455222186,43.32649056073585],[-0.693921012654556,43.32650738285307],[-0.693739829471238,43.326538610873435],[-0.693397452042514,43.32641837780359]]],[[[-0.693000577913376,43.31784765056534],[-0.692798164672121,43.317864743923145],[-0.692028279247769,43.317864662959245],[-0.691380453363918,43.31786193816341],[-0.691019099268041,43.31791435591325],[-0.690809582326935,43.3179418645034],[-0.690141691541976,43.31797827153284],[-0.690056959881426,43.31798215544973],[-0.68988355250612,43.31796493207675],[-0.689730916573054,43.317925385746726],[-0.688933928920761,43.31760218617364],[-0.6887421541431,43.31752344931139],[-0.688789450353262,43.31743574125754],[-0.688805125535198,43.317416654633845],[-0.688850974773834,43.317333318638326],[-0.688896339895439,43.31725783402881],[-0.6890632251226,43.316980618051296],[-0.689350646190814,43.31681185683269],[-0.68929958935265,43.31675029050235],[-0.689648500600414,43.31663463354081],[-0.690048426948548,43.3165452408614],[-0.690355375012617,43.31646190369591],[-0.690570053292079,43.31639567555664],[-0.69084251488443,43.3162957736838],[-0.691208766726507,43.31619482880981],[-0.691265257642831,43.316148681624036],[-0.691329469830695,43.317108558229585],[-0.691283276938909,43.31712679649603],[-0.692700613936911,43.317097105386715],[-0.692904675520606,43.317511775739376],[-0.692867883243162,43.31751888669091],[-0.693000577913376,43.31784765056534]]],[[[-0.691258346783803,43.30449246510462],[-0.690595072033002,43.30417300385494],[-0.69054443559342,43.304131326900716],[-0.690331549779014,43.30394948256807],[-0.690357359094286,43.30392311537367],[-0.690284627407824,43.30389840296404],[-0.690089182283884,43.303844471310036],[-0.689901920539676,43.30379701397211],[-0.689706611049046,43.30377792837857],[-0.689580613403556,43.303791777099946],[-0.689483788463204,43.30379904603922],[-0.689470048708745,43.30380978152606],[-0.689463241121451,43.30383441894917],[-0.689432008957436,43.303843500393505],[-0.689386527390621,43.30382839330081],[-0.689361551866004,43.30380808319757],[-0.689258517489461,43.303754956847904],[-0.68911437574264,43.30370881746981],[-0.689199407739706,43.30345763193909],[-0.68903326843384,43.3034203485892],[-0.689264774736836,43.30333265471768],[-0.689275713524694,43.303297429853394],[-0.689428712686914,43.302865614129324],[-0.689490720673831,43.30282108064822],[-0.68953899219987,43.30277962782915],[-0.689782268604749,43.30283922122257],[-0.690588807728803,43.30307976733899],[-0.691129931706422,43.30325192830841],[-0.691706066742783,43.30345855227599],[-0.691819895606284,43.303495367700556],[-0.691793495013452,43.303651074855196],[-0.691721194947873,43.30382365979664],[-0.691897395064358,43.304094919268195],[-0.69208360538506,43.304349176250774],[-0.691807020628773,43.30424137550328],[-0.691701778079224,43.304411754082615],[-0.691258346783803,43.30449246510462]]],[[[-0.692266119429084,43.32679519589097],[-0.691606084522691,43.32654000637363],[-0.691679762619287,43.32643851732296],[-0.691682604314408,43.326223004260626],[-0.691683237364208,43.32612509084685],[-0.691688478784373,43.326072138508735],[-0.691947411308764,43.32594522937592],[-0.692198300427665,43.32588145405433],[-0.692205384173752,43.325893820021605],[-0.693315043164777,43.32556979575743],[-0.693163388609703,43.32569214201657],[-0.693004847282422,43.32590333935143],[-0.69290163815701,43.32607329100622],[-0.692864835577338,43.32614767467635],[-0.692857661189394,43.32617430648159],[-0.692266119429084,43.32679519589097]]],[[[-0.691480959990992,43.304826078983936],[-0.691517896086123,43.30474241634055],[-0.691908998136789,43.30472833230655],[-0.692394513482983,43.30479441157847],[-0.692379589546087,43.30484247085934],[-0.692381629161316,43.30491471564481],[-0.692391110116032,43.30497607958678],[-0.692518736397758,43.30526664938435],[-0.692628105092318,43.305507051851876],[-0.692616304821199,43.30555959726312],[-0.69241657508736,43.30560442663648],[-0.692152112641422,43.30563588814502],[-0.69166679364873,43.30563842302751],[-0.691142394833909,43.30568731852778],[-0.691261129035696,43.305388690936276],[-0.691385112540733,43.30507385403974],[-0.691468320545881,43.304863613638894],[-0.691480959990992,43.304826078983936]]],[[[-0.690670575954528,43.31055806032226],[-0.690649865342223,43.31062171665508],[-0.69058740657608,43.31061889690677],[-0.690576592172099,43.31109313949606],[-0.690556676580685,43.311148033266235],[-0.690323209990268,43.31142509355124],[-0.690320860874108,43.311475064665665],[-0.690310212320306,43.31159763400083],[-0.690326322129977,43.31165661067486],[-0.690408381321951,43.3117613347289],[-0.68966747606006,43.311996826426025],[-0.689203695490312,43.311955206119286],[-0.688713768770947,43.3119097034551],[-0.687724790313077,43.31188996681688],[-0.687141796463385,43.31185474764544],[-0.687226274947271,43.31141536549012],[-0.687311453708091,43.31140705550703],[-0.687573674897873,43.31135361955699],[-0.688694286696339,43.310834833772965],[-0.689158181500466,43.310627988493785],[-0.689366051976889,43.310623322672164],[-0.689392423754094,43.31059990832065],[-0.689446411514819,43.310551326057016],[-0.689153396311014,43.3105320625136],[-0.688348714082364,43.31090579678186],[-0.688163186823198,43.310982102683774],[-0.687535463869714,43.31127684537608],[-0.687170431733965,43.31135405203571],[-0.686606339511296,43.31138671747364],[-0.685573655864007,43.31141618203525],[-0.685028592326476,43.311380018165224],[-0.685146156276375,43.31112412364933],[-0.685087425103673,43.311073534253424],[-0.685130151642511,43.3110416383549],[-0.685042490828215,43.310968711210045],[-0.684996031408648,43.31099623160394],[-0.684955051789864,43.31096674012121],[-0.68493014732713,43.31097263253687],[-0.684734405873515,43.311334756461015],[-0.68469572751217,43.31132968147466],[-0.684725964344494,43.311146828454575],[-0.684767225594786,43.311012949872605],[-0.68473301451501,43.310973591563695],[-0.684650358370288,43.310975059344486],[-0.6845989522146,43.31092908291721],[-0.68405440541991,43.31085462317178],[-0.684375307560859,43.31023769906224],[-0.684259119918102,43.30971087466551],[-0.685242526286478,43.309268127330114],[-0.685882807941244,43.30905807195226],[-0.686739276850412,43.30861693888501],[-0.686890722716977,43.30856314143012],[-0.687032755444558,43.30857423466914],[-0.687561700469123,43.30842443286148],[-0.687889066224361,43.3087089118109],[-0.687898021442948,43.30872166419438],[-0.687966574371077,43.308819736177504],[-0.687514651507143,43.30928093467867],[-0.685962935882724,43.31072901836865],[-0.685787814091593,43.310846570766714],[-0.686005748633604,43.311124522495014],[-0.687559930218268,43.310809342422665],[-0.687978896772117,43.310594129494774],[-0.6878392429552,43.31029657946678],[-0.688289826796549,43.310126484646695],[-0.688681816199963,43.30998891702945],[-0.688936650714817,43.30977398993704],[-0.689225280392646,43.30956880506571],[-0.689685431966171,43.309245913437],[-0.689791167750265,43.309227443580745],[-0.690593317489406,43.309515513057754],[-0.690700139696293,43.30952555284491],[-0.690916826943505,43.309595058775784],[-0.690992547092535,43.30965668191597],[-0.691112032559849,43.30976814170281],[-0.691192520163413,43.30975017275455],[-0.691220525077008,43.30971184295663],[-0.69163067832502,43.30986947682727],[-0.691595163145735,43.309927245198494],[-0.691555493787296,43.310087638892924],[-0.691454695633401,43.31034296843861],[-0.691351142590676,43.31061883467868],[-0.691313615462657,43.3106317338794],[-0.691086640251759,43.31061346146447],[-0.690670575954528,43.31055806032226]]],[[[-0.689939245824116,43.305689421305594],[-0.689727995443476,43.3055986555539],[-0.689486999655788,43.30546315708001],[-0.6890331958666,43.30517975922404],[-0.68907864577367,43.305044115115344],[-0.689242732219652,43.30475456818012],[-0.689411685024972,43.30447557139959],[-0.689426319070982,43.30445183743083],[-0.689758494575823,43.304540094873396],[-0.68998316277941,43.30462670983553],[-0.690133666637645,43.30442939163447],[-0.690198991948395,43.30449055935723],[-0.690351256740119,43.3044863492284],[-0.690288442423859,43.30456837375516],[-0.691307401759616,43.30482129219764],[-0.690676453002179,43.30525692125786],[-0.690511163759234,43.30570473902455],[-0.689939245824116,43.305689421305594]]],[[[-0.691547852983677,43.32220306283946],[-0.691758173476206,43.32236878721615],[-0.691631161172487,43.32239437917043],[-0.691788736431025,43.32258586027032],[-0.691751393102524,43.32260559750239],[-0.6919684178082,43.322820083385885],[-0.692168295577001,43.32308648700904],[-0.692240239326591,43.323192817630115],[-0.692506991459553,43.32349025709766],[-0.692206269019201,43.32374440463519],[-0.692418634321745,43.32388610323481],[-0.692255684528184,43.32405350218392],[-0.692016818946837,43.32428743452935],[-0.691591940946146,43.32404600671839],[-0.69134240843114,43.32390368478147],[-0.691012502325671,43.32369476364573],[-0.69075490770755,43.32349201767168],[-0.69044391282993,43.32317194978886],[-0.690150932930486,43.32281533354412],[-0.689661940026745,43.32233905955614],[-0.689295858280647,43.32201186409838],[-0.689008529171755,43.3217741071722],[-0.689807148320991,43.321569162521456],[-0.689905096119689,43.32154429486903],[-0.69019313271707,43.32147340184241],[-0.690303617336993,43.321563377997045],[-0.690623032526747,43.32168386301619],[-0.691079306520566,43.32189585338159],[-0.691235383304521,43.32199084567715],[-0.691547852983677,43.32220306283946]],[[-0.69142807792784,43.32392777572777],[-0.691511940742526,43.32383512480669],[-0.691449007685147,43.323803953386],[-0.691391311689441,43.32386220944193],[-0.69140690927659,43.323870772425096],[-0.691377209734647,43.323903937051945],[-0.69142807792784,43.32392777572777]]],[[[-0.689155304974838,43.30472567389979],[-0.6890501045749,43.30469459469596],[-0.688979790540751,43.30462675244149],[-0.688670412925243,43.30410481909432],[-0.688540286800983,43.303811449346746],[-0.688685284071159,43.30377849187111],[-0.689145843219798,43.30378816224234],[-0.689274344729249,43.303817274899494],[-0.689427781490497,43.30389110383265],[-0.689454622303348,43.303884693893735],[-0.689518110386648,43.30404237380351],[-0.689494473241281,43.304164305227395],[-0.689481482482412,43.30421563003461],[-0.689455044472781,43.30426300133933],[-0.68927725245387,43.304556078447526],[-0.689155304974838,43.30472567389979]]],[[[-0.690148963126402,43.32882533728249],[-0.68962225020866,43.329301708265945],[-0.688907935677287,43.329944420506614],[-0.688701133313029,43.33016527343453],[-0.688611990479765,43.33054556420314],[-0.688586666009504,43.33087252478951],[-0.688486978571731,43.33120184292941],[-0.687871656655,43.33114647020494],[-0.687394912348248,43.33065805584437],[-0.688203506205064,43.329847783263745],[-0.688413472836581,43.32930450974893],[-0.688893920932331,43.32890690273689],[-0.688709049368098,43.3283740417014],[-0.688693768673127,43.32832998506341],[-0.688425049660821,43.327699391995885],[-0.688709782046013,43.32730477228758],[-0.689479599800891,43.327350001950315],[-0.690229992904298,43.3275984272612],[-0.690676404750272,43.32769044253499],[-0.691342894455769,43.32739363899898],[-0.691945294894381,43.327373063651365],[-0.692258788556655,43.32796834816768],[-0.69180567410334,43.32812791721177],[-0.691031284542393,43.32839850940718],[-0.690403326590404,43.32862879397263],[-0.690321581379105,43.328687240192544],[-0.690148963126402,43.32882533728249]]],[[[-0.689125831246033,43.31809895894437],[-0.68883452084076,43.31817626515553],[-0.68866713846243,43.3182666313514],[-0.688350028347008,43.31848233255009],[-0.68823178485745,43.31854652564438],[-0.688043778060705,43.318158676311384],[-0.687876071974166,43.31784515077152],[-0.687475309342857,43.31704679137864],[-0.687479714270908,43.31700962805903],[-0.687505310951633,43.31696633825396],[-0.687576457910155,43.31697183539967],[-0.687691287323298,43.31701042335296],[-0.687826209512675,43.31707966499615],[-0.68805150812645,43.31725055731075],[-0.688292666090992,43.317391729780105],[-0.688551524128937,43.317531937396424],[-0.689013887159744,43.317714458344284],[-0.689465834330655,43.31788643625249],[-0.689508263620929,43.317975043833115],[-0.689391660797017,43.31805133981752],[-0.689125831246033,43.31809895894437]]],[[[-0.688475473498125,43.30480624999799],[-0.688363340601348,43.305002075715],[-0.688346632747003,43.305030022864536],[-0.688347587064035,43.30507961070234],[-0.688342554844131,43.30540749341547],[-0.687966259569104,43.305498866657466],[-0.687535182402105,43.30559940273822],[-0.687246741198058,43.305699392045746],[-0.687014187276781,43.30582872257221],[-0.686896473972333,43.30594900070166],[-0.686572956497949,43.30627946556555],[-0.686535119168658,43.30632218197735],[-0.686521296779106,43.30631815083911],[-0.686507375232469,43.30633762748751],[-0.686473267089195,43.30638273818263],[-0.686433570359362,43.30640795723642],[-0.686444562606327,43.306421720855006],[-0.68633429354995,43.30649455543092],[-0.686349715424646,43.306508167928804],[-0.686338814888041,43.3065151138658],[-0.686359226340912,43.306535400322126],[-0.686333605097969,43.306549332479044],[-0.686118546426463,43.30670742206547],[-0.685907638598482,43.30678197849104],[-0.685725605272477,43.30683177494804],[-0.685632317487243,43.306850086446254],[-0.684954601156426,43.307070242913134],[-0.684686076552435,43.30718296405953],[-0.684434898663798,43.307115703144405],[-0.68421693872142,43.30703758304687],[-0.684156100204184,43.3069616697899],[-0.684049899524802,43.30638839806492],[-0.684043691179273,43.30606369111737],[-0.684110331685997,43.305869691662224],[-0.684342060916075,43.305503641059786],[-0.684309449597332,43.30543910300456],[-0.68429468774641,43.30537215518076],[-0.684436805677724,43.30527671353233],[-0.684658741266305,43.30514712046298],[-0.684995518181754,43.30491788164407],[-0.684614987755737,43.30462098040879],[-0.684883758827165,43.303555829749726],[-0.684905321794091,43.30355365343323],[-0.68519004085846,43.303491980557475],[-0.68613538542159,43.30350655995121],[-0.686650862409617,43.30349194345981],[-0.686678928787399,43.303527818248526],[-0.687776461735109,43.3037219830879],[-0.687782296655223,43.30375150209977],[-0.688393745520641,43.303866522838256],[-0.688593342504373,43.30414716466563],[-0.688751250370171,43.30443724451159],[-0.688881509948845,43.304649830157274],[-0.688894882139822,43.30475662934203],[-0.688562206236219,43.304704858668366],[-0.688519300993454,43.304730007953545],[-0.688475473498125,43.30480624999799]]],[[[-0.688234688090664,43.316347347702816],[-0.688885750995977,43.3168227744222],[-0.68881957814029,43.31684295443265],[-0.688149661055024,43.316897610003565],[-0.688031373987471,43.316922539970086],[-0.687911832059522,43.31695291598904],[-0.687835192554505,43.31700227049754],[-0.687796045198157,43.31697451835147],[-0.687580857622294,43.316861366682566],[-0.6874097762083,43.31677057445673],[-0.687174672832834,43.316617936671555],[-0.686978003128517,43.316468399882005],[-0.686880313943154,43.316383478053936],[-0.686648318340744,43.31616949523888],[-0.686075135258674,43.31570031519597],[-0.68646571665908,43.315441769489105],[-0.686165666129448,43.31516832934058],[-0.686114609518415,43.3151722322974],[-0.685788357116478,43.314969208084065],[-0.685758077277481,43.314989422751005],[-0.68545474908827,43.31521608216554],[-0.685411181891552,43.315186678899046],[-0.68532672188275,43.31512147721094],[-0.685027902539257,43.31489995436888],[-0.684875838940971,43.31478239392015],[-0.684675456335192,43.31460353197737],[-0.68440897107157,43.31432633142906],[-0.684298688115406,43.31418321084777],[-0.684245033157996,43.31411560732042],[-0.684150518389816,43.313895041548776],[-0.684920879337606,43.31358140677992],[-0.685559898663682,43.3140063797489],[-0.686064645300018,43.31396908085868],[-0.686176814500201,43.31393535604825],[-0.686624939919406,43.31408676157789],[-0.686846776875025,43.31416717749413],[-0.687360352048321,43.31437380265177],[-0.687066757604371,43.31462715139887],[-0.688016898568416,43.3153476851758],[-0.688019214933104,43.31565361610492],[-0.688043307580776,43.3158469544359],[-0.687968471759636,43.315883999886175],[-0.68837851085106,43.31627435657456],[-0.688234688090664,43.316347347702816]]],[[[-0.688204737452443,43.31946304975596],[-0.689354503595344,43.3190042321368],[-0.689675688554974,43.319300898840154],[-0.689830122059665,43.31958029397252],[-0.6900499606963,43.31989870154711],[-0.6900692899566,43.32009841688476],[-0.689750959706172,43.320376032696856],[-0.68955465005368,43.32050205957072],[-0.689499970594099,43.32051302201088],[-0.689100532145088,43.3205969919323],[-0.688412991491387,43.32075851583138],[-0.688353240556529,43.32045715546281],[-0.688327797122148,43.32021964489252],[-0.688245013909877,43.31973382504178],[-0.688204737452443,43.31946304975596]]],[[[-0.685098774074423,43.315165363248596],[-0.685329173372417,43.315321767644164],[-0.68555084443372,43.31547666817923],[-0.685756689411331,43.315640573356525],[-0.685983745368313,43.315802493923094],[-0.686355857018754,43.3161014839699],[-0.685975309863304,43.31643983670047],[-0.686699075548406,43.316611919319755],[-0.686937243649146,43.316542645769495],[-0.687091885561059,43.316648318481825],[-0.68722402628994,43.31675313775118],[-0.687313028421687,43.3168892373683],[-0.687395595978103,43.31706932371063],[-0.687441480256352,43.31720041051224],[-0.68766555786591,43.3176297160388],[-0.687398319892961,43.31768422324094],[-0.687263455452447,43.317610116005625],[-0.687111399632947,43.31758729670599],[-0.686963455637717,43.31761909095845],[-0.686899863338332,43.31764107288568],[-0.686653327891416,43.317820590076494],[-0.685514595820327,43.31684576235827],[-0.685416477949987,43.31680038837791],[-0.685210688666698,43.316664397709616],[-0.685080315261934,43.316616070912595],[-0.685102414423322,43.31625968687613],[-0.684842914642098,43.31603979413846],[-0.684625126251378,43.316277312789644],[-0.684262915910274,43.31634711798814],[-0.683809181644827,43.316210392194236],[-0.683460428849652,43.316025778812744],[-0.683574050863632,43.31574462431025],[-0.683765468966647,43.31554601039985],[-0.684112880326487,43.315308487257504],[-0.684616025115069,43.31502224610003],[-0.684757739218263,43.3149914778728],[-0.685098774074423,43.315165363248596]]],[[[-0.684100967277595,43.31167929401749],[-0.684532382266913,43.31147717884496],[-0.684670277004632,43.3114061058597],[-0.684832243257045,43.31141832361171],[-0.685107884240483,43.31146863026507],[-0.685418424123174,43.31148226408249],[-0.685617519974988,43.311463766140314],[-0.68623842480257,43.31144780927855],[-0.68623483235178,43.31193333125166],[-0.684987668995154,43.31198775735295],[-0.684920111482512,43.31211541848441],[-0.684218308308948,43.3123938458333],[-0.683974335740549,43.3124859154651],[-0.68362664582352,43.312601152360514],[-0.68355423837715,43.31261442733832],[-0.682471012356809,43.312876126306335],[-0.682053272092354,43.31259002681997],[-0.682190192992191,43.31252871629731],[-0.682492668749017,43.312402597339144],[-0.683227832683193,43.312051720446746],[-0.683873212320258,43.31177036025694],[-0.684100967277595,43.31167929401749]]],[[[-0.683382612584118,43.30805267269937],[-0.683641867323061,43.30759229791245],[-0.683994408121775,43.307024908328],[-0.684400409232136,43.307154882504705],[-0.684642310791244,43.30721399466476],[-0.684378865893995,43.30741389528528],[-0.683934345564529,43.30780404194092],[-0.683683783587922,43.308001070048896],[-0.683473492730669,43.30814134076087],[-0.683382612584118,43.30805267269937]]],[[[-0.683516256152231,43.315637356821675],[-0.683406131311301,43.31578222783227],[-0.68332194342318,43.315935400351506],[-0.683286157513386,43.316025775241556],[-0.683215175434319,43.316071061121825],[-0.683083344715522,43.31608284885563],[-0.682740055081035,43.315999089525846],[-0.682087669695735,43.31583778717334],[-0.681687212588945,43.31574525588812],[-0.682074284240036,43.315564654326316],[-0.682418323213611,43.315289698590824],[-0.683579447126728,43.31437451391884],[-0.683793882131331,43.31453596821463],[-0.683880159938962,43.31462578425397],[-0.684332230096363,43.314414590866924],[-0.684657097462219,43.31475229956545],[-0.684648853102657,43.314891446545744],[-0.684463703656891,43.31497007429581],[-0.684168791552346,43.315177981560005],[-0.683670004571467,43.315462991330044],[-0.683516256152231,43.315637356821675]]],[[[-0.681655780930911,43.30254199337803],[-0.681617373705553,43.3022322533918],[-0.681635584618946,43.30216796418491],[-0.681920048221489,43.30216025131654],[-0.682209357705309,43.30221487048182],[-0.682211384517259,43.30223308250265],[-0.682176595655952,43.302813680100904],[-0.682170097324342,43.30304390134079],[-0.682169166183688,43.303160553958925],[-0.682091920309239,43.30370774769111],[-0.682022866987364,43.304387042927765],[-0.681969879561064,43.304418476731044],[-0.681497278245221,43.30440756500299],[-0.680837178974921,43.30438592873775],[-0.681093681845028,43.30402912814628],[-0.681175968991501,43.3038869197651],[-0.681304904899374,43.30355229589391],[-0.681287339936169,43.303543708806444],[-0.681378890423414,43.30336894506496],[-0.681481999963353,43.30309139517875],[-0.681654954986742,43.30261784755796],[-0.681655780930911,43.30254199337803]]],[[[-0.681784730272559,43.31143881405934],[-0.68184113873465,43.3113951964221],[-0.68192593701315,43.311342326298515],[-0.682127985166537,43.311343006042144],[-0.68246054945825,43.31124395902302],[-0.682681721994293,43.31116374666992],[-0.682825122566046,43.31113634540366],[-0.682975357369022,43.3110981745279],[-0.683148916536114,43.31115286596304],[-0.683318434213497,43.31121570982511],[-0.683364784201955,43.311205754706826],[-0.683681843195997,43.31117864630125],[-0.683823865810218,43.31120685484481],[-0.684054099706479,43.311621365297036],[-0.682468524367734,43.312314265316594],[-0.681962464907978,43.31253152316199],[-0.680718595590418,43.311689827169474],[-0.680079503085206,43.31126465082398],[-0.679503976415045,43.31078417408067],[-0.678984023270705,43.3103434080718],[-0.678962208770544,43.310291468592865],[-0.67930970928564,43.310148246064706],[-0.679657856519533,43.3100151765777],[-0.679875333445038,43.30993311465288],[-0.680053951998253,43.31022160166172],[-0.680233894540253,43.31044583408665],[-0.680302577210353,43.310530668158044],[-0.680313946207071,43.31054261848541],[-0.68048806263377,43.310505708941214],[-0.680505035878864,43.310506931904555],[-0.680647046995981,43.310567834916434],[-0.680957981830245,43.310778868876774],[-0.681128590727806,43.31090904016759],[-0.681282826462162,43.311001045290816],[-0.681665533715019,43.31121197366391],[-0.681781505659041,43.31130149955777],[-0.68170277373282,43.31137982862489],[-0.681784730272559,43.31143881405934]]],[[[-0.680898943323829,43.30642041446132],[-0.680896096685747,43.306393224805866],[-0.681462614591018,43.30613869981455],[-0.681940761279419,43.30601037840422],[-0.682234281839662,43.30596849603167],[-0.682577611926253,43.30591104670416],[-0.683204244788838,43.305636452306906],[-0.683246353982551,43.305795584831294],[-0.683345264528968,43.30606589005941],[-0.683382560327748,43.306196008873606],[-0.683435694820617,43.30641186045108],[-0.683337525656574,43.30679172726204],[-0.683349367121777,43.30697890827827],[-0.683181714607992,43.30719778381341],[-0.683019247214514,43.30732030351325],[-0.682634382737576,43.307447701578425],[-0.682292868858316,43.30761090363557],[-0.682024833062716,43.307661913590074],[-0.682767714638859,43.30806363667937],[-0.683214251266733,43.308301020562595],[-0.683176812632629,43.308326881831164],[-0.682667768113523,43.308684010933746],[-0.682405344686533,43.30879976018728],[-0.681896677691785,43.30900467943541],[-0.681083671308408,43.308798687154926],[-0.680128222659625,43.30855575507471],[-0.680068191194581,43.30854068925039],[-0.680053895793231,43.30848291055079],[-0.679517693785331,43.307590446049396],[-0.679222017837342,43.30710043998997],[-0.678993620959332,43.30671386699344],[-0.680112049110461,43.30540042213018],[-0.680252684468979,43.30523146195629],[-0.680699564214985,43.30468320488014],[-0.680857700183565,43.304471682178594],[-0.680899667657687,43.30444917958311],[-0.680940246899342,43.3044396921528],[-0.682079352493136,43.304472110878535],[-0.68217650267022,43.30447762533859],[-0.68218112952305,43.30477581934692],[-0.682130780028455,43.30513415253955],[-0.682181146978981,43.30532029051125],[-0.682237367041622,43.3053760996841],[-0.682214377577491,43.30548332807543],[-0.68217823723098,43.30548510008328],[-0.680674342643667,43.30542350400375],[-0.680249529428477,43.3059968551935],[-0.679884673561608,43.30641434896142],[-0.680449466911344,43.3068200805009],[-0.681061194950627,43.306715309979744],[-0.680898943323829,43.30642041446132]]],[[[-0.680319753399809,43.30501502713272],[-0.680067968835091,43.30532420626936],[-0.678981356092269,43.30662026738508],[-0.678935745937056,43.306639831362624],[-0.678874145853673,43.306569254572565],[-0.678220336328604,43.30550671486559],[-0.678127843923836,43.30552589333148],[-0.678257812000283,43.30575768228102],[-0.678457275477172,43.30608328363495],[-0.677729452300123,43.30634553452046],[-0.678032934077501,43.306847975816744],[-0.678512519527661,43.307829546789655],[-0.678642741333102,43.308086452596406],[-0.679522435924813,43.30778444295507],[-0.67977587134731,43.30818835380044],[-0.679941460316091,43.30845828254071],[-0.679974151468406,43.308539569466234],[-0.679958381016462,43.30858999704634],[-0.679668747187271,43.30881076978064],[-0.678455327057038,43.30970760831927],[-0.678389657567656,43.309714346659725],[-0.677958682144824,43.30919895392132],[-0.677915367256156,43.30913279705616],[-0.677760724327643,43.30889320147738],[-0.677459530722283,43.3084248112495],[-0.677154583393317,43.3079458317446],[-0.677164433968915,43.30714364874871],[-0.677168556612869,43.30704399794629],[-0.677115536471293,43.30689721204862],[-0.677089003306036,43.30684471258214],[-0.676775248812441,43.30668941909691],[-0.67653283937061,43.30657771505853],[-0.675920878099275,43.30628649740266],[-0.67574613900861,43.30620716048121],[-0.675213784269424,43.30591305079229],[-0.675783371047307,43.305582626005865],[-0.675666225849447,43.30372869696442],[-0.6759322243221,43.30371748582439],[-0.676320653424432,43.30304696207119],[-0.676461255061758,43.302809747220664],[-0.676946957091107,43.30237689668423],[-0.677175231155229,43.302437388723405],[-0.677608564544421,43.302434166056486],[-0.677750333812837,43.302420154636344],[-0.677861522000374,43.30241384810305],[-0.678292041414272,43.302403243960825],[-0.678432302965437,43.30241197670136],[-0.678233103112831,43.30270270053259],[-0.678268221406493,43.30280857972125],[-0.678326981673056,43.30288303546329],[-0.678347579417439,43.30291403338048],[-0.678497087232348,43.30342882799467],[-0.678539229069125,43.30373357873078],[-0.678572890431814,43.3040020561069],[-0.678417144045292,43.30450031777009],[-0.678240669731315,43.305021618529565],[-0.679842211075761,43.30464874023184],[-0.680800055375703,43.30443600315184],[-0.680646393290072,43.304640349078255],[-0.680319753399809,43.30501502713272]]],[[[-0.679012387409102,43.314760641776886],[-0.678963778143241,43.314675393265496],[-0.678659740572718,43.31405877864584],[-0.678895676590192,43.31388504467671],[-0.678448915253977,43.3127733023739],[-0.67850426012578,43.31276898684196],[-0.679503376446441,43.312740733729754],[-0.679763936936955,43.31338332102177],[-0.679785157546586,43.31338151772135],[-0.679806030958343,43.31344186441652],[-0.679738935298245,43.313739170540686],[-0.679744294113092,43.313797974310866],[-0.680011706161857,43.31373672573881],[-0.680346943305821,43.31464270300855],[-0.679658483560289,43.31526024410835],[-0.679596594038066,43.31514473910819],[-0.679399125810614,43.314702266500255],[-0.679012387409102,43.314760641776886]]],[[[-0.678130392743884,43.30967499302226],[-0.678741196341834,43.31023127193968],[-0.678634459487708,43.31044275288068],[-0.678107556201064,43.31132837034155],[-0.677850273495866,43.311754893323126],[-0.677391772989408,43.31246050039889],[-0.677341441150231,43.312297952729566],[-0.677218410368978,43.311881312115084],[-0.67723075578358,43.31187765000846],[-0.67690168053227,43.31148657227274],[-0.67749739836953,43.31056394806927],[-0.678096820430919,43.30962237301074],[-0.678130392743884,43.30967499302226]]]]}}]}
