{"type": "FeatureCollection","name": "aoc_geojson","features": [{"type":"Feature","properties":{"dt":"Bordeaux","type_prod":"Vins","categorie":"Vin mousseux \"Crémant\"","type_denom":"appellation","signe":"AOC","id_app":31,"app":"Crémant de Bordeaux","id_denom":89,"denom":"Crémant de Bordeaux","insee":"33032","cvi":"1B119M, 1S119M","nomcom":"BASSENS","insee2011":"33032","nomcom2011":"BASSENS","id_aire":93,"crinao":null,"grp_name1":null,"grp_name2":null},"geometry":{"type":"MultiPolygon","coordinates":[[[[-0.515464809351442,44.91860512292484],[-0.515309871814205,44.9187296224327],[-0.515299843777927,44.91873760042828],[-0.515140223211825,44.91887441472929],[-0.515120482259773,44.918891352083705],[-0.515067459223596,44.91885896313346],[-0.514930044456543,44.918967586303715],[-0.514777278866729,44.91908832116698],[-0.514593207096803,44.9192337492573],[-0.514449258742482,44.919347445269146],[-0.514413725157056,44.91937551692323],[-0.514237074597275,44.91951187733691],[-0.514067807355179,44.91964259636625],[-0.514014630672941,44.91968871027598],[-0.513846982538946,44.91981694435165],[-0.513673043669021,44.91995006364777],[-0.513808135351306,44.920043124334825],[-0.51382722237415,44.92005621940808],[-0.513942037357952,44.920135411392664],[-0.513986971195174,44.92010956598124],[-0.513992365674307,44.920120751004745],[-0.51399950434553,44.92013143022064],[-0.514008496895182,44.920141329784514],[-0.514019337686209,44.92015035974967],[-0.514031635648171,44.920158352239525],[-0.514045252907101,44.92016513136665],[-0.514059930627836,44.92017061519537],[-0.514075542211147,44.920174807730774],[-0.514091564348715,44.92017745515601],[-0.514108134913413,44.92017873335775],[-0.514124730596455,44.92017838851945],[-0.514141207884312,44.92017615480805],[-0.514177924019511,44.92017301035368],[-0.514139846528126,44.9202009821477],[-0.514050620506755,44.92025481576506],[-0.514001137731495,44.920282968114506],[-0.51397003280635,44.92029873267007],[-0.513909575801651,44.920331918664345],[-0.513871049648543,44.9203507118461],[-0.513823965958726,44.92037464247915],[-0.513750672022385,44.92041147899203],[-0.513729643196643,44.920418002368415],[-0.51364157978166,44.92043574902265],[-0.513611888405255,44.92043966243391],[-0.513576559017653,44.92044267270067],[-0.513536081105601,44.92044449395917],[-0.513502557460258,44.92044393221966],[-0.513459844939533,44.92043843392536],[-0.51328622837568,44.92040670451939],[-0.513141800892798,44.92038126153418],[-0.512969787991856,44.92034677718359],[-0.51271703657642,44.92029105326846],[-0.512607455521298,44.92026703098889],[-0.512007362740947,44.92012378401544],[-0.511639386203775,44.92003691314777],[-0.511469158299141,44.91999443915046],[-0.511216243931448,44.91993808620631],[-0.511169756023307,44.91992495570466],[-0.51102545621369,44.91988328360757],[-0.510900549187222,44.919849469999384],[-0.510775394747845,44.919815754201096],[-0.510560629700815,44.919752786440064],[-0.510419268233906,44.919717509667535],[-0.510309109221615,44.919684220647234],[-0.509779886392461,44.91953610850789],[-0.50973110913961,44.919522869524684],[-0.509681026337892,44.919504985310056],[-0.509654842666858,44.919494006430405],[-0.509582902923805,44.91946131146553],[-0.50952576421781,44.91943607970229],[-0.509409132287267,44.919386501610305],[-0.509102148263784,44.91923226512198],[-0.508865607954837,44.919107075455045],[-0.50805161567022,44.918504713183616],[-0.507942773501283,44.91842145152574],[-0.507517783354091,44.91811637518262],[-0.507333858140032,44.91798456403954],[-0.507087095486516,44.91781138718677],[-0.507110265013402,44.91765456045913],[-0.508430842282666,44.91695133919947],[-0.508604354923879,44.91685798657974],[-0.508607225642167,44.916907914836536],[-0.50877933357542,44.916988726343995],[-0.508715290208037,44.917118635989716],[-0.509357163897538,44.91728563366185],[-0.509404359391333,44.91733037609349],[-0.509614826252925,44.917385640721626],[-0.509289752838554,44.9176008555002],[-0.509792257748659,44.91772367756987],[-0.509934804517095,44.91743555142971],[-0.509951956666288,44.917440056316565],[-0.510078730702703,44.917193795511025],[-0.510069562471849,44.91719120129683],[-0.510119926537429,44.9170859665567],[-0.510207982332065,44.91690203358129],[-0.5091552463436,44.916590756928606],[-0.509219570624135,44.91649373347482],[-0.509320167284572,44.91632977311411],[-0.509349475414025,44.91628531699088],[-0.509498605677165,44.91611657834461],[-0.509670893605284,44.91591051719653],[-0.510135096754396,44.91538123672576],[-0.511078149846609,44.915648745979986],[-0.511426287864835,44.91574742033173],[-0.511721494710241,44.915831274615705],[-0.511762791859485,44.915842586169134],[-0.511882162651916,44.91587522170421],[-0.512179057855636,44.915949558368375],[-0.512533126730233,44.915286400528295],[-0.512540443650016,44.91528779134427],[-0.512874528384679,44.91467627476055],[-0.512888194475091,44.91467980794902],[-0.513146719913702,44.91474913696267],[-0.513273098677242,44.91477623191221],[-0.513301315567994,44.91471847075197],[-0.51331142896516,44.914697692565845],[-0.513365429313284,44.91470932262255],[-0.513494028904391,44.914723279021196],[-0.513562229060018,44.91473076463684],[-0.513574741606704,44.914732081127916],[-0.513549211023422,44.91478615240043],[-0.513465430496814,44.914963193767676],[-0.51356080128697,44.91498730393224],[-0.513692655736391,44.91502080427489],[-0.513690096762522,44.91502854581571],[-0.513680352879956,44.915057243300616],[-0.513595973429441,44.91530973788803],[-0.513539669210219,44.91530385864989],[-0.513488495681896,44.915568100261055],[-0.513482557933537,44.91559884029949],[-0.513471669073801,44.91565380020161],[-0.513396913897691,44.91602955076801],[-0.513528794721379,44.91602700077194],[-0.513577531097916,44.916021403287296],[-0.513654333857793,44.91601635980761],[-0.513758697226589,44.916064518967744],[-0.514230003326258,44.91620768465041],[-0.514467048645786,44.915484955472785],[-0.5146251711438,44.915459943812984],[-0.514724636803216,44.9154461612664],[-0.514726608225147,44.915255034931995],[-0.514786045916688,44.91525829091451],[-0.514811504353227,44.915259738295944],[-0.514883795043053,44.91526366893532],[-0.515005852070594,44.91527035037399],[-0.514959500003514,44.91542322662358],[-0.514821714131955,44.91586370001816],[-0.515012046109604,44.91588912954513],[-0.514948883433633,44.91612995866091],[-0.514920648935564,44.91613481775169],[-0.5148074749545,44.91638317781782],[-0.514724391536507,44.916565245182014],[-0.514663747079514,44.91669856597963],[-0.514638823961122,44.9167501849529],[-0.514673000005933,44.9167652356836],[-0.514726618312927,44.91678489833261],[-0.514801614706782,44.91681172521969],[-0.515555693808431,44.91705048056313],[-0.515844151691786,44.917139765204375],[-0.515944201085789,44.91717165634303],[-0.515951200606158,44.91717404836472],[-0.515955727200698,44.917175437179175],[-0.515889919062721,44.91723042367707],[-0.515820549930188,44.91728930809683],[-0.515792033535239,44.91731193086658],[-0.515583760850813,44.917500124968385],[-0.515718921263366,44.91758218579884],[-0.515720772520947,44.9175833889402],[-0.515775189169042,44.91753687438468],[-0.516154396349771,44.91775847244944],[-0.516136329358456,44.917771752017984],[-0.516286632421668,44.91794354757615],[-0.515865062464236,44.91828233407693],[-0.515805170907001,44.918330554100535],[-0.515619107588018,44.91848055329603],[-0.515464809351442,44.91860512292484]]],[[[-0.51223274811092,44.90894619407594],[-0.51209978511304,44.908896775621834],[-0.511976671524729,44.90906334355539],[-0.511952234337545,44.9090963808837],[-0.511797069190626,44.909306050270615],[-0.511497105990427,44.909216579897375],[-0.511417351564083,44.909198643714745],[-0.511399062650968,44.90919417508763],[-0.511372816786222,44.909194284027215],[-0.511343606366165,44.90919565831722],[-0.511311577826255,44.9092006365529],[-0.510951743380326,44.90927302826432],[-0.51091954581358,44.90927530800462],[-0.510888909235156,44.90927618651973],[-0.510862123245372,44.90927577166976],[-0.510833899621155,44.90927062568701],[-0.510799549760531,44.90926486226819],[-0.510520412847108,44.90920212859882],[-0.510230320038357,44.90912441948012],[-0.510148180406868,44.90909673427639],[-0.51011928422572,44.90908286733989],[-0.510015636770998,44.90902359748151],[-0.510063916364146,44.90899863912775],[-0.510380864567797,44.908834778204614],[-0.511068446189287,44.908487511458894],[-0.511733254121826,44.908700180853984],[-0.511834225133202,44.90855873713627],[-0.511876900436163,44.90849898702327],[-0.511948723207048,44.90839839004292],[-0.512493205675723,44.90859124787048],[-0.512403589487475,44.90871349711836],[-0.512288492634731,44.90887034881217],[-0.512237768238016,44.908939275978106],[-0.51223274811092,44.90894619407594]]],[[[-0.511911388629674,44.91049757197213],[-0.511840682826798,44.91063427339599],[-0.51165692007306,44.91052508620201],[-0.511438522186084,44.910395454259294],[-0.511249379868294,44.9102833723354],[-0.511486327329198,44.910012536995545],[-0.511679331651952,44.90981771359089],[-0.511738795552947,44.90983566042545],[-0.512226675133417,44.909997324601605],[-0.512066904997545,44.910250940398974],[-0.511911388629674,44.91049757197213]]],[[[-0.511117974760506,44.91033988938758],[-0.511109503785661,44.91039702558402],[-0.511100587291904,44.910438944879964],[-0.511078386985885,44.9104975966605],[-0.511070234124709,44.91051930399257],[-0.511065614149399,44.910540719373486],[-0.511056565390974,44.91058255272371],[-0.511043852642494,44.91064081439732],[-0.511038608349681,44.910664412497106],[-0.511029044934514,44.91070815472548],[-0.511014543708905,44.91077431374735],[-0.510987339176586,44.9108745808546],[-0.51097373405804,44.91092466943379],[-0.510971875282104,44.91101449189562],[-0.510963901229833,44.91106133821583],[-0.510936395990913,44.91125200938681],[-0.510936052999272,44.91125463383261],[-0.510935448539956,44.91125915915317],[-0.510716258176688,44.91120399335415],[-0.510626951657136,44.911414372674095],[-0.510626057283256,44.91141629355619],[-0.510538648533935,44.911622557214315],[-0.510541270238882,44.911670510527244],[-0.5106699709486,44.91171456822308],[-0.510652715783453,44.91174485470427],[-0.510512496708075,44.91198883752498],[-0.510407853350496,44.91217104198766],[-0.510367829657136,44.9122408015566],[-0.509421415671529,44.911946988308934],[-0.509306816788831,44.91191140583294],[-0.508532318935365,44.91167109362692],[-0.508475408220474,44.91165342486866],[-0.508337398760171,44.911610560020016],[-0.508301444269502,44.911599439037886],[-0.508311373243627,44.911575693099316],[-0.508345050134984,44.91149568047202],[-0.508348352278091,44.911487645229826],[-0.508073434603167,44.911413416179286],[-0.508092434822211,44.91137045764751],[-0.508196049910013,44.9112325389963],[-0.508218974226074,44.911205678801956],[-0.508298354356023,44.911126385313246],[-0.508456436889164,44.91100359881528],[-0.508798103221697,44.911114921794095],[-0.508762314766312,44.9111956321641],[-0.509005880280855,44.91127553665062],[-0.509036186432158,44.91128557414691],[-0.50904343808141,44.91128795859981],[-0.509100412883755,44.911213428076586],[-0.509401786890928,44.91131115202499],[-0.509414381205968,44.911269206794344],[-0.509441998457347,44.91121398917115],[-0.509471010748295,44.91115674472212],[-0.509499347952344,44.91110087346147],[-0.50951649930967,44.911066895370574],[-0.509563332145096,44.910974209666094],[-0.508669251470274,44.9106893716093],[-0.50873158271756,44.91054843085365],[-0.508742608131826,44.9105178909237],[-0.50965112465743,44.910800379451025],[-0.509776967722127,44.91054756941833],[-0.509838967750697,44.91042367188148],[-0.50930702341164,44.91027321337572],[-0.509287931536309,44.910312660199025],[-0.508893663866876,44.91019975654372],[-0.508820822673071,44.91017880618071],[-0.508805582735965,44.91017442102897],[-0.508830509459499,44.910068098128086],[-0.508834123637318,44.91005897152178],[-0.509248955044895,44.91018231076397],[-0.509256436583844,44.91016810510212],[-0.509285299586345,44.91011456051386],[-0.509303694016357,44.91008018268066],[-0.509299683297973,44.91008905146398],[-0.509917935497354,44.91026490070933],[-0.509929658141377,44.91024145840951],[-0.510115396568479,44.9099750386389],[-0.510189637436949,44.909868418282564],[-0.51025312070371,44.90989182654132],[-0.51063026624774,44.910031042190205],[-0.510980142912348,44.91016210637822],[-0.511167301203567,44.91023441657142],[-0.511117974760506,44.91033988938758]]],[[[-0.510162644934001,44.909538516022],[-0.510210263397246,44.90955566647139],[-0.510209228276569,44.90955533869579],[-0.510162644934001,44.909538516022]]],[[[-0.509776241443388,44.9154354775443],[-0.509744112463264,44.9154774093379],[-0.509644762845559,44.915598431574836],[-0.509508262020655,44.91555957570853],[-0.509333795659043,44.91550993285534],[-0.509110516637941,44.91544642086539],[-0.50894549573319,44.91569767409288],[-0.509105001901617,44.915735263001025],[-0.509336090349198,44.91584854722476],[-0.509310430376445,44.915876305206915],[-0.509322277303439,44.91590143601487],[-0.509341613270681,44.91594084017706],[-0.509088855021719,44.916227130511096],[-0.509083276830141,44.91623325496407],[-0.509071504381253,44.91624579370748],[-0.509059847258516,44.91625814855714],[-0.509048057911275,44.91627041745905],[-0.509023834992149,44.916294795365374],[-0.509011533639456,44.916306990316265],[-0.508999221022964,44.916319005373076],[-0.50897407252563,44.9163427816425],[-0.508961247903015,44.91635472274771],[-0.508948412016644,44.91636648395874],[-0.508922096017783,44.91638984648201],[-0.508895372080448,44.91641277126617],[-0.508881875069587,44.91642410273593],[-0.508854242450082,44.916446695722165],[-0.508840227802741,44.91645786329253],[-0.508812049384994,44.91647984264204],[-0.508797764653039,44.91649074836706],[-0.508768677552164,44.91651239591683],[-0.508739171254965,44.91653342583272],[-0.508724357617117,44.91654398776068],[-0.508694074855833,44.916564771822195],[-0.50866338415611,44.91658511814168],[-0.508647903764033,44.91659516037802],[-0.508632170184697,44.91660521061092],[-0.508616678524205,44.91661507295016],[-0.508600795828319,44.91662476739235],[-0.508552630086749,44.91665368680961],[-0.508536350710325,44.9166631234012],[-0.50851993348042,44.9166723840968],[-0.508453769398966,44.91670962274453],[-0.508206570327924,44.916845678452894],[-0.50815148376019,44.916869408851944],[-0.508073574459777,44.91691558006787],[-0.507957195547057,44.91698549739396],[-0.50751798255294,44.917213234298075],[-0.506983531433055,44.91750219697625],[-0.506871507606743,44.91756269278648],[-0.506667312943611,44.917556973515936],[-0.506602238824027,44.91751838217541],[-0.505045221286918,44.91659284040279],[-0.504989373676072,44.916553686636455],[-0.504972166593794,44.91653205917237],[-0.504949522370464,44.916494471096634],[-0.504946109680798,44.91643176234647],[-0.504949523429529,44.91639506425273],[-0.504966737964624,44.91636811462812],[-0.505885150099255,44.9154222038215],[-0.505952092085615,44.915456230295376],[-0.505948266224892,44.915459956036294],[-0.506018237700384,44.91550794618937],[-0.506720031846342,44.91566810967505],[-0.506763738708614,44.91567538150064],[-0.506830507243625,44.915686341179196],[-0.506980942585442,44.91571682933962],[-0.507061627554084,44.91573329761849],[-0.507064710698663,44.91573392124923],[-0.507124083749791,44.915746285910174],[-0.507218401042894,44.91576574829342],[-0.507354585681575,44.91579551438809],[-0.507432007688354,44.915812536075265],[-0.507425717701204,44.915829587941246],[-0.507585870549675,44.9159059119734],[-0.508206934682372,44.91603860473229],[-0.508231005257031,44.91597935376494],[-0.508347464288746,44.91569385650429],[-0.507979038750281,44.91561546058682],[-0.507728364366594,44.915562093980874],[-0.50750558778948,44.91551469516735],[-0.50751132917622,44.91549901248515],[-0.507260543239759,44.9154479014826],[-0.507257592323411,44.91544736380603],[-0.506941020395471,44.91538273818269],[-0.506908607857437,44.915464783271574],[-0.506499852061257,44.91538233877384],[-0.506534310268213,44.91529851687537],[-0.506570218985035,44.91530684610424],[-0.506674059781643,44.91505879029478],[-0.506764610643078,44.91484161597094],[-0.506519502458481,44.91476968572402],[-0.506537019454019,44.91475164856271],[-0.506758266621683,44.914513043656825],[-0.506875784259433,44.91438433066743],[-0.5069749210671,44.914274042557054],[-0.507035052219726,44.9142012160148],[-0.507056810911326,44.91416988669761],[-0.507079323465118,44.91413844344469],[-0.507126795814553,44.91405790544333],[-0.507175249763148,44.91397481294537],[-0.507293153264749,44.913759027421484],[-0.507336951190523,44.91366842134469],[-0.507371038679914,44.91360506903204],[-0.507419252660783,44.91349990359475],[-0.507430268137824,44.91347323945762],[-0.507442687279258,44.913446711234734],[-0.507457542434195,44.91341857396264],[-0.507535615604094,44.91329398996446],[-0.50764518211509,44.91314569990694],[-0.507745142021218,44.91301618860647],[-0.507828963838889,44.912906473521225],[-0.507893677354846,44.912821785587404],[-0.507926923444256,44.91281595882919],[-0.507955567663404,44.91281766760247],[-0.508001078444887,44.91282947821547],[-0.508064890402395,44.91284999346852],[-0.508141504190982,44.912874430231824],[-0.508253232458447,44.9129188466832],[-0.508655390021127,44.9130845871013],[-0.508719107053298,44.91311168405796],[-0.508795983393194,44.9131463862488],[-0.508842808477619,44.91316500444046],[-0.509151217248446,44.913283776472994],[-0.509202858362545,44.913302332463154],[-0.50924991147053,44.913318509934584],[-0.509389849995763,44.91336374621908],[-0.509420087056208,44.913374687080015],[-0.509506317043841,44.91340278452563],[-0.509792440656619,44.91350792938135],[-0.51022398284123,44.91367084312687],[-0.51032424246729,44.91370624719468],[-0.510349703248576,44.91371382394547],[-0.510395482389539,44.9137238226525],[-0.510422163980914,44.913730639803504],[-0.510523005098188,44.91374899183678],[-0.510670095374288,44.91377876950753],[-0.510992597517971,44.91383688814138],[-0.511045004626863,44.913932475351196],[-0.511064572049738,44.9139755669845],[-0.510931418262148,44.91413596204982],[-0.510687060993944,44.91440829189301],[-0.510476320716792,44.914646302656365],[-0.509776241443388,44.9154354775443]],[[-0.507313127652797,44.91532538435899],[-0.507528707498686,44.91537535405084],[-0.5076549780844,44.91540480199776],[-0.507827308487188,44.91507770582903],[-0.507456431876403,44.91499046347627],[-0.507366803292645,44.915200038896984],[-0.507353624216005,44.91523064669782],[-0.507313127652797,44.91532538435899]]],[[[-0.51010101627014,44.90963184994762],[-0.510072214316773,44.90964988394384],[-0.510102478867164,44.909630902474355],[-0.51010101627014,44.90963184994762]]],[[[-0.509045345220381,44.9088924907319],[-0.508934035028215,44.90911203544316],[-0.508908091787919,44.909163595062765],[-0.508746671048442,44.90948223720918],[-0.508408767803857,44.909406574786715],[-0.507947437928165,44.90929803994305],[-0.507685273295005,44.90922070374327],[-0.507495493076621,44.90916919928532],[-0.507341629334281,44.90912620336046],[-0.507262033875687,44.90910672711376],[-0.507092787575562,44.9090023015567],[-0.507214945111723,44.90882225109631],[-0.507237117900088,44.908789466664324],[-0.507262598351839,44.90871629235515],[-0.506744119042591,44.90857999717308],[-0.506527494428848,44.90852303023711],[-0.506507121291805,44.90857243060697],[-0.506016012788223,44.90844382958527],[-0.505913411783421,44.90863245380014],[-0.505906585317512,44.908630776726845],[-0.505871907337831,44.90862177771455],[-0.505860239663357,44.90864206346098],[-0.505893992277595,44.90865046082612],[-0.505905327533328,44.908653257281415],[-0.505899232118408,44.90866327322953],[-0.50555071618739,44.90860839559242],[-0.505541754862406,44.90860705626443],[-0.505675958558238,44.90796438215935],[-0.505733297277781,44.907777998301285],[-0.505749786167196,44.90774151831384],[-0.50578134003829,44.907694468827096],[-0.506891819393499,44.90703394371598],[-0.50693004904744,44.90701254858674],[-0.5071829123018,44.907300258735354],[-0.507445692007792,44.90743624700856],[-0.507710048096799,44.90757308614884],[-0.507822097528039,44.90763092093888],[-0.507971370558149,44.90770803781666],[-0.508233372149212,44.907843688450654],[-0.508519089181052,44.907991476924614],[-0.508752245855213,44.908111995745244],[-0.508985029443469,44.90823261602643],[-0.509007565283734,44.90824416074961],[-0.509130632194858,44.90830777459153],[-0.509234522155417,44.90851889652153],[-0.509144453753805,44.90869685386132],[-0.50914060619612,44.90870427549679],[-0.509045345220381,44.9088924907319]]],[[[-0.50867085753092,44.91037857310077],[-0.508642706464581,44.910469856996684],[-0.508557710786718,44.91067018454605],[-0.508487797635958,44.91078117317778],[-0.508262704478777,44.911000526784775],[-0.508170765449886,44.911100044294656],[-0.508096333207414,44.91119152837475],[-0.508013555495658,44.91131788366761],[-0.507979489846554,44.9113835787353],[-0.507953314324339,44.91145578385203],[-0.507947824378107,44.911509941581635],[-0.507951552041862,44.911551280891715],[-0.50798998125542,44.91171346185214],[-0.508059233590729,44.911997327974134],[-0.508059681327517,44.91202678440134],[-0.508060635922564,44.91208866948339],[-0.508065290284658,44.91236781696764],[-0.508039342025084,44.91242541483494],[-0.507884353055023,44.912656522184065],[-0.507783744271815,44.912781728166266],[-0.507523533310236,44.912800762033406],[-0.507263274373522,44.91282916970241],[-0.506947107842588,44.91287421276356],[-0.506843414133652,44.912893349131096],[-0.506613860334221,44.91294629072925],[-0.506557694009207,44.912962844582864],[-0.506489358731416,44.912987623434766],[-0.506430196448317,44.913011031120774],[-0.506374181705875,44.91304218018221],[-0.506258905552516,44.913125579617066],[-0.506169235769971,44.9131905061713],[-0.505921505571213,44.91324284854083],[-0.505921457811218,44.913240056204735],[-0.505921252492013,44.91323880095071],[-0.505920926213345,44.91323763963936],[-0.505919435419658,44.9132340817438],[-0.505916622552051,44.91322966434606],[-0.505913640877559,44.91322660413741],[-0.50591136523204,44.91322469325139],[-0.505908979875136,44.913223056200884],[-0.505907663425297,44.91322228664506],[-0.505904777358893,44.91322075552577],[-0.505903581868628,44.91321989202724],[-0.505964586891759,44.91293587799239],[-0.506259634214984,44.91293845917103],[-0.506261455407917,44.91249904717436],[-0.506154133999722,44.91248855653387],[-0.506123738749873,44.91242030096254],[-0.506146836618816,44.91236576769004],[-0.506151275442211,44.91236373494165],[-0.506155444229554,44.91236144034685],[-0.506159348605096,44.91235897385208],[-0.506166876070835,44.91235359912309],[-0.5061701137924,44.912350612932045],[-0.506173092726471,44.91234754478754],[-0.506176066035915,44.91234438669656],[-0.506178521770766,44.91234106469876],[-0.506180718718208,44.91233766074759],[-0.506182777835367,44.91233408090009],[-0.506185087337212,44.912328420295545],[-0.506186150675695,44.91232514225947],[-0.506187076184057,44.912321688327125],[-0.506187717630074,44.91231571989185],[-0.50618787240147,44.9123121100459],[-0.506187141171988,44.91230447259427],[-0.506186260795571,44.912300534934985],[-0.506180272310396,44.91228792640284],[-0.506170933625198,44.91227650513334],[-0.506158272862751,44.91226672085771],[-0.50614283009403,44.912259097267274],[-0.506125513883762,44.91225396617123],[-0.50610723279538,44.912251659379265],[-0.506088619732331,44.912252156908735],[-0.506132195850373,44.91202411931318],[-0.506006791290206,44.91201041428427],[-0.506015033782372,44.91197590694953],[-0.505982359198388,44.911972612580136],[-0.505895046971456,44.91196365298364],[-0.50588472573584,44.91199534196696],[-0.505727898424677,44.91198010517867],[-0.505745112637833,44.91189637733613],[-0.505572080592539,44.91187957905566],[-0.505562515577125,44.91192133801241],[-0.505405778653639,44.911903484331795],[-0.505473146414557,44.91165631080248],[-0.505469457420877,44.91160541710826],[-0.505461154729418,44.91157404569871],[-0.505437614875789,44.911536305856316],[-0.505410063619267,44.91150743465611],[-0.505383403944099,44.911482681006866],[-0.505347130004144,44.91145426538181],[-0.505305832019815,44.91143475035226],[-0.505259392034751,44.91141819145704],[-0.50513530616126,44.911384977108675],[-0.505100702580085,44.911375164334835],[-0.50507845059114,44.911358022152704],[-0.505032369352704,44.91130459116938],[-0.505031500013661,44.91130894455545],[-0.504940664353493,44.911302438679584],[-0.504835659603624,44.91138172724792],[-0.504824562591704,44.91145579882481],[-0.50488080418539,44.911501338811256],[-0.504950242630255,44.9115794476004],[-0.50487916947803,44.91193173203475],[-0.504944352377745,44.91194175136345],[-0.504944056811867,44.91194716812672],[-0.504786544542858,44.91210967598197],[-0.505348224514855,44.91215142953699],[-0.505340496151166,44.91219213913346],[-0.505330483299926,44.91224499744763],[-0.505257888878341,44.912627702032935],[-0.505253429573724,44.91265172563339],[-0.505202680649937,44.912919283242644],[-0.505094578049305,44.913488763854346],[-0.505137172433267,44.91355942851399],[-0.505245040839729,44.91350357169146],[-0.505295649773601,44.913483318611775],[-0.505513860385606,44.913399014257216],[-0.505544381437971,44.91338813718149],[-0.505680659670513,44.913348506670566],[-0.50571302870277,44.91334081567382],[-0.505774599189745,44.9133315719547],[-0.505793474265165,44.9133291736138],[-0.505831064084435,44.913323841239794],[-0.505849916659338,44.91332108310351],[-0.505868631400938,44.91331814906727],[-0.505877925479186,44.913316684046094],[-0.505887340516645,44.913315125081475],[-0.505906176213958,44.9133120970963],[-0.505915459042264,44.913310452179054],[-0.505934035945262,44.913307342235164],[-0.505943313147941,44.91330560736915],[-0.505952595974085,44.913303962448815],[-0.505971150376603,44.91330049271294],[-0.505980554160589,44.91329875384755],[-0.506008368885949,44.91329327939623],[-0.506017508252154,44.91329136862748],[-0.506036051398152,44.91328771898788],[-0.506063590448682,44.91328189272974],[-0.506091112620718,44.91327579662546],[-0.506109368844027,44.91327161528786],[-0.506118485706058,44.91326934472507],[-0.506127613815983,44.913267254054404],[-0.506146111952091,44.91326288482498],[-0.50608146494553,44.91338316853642],[-0.506645346144831,44.91353696079375],[-0.5061954163173,44.91434750293472],[-0.506172843953164,44.9143881405327],[-0.506095567672635,44.91452756877955],[-0.506517199943958,44.91464565758483],[-0.50608210781641,44.91510136290831],[-0.505966416850254,44.9151579180732],[-0.505638891477903,44.91508236913309],[-0.504693258371995,44.914864284246924],[-0.504339358838031,44.91478271448417],[-0.503484077756229,44.914585471145315],[-0.503575045637162,44.91436260885526],[-0.503844036731071,44.91371063761146],[-0.503874087212711,44.91362524338733],[-0.503935489024645,44.91204640845849],[-0.503965300984925,44.91138485994812],[-0.503969824218454,44.91128269703249],[-0.503942676357081,44.911051214381025],[-0.503946371440889,44.91022745615625],[-0.503963429877446,44.91000115774973],[-0.504016884448999,44.909746403376076],[-0.504054266050303,44.90965050368576],[-0.504102793811958,44.90956858194308],[-0.504201993155254,44.90944108075209],[-0.504335801254996,44.909295093396466],[-0.504509926751296,44.90914891496064],[-0.505230327818025,44.908648430639474],[-0.505392253716803,44.90866017228339],[-0.505592873578639,44.908704578719444],[-0.506082073924893,44.90881278378953],[-0.506641119205885,44.90895284800861],[-0.506804758830962,44.909034559803985],[-0.507056502861731,44.9091602631804],[-0.507068935267339,44.909152209998766],[-0.507093535656731,44.90915215404411],[-0.507115025123575,44.90918346934504],[-0.507172093230069,44.90919761888904],[-0.508589638437624,44.9095528092312],[-0.508671443044819,44.909573116002505],[-0.508767044507402,44.909597042350235],[-0.508754934808331,44.909671056328676],[-0.508901951926991,44.909712013629075],[-0.508840129859318,44.909810399846165],[-0.508752025479712,44.91002993208536],[-0.508726839843735,44.910136173020035],[-0.50867085753092,44.91037857310077]]],[[[-0.504209325387994,44.917384100788794],[-0.503867099237956,44.91730486437801],[-0.503741349043149,44.91756388254569],[-0.503670096241045,44.91775521055898],[-0.503504134107705,44.91772394585063],[-0.50287162580296,44.917605106049],[-0.50262891088406,44.91755940764598],[-0.502182252765714,44.91747543856843],[-0.50230041598501,44.917230901228706],[-0.502423434988658,44.91697070930092],[-0.502555642142575,44.91669112117769],[-0.502648944388952,44.916493330679586],[-0.502665429255028,44.916458743926086],[-0.502776875317317,44.916478300717124],[-0.503177752114568,44.916548300069266],[-0.503479555244231,44.9166018665376],[-0.503618722167134,44.916626586321485],[-0.504067643302039,44.916706242229644],[-0.504439162825682,44.91677121520964],[-0.504796060595115,44.91683358419049],[-0.504633957847519,44.91717044625216],[-0.504541684338954,44.91714920477199],[-0.504345679674505,44.917104018902826],[-0.504209325387994,44.917384100788794]]]]}}]}
