{"type": "FeatureCollection","name": "aoc_geojson","features": [{"type":"Feature","properties":{"dt":"Angers","type_prod":"Vins","categorie":"Vin tranquille","type_denom":"appellation","signe":"AOC","id_app":79,"app":"Anjou Villages","id_denom":176,"denom":"Anjou Villages","insee":"49050","cvi":"1R204S","nomcom":"BRISSAC LOIRE AUBANCE","insee2011":"49078,49115","nomcom2011":"CHARCE-SAINT-ELLIER-SUR-AUBANCE,COUTURES","id_aire":135,"crinao":null,"grp_name1":null,"grp_name2":null},"geometry":{"type":"MultiPolygon","coordinates":[[[[-0.429405844154246,47.335760234242365],[-0.429236686618544,47.335844886613145],[-0.428741365733412,47.33608785052011],[-0.428601549080978,47.3361546049267],[-0.428482438162999,47.336140912342415],[-0.428364499488554,47.3360356357622],[-0.427753611061947,47.33550104652563],[-0.42862216094125,47.33507513826428],[-0.429405844154246,47.335760234242365]]],[[[-0.427455912959194,47.33664429007052],[-0.427558306289588,47.336603782104056],[-0.428290389357168,47.33634860534038],[-0.428453280413217,47.33637740469775],[-0.428667153099554,47.33655887203693],[-0.428729833257239,47.336616671887356],[-0.428718119792414,47.33665945850821],[-0.4287072343045,47.33698065291497],[-0.428705735197329,47.33706296535414],[-0.428692814521822,47.33708479256679],[-0.428623013508758,47.33752531727768],[-0.42861842726492,47.337561405621415],[-0.428633227400864,47.33784066213396],[-0.428604782121863,47.337831139900544],[-0.428266599191072,47.337799497896796],[-0.428207116903808,47.33795560857677],[-0.428150689253145,47.33810351933023],[-0.42847868517009,47.33816240471088],[-0.428075359134828,47.338561327037795],[-0.427820924645175,47.3387844671703],[-0.427617419307343,47.33894374865079],[-0.427479228851453,47.338990449511996],[-0.427466592912669,47.33904164314012],[-0.427457071351296,47.3391457279511],[-0.426251140747262,47.339070313451664],[-0.42624907122503,47.3390545156435],[-0.426247517551093,47.3389949104546],[-0.426245642183853,47.33893026874875],[-0.426561719289028,47.338949864149754],[-0.426688550568887,47.33895774431566],[-0.426726456923195,47.33855925199053],[-0.426764390439884,47.338466222749496],[-0.427199654115187,47.337216379088275],[-0.427303322386989,47.33722485220105],[-0.427455912959194,47.33664429007052]]],[[[-0.425655308701164,47.33722114377837],[-0.425782509071999,47.33711655993213],[-0.425989438055492,47.33699223222953],[-0.426204653401605,47.33688766339746],[-0.426240266961121,47.3368766103526],[-0.42630620135358,47.33686087785671],[-0.426250396629047,47.33713897443019],[-0.426372960948086,47.33714860269064],[-0.426783617933028,47.33718396767765],[-0.427199654115187,47.337216379088275],[-0.426809074236943,47.33833776224598],[-0.425380400442833,47.33824467531438],[-0.425183408755982,47.33881744273953],[-0.42386096982992,47.338538464941806],[-0.423810223244103,47.33852428296503],[-0.4237293157065,47.33843007420879],[-0.423956378337543,47.33767819050072],[-0.424046317710918,47.33754010651505],[-0.424083146392268,47.33752523381456],[-0.424175998955705,47.33745356294425],[-0.424222830536928,47.33744172911195],[-0.424349422930777,47.337396095041385],[-0.424510847474148,47.33738322352889],[-0.424918965919458,47.337439034259745],[-0.425164803635146,47.33745277601791],[-0.425217202848412,47.33744510265531],[-0.425382449977992,47.33740283225778],[-0.425502813177195,47.3373406207376],[-0.425655308701164,47.33722114377837]]],[[[-0.39440181570617,47.35175117249329],[-0.394655441787317,47.35183683696621],[-0.394666547272445,47.35184471188583],[-0.394790513681256,47.351932634714345],[-0.394813457772259,47.35196205909604],[-0.3946538229291,47.352494111996556],[-0.394593834108044,47.352685897612176],[-0.39457035843623,47.35276119100342],[-0.394829537104235,47.35276902217587],[-0.394997944240867,47.352779776968646],[-0.394999897260876,47.35290487605058],[-0.395201735769216,47.35292429440211],[-0.395278539055988,47.352935294258145],[-0.395241547723682,47.35307144360336],[-0.395169218550349,47.35358977124697],[-0.395113453364744,47.353584373464365],[-0.395122220128691,47.35353645148784],[-0.395056886170589,47.353530702706756],[-0.394842725789745,47.35351146406108],[-0.394831452781861,47.353563784328955],[-0.394719851422477,47.353556054068584],[-0.394557490013916,47.35354449133998],[-0.39451806482471,47.35354167919418],[-0.394292411764585,47.35352520833174],[-0.393361048954971,47.35345754764396],[-0.393018573090857,47.35343043167141],[-0.393021162199881,47.35360966520644],[-0.393022791032941,47.35370666082085],[-0.392616067874048,47.35369727934327],[-0.392594771407029,47.35384270040472],[-0.392517296971226,47.353835773093174],[-0.392319803427853,47.353820097603744],[-0.392238943403289,47.353776416037675],[-0.392239311990462,47.35373612830357],[-0.392254031251148,47.35360828974392],[-0.392281249774774,47.35351036134458],[-0.392408705372575,47.35307494442889],[-0.391976029776633,47.35297170868277],[-0.391903997598296,47.352952277631516],[-0.391675707773133,47.35287938291529],[-0.391680235982851,47.352259147426935],[-0.391782726369659,47.352273814421025],[-0.392135330765684,47.352335418517455],[-0.392152911956794,47.35227588607683],[-0.391809647099123,47.35222148796557],[-0.391857260336536,47.35213575881736],[-0.392133638068252,47.35220175196091],[-0.392195548418931,47.35202973481343],[-0.391996532893481,47.35198779272339],[-0.392481419759195,47.3516631252556],[-0.392557101092855,47.35161451000403],[-0.392679752164965,47.35157272195355],[-0.393004985589442,47.3515475407771],[-0.393436295878775,47.35151619518635],[-0.393446806394932,47.35162572628641],[-0.393597976283655,47.35167843513807],[-0.393681546663542,47.35154497975961],[-0.393919892944005,47.35162388392852],[-0.394010187286039,47.351651159720724],[-0.394060108786868,47.351658530885835],[-0.39440181570617,47.35175117249329]]],[[[-0.391880769216366,47.355035644123284],[-0.391154145714589,47.35503352816603],[-0.391156040960227,47.35493769123716],[-0.391153761340315,47.3544738973637],[-0.391156053565141,47.35445562921698],[-0.391126233050189,47.354265026935245],[-0.392201446272316,47.35425056296711],[-0.392199778134213,47.35425772999505],[-0.392174054439551,47.35436462516693],[-0.39205866606594,47.35483996589894],[-0.392033669151726,47.35494368609179],[-0.392010184050123,47.35503357604591],[-0.391880769216366,47.355035644123284]]],[[[-0.390887953066765,47.357190123229095],[-0.390780433294959,47.35718623443075],[-0.3907275184229,47.357871855437516],[-0.391504639396668,47.35797152574194],[-0.391877663278684,47.35801784813438],[-0.391677917032959,47.35844059712589],[-0.391485703570404,47.35883573375611],[-0.39146485523361,47.35913927502396],[-0.391415138846572,47.35972649822831],[-0.391414416240506,47.35974652259491],[-0.391417151022076,47.35976040897811],[-0.391397620698191,47.35979756184362],[-0.390989823505713,47.36040307962801],[-0.390520015150024,47.360304885937396],[-0.390258875755451,47.360247723982944],[-0.39024551930536,47.360353175979554],[-0.390053440126123,47.360308144022945],[-0.389224772914779,47.36013193682327],[-0.388330348790015,47.359937008377585],[-0.388431432104635,47.35975502128616],[-0.388437947324244,47.35973221493003],[-0.388792153890147,47.35910925828603],[-0.388659317922695,47.359080426295634],[-0.38804238827414,47.35892641585792],[-0.38867045354142,47.35759896001781],[-0.388842084303971,47.3568422077276],[-0.388891702416863,47.356603423779006],[-0.388904078844002,47.35656846237008],[-0.389027736329613,47.356001067913766],[-0.388376060707549,47.35591358023254],[-0.388822049252829,47.35391078085104],[-0.389023303920387,47.353950320403904],[-0.389479453188765,47.35400116178601],[-0.38981123341986,47.35402896087502],[-0.390554357588847,47.3540846660409],[-0.390589908346533,47.35427365943272],[-0.390596465157927,47.35430815840221],[-0.390627784231155,47.35447006362882],[-0.391021947983251,47.354484144014734],[-0.391018986192847,47.355540260665926],[-0.391287684203566,47.355711002202405],[-0.391685856510621,47.355968607358385],[-0.391781663267766,47.35609132537761],[-0.391788721259537,47.356110672010864],[-0.39188862408708,47.35664613119533],[-0.391993942951611,47.35724621747699],[-0.390887953066765,47.357190123229095]]],[[[-0.389616693174009,47.35357122984746],[-0.389677768746178,47.352567750075835],[-0.3897018899871,47.35213337058355],[-0.39064087241575,47.352139565909944],[-0.390800979901602,47.352180574036026],[-0.390899793238321,47.35221048682135],[-0.39088500133068,47.35285516989089],[-0.390757312760302,47.352825739805496],[-0.390819042371199,47.35374751374217],[-0.390720537944491,47.35373930711122],[-0.390725191818671,47.35400164706568],[-0.390563455984842,47.353991592262645],[-0.389599487346823,47.35391575274903],[-0.389605013250727,47.35376403494406],[-0.389616693174009,47.35357122984746]]],[[[-0.379645674573124,47.3585402499877],[-0.379625987743145,47.35856452031409],[-0.378909061601726,47.35831714089533],[-0.378883444859154,47.35830833515546],[-0.378621995951635,47.358767814248466],[-0.378107949061676,47.35927599801879],[-0.378107079186476,47.359276924362746],[-0.378254049887414,47.35933446075092],[-0.377867478721446,47.35967503553863],[-0.377770754555036,47.35963838311074],[-0.377443369349968,47.359514460179824],[-0.376973876862712,47.35986077705782],[-0.376799066258304,47.3596875439514],[-0.376570224079415,47.35955543721468],[-0.376108174532416,47.359348205026755],[-0.376096953421764,47.35933636717548],[-0.376078118219127,47.35926888614305],[-0.376220035314728,47.35903769827795],[-0.376248074582741,47.35899020922486],[-0.376477186995523,47.358654938709535],[-0.376514053556121,47.358596020020286],[-0.376646230643059,47.358387100049754],[-0.376654431110072,47.35836992204306],[-0.376704557164396,47.358241507878326],[-0.376782082525099,47.35804282670747],[-0.37680075873219,47.35800038523646],[-0.37682460405843,47.35796211845797],[-0.377047170325182,47.35754197843566],[-0.377080277578788,47.35747181568812],[-0.377199310269587,47.35720164580201],[-0.377274149464699,47.35717090637456],[-0.37738232051706,47.35721884965874],[-0.378029257240092,47.3574880066562],[-0.378061330191012,47.3575024815498],[-0.378475850027063,47.35763945573196],[-0.378672341718902,47.35768960398892],[-0.379165953008355,47.35781697630672],[-0.379312863450768,47.35785045521965],[-0.379930802219631,47.35798114459882],[-0.379991618583205,47.35799721525235],[-0.380061300605949,47.35802771484411],[-0.379645674573124,47.3585402499877]]],[[[-0.378442119484892,47.35758394163282],[-0.378460416173653,47.35753970879943],[-0.378488593562213,47.35747761818742],[-0.378574000838225,47.357290509891534],[-0.378581272801033,47.357292280626154],[-0.378853048529583,47.357367179507406],[-0.379132197714848,47.35743492519631],[-0.379570199876517,47.357534179404766],[-0.379769125933835,47.35757875862282],[-0.380484194853051,47.35770211302761],[-0.380450361519199,47.35779013865718],[-0.38038612882181,47.358010150927825],[-0.380255633069003,47.357990972676745],[-0.379918252538152,47.35793771914865],[-0.379748311052998,47.35790491124079],[-0.379410998826201,47.357829578730865],[-0.379304029679211,47.35780917419567],[-0.379180484128308,47.35778033157192],[-0.378716790986808,47.35766479360468],[-0.378442119484892,47.35758394163282]]],[[[-0.377949300963038,47.363259879016866],[-0.377644336181651,47.36320171075973],[-0.37755724223126,47.36341697901562],[-0.377521598262494,47.363505866919596],[-0.377445749570356,47.36367440448522],[-0.377413787513129,47.363758589967375],[-0.377375971067727,47.363838260266014],[-0.377309024091214,47.363990230029984],[-0.376432032890834,47.36385336045269],[-0.37645102684473,47.363778022048145],[-0.376859774485545,47.362931956495956],[-0.376910374137595,47.36283416418518],[-0.377551321590586,47.361514604946635],[-0.377582312136134,47.36152028129413],[-0.377887633628554,47.361609525003885],[-0.3779372001568,47.361627996393466],[-0.378223029125238,47.36171303066517],[-0.378228161117279,47.361714503264466],[-0.378745010617097,47.36187336942681],[-0.378916719769455,47.36192351775867],[-0.378774782756874,47.36226797015605],[-0.378608788541207,47.36267051838164],[-0.378488174685014,47.36263996761247],[-0.378383690702159,47.36261705690421],[-0.378200153080596,47.36257283824699],[-0.377974311164167,47.3631916637251],[-0.377949300963038,47.363259879016866]]],[[[-0.37727387873472,47.36186164436335],[-0.377262861001279,47.36189305063162],[-0.376925265478144,47.36257999842934],[-0.376831748225247,47.36277121493648],[-0.376804093897711,47.362812205333114],[-0.376775364661855,47.36288034826479],[-0.376432555281843,47.36357735699045],[-0.376338914929372,47.36377299158655],[-0.376264615163825,47.364077810402264],[-0.376037349449769,47.3649798686569],[-0.375982694102572,47.36520707727259],[-0.375277398040046,47.36522982763715],[-0.373660598772793,47.365288243059666],[-0.371870881342996,47.36534697047038],[-0.371869292874785,47.36511716222884],[-0.37185820170431,47.36432925750106],[-0.371915132063637,47.36432985735484],[-0.371955700782526,47.36409981626568],[-0.371967249294058,47.364070467609245],[-0.371997119389656,47.36394444641101],[-0.372054417572079,47.363866555193184],[-0.372133568529008,47.363798751823545],[-0.372407851669669,47.36355471642235],[-0.372548603716105,47.36343529671648],[-0.372739828450869,47.36327287333418],[-0.372755881315116,47.363207622581406],[-0.372777467589923,47.363118603954035],[-0.372814881372135,47.362964971815714],[-0.372866046648128,47.36292032627992],[-0.372962708780047,47.36283579503986],[-0.373099799670146,47.362516991070756],[-0.373249864346429,47.36232855067149],[-0.373489835425134,47.362089473313894],[-0.373583675479835,47.36199385054894],[-0.373757224534919,47.36191735702396],[-0.373826190076733,47.361919588550684],[-0.37384180312876,47.36188741845056],[-0.373850636087765,47.36186130205431],[-0.374180870768676,47.36134343253848],[-0.374375455193221,47.36104494154853],[-0.374411082959091,47.36100209819161],[-0.37465634931142,47.36071880328665],[-0.37475460818768,47.36059232554576],[-0.374916600190544,47.36039551667692],[-0.375195302946686,47.360089443591946],[-0.375221617024098,47.36005876433039],[-0.37590657976099,47.35942768022683],[-0.375993499653636,47.359416053076316],[-0.376032845370971,47.359415449953524],[-0.376059296692154,47.35941855550277],[-0.376487622996312,47.359620911571554],[-0.376704567426073,47.35975570710232],[-0.376723724909731,47.359767224044624],[-0.377108787877948,47.36012266120533],[-0.377229590926698,47.36022790403805],[-0.377254799890728,47.36023654180373],[-0.377696753886043,47.36048454057505],[-0.377717235496017,47.36049601885403],[-0.377807264145354,47.360548454098925],[-0.37786227967131,47.36065975445299],[-0.377471579198893,47.36145285995051],[-0.37727387873472,47.36186164436335]]],[[[-0.372195730166865,47.36738063872366],[-0.372350421050866,47.36735614466665],[-0.372404532693962,47.36759019444642],[-0.372531644541694,47.36819830701738],[-0.372587409897767,47.36845861889256],[-0.372614308373191,47.368588938546345],[-0.372185908461261,47.36856974991954],[-0.372179456804389,47.36853254426013],[-0.372158912593255,47.3684399736445],[-0.371973625700645,47.36769127617319],[-0.371908278273272,47.36742826877086],[-0.372091196406661,47.36739709891387],[-0.372195730166865,47.36738063872366]]],[[[-0.370593254149221,47.36873536252107],[-0.370458075000509,47.36872009294462],[-0.370321814223937,47.368704494182815],[-0.370189508147189,47.36868851021231],[-0.370034090184557,47.36866986280322],[-0.368734248217863,47.36861349928237],[-0.368415232731164,47.36905182271725],[-0.367526167949031,47.3703220165667],[-0.367939308617733,47.370440147966505],[-0.368053220778112,47.370482077027546],[-0.368162550295969,47.37052494978586],[-0.368213684549285,47.37055563397684],[-0.367930166336608,47.3712594512644],[-0.36563029922915,47.37074818705458],[-0.365614620864071,47.37070971676634],[-0.365554481457761,47.37055035482791],[-0.365518630868269,47.37044408070931],[-0.365398242129855,47.370051745631855],[-0.365355053152994,47.36993631333951],[-0.365317393439877,47.369860366217814],[-0.366475152533981,47.3700868565555],[-0.366496923591733,47.370032253802506],[-0.366149328990998,47.36995880137745],[-0.366082058167956,47.369941468675584],[-0.366035430098755,47.36993182725638],[-0.366170257904418,47.36975348049083],[-0.366752687315932,47.36896865131941],[-0.366729303599949,47.36895743544526],[-0.366732728034093,47.36895283103031],[-0.366506164554832,47.368842443515206],[-0.366342670851707,47.36876275505726],[-0.366190591735049,47.36868742096102],[-0.365958441421011,47.3685725089665],[-0.365694176405984,47.36844248869613],[-0.365406599800979,47.36830025850269],[-0.36543163547696,47.36826385228073],[-0.365447444457965,47.368213567177044],[-0.365450364733242,47.368188253671505],[-0.365448338476776,47.36816020018032],[-0.365430750201543,47.368093402677395],[-0.365416773492492,47.36807146203156],[-0.365338503906111,47.367976057842824],[-0.365269988451732,47.36791983621296],[-0.36501037595377,47.36770327073554],[-0.365141588355037,47.367636397229845],[-0.365169885485895,47.36762025988773],[-0.365241286351229,47.367604135199386],[-0.365370484350982,47.36757912767212],[-0.365536396717373,47.36758756576477],[-0.365670634105997,47.367625934665114],[-0.365756414857906,47.367655075332024],[-0.365799198638472,47.36766266573055],[-0.365844846575203,47.367667289815515],[-0.36593178761093,47.36767477195741],[-0.366008725847159,47.36767713770519],[-0.36602313059064,47.36769744402544],[-0.366195838139789,47.36765567696882],[-0.366390339214301,47.367620936813964],[-0.366958264870729,47.367517886717984],[-0.367127683087054,47.36748711608264],[-0.367352153126076,47.36745655131855],[-0.367489909273957,47.36744534941245],[-0.367566032803844,47.36744530495143],[-0.367575516548148,47.36746115849567],[-0.367565493404685,47.36751695273719],[-0.367512660195508,47.36780122867824],[-0.367505016338634,47.36782100270213],[-0.367438126053677,47.36792160503334],[-0.367369667040559,47.368024685580714],[-0.367410204734657,47.36803873784829],[-0.367575014717838,47.3680950498943],[-0.36763543265488,47.368123663079814],[-0.367668120063265,47.36815208907668],[-0.367683725122332,47.36817037813599],[-0.367748906771098,47.368264268156615],[-0.367984828794322,47.36833572760706],[-0.368167543046236,47.368060570181655],[-0.368177760133485,47.36803531529432],[-0.368176324945504,47.368012470662215],[-0.368169911631625,47.367984274076036],[-0.368126498641628,47.367913900751425],[-0.368096336888123,47.36789612394071],[-0.368051386885833,47.367875171787816],[-0.367973053509415,47.36785482716688],[-0.367839074304136,47.367854386881255],[-0.367580286803073,47.36778836557738],[-0.367575027787601,47.367786986289346],[-0.367606903580861,47.36757657191939],[-0.367622656084942,47.36747474897118],[-0.367637770740566,47.36744511728004],[-0.367692500727434,47.36744019668334],[-0.367810531676451,47.36742956628497],[-0.368062677220813,47.36739621542776],[-0.368105039788556,47.36739498706609],[-0.368224965050546,47.367408178704665],[-0.368360610849293,47.36740983163138],[-0.368557098064581,47.36743206562513],[-0.368663938625416,47.36745230392812],[-0.368734258466294,47.367473871623254],[-0.368819942164133,47.36750355350738],[-0.368880464383537,47.36754648946785],[-0.368910672100663,47.36755444347671],[-0.369039883439573,47.36757610499083],[-0.369084239267239,47.367583378285275],[-0.369162676153757,47.3676138107392],[-0.369342078050575,47.367634286417974],[-0.369571166766753,47.36765611367191],[-0.369732858349768,47.367667010929964],[-0.369819319416856,47.36766684531192],[-0.369889524638629,47.3676633668978],[-0.369921990169441,47.36766503800918],[-0.369973471350875,47.36766750897256],[-0.370088529617845,47.367664441094306],[-0.370154674252041,47.367653331434674],[-0.370287508134679,47.367648215854565],[-0.370395438306267,47.36763724518243],[-0.37040298553091,47.36763071894815],[-0.370409386535294,47.367624946800106],[-0.370494575566119,47.36762986338167],[-0.370545152673244,47.36763272073908],[-0.370557000315623,47.36763553057124],[-0.37067857251868,47.36766434992424],[-0.370710174896125,47.36780417448854],[-0.370735418990449,47.36789138291937],[-0.370776676689744,47.36799281350671],[-0.370861280725592,47.36817615167752],[-0.370940746530789,47.36834314996969],[-0.371027505824964,47.36853543582317],[-0.371031329544695,47.36856460847802],[-0.370992571202475,47.368775043598966],[-0.370718041725156,47.36874777986898],[-0.370593254149221,47.36873536252107]]],[[[-0.369014361649766,47.375384201206984],[-0.36899240991316,47.37542114934977],[-0.368807346800552,47.375733136747705],[-0.368608006968448,47.37605860265784],[-0.36857505952823,47.376110556322345],[-0.368501631102914,47.37621278988684],[-0.368411146418027,47.376339124919646],[-0.368310183505083,47.37632826645939],[-0.367994664981148,47.37627623404519],[-0.367804149931798,47.37624400389977],[-0.367708851717472,47.37622829535528],[-0.36764901206494,47.37622381288179],[-0.367525533346425,47.37621982353692],[-0.367470568384725,47.37622114646779],[-0.367355621559098,47.37622628034487],[-0.367086823394053,47.3762380357405],[-0.366291215685487,47.376259199872194],[-0.365823001242162,47.37627862261496],[-0.365620737033893,47.37628529336192],[-0.365390624473751,47.37628574245264],[-0.365320412749294,47.376285073256916],[-0.36433744155903,47.376286152201345],[-0.363858167435227,47.37629210155236],[-0.36343719535497,47.376311858690364],[-0.362904031101263,47.37461939495088],[-0.362938182120254,47.37449352383209],[-0.364450259246462,47.37362647178294],[-0.364531161218798,47.373934893725206],[-0.364525440305285,47.37396209029353],[-0.364033226389193,47.37404896773127],[-0.364082724243516,47.374174038843684],[-0.363627783345315,47.374267313655935],[-0.363546950096446,47.37433831247315],[-0.363427875988554,47.37436005089871],[-0.363443192557522,47.374447728040906],[-0.363208502621466,47.37448713989208],[-0.363205177290348,47.374503905187744],[-0.363245632244881,47.37461383079718],[-0.36376704340364,47.37503654418715],[-0.363765743945292,47.37510884429623],[-0.36375972125387,47.375137581284356],[-0.363734108261365,47.37519022213864],[-0.363675745768092,47.375262102095924],[-0.363595948623373,47.375396142854484],[-0.363575005058111,47.37541116568964],[-0.363523622160265,47.37547590555252],[-0.363415927834456,47.37565157041785],[-0.363396842020046,47.375823047998175],[-0.363420044454513,47.37611250725412],[-0.363500009598731,47.37612064404946],[-0.363537130719777,47.37611821776857],[-0.363610865033017,47.37610527062515],[-0.363660053188491,47.37608798837568],[-0.363684217257069,47.37607566547817],[-0.363631929398968,47.37594842248581],[-0.363600888553786,47.37587651814921],[-0.363601113845717,47.37584839955025],[-0.363611423569683,47.37583936107899],[-0.36366607347128,47.37581822646748],[-0.363830372383673,47.375756163901166],[-0.36385649105299,47.37574117138295],[-0.363901862871876,47.37570958306725],[-0.363931467763531,47.375682505907854],[-0.363965863196132,47.37561762703849],[-0.363982848502565,47.37560082659129],[-0.364008848058224,47.37557971049045],[-0.364057997263815,47.37554702159281],[-0.364121167291786,47.375515818821306],[-0.364184529157142,47.37548767395459],[-0.364199627325141,47.37547462233689],[-0.364241418336899,47.37517463104181],[-0.36431363069622,47.375143797007794],[-0.364334791022374,47.375130119294525],[-0.3643601159185,47.37510037276221],[-0.364099063391539,47.37485501381199],[-0.364137795676897,47.37483388936087],[-0.364145277302112,47.37465508880064],[-0.364108829153076,47.37434483880415],[-0.364227652989546,47.37432968443126],[-0.36426058975346,47.37435359900057],[-0.364306897642764,47.37434117527674],[-0.364301938451088,47.374306539174405],[-0.364470989590869,47.37428857841189],[-0.364550092065409,47.374335844066465],[-0.364566160752568,47.37433826197572],[-0.364573988798888,47.37433407072946],[-0.364576866711821,47.37432497708686],[-0.364574820666574,47.37429449145642],[-0.364592444264596,47.37424983060434],[-0.36462753798545,47.37421935054127],[-0.364803595910073,47.37425596892853],[-0.364880893369747,47.374595670641064],[-0.365058869243371,47.37455294254607],[-0.365121330903007,47.37452527370004],[-0.365134613052107,47.3745234473094],[-0.365084662810819,47.374881431486095],[-0.36507141186234,47.37499363303626],[-0.365085210890724,47.37504441178442],[-0.36511441863119,47.37506807373245],[-0.365142599382582,47.375079601528896],[-0.365575046058323,47.37515825829664],[-0.365662864931697,47.375012630641734],[-0.365762448312407,47.37485368722854],[-0.365972529173432,47.37451530076786],[-0.365983662969807,47.37425322901091],[-0.366123946777897,47.37422285419844],[-0.366316878566049,47.37419654000812],[-0.366384694259028,47.37418655569783],[-0.366531235192638,47.37417978625862],[-0.366750825543572,47.374161889297255],[-0.367090644262303,47.37414699468708],[-0.367334232802167,47.37411416476216],[-0.367380309605809,47.374106521946565],[-0.36751346526294,47.37407671245435],[-0.367723044596654,47.37401981888767],[-0.367761670720164,47.37407726612784],[-0.368024514696441,47.37417569734268],[-0.368305087510965,47.37427550611463],[-0.368671433564036,47.37441256252187],[-0.3687952290879,47.37445753826576],[-0.368841498446751,47.37448250661949],[-0.368930448775708,47.37453443950256],[-0.368981263569595,47.37456630403056],[-0.369021246370424,47.374581993799914],[-0.369395866499539,47.37471556435457],[-0.369175459447448,47.37513625088161],[-0.369166665497365,47.375154616643684],[-0.369014361649766,47.375384201206984]]],[[[-0.365374719135314,47.370488345998815],[-0.365546667482884,47.37101533302305],[-0.365615421971832,47.371218956269175],[-0.365683708199615,47.37143412623352],[-0.365445805046814,47.37145381350569],[-0.365428517994758,47.37145521536539],[-0.365410103245687,47.371470345559615],[-0.365396345413936,47.371489936091656],[-0.365372968480434,47.37157603104676],[-0.365325016947892,47.37176717726445],[-0.36531120343778,47.371813349793825],[-0.365298818838953,47.37184425350933],[-0.365275122282383,47.37188089111011],[-0.365258543926991,47.37189569776312],[-0.365219378628205,47.371924674197714],[-0.365162710105409,47.37196217683474],[-0.365119284385674,47.37198244655316],[-0.365081570531581,47.37199651389009],[-0.36503288483975,47.37201116935091],[-0.364993226544687,47.37201961649273],[-0.364909250429013,47.372034122820004],[-0.364644686815907,47.37206863668715],[-0.364275357376211,47.37211609543704],[-0.364270242193605,47.37211912687312],[-0.364251665786622,47.372129576189835],[-0.364084990447219,47.3722233347497],[-0.364133551365168,47.372272205912104],[-0.36413832630753,47.372648427728635],[-0.364318797628238,47.373524768516724],[-0.364250254529042,47.373647851879184],[-0.363272960014108,47.37420163002604],[-0.362784573369371,47.37448490550539],[-0.362749496883717,47.3745008779203],[-0.363307501817188,47.37624686501025],[-0.363233026900235,47.376353720481866],[-0.363075503211662,47.37638215785966],[-0.362847888246306,47.37643722197228],[-0.362743235782937,47.37645845197727],[-0.362592481151351,47.37648696305817],[-0.362516255568315,47.37649826968507],[-0.36238667831709,47.37650490330277],[-0.362299757644624,47.3765021929927],[-0.362164595452762,47.37649168827735],[-0.362110190570713,47.37649137060389],[-0.361917347573595,47.37648541815074],[-0.361743903276383,47.37647575045131],[-0.361559392799786,47.376458834071386],[-0.361349519608248,47.37644147989817],[-0.36126760196407,47.376053164804055],[-0.360993641051638,47.37495228718619],[-0.359368976107282,47.37505712503785],[-0.358921706375106,47.37508888933993],[-0.358401899097377,47.37512094684075],[-0.358341907763384,47.37307086419013],[-0.358376507269385,47.373066336624916],[-0.358369277067642,47.37299537785037],[-0.358368753111911,47.372995483100354],[-0.358668941174344,47.372532326435035],[-0.358717621597128,47.372125907276526],[-0.358870454655018,47.37084788593054],[-0.359261470651351,47.37045021819805],[-0.359969389302367,47.37076871085212],[-0.359889476242459,47.37096654540492],[-0.359879727897318,47.37099088481632],[-0.359739520576852,47.37124038009097],[-0.360255695727695,47.3712927567553],[-0.360241801270988,47.371462551979846],[-0.360223613040671,47.37168446071158],[-0.360035589515464,47.371655660315156],[-0.359987686084861,47.371835179120424],[-0.36041372954321,47.37190322709558],[-0.360740972650231,47.37195241715113],[-0.360744078952547,47.37205062946165],[-0.360745890324103,47.37210914388934],[-0.360748553061149,47.37212411402526],[-0.360752669856,47.372149584123804],[-0.360753167507133,47.372187142600275],[-0.360743125928942,47.37220257038096],[-0.360719800735895,47.37223883579773],[-0.360652285604051,47.37231917844819],[-0.36061271156332,47.37234167766732],[-0.360569295289785,47.37236636038768],[-0.360646772883083,47.372554956748715],[-0.36070342277696,47.37269270690833],[-0.360735170205632,47.37275693277426],[-0.360801178850728,47.37295721378044],[-0.360833858002897,47.3730574537785],[-0.360864455234245,47.37315198742051],[-0.360957149103416,47.37343727414489],[-0.361062674815487,47.373762195162264],[-0.361259421251214,47.37372902130952],[-0.361413461897864,47.37370014632872],[-0.361497595715432,47.37367329399466],[-0.361643209780193,47.373634841327885],[-0.362151111602101,47.373510487698],[-0.362012074856341,47.3731885195619],[-0.361973909642303,47.373100242076525],[-0.362255776342521,47.373066585241226],[-0.362419378700653,47.3730442799205],[-0.362509165629387,47.373029336959945],[-0.362812501043829,47.37297847840329],[-0.363158994507214,47.37289672572654],[-0.362924083888723,47.37263438901035],[-0.363002420680945,47.372606081470174],[-0.363115889738633,47.37257117039514],[-0.363523251868457,47.372466029613165],[-0.363761378868981,47.37240966805227],[-0.363785214838539,47.372400598272144],[-0.364017540807465,47.37231521078516],[-0.363929897262047,47.372131776264425],[-0.363889794514038,47.37204436633169],[-0.363840909935881,47.37194171297252],[-0.363693430701373,47.371971482619756],[-0.363652740326198,47.37191697721184],[-0.363542767035185,47.371768698432135],[-0.363428757435697,47.37161738281966],[-0.3632907825979,47.37164219143565],[-0.363199070468909,47.37141075922874],[-0.363069649372902,47.371085630348034],[-0.363029699580228,47.37098370913519],[-0.362900898085294,47.37097923860595],[-0.362803917000347,47.37098727211414],[-0.362704203783385,47.370998267925025],[-0.36260992725206,47.37101135884611],[-0.362527408035333,47.371021586474384],[-0.362067670347818,47.371099316946314],[-0.362032384717328,47.370925808834166],[-0.361921187417594,47.3709017258994],[-0.361467707514553,47.37091214623942],[-0.361456017260765,47.37090761896813],[-0.361403947400833,47.37090426016247],[-0.361210453283068,47.37088336886768],[-0.361003410445155,47.370866383279186],[-0.360654995143702,47.370845378123356],[-0.360510695178355,47.37082639626329],[-0.360397877153828,47.370822992335086],[-0.360253144939986,47.37062994396209],[-0.360302581223458,47.370237917999596],[-0.36058754963125,47.370150293512],[-0.360676391091605,47.37012880166451],[-0.360699882649378,47.37011424618157],[-0.360777837687107,47.37005027033381],[-0.361549177055072,47.36987198322049],[-0.361599759233157,47.36997008318049],[-0.361662329886152,47.3701091934288],[-0.361685743805686,47.37015897348475],[-0.361695067809217,47.37016383951789],[-0.361720165858231,47.370166446991576],[-0.361751375843848,47.37016076831411],[-0.361761541697885,47.370160023596256],[-0.361778718597444,47.37015898587147],[-0.361812230555767,47.37016252116042],[-0.361840852982506,47.370172685360224],[-0.361887943590882,47.37019817317761],[-0.361910957562048,47.370205616383224],[-0.361945379370676,47.370208854993386],[-0.362004287459116,47.370207059961785],[-0.362043159159466,47.370200889148045],[-0.362085712557496,47.37019632371736],[-0.362114043458045,47.37018703405042],[-0.362133329343995,47.37017521297981],[-0.362137290189796,47.370143201890514],[-0.362153332055666,47.37010714690929],[-0.362155274477966,47.370091592978376],[-0.362149492830476,47.3700713069481],[-0.362086600408302,47.36993977488679],[-0.36208081113244,47.369929941018],[-0.362057092220278,47.36991125538016],[-0.362021238290195,47.369889406943635],[-0.361988874922274,47.369874575605444],[-0.361938475421403,47.36985765327699],[-0.361904940783095,47.369849523434596],[-0.361840999016356,47.369845066798256],[-0.361784577766963,47.36971307699691],[-0.362028027546225,47.3696317862543],[-0.363098614777605,47.36927453224903],[-0.36317267386677,47.36933879398225],[-0.363360204928873,47.36955222455119],[-0.363398080544545,47.3695914940404],[-0.363416432140632,47.369621868016765],[-0.363457861839581,47.36970932981122],[-0.363516859425937,47.36987386162055],[-0.363527663666137,47.36991923101694],[-0.363530484637625,47.36993248458325],[-0.363580663351935,47.370180526915235],[-0.363698855663939,47.37016602180028],[-0.363733733835276,47.37019555675537],[-0.363806865176323,47.37025768250975],[-0.363866220612621,47.370224968236585],[-0.363945845180143,47.37013481193108],[-0.363960451379623,47.37011817039694],[-0.363949763310463,47.37010847847729],[-0.364248995578993,47.37000096948002],[-0.364444510716101,47.36993151384412],[-0.364471600735653,47.36996163457333],[-0.36468664081864,47.36988629691396],[-0.365066361207052,47.369979276403704],[-0.365064512505195,47.36999419697184],[-0.365081464578789,47.369998030836456],[-0.365114302676567,47.370081686363314],[-0.365227823169288,47.37006037707412],[-0.365374719135314,47.370488345998815]],[[-0.358376508621494,47.37306634989479],[-0.358577003619169,47.37304010018556],[-0.358376507269385,47.373066336624916],[-0.358376508621494,47.37306634989479]]],[[[-0.363926407538382,47.36316886683129],[-0.363911033907364,47.36328527506641],[-0.363907890516338,47.36330915338285],[-0.363904057502366,47.36333683601135],[-0.363896068778606,47.363429333176825],[-0.363882588343004,47.36349982397673],[-0.363869551049025,47.363579492474464],[-0.363854257399792,47.36368238286322],[-0.363851495206637,47.36374193103779],[-0.36384871881197,47.36382661844058],[-0.36384056446405,47.36389956796083],[-0.363799881200806,47.36411987739593],[-0.363777084404403,47.36422577824359],[-0.363707940291585,47.36447862819662],[-0.363688430773341,47.36453758010733],[-0.363686102267361,47.36454485580156],[-0.363663640393058,47.364544064644534],[-0.363663818790347,47.36455325001022],[-0.363666669763843,47.3647487816049],[-0.363662137958847,47.364911188787445],[-0.363651569145987,47.364981595176026],[-0.363643837063719,47.365029573808414],[-0.363637954836889,47.36512606451047],[-0.363638149374643,47.36520949446748],[-0.363642527135963,47.36535326254163],[-0.36365633397668,47.36535349342778],[-0.363686888193773,47.365354320554516],[-0.364084152118346,47.36536389941977],[-0.364608137096825,47.36537881652858],[-0.364675516647468,47.36539164162519],[-0.364727149772114,47.365366989357526],[-0.364746066015228,47.365368333548055],[-0.364739607523941,47.36548096952721],[-0.364726565568593,47.36563028803507],[-0.364904071966105,47.36565028463055],[-0.365090664940501,47.36567136925597],[-0.365257526241891,47.365680230605825],[-0.365255158949167,47.36569111158789],[-0.365244625656079,47.36573881109668],[-0.365244006382089,47.365741622240655],[-0.365148377517196,47.36576259370246],[-0.365078401929642,47.36578237135891],[-0.365009890109472,47.36579588943934],[-0.365009160114685,47.36581384113888],[-0.365015771625053,47.365843113367745],[-0.365006984874306,47.36585102670458],[-0.364989572881523,47.365852522277294],[-0.364888642223349,47.36584607551296],[-0.364811294615903,47.365837143420414],[-0.364811224857118,47.36584237143036],[-0.364762598482386,47.36583675202553],[-0.364728393268778,47.365832697116154],[-0.364688724078067,47.365830332232775],[-0.364657096688281,47.365831428616985],[-0.364638245451093,47.36583323613833],[-0.364627435492296,47.365834270101935],[-0.364596096463112,47.365844188234846],[-0.364582719983131,47.36586349739532],[-0.364586021273135,47.36595837058862],[-0.364582085285909,47.36597172977937],[-0.364569431216048,47.365979304588535],[-0.364551042736232,47.365988487155256],[-0.364546314515315,47.3659955620658],[-0.364551177670514,47.366009657508414],[-0.364562347344272,47.366024921819964],[-0.364584053542945,47.36603690751277],[-0.364591472462656,47.3660367827121],[-0.364582897021688,47.36613893788094],[-0.364573268666467,47.366198955229706],[-0.364562283146743,47.36621621285245],[-0.364528712428015,47.3661969120529],[-0.364248195077529,47.36617539333489],[-0.363673641782848,47.36613670991392],[-0.363674285480786,47.36615119788713],[-0.363674768144037,47.36616100515766],[-0.36406209706323,47.36618546869614],[-0.364310231504487,47.366204501900164],[-0.364487995182707,47.36621800429212],[-0.364512480415673,47.366221439797705],[-0.364707128596102,47.36633915273793],[-0.364743369133694,47.36635450171026],[-0.364778026238936,47.36636575179242],[-0.364846792967705,47.36637952777254],[-0.364960406039567,47.36639362638036],[-0.364930535762008,47.36648189186469],[-0.364904893105033,47.36652552386415],[-0.364860765818594,47.366576809495356],[-0.364842607659004,47.36660445659181],[-0.364821916341547,47.36664668368685],[-0.364815376397353,47.366671381218445],[-0.364814330229743,47.36668429628607],[-0.364815323244553,47.36671913746862],[-0.364829419184013,47.36690992816781],[-0.364836482636507,47.36701613544929],[-0.36483667977708,47.36703829512935],[-0.364344512770794,47.36705092961559],[-0.363985181610297,47.36706061602677],[-0.363857685664402,47.36708737480882],[-0.363722135113576,47.367125269182246],[-0.363555944044493,47.36718423377299],[-0.36341818716119,47.36724615910157],[-0.363369699773349,47.3672617994001],[-0.363221089854517,47.367294484913586],[-0.362993478195354,47.36733207055061],[-0.362966173785849,47.36733655530728],[-0.362926405791675,47.367343202965586],[-0.362879413120992,47.36735096080691],[-0.362801370151103,47.367366915917806],[-0.362755278924265,47.36737635956905],[-0.362521261067079,47.36740908394969],[-0.362381037142936,47.367427469518155],[-0.362361044581369,47.367430120616305],[-0.362262642144751,47.36744288037243],[-0.36221364992593,47.36745682282703],[-0.362184664854808,47.36747469129835],[-0.362150027068473,47.3674975889464],[-0.36210132729976,47.36754368967935],[-0.362036062682844,47.36763018549913],[-0.361937235889115,47.367780003983476],[-0.361641580301397,47.367677914301154],[-0.361436289802985,47.3676061865633],[-0.361141443921142,47.36749371037725],[-0.360948795057759,47.36740359540434],[-0.360848684763051,47.36734891621932],[-0.360762407476402,47.367296990323595],[-0.360685912926617,47.367250908331144],[-0.360559615237017,47.36716563073506],[-0.360211513641734,47.36691647506921],[-0.360393874161605,47.36670495366968],[-0.360441606566243,47.36655030750581],[-0.360508520187173,47.366339873203614],[-0.360627348349063,47.36635256368805],[-0.360747365282685,47.366367292026936],[-0.360770143379152,47.36636888554566],[-0.36097098181238,47.36635487495082],[-0.3609797534284,47.366314975793905],[-0.36100709031825,47.36624120129989],[-0.361071223877932,47.36622763211325],[-0.36109033402146,47.3662172578952],[-0.36111300103958,47.36619804075125],[-0.361144812605882,47.36616179981361],[-0.361156443714986,47.36613578386544],[-0.361156104197889,47.366109213284034],[-0.361147881463794,47.36604151351108],[-0.361112414612399,47.366038485184255],[-0.361097392042164,47.36580942735618],[-0.361096921367947,47.36580403479123],[-0.360820441283807,47.365791851891096],[-0.360640291875628,47.36578679256592],[-0.36050338299572,47.365786068327324],[-0.360446462867334,47.36579411243966],[-0.360434906380557,47.365793816063594],[-0.360509807275061,47.365653701277125],[-0.360291190091137,47.36559560243817],[-0.360350911683636,47.3655010685175],[-0.360506017914864,47.36525681680157],[-0.360574906069884,47.365149853603874],[-0.360976900324547,47.364492362921496],[-0.361094851789475,47.36451228644222],[-0.361455677209814,47.36416287633336],[-0.361700099923579,47.364173642655174],[-0.361777929094921,47.36410146994059],[-0.361964693820842,47.36386314734],[-0.362010420925836,47.36384371298897],[-0.362318739485494,47.363883714035104],[-0.362740328448472,47.36394512318415],[-0.362750300860609,47.36377426903117],[-0.362750863465767,47.36376632365716],[-0.3627516119026,47.36372539511616],[-0.36274552702334,47.363613572954854],[-0.362742057213276,47.36354979021145],[-0.362733531641552,47.3634836309521],[-0.36272142629112,47.36344920157571],[-0.362651532856674,47.36338355759295],[-0.362642853809808,47.36336569811299],[-0.362634890883819,47.36332330981484],[-0.362625315493702,47.363263668374294],[-0.362618583080082,47.36321764031836],[-0.362617135033089,47.36317974877042],[-0.362626546977151,47.36310568170954],[-0.362624984681913,47.363049051988796],[-0.362666518404013,47.3628464687011],[-0.363047384841892,47.36287400535846],[-0.363241977465219,47.36289594228232],[-0.363279506925801,47.36290017162505],[-0.363438957321855,47.36290519529016],[-0.363801903297891,47.362877474492954],[-0.363802283035273,47.36287295832864],[-0.363802822905306,47.362864653186804],[-0.363886641010377,47.3628732182234],[-0.363970619728156,47.362882229065065],[-0.363926407538382,47.36316886683129]]],[[[-0.363224596879895,47.35872240650445],[-0.363171804770649,47.35884899891188],[-0.36308220266262,47.35910964990838],[-0.3629757433797,47.359420796311866],[-0.363296349114326,47.35956829213887],[-0.363482145178042,47.359610846468144],[-0.363388849179548,47.359766093487984],[-0.363535970357421,47.359811479737544],[-0.363391466833965,47.360177790312356],[-0.363258447786717,47.36053061292345],[-0.363238437543061,47.36058579504469],[-0.363176054972701,47.360840701924275],[-0.363010879948897,47.360871164356574],[-0.362800686286353,47.360909057074664],[-0.362679814099208,47.36093337067118],[-0.36252215860432,47.36096956149575],[-0.362362422180296,47.3610127503003],[-0.362222918197429,47.36105715522872],[-0.362137639811395,47.36106331818917],[-0.361989836001037,47.361072642598735],[-0.361836004355479,47.361070427871546],[-0.361716627839542,47.36106784636548],[-0.361672011267717,47.36106688520133],[-0.36151138942119,47.361064235861875],[-0.361451589752737,47.36106010992891],[-0.361408189743705,47.36105740149079],[-0.361236980206486,47.3610360464146],[-0.361223889762796,47.36103453309415],[-0.361209470003751,47.36103296814023],[-0.361211056687075,47.36100327824349],[-0.361180366980382,47.36100236435497],[-0.361177160735722,47.36102948812665],[-0.361052469311515,47.36101615726195],[-0.360817531860284,47.36099358228931],[-0.36065063785219,47.36098183263233],[-0.360391381793692,47.360962663581645],[-0.36030486967709,47.36096606769183],[-0.360209260895739,47.36097243801968],[-0.359909659332551,47.360986602018805],[-0.359654460197596,47.36100677916773],[-0.359261099404868,47.36101662559533],[-0.358861015871369,47.361027115627614],[-0.35884887182193,47.36102800745682],[-0.358777795796644,47.361025918230084],[-0.358744610819008,47.3610232737985],[-0.358718348364567,47.36101682503793],[-0.358695440135995,47.361006765247886],[-0.358674431378727,47.360855548983714],[-0.358667947604105,47.36080284593363],[-0.358756484509146,47.36080001520324],[-0.35875028535184,47.36076667610365],[-0.358834079564535,47.360768577730475],[-0.358845706991061,47.36068534654443],[-0.358849756515021,47.360661081779995],[-0.35886714730635,47.360661389756636],[-0.358907969918044,47.360663182537245],[-0.358918828325981,47.36057826161651],[-0.358790946976846,47.36051609460161],[-0.35883685278312,47.36050800925426],[-0.358905249901546,47.360516032609254],[-0.358993009239516,47.36052619903102],[-0.359015732292694,47.360262350414445],[-0.358961515620999,47.360258422170396],[-0.35875460463541,47.3602428715417],[-0.358638601140788,47.360232710818934],[-0.358551132450916,47.36022505862796],[-0.358556680217363,47.3601866043465],[-0.358588775401162,47.359960147937926],[-0.358602332258494,47.35988442962447],[-0.358609938622047,47.359842852291926],[-0.358650741626218,47.35964957228659],[-0.358670600733523,47.35953898195793],[-0.358684678399062,47.35946523082373],[-0.358749869665561,47.35928025575052],[-0.358751094528153,47.35926382154051],[-0.358702527555442,47.35919764869207],[-0.358729033280518,47.35913389998754],[-0.358752675131389,47.35909429166063],[-0.358759636727755,47.359082647217086],[-0.35883871666705,47.35907918880819],[-0.358256019460333,47.35892187019514],[-0.358284288532145,47.35885662895475],[-0.358307558804147,47.358806849800715],[-0.358324458738844,47.35875698454145],[-0.358331127316248,47.35870678441703],[-0.358331715681109,47.35865901269401],[-0.358318608603767,47.35856829735016],[-0.358287123014446,47.358480546240216],[-0.358267617805752,47.35843587844634],[-0.358253381749678,47.35839277024472],[-0.358243437608307,47.35835043896619],[-0.358239196284117,47.35830812298733],[-0.358237374086771,47.358268440152024],[-0.358240905447519,47.358218961462995],[-0.358257309625298,47.35817388600467],[-0.358273384331382,47.358142605865915],[-0.358303441395688,47.35811227294272],[-0.35837934859968,47.3580539435682],[-0.358449361465731,47.35800948028867],[-0.358521925696742,47.35796764627728],[-0.358572763178172,47.3579451820275],[-0.358653451993492,47.35791239360401],[-0.358727942416314,47.35788861450599],[-0.358837136339346,47.357853649999655],[-0.359231527583771,47.357727270947564],[-0.359660434489732,47.35759520661803],[-0.35999573986251,47.35773003178495],[-0.360007438393163,47.357734739109596],[-0.360017100808954,47.357738694412284],[-0.360147308225719,47.35778727719924],[-0.360281461402876,47.35783745764161],[-0.360691968030791,47.35798307983585],[-0.360756301841939,47.358002482529585],[-0.361062970456455,47.358111913360176],[-0.361196708364771,47.35815967201406],[-0.361321899178987,47.358204344074935],[-0.361491277007184,47.35826008120348],[-0.361641972118577,47.358309691231526],[-0.361703675130674,47.35822789334343],[-0.361788057282278,47.358194815588355],[-0.36210412292057,47.35825315340642],[-0.362268700898114,47.35828307859537],[-0.36283677061837,47.358416382790715],[-0.36285369555335,47.35837967111976],[-0.36292149830444,47.35837824840456],[-0.363133797294624,47.35837408297094],[-0.363317310600673,47.35835705506498],[-0.363412438711626,47.35835366936296],[-0.363535386054783,47.35835830802244],[-0.363651841645922,47.35835880960659],[-0.363490904741469,47.35847573968302],[-0.363425909100318,47.358528260206455],[-0.363374585649125,47.35857678059474],[-0.363224596879895,47.35872240650445]]],[[[-0.361882120730594,47.361966701920416],[-0.361765465033097,47.36215983603502],[-0.361635487218585,47.362400659784484],[-0.361631327885578,47.36240834884252],[-0.361441910378939,47.36236950030862],[-0.361435478422751,47.362381129572],[-0.361380671492014,47.36247993715504],[-0.361314225263143,47.3625982735375],[-0.361259226439888,47.36269825793631],[-0.361225981801134,47.362802568415006],[-0.361198696229872,47.36285174347097],[-0.361171280933158,47.362898849898635],[-0.361148952125133,47.36294671015127],[-0.361129268272647,47.36300080107895],[-0.361103093429489,47.36307192913763],[-0.361084400339012,47.36311644044317],[-0.361058109450222,47.363179372453445],[-0.36109232150846,47.363189915621824],[-0.360986205555036,47.36339049256202],[-0.360970299763454,47.36342023636345],[-0.360901066641014,47.36355126748885],[-0.360621259322963,47.36380741777107],[-0.360614465833809,47.36380482113681],[-0.360285100681963,47.36367865521476],[-0.359841211992227,47.363502550391715],[-0.359854897603035,47.363428900670165],[-0.359790866943613,47.36357104344796],[-0.359747769199864,47.36365996044679],[-0.359665053602937,47.36380868052057],[-0.359642029523749,47.36383277331123],[-0.359617585627533,47.363846905722674],[-0.359590350455023,47.36385670381549],[-0.359572285478311,47.363856235212054],[-0.359556862247784,47.363851365245765],[-0.359552884784009,47.36383021596565],[-0.359542598763698,47.363822674518325],[-0.359518771182471,47.363819128877644],[-0.359476704057835,47.36381656131282],[-0.359418836700367,47.36382427197024],[-0.359319282810075,47.36384607303681],[-0.359299406997987,47.363852684805025],[-0.359266598164035,47.36387300587778],[-0.359235307505787,47.36389850900941],[-0.359218116196229,47.36392468558932],[-0.359189147218156,47.36399571370749],[-0.359185042556997,47.364082601665025],[-0.359248279789185,47.36426431265461],[-0.359251699486192,47.36428502755509],[-0.359303159866698,47.36440364657486],[-0.359340960558728,47.36441219430996],[-0.359658947622573,47.36448372918158],[-0.359646152935278,47.364510229160004],[-0.359628161735074,47.36453633882769],[-0.359608302974305,47.36455592498761],[-0.359527478924057,47.36462268646979],[-0.359469468044552,47.36466833465897],[-0.359421945474645,47.364699353076524],[-0.359375405739384,47.36472700923384],[-0.359127653729856,47.36466948067649],[-0.359047195318382,47.36475055760527],[-0.358889011468125,47.3648356842618],[-0.358758248861485,47.36490974599594],[-0.358589666962917,47.364864883966895],[-0.358377544012333,47.365247017238154],[-0.357884947147577,47.36597036917287],[-0.357239171023013,47.365793783324044],[-0.357399756933754,47.365509732552965],[-0.357619101171929,47.36511784168104],[-0.357553951551519,47.36510458767864],[-0.357498595103307,47.3650931229229],[-0.357442956976269,47.365085630812594],[-0.357337226538182,47.36507237837295],[-0.357254710145097,47.365061338147804],[-0.357075521501971,47.365037684405216],[-0.357124897521306,47.364932458724915],[-0.357173358182292,47.36481473516341],[-0.357194419273026,47.36470420083879],[-0.3572031062418,47.36465655560583],[-0.357205979253375,47.36464737216727],[-0.357210581646611,47.364636156477566],[-0.357219856652977,47.364625436449735],[-0.357234733757645,47.36461311284876],[-0.357252582247243,47.36460376685903],[-0.357391234607901,47.36458155829337],[-0.357424247129133,47.364581414962586],[-0.357448593153882,47.36458476584513],[-0.357467827124363,47.36459331025936],[-0.35747272497273,47.36460163835746],[-0.357447327299621,47.36468950206369],[-0.357712881196355,47.36470732474221],[-0.357751904235099,47.364714215802415],[-0.357804885995504,47.36472800165425],[-0.35783579235478,47.36461375863734],[-0.357769643431932,47.36459936231996],[-0.35772142737352,47.364585438685424],[-0.357625938901806,47.3645535995493],[-0.357581722463237,47.36453154107498],[-0.357557170900553,47.36452278998469],[-0.357522496721894,47.36451757521026],[-0.357404653472045,47.36450782660763],[-0.357420835465415,47.364421040219874],[-0.35747463418582,47.36413656178497],[-0.357478625383306,47.36411770499439],[-0.357483819128847,47.36410746332693],[-0.35749262923175,47.3640999103136],[-0.357506570982861,47.364093830812365],[-0.357802084171651,47.36406068990725],[-0.357817493397159,47.36402933910574],[-0.35781998608228,47.36401196726836],[-0.357816079853889,47.363960180872596],[-0.357806741242599,47.3637856510354],[-0.35779854864771,47.363678124690935],[-0.357787480657217,47.36353527098648],[-0.357773613462045,47.3633392473162],[-0.357770927362802,47.36319894446735],[-0.357766874996191,47.36311094086391],[-0.35776647817271,47.363060134229485],[-0.357772857920945,47.36297354098717],[-0.357786580215186,47.36286655238718],[-0.357794038341546,47.362828944011426],[-0.357797142104654,47.36281921325591],[-0.357805174614444,47.362811952996786],[-0.357819499021419,47.36280775454505],[-0.3578407997374,47.36280272368086],[-0.357861990606993,47.362798056400564],[-0.357887279384651,47.362793180538524],[-0.357920203505086,47.36278952557194],[-0.357962188080816,47.36278867214672],[-0.357999646644026,47.36278966152047],[-0.358022096434693,47.362790273892394],[-0.358029959926191,47.362780315411825],[-0.358040515926794,47.362766765064784],[-0.358045270182069,47.36258011428324],[-0.358059670565864,47.36253689897718],[-0.358074493388215,47.36250466402773],[-0.358075065114966,47.3625879027266],[-0.358083379197172,47.362610548520394],[-0.358100069329487,47.362618715854005],[-0.358114452811515,47.36262181400329],[-0.358136620890506,47.36262216418711],[-0.358138598003981,47.36260714991392],[-0.358188474051057,47.36260525730625],[-0.358192377692425,47.36264217679682],[-0.358254972747761,47.36264009661267],[-0.358256000692505,47.36262474936893],[-0.358301384423843,47.36259136042764],[-0.358303290924379,47.362539225725996],[-0.358376624865416,47.36253710526896],[-0.35838778630426,47.36253110603707],[-0.35838706518605,47.36251112400526],[-0.358518479376467,47.36252165041354],[-0.358530795540681,47.36251714952899],[-0.358546510504955,47.36244199964302],[-0.358554190473955,47.36239735673835],[-0.358572755254602,47.36228725453673],[-0.358599468145797,47.362211966808125],[-0.358614546908565,47.36218594148617],[-0.358643845578462,47.36215193629161],[-0.358713331048199,47.36208838647202],[-0.358756131394375,47.362053990794394],[-0.359182776365679,47.36208210819629],[-0.359203739337246,47.36183885413611],[-0.359204319440099,47.361835413438364],[-0.359512938917619,47.361842345005996],[-0.359577938424969,47.36184902463979],[-0.359633258158074,47.36185994878035],[-0.359652187187635,47.36186363607498],[-0.359855199446463,47.36191209562259],[-0.359856872002793,47.3619006942382],[-0.359879305481914,47.36176137647891],[-0.359880721813835,47.36175223508494],[-0.35989692700634,47.36166166310399],[-0.359940076859539,47.3614233533173],[-0.359966841139996,47.361194437729736],[-0.359983857171295,47.36102581286636],[-0.360055544202866,47.3610228378998],[-0.360212067749144,47.361017228218216],[-0.360321437404346,47.361014604496425],[-0.360430336854894,47.3610150577863],[-0.360549913201172,47.36101871606539],[-0.36066789843347,47.361024492637036],[-0.360812529303214,47.36103436361746],[-0.360888804518901,47.36103900424662],[-0.360946030050712,47.36104437630104],[-0.36097470336731,47.36104697046228],[-0.360989779325061,47.3610484263524],[-0.361008922158926,47.36105129630514],[-0.361151847082028,47.36107202862758],[-0.361323811441029,47.36109273126252],[-0.361687501441003,47.3611130202462],[-0.36195624079346,47.36112479376456],[-0.362151601344443,47.361112560948555],[-0.362148324197641,47.361163924603765],[-0.362145155479166,47.36123393650413],[-0.36210335983503,47.3613710222077],[-0.362065267160918,47.36146565213968],[-0.361989300220255,47.36168166629663],[-0.361956392707818,47.36178497619465],[-0.361924227927927,47.36187898393839],[-0.361882120730594,47.361966701920416]]],[[[-0.360150509760081,47.356024852512],[-0.360984800244179,47.356268136955975],[-0.361021290532716,47.356359527009666],[-0.36094260257783,47.35645379995132],[-0.360769977447525,47.35665927586812],[-0.360626995770959,47.35685326145353],[-0.36050553205562,47.35700553701018],[-0.360444919811364,47.35705396447596],[-0.360349126350067,47.35712287222488],[-0.360184839943852,47.3572287217848],[-0.359235758024578,47.35696928954931],[-0.359074714123742,47.356925832596026],[-0.358985831123774,47.35689975060187],[-0.35878687398943,47.35684162176748],[-0.357464202155369,47.35649197409349],[-0.358018766686392,47.35591675870386],[-0.3580359560086,47.3558990519229],[-0.358180631417563,47.355751063467686],[-0.358466138797559,47.355461504306895],[-0.358779144024926,47.35556868509687],[-0.35881622860797,47.35556590054015],[-0.358943434369032,47.35550104110055],[-0.359026408366603,47.355447642602016],[-0.359017005181895,47.35526365316029],[-0.358952259185345,47.35511271056473],[-0.358914841031192,47.355012786953814],[-0.358773275235752,47.3549055137518],[-0.358997938410943,47.3548068398099],[-0.359233445247609,47.354709834005625],[-0.359354842183079,47.35465811694512],[-0.359510816020024,47.3545847657727],[-0.359685678547247,47.35449122535418],[-0.359832214900645,47.35441328116793],[-0.35988207086345,47.35437732907523],[-0.360275558536071,47.35398093144259],[-0.360383841950993,47.35387021445949],[-0.36049875225245,47.35385256272802],[-0.360871697372095,47.35399170194021],[-0.361103054154867,47.35408033541361],[-0.361033791383695,47.35416415411313],[-0.360984619135617,47.3542236940672],[-0.360966020783541,47.35424639781528],[-0.360963662604673,47.35427647054011],[-0.360954885756323,47.354392417483076],[-0.360890282398946,47.354468082001574],[-0.360838623212134,47.35452814436661],[-0.360792404109718,47.354581922226295],[-0.36064506143226,47.35479720869962],[-0.360582312261122,47.35491940284823],[-0.360483354541915,47.35510914110653],[-0.360349466587387,47.35524717948383],[-0.360212565051759,47.355392152739014],[-0.360179080987788,47.35543123535711],[-0.360176851272682,47.35544643725164],[-0.360140449320495,47.35569500466288],[-0.359963903471263,47.35589716894457],[-0.359919822685107,47.35595547977246],[-0.360150509760081,47.356024852512]]],[[[-0.359818047324267,47.37934176070771],[-0.359632921779615,47.37932152501889],[-0.359175991497354,47.37929283951398],[-0.359141555285602,47.3791328220706],[-0.359122279133519,47.378975519879894],[-0.359121267209339,47.37894878870446],[-0.359125946147605,47.378919730530704],[-0.359171174653292,47.37877570051804],[-0.359218611861338,47.37864151788315],[-0.359296901190252,47.378531852047175],[-0.359383261213008,47.37840492340465],[-0.359400084955442,47.37836857614284],[-0.359422302948293,47.378301888558795],[-0.359432167902679,47.378260336356625],[-0.35943133036346,47.378227923670714],[-0.359420398587472,47.378193189894425],[-0.359399347386986,47.37816208251964],[-0.359345226794256,47.37810282824094],[-0.359305052073601,47.37806290314728],[-0.359221626972856,47.37801017260485],[-0.359281256154759,47.3777424658278],[-0.359754234766824,47.37769725288381],[-0.359589875101529,47.37748125463505],[-0.358997459049155,47.37747477751807],[-0.358975589709478,47.377680393036144],[-0.359152269400538,47.377722588523724],[-0.359110405219822,47.37799861162284],[-0.359042879057145,47.378002726460366],[-0.358875647620816,47.37796737572472],[-0.358845181979472,47.37795960667924],[-0.358718434205447,47.37790984023028],[-0.358489601292665,47.37780589978953],[-0.358554918009893,47.37774112006242],[-0.358306498098776,47.37764846770982],[-0.358187994728765,47.37760323782563],[-0.358218265374594,47.37749144668185],[-0.357997497937011,47.37745692140582],[-0.357825578174011,47.37743774296999],[-0.357644234995152,47.377418476218885],[-0.357135937352431,47.37732756530053],[-0.357080327134966,47.377411796160416],[-0.357057211323007,47.37744724365042],[-0.356850478323502,47.37736780008948],[-0.356695043049697,47.37733435802645],[-0.356555310513097,47.3773186627717],[-0.356426751171363,47.37729922066183],[-0.356364409791792,47.37728867768705],[-0.356349154240839,47.37712765491246],[-0.356007501653081,47.37708391378896],[-0.356004080150955,47.37704833207872],[-0.356018963257843,47.37697672125877],[-0.356027131061465,47.376808444339424],[-0.356032671414044,47.37676134094115],[-0.356047776263165,47.37670810459079],[-0.356069016522362,47.37666388144435],[-0.356095561380596,47.376621757613485],[-0.356126509399394,47.37658004718949],[-0.356160077343423,47.37653781055714],[-0.356280865086933,47.37655603579278],[-0.35649524053311,47.37651821641694],[-0.356610380853421,47.376503446775786],[-0.356672372409936,47.37649994372318],[-0.356741060253214,47.376499580948256],[-0.356835181172568,47.3765071330972],[-0.356873891452684,47.37651736748937],[-0.356922261688193,47.37653146745663],[-0.357231752763146,47.37663145813927],[-0.357342869590076,47.37666257610078],[-0.357445692929511,47.37668411246796],[-0.357559038494221,47.37670210095956],[-0.357677728308162,47.376718583348406],[-0.3577757909494,47.37672764267287],[-0.357863261096024,47.37673277325514],[-0.357916215356994,47.37673322495322],[-0.357974874395774,47.3767252223058],[-0.358268515745533,47.37665897877809],[-0.358492699485779,47.37661258273311],[-0.358663109146089,47.37658440984165],[-0.358716587156759,47.37657628628793],[-0.359128984159901,47.37652336624796],[-0.359772842308238,47.37644284734981],[-0.359817009384449,47.37643643419172],[-0.359839106793954,47.37659852042349],[-0.359831306095105,47.376598926226556],[-0.359838642096008,47.376688456251685],[-0.359841108058755,47.37671721776497],[-0.35984361637349,47.37674877123341],[-0.360087164267078,47.37677641702419],[-0.360088561942052,47.37678601757851],[-0.360156793629068,47.37678260249981],[-0.360782028773184,47.37675199294197],[-0.360777315966297,47.37670221241469],[-0.360807806009753,47.37669979864141],[-0.360824035620839,47.3766984281149],[-0.360884342385997,47.37669343980887],[-0.361004745614129,47.37665049161615],[-0.361163599916856,47.376605169408094],[-0.361312802786175,47.37656670371418],[-0.36157482527948,47.37650397948783],[-0.361682554107869,47.376516990657535],[-0.361765748100151,47.3765258461479],[-0.361838214262988,47.37653284955198],[-0.362114369968151,47.37654954610573],[-0.362169031421018,47.37655183861332],[-0.362227098603798,47.37655132944925],[-0.362286779877944,47.37654906159053],[-0.36242086700055,47.3765360804728],[-0.362494408041479,47.37652638335636],[-0.362796332359159,47.376478089210984],[-0.363022760087284,47.37643792652969],[-0.363322699962401,47.376387616068584],[-0.363407267186882,47.37638030223387],[-0.363483039617715,47.37637657676509],[-0.363640681183058,47.376373274093815],[-0.363967912022318,47.37636893513285],[-0.364305064994644,47.37636629017799],[-0.364654303779586,47.376365997302315],[-0.364979174323894,47.37636631909516],[-0.365362835962939,47.37636709940475],[-0.365365918851557,47.37637394802094],[-0.365226640133753,47.37786143567852],[-0.366885795353153,47.37786940873483],[-0.366729349093003,47.37966798023866],[-0.364994742146762,47.3796676849427],[-0.364893216774206,47.380440372786765],[-0.362452016344619,47.38064872505134],[-0.362413183674861,47.38015023012668],[-0.360519711875243,47.38023564745978],[-0.359702785285791,47.38025413761101],[-0.359695719289746,47.38025145866037],[-0.359768802439309,47.380196274949355],[-0.359785150311272,47.3801586799958],[-0.359784782927652,47.38012319025305],[-0.359669536708476,47.37964961055724],[-0.359784471538229,47.37963358246913],[-0.360547908664884,47.37957879558814],[-0.360545552634299,47.37956237497575],[-0.360213930324369,47.379585842361486],[-0.359805141438813,47.37960991849936],[-0.359818047324267,47.37934176070771]]],[[[-0.358525343188742,47.36017534662551],[-0.35850778956312,47.3602190136602],[-0.358379022677585,47.360204085889144],[-0.358271763932816,47.360191689665186],[-0.358238416155702,47.36019067166812],[-0.358170921103074,47.360379136831924],[-0.35816616156532,47.36039206910036],[-0.357738452231532,47.360314963018006],[-0.357819326170025,47.36011565936845],[-0.357858957438894,47.36002008544604],[-0.357880626152165,47.359968010051375],[-0.357882929893933,47.359962447151965],[-0.357918240512519,47.359950343537975],[-0.357968232421408,47.3599291655257],[-0.357992545421529,47.35991296481009],[-0.358007314025623,47.3598989322192],[-0.35802609304745,47.359843065904634],[-0.35812564563155,47.35977900735886],[-0.358151141348357,47.359760519828356],[-0.358176056878505,47.35973276844065],[-0.358212378251228,47.35969234310533],[-0.358035530548654,47.35965709039841],[-0.358041008197501,47.35964927324757],[-0.357964895802272,47.35961119782688],[-0.357985761572065,47.35958230212712],[-0.358001380609756,47.35956067627658],[-0.358043844276788,47.35950187255185],[-0.358020289079032,47.35949417403373],[-0.35797236198916,47.35947844018451],[-0.357859128748662,47.35945107903168],[-0.357848900109073,47.35944867167306],[-0.357928986355162,47.35933634016743],[-0.358156710909743,47.359049084216046],[-0.358240009255347,47.3589435975085],[-0.358254341065433,47.35894588618239],[-0.358431724594274,47.359000314993985],[-0.358697124711404,47.359085986840526],[-0.358713780239901,47.359110553857526],[-0.358676905566069,47.35921623011629],[-0.358704935967463,47.35924245044525],[-0.358708536103844,47.35932533139452],[-0.358649912015719,47.35949660103513],[-0.358621595745169,47.359618248319926],[-0.358598038927979,47.35974813754716],[-0.358553752378966,47.35999377810421],[-0.358525343188742,47.36017534662551]]],[[[-0.357586890187117,47.3523163713575],[-0.357729421804546,47.352312159974765],[-0.358413622265916,47.352293995845585],[-0.358853885340303,47.35267204084046],[-0.359039692629451,47.35282741084993],[-0.359518920743708,47.3532304563861],[-0.360070159516969,47.35369710193909],[-0.360286895595445,47.35377462677105],[-0.360323131237368,47.35383872306403],[-0.360317080028082,47.35384583613781],[-0.360053307113347,47.35410954273612],[-0.359822781789129,47.35434102080127],[-0.35960949653681,47.35446252387673],[-0.35943115348603,47.354559769005945],[-0.358914676949622,47.35478365875253],[-0.358535411712914,47.35457747894792],[-0.357788249492833,47.35419407070743],[-0.357746882843345,47.35417292117761],[-0.357001669330782,47.35378656848457],[-0.356543260167958,47.35355068372416],[-0.357586890187117,47.3523163713575]]],[[[-0.356755408935436,47.362991868254696],[-0.356740611421866,47.36298851159411],[-0.356702009300674,47.36298620331627],[-0.356686991760894,47.362996278351524],[-0.356673075373047,47.36300911475307],[-0.356657949832189,47.36305559450679],[-0.356652730637257,47.3630675488324],[-0.356643084174558,47.363072332765725],[-0.356632009871667,47.3630733736381],[-0.356624363252299,47.36307197277218],[-0.356616843491475,47.36306624329698],[-0.356612948481154,47.363061219993135],[-0.356617940516311,47.36301386176641],[-0.35661450192172,47.36300341909385],[-0.356609618370544,47.362997433225985],[-0.356598986361539,47.362994947297494],[-0.356586943293825,47.36299322297105],[-0.356555289259464,47.36299386745058],[-0.356539243976441,47.362993880634434],[-0.356531983229189,47.362992288405394],[-0.356521458445954,47.36298304164851],[-0.356556987715279,47.36288965932973],[-0.35656404024647,47.36288368892435],[-0.356595277332667,47.362884858549805],[-0.356604909631728,47.36288196719105],[-0.356611725563273,47.36287645413516],[-0.356614418291708,47.36286862745916],[-0.356634879364576,47.362672242349454],[-0.356806953892322,47.36270313020612],[-0.356866763433198,47.36270951085836],[-0.357088832913434,47.362727690449965],[-0.357112308209883,47.362551941761915],[-0.357331377738512,47.36256245872676],[-0.35735252060269,47.3625633793127],[-0.357554257977625,47.36257241460481],[-0.357535375361783,47.36270288903961],[-0.357530313181352,47.362806293446475],[-0.357735811367616,47.36282666281773],[-0.357727220778209,47.36289701132827],[-0.357712768790203,47.363019879143785],[-0.357708486890269,47.36315056221115],[-0.35773399248532,47.36361926155445],[-0.357769015818359,47.36403029005569],[-0.357649339864276,47.364044201692586],[-0.357534646310455,47.36405085104154],[-0.357473100113592,47.36405488273435],[-0.357454215417644,47.36406038429196],[-0.357451243896112,47.36407011120655],[-0.357450097422542,47.36408356968995],[-0.357413165103157,47.36427313267499],[-0.357394631316996,47.364362600034724],[-0.357359191446285,47.364546353239234],[-0.35733944750998,47.36455296084384],[-0.357190340071618,47.364586103690925],[-0.357152730924535,47.36458908290296],[-0.356681511950029,47.364580086093284],[-0.356676262030725,47.3645767238004],[-0.356569093054336,47.36458072192238],[-0.356557950872585,47.364580683504705],[-0.356561295156439,47.36454301394626],[-0.356575978195569,47.36452547007222],[-0.356566803462106,47.36447212397769],[-0.356522678718774,47.36441339057884],[-0.356514836451901,47.36435378887234],[-0.356516896648849,47.36430831746616],[-0.356464698375589,47.36430279787323],[-0.356426600869639,47.36434669768992],[-0.356355421674429,47.36435362013249],[-0.356305706509094,47.36437929442109],[-0.356137748982647,47.36430620868315],[-0.356162263211066,47.36416818351487],[-0.356175442214965,47.364152034692715],[-0.356183923239002,47.36413710285475],[-0.356187528873189,47.364122672305236],[-0.356188740631262,47.36410389588561],[-0.35618464151755,47.36405535876075],[-0.355967688294224,47.36393890741229],[-0.355913883682657,47.363897122526346],[-0.3559021087729,47.36387637866364],[-0.355895282589396,47.363852067904595],[-0.355894059161876,47.3638092142703],[-0.355900942409068,47.36353780562458],[-0.356141189997516,47.36354762292466],[-0.356247689151306,47.36355202406512],[-0.356362164566273,47.363556735232635],[-0.356422918647897,47.363559124312594],[-0.356491416137835,47.363530564483135],[-0.356510241689636,47.36352200128716],[-0.356523924406426,47.36351178465129],[-0.356536094941398,47.36349224100737],[-0.356551707919238,47.363447188845626],[-0.356548788196129,47.363216249241376],[-0.356764849208325,47.36324009942697],[-0.356815503141575,47.36324214947653],[-0.356823710402612,47.36323767743386],[-0.35685047010449,47.36321392777301],[-0.35686316421993,47.36319851369143],[-0.356874309453322,47.363175305414934],[-0.356884500852004,47.36310932578876],[-0.356863479659838,47.36307434266825],[-0.356844931011431,47.36305343425125],[-0.356820614369881,47.363029358726195],[-0.356801997983136,47.36301584070513],[-0.356781266402052,47.36300454628488],[-0.356755408935436,47.362991868254696]]],[[[-0.356422125167662,47.362987173695934],[-0.356315768286648,47.3629723166916],[-0.356129957284009,47.36294443800748],[-0.355744284733655,47.36288665294088],[-0.355482845082733,47.36284753298073],[-0.355470956112171,47.362805888493064],[-0.355458340673591,47.36276111138928],[-0.355455082638874,47.36274931192798],[-0.35544158585606,47.362701046270004],[-0.355484356196957,47.36258348774095],[-0.355502031866136,47.36252900542273],[-0.355387443870014,47.362511862519185],[-0.355424924720057,47.36245599711977],[-0.355584682600949,47.36222441227568],[-0.355745917165948,47.3622643548197],[-0.355928863429107,47.36231006711185],[-0.356088631163042,47.36234987137098],[-0.356360057673253,47.362419336333254],[-0.35633627293847,47.36250967612968],[-0.356305496830346,47.36262814987058],[-0.356559785279042,47.36266107732599],[-0.356534158210768,47.3627728248087],[-0.356486633234602,47.362884304075436],[-0.356422125167662,47.362987173695934]]],[[[-0.355387300361971,47.364586305551235],[-0.35556603704061,47.364590062161554],[-0.355941522777983,47.364582367355275],[-0.355877857194432,47.364739003580326],[-0.356446732912891,47.36482294048378],[-0.356432432133258,47.36504572766906],[-0.356507810929689,47.365065624611496],[-0.356540975532564,47.365076379595],[-0.356488183293817,47.36522450257297],[-0.35640039584499,47.36543220362864],[-0.356345340747363,47.36559291618399],[-0.35559687235815,47.36544298588286],[-0.355602185191096,47.36542616337254],[-0.355345153294708,47.365370787046984],[-0.355290901322962,47.36535577533106],[-0.355213798943921,47.365333764924046],[-0.355164532415633,47.36531788831593],[-0.355124560572239,47.36530219371726],[-0.355030092962304,47.3652527529299],[-0.35497677714751,47.36522302727415],[-0.354904667331324,47.365179067582915],[-0.354820022108521,47.365119161306865],[-0.354772097864928,47.365082341920264],[-0.3547199919744,47.365031677357436],[-0.354660003532761,47.36496736460583],[-0.354636743893347,47.36493262598815],[-0.354579772301181,47.36482326476781],[-0.354491525218416,47.364517121225056],[-0.355196148638745,47.36457912297964],[-0.355387300361971,47.364586305551235]]],[[[-0.350010925828871,47.38859846405341],[-0.349964939743376,47.389081112693546],[-0.349911825732008,47.389642895670626],[-0.349802206822784,47.38971038819568],[-0.348187966003453,47.38952859268332],[-0.347025764467809,47.38939772797926],[-0.34707383733335,47.388886459060416],[-0.347135442200538,47.38824135985528],[-0.347215003206893,47.387386707556495],[-0.348197850350701,47.38746759510485],[-0.349241506345601,47.38755338927842],[-0.350104813935563,47.38763626466059],[-0.350010925828871,47.38859846405341]]],[[[-0.348918493714007,47.37880444304101],[-0.349093395656612,47.378115527183255],[-0.349406017736791,47.37712998885003],[-0.350319526649883,47.37717194614725],[-0.351295014859787,47.377216523456546],[-0.35118035305432,47.37769304741586],[-0.351049399421158,47.37823788790649],[-0.350782701068561,47.37938474059929],[-0.350366031803679,47.37915753597778],[-0.349847707108782,47.378876496730435],[-0.349235917837698,47.378827639496656],[-0.348918493714007,47.37880444304101]]],[[[-0.348572927339808,47.393536475780344],[-0.348509671436835,47.393910777459936],[-0.347665096171427,47.39388294054022],[-0.347871623402015,47.39268612157449],[-0.348725046834109,47.39267324596703],[-0.348572927339808,47.393536475780344]]],[[[-0.347025652793936,47.37542168914842],[-0.347059759327577,47.37542196794648],[-0.347213088096952,47.37543674205851],[-0.347834068221991,47.375501742561035],[-0.348210382823407,47.37554432807448],[-0.348295348868823,47.37554764580286],[-0.348360248803393,47.375550370487545],[-0.348490259750685,47.37555707509411],[-0.348685872794769,47.37556287973704],[-0.348796957043241,47.375561750062],[-0.348920511235719,47.37555215162404],[-0.348960770998108,47.37554900881342],[-0.349013473611463,47.37554757964129],[-0.349076906605366,47.375545931211526],[-0.349261941709113,47.37555014768235],[-0.349459588987017,47.375554540846665],[-0.349745582491511,47.375565396563665],[-0.349988071235621,47.37557840710962],[-0.350299602229112,47.3756073564247],[-0.350583186865513,47.37564332796951],[-0.350775093336923,47.375668337678334],[-0.350838831965328,47.375677942248934],[-0.350864187018641,47.375690996561595],[-0.35091728999659,47.37572992076587],[-0.350983720968945,47.375767739692755],[-0.351000549609724,47.37577383174025],[-0.351013051896126,47.37577437213899],[-0.351034789348982,47.3757698707333],[-0.351062707382868,47.37576663267955],[-0.35111465816874,47.375763782610676],[-0.351004804325215,47.37647209105972],[-0.350999831957929,47.37653683774001],[-0.350989651045011,47.376662553614814],[-0.350926682335941,47.3771236205324],[-0.349463212861224,47.37705607803523],[-0.348794635511383,47.37702786780023],[-0.348706852806744,47.37702409094586],[-0.348412114322193,47.377005014915824],[-0.348384671691089,47.37668035731627],[-0.348071648083983,47.3765001644463],[-0.34785770344069,47.376419651752464],[-0.347699781982742,47.376305898534156],[-0.347469547769568,47.37633622951456],[-0.347486921478147,47.3764912449703],[-0.347071039801711,47.37651611196182],[-0.347069959419859,47.376481814233216],[-0.346986470033874,47.37648304822904],[-0.346981342485272,47.37647103218435],[-0.346960581041767,47.376113024414664],[-0.346933293548473,47.375533643768236],[-0.346935340443654,47.375498445012894],[-0.346943073963039,47.37548209395208],[-0.34695297412022,47.37546432893982],[-0.3469824429202,47.3754413148489],[-0.347007985986764,47.375425531910835],[-0.347025652793936,47.37542168914842]]],[[[-0.347665149959988,47.39388167757232],[-0.346433605616261,47.39384875982654],[-0.346434104984353,47.393846132510525],[-0.345201875206842,47.39381069866804],[-0.345263442272258,47.39334733793689],[-0.345199785098662,47.3938069745805],[-0.344133880429053,47.39377683307245],[-0.344198865512628,47.39330643701604],[-0.344250589793,47.39294886868953],[-0.344349788766461,47.39295232108941],[-0.344503890776511,47.392957437001144],[-0.34472761668137,47.39296622525964],[-0.345171072818535,47.39298355510143],[-0.345481187623056,47.39299463056007],[-0.345617330745192,47.3925505665795],[-0.345949982652502,47.392618746825505],[-0.346376114986906,47.39270928253797],[-0.346656155342406,47.392704101576435],[-0.347871623402015,47.39268612157449],[-0.347665149959988,47.39388167757232]]],[[[-0.345115407153183,47.3788854420097],[-0.345192066608667,47.37884485143201],[-0.345253616623509,47.37881722000237],[-0.34529570218057,47.37880078100646],[-0.345452199305459,47.37875140406614],[-0.345586086634479,47.378718085397075],[-0.345725802265642,47.37868676117218],[-0.345855742637142,47.37865184390958],[-0.345977007295451,47.37860969790129],[-0.346047609813036,47.37857621900468],[-0.346084811584316,47.378564425455956],[-0.346118879419533,47.37855767775707],[-0.346146799201259,47.37855444088792],[-0.346436935367138,47.37859104509484],[-0.346404177763334,47.37877813907636],[-0.346330442023195,47.37919914636842],[-0.346247306037133,47.379673584315626],[-0.346078686250648,47.38066992075465],[-0.346033304002023,47.38094594799584],[-0.345960990907638,47.38136646300448],[-0.345628484864812,47.3811889868702],[-0.345491448424961,47.38112094151432],[-0.345279677016789,47.38102234090017],[-0.345202839933992,47.38099211657803],[-0.344957812270382,47.38088564293584],[-0.344517998051626,47.38069972007756],[-0.344335022133809,47.380628851147385],[-0.344244507808191,47.38058775719881],[-0.344158076108667,47.3805461852664],[-0.344129537870684,47.380528896239824],[-0.344107988550428,47.38050455832051],[-0.344090724842787,47.3804787455222],[-0.344086173180426,47.38045256683937],[-0.344087188687205,47.38043695001992],[-0.344138169227693,47.38021860790437],[-0.344296313991223,47.37955559260564],[-0.344329883327404,47.37941965392635],[-0.344349822677799,47.37939268016143],[-0.344377040262703,47.37936117200158],[-0.344424680890378,47.37931682210318],[-0.344536590075838,47.37923737456155],[-0.344726199321528,47.379114873951146],[-0.344944666936872,47.3789850548264],[-0.345115407153183,47.3788854420097]]],[[[-0.341157368558241,47.37788090325422],[-0.341389890021541,47.37789349779494],[-0.341422910778307,47.37789335901021],[-0.341615451633507,47.377892326298856],[-0.341671942744804,47.37789205298516],[-0.341825366332283,47.37789124403167],[-0.341880869770836,47.37789640512657],[-0.342268940827721,47.37793164407257],[-0.342332577494843,47.3779374719933],[-0.34255159166509,47.37807380204152],[-0.342627493999909,47.3781018924442],[-0.343176871020302,47.37812654063972],[-0.343207570479158,47.378106195259996],[-0.343344750888284,47.37785771153466],[-0.343773459333018,47.3778362733443],[-0.34375540207186,47.377863643377616],[-0.343658721974907,47.37906333737184],[-0.344264149489296,47.379093215332375],[-0.344244681294631,47.37924893090988],[-0.344189341523305,47.379486680448245],[-0.343997674296977,47.38021625445808],[-0.343982210770758,47.38022354725226],[-0.343962490833435,47.38022852980447],[-0.343904456528251,47.38022749704985],[-0.343315297069103,47.38018002942774],[-0.342991394740586,47.38016150814324],[-0.342679549108482,47.38014912640389],[-0.342320594575041,47.380147109199825],[-0.341983757936648,47.38014877955812],[-0.341318984024855,47.3801629439029],[-0.341150506776789,47.38016283337955],[-0.340760896598526,47.38014358251823],[-0.340720470345109,47.380144114212435],[-0.340620773991907,47.38013229424395],[-0.340351711477693,47.380091195181556],[-0.340136859418394,47.380062142374854],[-0.340562297830367,47.37916421268192],[-0.341157368558241,47.37788090325422]]]]}}]}
