{"type": "FeatureCollection","name": "aoc_geojson","features": [{"type":"Feature","properties":{"dt":"Pau","type_prod":"Vins","categorie":"Vin tranquille","type_denom":"appellation","signe":"AOC","id_app":9,"app":"Béarn","id_denom":61,"denom":"Béarn","insee":"64462","cvi":"1B101S, 1R101S, 1S101S","nomcom":"RAMOUS","insee2011":"64462","nomcom2011":"RAMOUS","id_aire":75,"crinao":null,"grp_name1":null,"grp_name2":null},"geometry":{"type":"MultiPolygon","coordinates":[[[[-0.887701818353465,43.529033299873056],[-0.887586594952107,43.5289296938344],[-0.887312946703948,43.52884140576947],[-0.887559340246392,43.528673489524266],[-0.888239585654853,43.52829958546197],[-0.888427845670454,43.528417687167035],[-0.888423272427382,43.52842145440201],[-0.888863189561784,43.52869429842214],[-0.888364108856186,43.52902486724291],[-0.888101375743801,43.52927507482227],[-0.887701818353465,43.529033299873056]]],[[[-0.885825510656156,43.5359248338901],[-0.885745535591785,43.535994539810964],[-0.885511607799717,43.5358550975487],[-0.885394967360986,43.535774599935756],[-0.885309511318142,43.535715775597446],[-0.885203459668317,43.53565633781735],[-0.885024891430599,43.5357987577025],[-0.884632134883559,43.53562500718802],[-0.884428464970186,43.5355282584612],[-0.884255916556751,43.53542480969173],[-0.88403576939244,43.53527117859163],[-0.883915986504942,43.535111250335035],[-0.884106292746701,43.53483121822315],[-0.884412482426194,43.53432417410454],[-0.884688530047171,43.534471387875534],[-0.885039196696279,43.534663670966545],[-0.884900203175536,43.534920607539284],[-0.885374956663694,43.53495215346078],[-0.885640671303086,43.534566183537514],[-0.886349719343322,43.53462563295759],[-0.88643321179462,43.534543909772914],[-0.886830565467378,43.53461551667237],[-0.887386133217774,43.53498655679442],[-0.886638315207188,43.535682214628174],[-0.886590245356544,43.53566718220292],[-0.886389942791027,43.53546843426821],[-0.886078834548347,43.53572343304751],[-0.885825510656156,43.5359248338901]]],[[[-0.884858940580049,43.532018588372075],[-0.884551307770066,43.5320978900045],[-0.884273968845263,43.53216745788101],[-0.883967401586861,43.53224789069689],[-0.883967692173215,43.532043576429345],[-0.883971293008106,43.53173996440214],[-0.883991313957435,43.531640608595],[-0.884021781911728,43.53158952237255],[-0.884084979916154,43.53152627396739],[-0.884662976505158,43.53138053778929],[-0.884858940580049,43.532018588372075]]],[[[-0.883543441584905,43.53221461060333],[-0.88351524743447,43.532205981605735],[-0.883497562456091,43.53223922426586],[-0.883459751026019,43.53227877269435],[-0.883393604043309,43.53228015055904],[-0.883397196053447,43.53231677499467],[-0.882958344555433,43.53235437915185],[-0.882351083165664,43.532446564458546],[-0.882074682194859,43.5319588521379],[-0.882189285475322,43.53191970799496],[-0.882255214008643,43.531466582747264],[-0.882610800629999,43.531356744846484],[-0.882640047374608,43.53132236775823],[-0.883761375757005,43.53105106629099],[-0.883894348920635,43.53168605922117],[-0.883872506561293,43.53173836785826],[-0.883907758677509,43.531933662137966],[-0.883768483807598,43.5319338759026],[-0.883583906238853,43.53215388816174],[-0.883543441584905,43.53221461060333]]],[[[-0.88353818361142,43.534931465738005],[-0.883477588786321,43.5350570468911],[-0.883241067912661,43.535380620396275],[-0.8831961908779,43.535412764832984],[-0.883158302819919,43.53542376015644],[-0.882963789550918,43.535429373531585],[-0.882872323939745,43.53544823240865],[-0.88279445434029,43.53548137775199],[-0.882557668619234,43.53559975413999],[-0.88173648818695,43.5354129548985],[-0.88196066763826,43.53502028409813],[-0.881636902719071,43.534941881844325],[-0.88166132930119,43.5348563313099],[-0.881790786127224,43.53454055748429],[-0.881982102285205,43.53429913815245],[-0.882750699289136,43.533646549909214],[-0.883333471957607,43.533862055968335],[-0.883897828132142,43.53407065183372],[-0.883857400854093,43.53413011196312],[-0.883779300939404,43.53426595886961],[-0.883619510269204,43.53454498760094],[-0.883437344448938,43.534892288158645],[-0.88353818361142,43.534931465738005]]],[[[-0.883514815917723,43.53600625123577],[-0.883518502224948,43.535914326403024],[-0.88354517189624,43.535825361969664],[-0.883613058982045,43.53583500183963],[-0.88362392378342,43.53581623618797],[-0.883743614237583,43.535843028027124],[-0.883781195087717,43.53577258985239],[-0.883794171514623,43.535748433765285],[-0.883611967471699,43.535624881310724],[-0.883494846313208,43.535546380783394],[-0.883362087525305,43.53548015066059],[-0.883318079934505,43.53545010795871],[-0.88331906085809,43.53542800293023],[-0.883352546191121,43.53537023287635],[-0.883506998856611,43.5351659829151],[-0.883558611910869,43.53508882675279],[-0.883703743806468,43.53514578553392],[-0.883900662163612,43.53521232983077],[-0.883979712957317,43.53529912960602],[-0.884062748242108,43.53537344549984],[-0.884463574215826,43.53562257719306],[-0.884584971693036,43.53567642143716],[-0.8850803183563,43.53589505089086],[-0.885165530662295,43.53594478593089],[-0.885574665743536,43.536193976593694],[-0.885604038663241,43.536355341021114],[-0.885720490962462,43.53695615572344],[-0.886064553694571,43.537361535726156],[-0.886657394775397,43.53747262132781],[-0.886918452570963,43.53781872735174],[-0.886691396832816,43.53787235586118],[-0.885947650794151,43.538045389669946],[-0.885493458068311,43.538149672247265],[-0.885404199483416,43.53809143439237],[-0.88551928767608,43.53722153791668],[-0.885483607656496,43.53720479991902],[-0.884463664933635,43.536699766737804],[-0.883966618718005,43.53644876576374],[-0.883679646421238,43.5363286950456],[-0.883604071531799,43.53627681211203],[-0.883559760180954,43.53622398977228],[-0.883531075479653,43.53616970703071],[-0.883519511134006,43.536137872034786],[-0.883511561340294,43.53606978500704],[-0.883514815917723,43.53600625123577]]],[[[-0.883455405071264,43.53606882321046],[-0.883478157642165,43.53614340651417],[-0.883502730171228,43.53620828594946],[-0.883548034423892,43.536273954381365],[-0.883634002146932,43.53633852697585],[-0.884140540550731,43.53658162257545],[-0.885281535281694,43.53718663631277],[-0.885383655131228,43.537449528940364],[-0.885292508889227,43.538045710683214],[-0.885248798728981,43.53802376528408],[-0.885077796152458,43.53793962946131],[-0.884806533032142,43.53777738086302],[-0.884244466269134,43.53742754816736],[-0.883885162760869,43.53739330344251],[-0.883476256681961,43.53735065452541],[-0.882368580803827,43.537084216152564],[-0.881459628886064,43.537291688637595],[-0.881484284660838,43.53697146820613],[-0.881545075503845,43.53681390237205],[-0.881734297174233,43.53636744342772],[-0.882073370127527,43.53603128451017],[-0.882434923359293,43.53578223895647],[-0.88258799631931,43.535652717116285],[-0.882722744350761,43.53555799189894],[-0.882837351689558,43.53550416382936],[-0.88291871467139,43.535478730444474],[-0.883028451481227,43.53546273049971],[-0.883157053237065,43.53546019771677],[-0.883245766540015,43.53547386639426],[-0.883288886498413,43.535490789047536],[-0.883434669263739,43.535586640027866],[-0.883518436143323,43.53564066186083],[-0.8835346666644,43.535686562589255],[-0.883510213423786,43.53575887269039],[-0.883470837811204,43.53589612525293],[-0.88345709617622,43.53600048103949],[-0.883455405071264,43.53606882321046]]],[[[-0.882649910133301,43.530979436858416],[-0.882395288213742,43.53082649752778],[-0.88260371901684,43.53078525478169],[-0.882721956395485,43.530278189821026],[-0.883125823415375,43.53025625181902],[-0.883769387110853,43.5303404909734],[-0.88367103126782,43.53076613285179],[-0.883644942992239,43.53088561371476],[-0.883299221244341,43.530905111008586],[-0.882974954281121,43.53093428834906],[-0.882649910133301,43.530979436858416]]],[[[-0.882522573112596,43.5356209185171],[-0.882270461848464,43.53580929551161],[-0.881949507544589,43.536036168599566],[-0.881680007992811,43.53629705134719],[-0.881413742161656,43.53687679523613],[-0.881399407326697,43.53698342395323],[-0.88133727027166,43.53763198071362],[-0.880425768809,43.53791547390018],[-0.880192609235982,43.53799245785442],[-0.880014175635773,43.538041900386546],[-0.879896766206946,43.53807087304188],[-0.87941475849682,43.53817963801072],[-0.878956209608309,43.53826360017254],[-0.878741469438654,43.538303529333746],[-0.878388266439785,43.53835408473878],[-0.878063763983237,43.53839874834258],[-0.877385407735206,43.53850452580158],[-0.876745080432932,43.538627045897485],[-0.876309194413935,43.538712979063654],[-0.875922084930428,43.53879509544388],[-0.875644950766487,43.538833464717015],[-0.875174898101988,43.53888106859265],[-0.875029935149746,43.538892643821676],[-0.874968553322881,43.53841263344559],[-0.875113206149917,43.53839098027192],[-0.876243566509926,43.538221590483474],[-0.876681932347449,43.53815592715574],[-0.876610270112798,43.53762106530913],[-0.876573317353043,43.5372480996445],[-0.876514373490235,43.536692515329804],[-0.876485474102357,43.5363984431868],[-0.876462786029591,43.53618900530019],[-0.876388436320903,43.535456602867775],[-0.877313687779796,43.53541731151262],[-0.877455206914729,43.53541171131962],[-0.877545079826202,43.53540957898467],[-0.8777091405188,43.535404073308186],[-0.877786657741608,43.53543715379817],[-0.87796588601767,43.53596771765422],[-0.878508291216271,43.53602921378894],[-0.87893619477349,43.53701831375559],[-0.880866479113412,43.536331570947304],[-0.88090261002977,43.536274427697954],[-0.880811860364664,43.53619768305609],[-0.880493481020465,43.53564039340799],[-0.880373597884783,43.53548433859904],[-0.880870817022479,43.53520350996258],[-0.88149011557991,43.53539141569217],[-0.881956725535893,43.53551857398477],[-0.882076552409795,43.53554923621412],[-0.882120356012249,43.53555064088736],[-0.882226303012393,43.535550001147904],[-0.882522573112596,43.5356209185171]]],[[[-0.880772818773226,43.53034210621287],[-0.880732820023714,43.53038776730532],[-0.880673843161554,43.53044023303047],[-0.880681774495253,43.53048796225135],[-0.879244041664131,43.53051273980937],[-0.879319570839999,43.531038631540916],[-0.87962898370946,43.531253124599196],[-0.879939559095027,43.5314682959436],[-0.880266636952127,43.5316949468619],[-0.88119825660637,43.531318579997276],[-0.881763444530505,43.53105477146417],[-0.881818428835001,43.531027490513345],[-0.882053805551881,43.53101852413502],[-0.882333767520203,43.530998772797055],[-0.882190355423124,43.53145953625952],[-0.882129436291707,43.531865910267555],[-0.882119393625737,43.53187852079074],[-0.882101474685843,43.53189916023327],[-0.881779981731859,43.532011559359034],[-0.88128733558864,43.53213431714882],[-0.880723112190594,43.53231368262815],[-0.880622427757674,43.532340796736946],[-0.880531213324523,43.53235964476005],[-0.880390388423681,43.53236441366216],[-0.880325336685283,43.53234719379981],[-0.880023111260794,43.53219703306348],[-0.879504472489401,43.53191327704815],[-0.878988938446665,43.53164607267864],[-0.878351176355432,43.5313179290257],[-0.878330963168642,43.53130829265183],[-0.878255337563579,43.53112353939011],[-0.878194764657044,43.53099481844847],[-0.878103253829319,43.530855313259494],[-0.87801168779503,43.53068932628895],[-0.877977321081147,43.530594799571375],[-0.877969321889394,43.53052770532079],[-0.877985341187654,43.53044227650225],[-0.877998049719813,43.53036282132301],[-0.877982336912338,43.53022736150969],[-0.877918316733177,43.53001643016762],[-0.880689489838165,43.53006547760862],[-0.880740970411405,43.53022812274952],[-0.880772818773226,43.53034210621287]]],[[[-0.869788698691924,43.51052070021888],[-0.869867691136525,43.51059093433976],[-0.869900365692756,43.51062399789381],[-0.869630627636077,43.511012588711175],[-0.869672367065806,43.511029564960154],[-0.869789253540467,43.51139579706701],[-0.86982866078729,43.51157283674123],[-0.868525630782812,43.51210189612885],[-0.868257439703538,43.511664855033096],[-0.868241090390101,43.5116389552304],[-0.868531723062673,43.511330693481455],[-0.86828757944614,43.51100070911373],[-0.868430546012484,43.51088336926321],[-0.868518649902679,43.51080410864727],[-0.868648612224571,43.51067011757767],[-0.868696650486573,43.51062444476099],[-0.868750915857382,43.51060323128991],[-0.868778804019383,43.51060016420434],[-0.86880618381134,43.51059873667348],[-0.86888185953779,43.51060873702015],[-0.869222768323792,43.510578373837006],[-0.869788698691924,43.51052070021888]]],[[[-0.868893463537634,43.5220363118291],[-0.868766754781907,43.52193237722604],[-0.868849675649132,43.52176493319467],[-0.868868433631665,43.52172733125053],[-0.868871979675897,43.52172116938926],[-0.869171774400434,43.5212432289371],[-0.870371237174642,43.520836677559686],[-0.870558925492334,43.52136405953759],[-0.870338583758562,43.52145407771572],[-0.87018625674669,43.52152103945849],[-0.869779560948313,43.52170031112836],[-0.869391120358381,43.52188415434958],[-0.869290636083047,43.52193791462219],[-0.868986782770182,43.522111351175326],[-0.868971299801529,43.52210019330982],[-0.868893463537634,43.5220363118291]]],[[[-0.868187981368472,43.537957007720266],[-0.86794272320247,43.53794287445243],[-0.867615164298242,43.53792753189646],[-0.86712626533015,43.537904879643236],[-0.86708803358809,43.5379016487452],[-0.866654966512894,43.53783835909706],[-0.865673024067474,43.5377369813907],[-0.865935575606856,43.53721920911925],[-0.867141583081256,43.53727395032659],[-0.867620009654532,43.537295624564216],[-0.867983927703666,43.53731219248634],[-0.868227859484942,43.53732322004935],[-0.868261434646318,43.53680721245572],[-0.868842682396139,43.53680944963622],[-0.869097947297123,43.53681412556653],[-0.869362260902519,43.53681343354912],[-0.869380377224256,43.536318064918454],[-0.870036580535673,43.53630816275368],[-0.870646702245563,43.536305306113725],[-0.871951487998225,43.53629917657065],[-0.871947343957388,43.53699033341673],[-0.871949351186165,43.538216891205664],[-0.871948823240291,43.538827657874165],[-0.871690803357181,43.538767596887915],[-0.871002982669995,43.53859370077231],[-0.870677943185759,43.5384890974457],[-0.870573788533419,43.5384557913998],[-0.870440923237907,43.538397026128415],[-0.870399007088168,43.53837221841259],[-0.870229035055844,43.53825712546392],[-0.870141873578826,43.538198530523694],[-0.87005795508141,43.53815864666134],[-0.869977246831891,43.538138826257565],[-0.869767778191176,43.53810089982969],[-0.869317483112008,43.538041117926056],[-0.869063911144768,43.5380083668499],[-0.868777513797163,43.537975434929],[-0.868329605922964,43.53796573872008],[-0.868187981368472,43.537957007720266]]],[[[-0.86681332376428,43.52479560733691],[-0.86654761001438,43.52466807166462],[-0.86652517404383,43.52468418524358],[-0.866252842225272,43.524502476823166],[-0.866144564598785,43.524767838616256],[-0.866111603955249,43.52475451101963],[-0.866097543423152,43.524746094467964],[-0.866104779486737,43.524728541184615],[-0.865466313364235,43.52422767143519],[-0.866696803594158,43.523109689557884],[-0.86677936887695,43.52328240021679],[-0.866836423398687,43.52342188048311],[-0.866958825314918,43.5237375679498],[-0.867012835562689,43.52388697544444],[-0.86749572043894,43.52429808144606],[-0.867267430473883,43.524459629494245],[-0.867085112723123,43.52457774053367],[-0.866961159954253,43.52467097965108],[-0.86681332376428,43.52479560733691]]],[[[-0.866425781105626,43.52587371805463],[-0.866399345838967,43.52592420448724],[-0.866349251484291,43.52597265196692],[-0.866308198449496,43.52600645437412],[-0.866249786033129,43.526041686441935],[-0.8657599776268,43.526134546400144],[-0.864907176191282,43.526297093045265],[-0.864095239923243,43.526456194845224],[-0.864021079921674,43.526342094402686],[-0.863703628054807,43.526187119406615],[-0.863441030567988,43.526087479713176],[-0.863302776605037,43.526030881243635],[-0.86361911891717,43.525781259595526],[-0.864797345128841,43.5258223246806],[-0.865120174786034,43.52573352951479],[-0.865054604096262,43.52559624341244],[-0.866001310544134,43.525232622513386],[-0.866275745120241,43.52512933488762],[-0.866524684510075,43.52521549235676],[-0.866532136204293,43.52525260969371],[-0.86653346151197,43.52540831015803],[-0.866546750492265,43.52544386815598],[-0.866477229181175,43.52569280513887],[-0.866425781105626,43.52587371805463]]]]}}]}
