{"type": "FeatureCollection","name": "aoc_geojson","features": [{"type":"Feature","properties":{"dt":"Bordeaux","type_prod":"Vins","categorie":"Vin mousseux \"Crémant\"","type_denom":"appellation","signe":"AOC","id_app":31,"app":"Crémant de Bordeaux","id_denom":89,"denom":"Crémant de Bordeaux","insee":"33040","cvi":"1B119M, 1S119M","nomcom":"BEGUEY","insee2011":"33040","nomcom2011":"BEGUEY","id_aire":93,"crinao":null,"grp_name1":null,"grp_name2":null},"geometry":{"type":"MultiPolygon","coordinates":[[[[-0.33830038164916,44.65250115416143],[-0.338594853320089,44.65266031275238],[-0.338754390541252,44.652747224484095],[-0.338612990616806,44.65283853862656],[-0.338096878481594,44.65317409539709],[-0.337731869432594,44.65340957381522],[-0.337531329549884,44.6535382644342],[-0.338167771568608,44.652610854586584],[-0.33830038164916,44.65250115416143]]],[[[-0.336979654541571,44.653075544715165],[-0.336794543752571,44.65297669715915],[-0.336776420864741,44.65296697187593],[-0.336812561943549,44.652944165145776],[-0.336882059258186,44.652896292904984],[-0.336929164465842,44.652862522513],[-0.337312515414451,44.652514759697894],[-0.337558088929281,44.652287573933506],[-0.337963306696699,44.652434650284476],[-0.337390436720695,44.653252551324655],[-0.337008270707209,44.65321551914458],[-0.336979654541571,44.653075544715165]]],[[[-0.335789214782718,44.6539404593068],[-0.336218397422983,44.65366079064925],[-0.336531356783267,44.6534586061414],[-0.336858465012221,44.65356136829096],[-0.337118234756945,44.6536397605742],[-0.337232278891202,44.65373651783597],[-0.336954012347347,44.65392125767127],[-0.336543314343795,44.65419541549777],[-0.336325530286155,44.654335707445966],[-0.335789214782718,44.6539404593068]]],[[[-0.334886943182921,44.65523179784041],[-0.33488297632225,44.65522876372956],[-0.334873544597286,44.65522084843339],[-0.334864249541298,44.655213109229265],[-0.334548376073732,44.655408978935625],[-0.33412692639357,44.65567462099833],[-0.334110006344862,44.65568522328692],[-0.334095715035981,44.65567412049109],[-0.334072291997705,44.655655904250246],[-0.334036286542676,44.65567465109387],[-0.333676484454557,44.65586427382158],[-0.333291341188092,44.656069436953324],[-0.332896447237362,44.65627840680119],[-0.332688488863522,44.65638874962481],[-0.332479431282547,44.65649119570963],[-0.332505001573684,44.65651583530722],[-0.332257669872525,44.65663925821653],[-0.332193858626268,44.65667028611075],[-0.331822157540442,44.65685530520294],[-0.331803161862513,44.656864978486155],[-0.331575536412623,44.6569779842406],[-0.331557819065352,44.65684065369371],[-0.331547956938329,44.65681905475082],[-0.331499751657724,44.65672120886464],[-0.331457249965425,44.65664508721726],[-0.33133505172265,44.65639971222357],[-0.331257994784603,44.656262277351836],[-0.331220481479002,44.65621285735763],[-0.331166742909141,44.656149509022626],[-0.331078213506425,44.65604648031743],[-0.330984003386908,44.65593704486191],[-0.330765253424554,44.65568773009994],[-0.330695704459648,44.65560890887454],[-0.330668163708728,44.655580814076096],[-0.330647340304344,44.65556170786498],[-0.330520889598811,44.655449278599676],[-0.330320043330523,44.65526997784187],[-0.33023551345265,44.65519611299542],[-0.330184450038338,44.65515448966567],[-0.330134897281321,44.65511065823777],[-0.330070364063223,44.65505259050701],[-0.330002678983026,44.654992455100086],[-0.329948680857668,44.654943891696284],[-0.329853920767267,44.654859251519746],[-0.329750516431166,44.654765049917714],[-0.329607392312001,44.65463744323664],[-0.329504327475259,44.654546835503936],[-0.329414390750841,44.654464752966156],[-0.329330596510082,44.65438834236645],[-0.329229690762774,44.65429793971752],[-0.329090247812551,44.654174907188164],[-0.328770493005682,44.65389303812196],[-0.328735154069614,44.653861122882894],[-0.328561547409395,44.6537089324696],[-0.32839928915141,44.653580008256625],[-0.328219298737895,44.65344152563912],[-0.328116215622333,44.65336335212749],[-0.327965289130642,44.653255261416405],[-0.327949401003544,44.653255559461],[-0.327804899440576,44.65315151018881],[-0.327462529268272,44.65291825554133],[-0.327195458756499,44.652743736328816],[-0.327099761152651,44.65268155898218],[-0.326967582540668,44.652595880154706],[-0.326640437195632,44.652380907323995],[-0.326411557290947,44.65223524288337],[-0.325597090916683,44.65172622212497],[-0.325531406459624,44.651684856502335],[-0.325519644767236,44.65167592927949],[-0.325514600131237,44.651669593320875],[-0.325504081355301,44.651634677896865],[-0.325472731772429,44.65146928340704],[-0.325429251757787,44.65126091235257],[-0.325557090286172,44.651159841494874],[-0.325603719903472,44.651137173572764],[-0.325594859351152,44.65113248422708],[-0.325456640154188,44.651057708260936],[-0.325165358819027,44.65089833009932],[-0.325044850717162,44.65082419234057],[-0.32492750089465,44.65074581455661],[-0.324802138677296,44.65066641613197],[-0.324674029821254,44.65058538814755],[-0.324418211074591,44.650421517639174],[-0.324264390103746,44.65033684717324],[-0.324095340035564,44.65024650715614],[-0.323924657923408,44.650164866228955],[-0.323764548905064,44.650089124545296],[-0.323568092277374,44.649996363916586],[-0.324063191001056,44.649650335658485],[-0.323913103303889,44.649545458729996],[-0.323840029328099,44.64949431257292],[-0.323758919000296,44.64943746094019],[-0.323659192814406,44.649507949236536],[-0.323865551162941,44.64936207935395],[-0.324076402096203,44.64921535312201],[-0.324275001966888,44.649074941911],[-0.324521226197799,44.64890309255413],[-0.324597906600534,44.6489618789766],[-0.324617814162424,44.648976238022755],[-0.32495244173865,44.64874315955318],[-0.324977385162539,44.648750879377026],[-0.324999751963382,44.64873633019109],[-0.325051054911573,44.648773623187665],[-0.325158556697732,44.64885202655817],[-0.325509853145971,44.64910664408306],[-0.326132006134934,44.648695871713514],[-0.325968536335142,44.648578154492014],[-0.325772422329677,44.648437721027975],[-0.325970409370715,44.64830201060046],[-0.326163053237188,44.648169884625005],[-0.326574942885633,44.64788590865528],[-0.3271855766131,44.64830202750011],[-0.327225859416069,44.648330099851435],[-0.327272292743328,44.64836186167047],[-0.327375322341727,44.64843075610179],[-0.327392440955897,44.64844276571739],[-0.327468093752027,44.64849266055069],[-0.327530636502088,44.64853429968385],[-0.327575998401753,44.648565012354574],[-0.327625242856997,44.64859948273982],[-0.327876582845058,44.64840332291171],[-0.328062072352354,44.648256991752],[-0.328104861885745,44.64828048297943],[-0.328167093596729,44.648312579778356],[-0.328291701550823,44.648387761982406],[-0.328609544218471,44.648575886980915],[-0.328897853330348,44.6487448066049],[-0.329059193283245,44.648841318574995],[-0.328552908546067,44.649211044752086],[-0.328924483785168,44.64945179567943],[-0.329243172183429,44.64921837274038],[-0.329440105783483,44.6490713341247],[-0.329566567240715,44.64915646108141],[-0.329733724767878,44.64927874778439],[-0.329829655030619,44.64934704296112],[-0.329842290978797,44.649366485923125],[-0.32985581906852,44.64939247983172],[-0.329863654161809,44.64941612221838],[-0.329881263388284,44.64949407511439],[-0.329916125243591,44.649650352079064],[-0.329929321792295,44.6497177151451],[-0.329941340199979,44.649782230271164],[-0.329951543965936,44.649813910952446],[-0.329962127868339,44.64984134514763],[-0.329980246033853,44.64988305964731],[-0.329994673895522,44.64991145933989],[-0.330008362201819,44.64993375402234],[-0.330025700933593,44.649958011209506],[-0.330044692083865,44.649980326369935],[-0.330063848578331,44.64999903226118],[-0.330083782381168,44.650018075163665],[-0.330101907988744,44.650034289102074],[-0.330137105442555,44.650061702713],[-0.330162954583734,44.650078314735936],[-0.330183240360899,44.65009049887623],[-0.330216383461717,44.6501087834185],[-0.33027176675374,44.650133876879444],[-0.330315538938221,44.65014832702087],[-0.330343592914855,44.650157393690016],[-0.330383759316883,44.650166365784756],[-0.330425567492408,44.650173215940924],[-0.3304561277185,44.65017770172143],[-0.330491249090798,44.65018033804735],[-0.330564580218937,44.6501802012991],[-0.330672968911838,44.65018162140688],[-0.330761244700021,44.650184458349926],[-0.330817996377463,44.65018572202105],[-0.330838904180049,44.65018707444264],[-0.330856317394811,44.65019123536644],[-0.330874910477667,44.65020040674154],[-0.330909379376831,44.65022189499892],[-0.330948288747156,44.65024162752421],[-0.330979437774348,44.65025393474852],[-0.331006278085782,44.650261686215146],[-0.331036357304172,44.65026870933328],[-0.331065772947996,44.65027304922165],[-0.331104170538829,44.65027558663873],[-0.33115486710779,44.65027477991038],[-0.331178944703747,44.650274234611935],[-0.331222936042681,44.65027957697294],[-0.33125534024587,44.650285358580575],[-0.331291914913606,44.650293357296405],[-0.331342690576126,44.65030669493286],[-0.331666342560775,44.65051157702395],[-0.332334339195488,44.65094026818133],[-0.332505246092666,44.65104892200907],[-0.332580248143381,44.65110901537946],[-0.332776961986569,44.65129753693629],[-0.332941437741832,44.6514574748987],[-0.333083581447963,44.65159411738893],[-0.33318521595783,44.65169467662906],[-0.333409823843175,44.65190866757813],[-0.333477072167726,44.65197422043975],[-0.333533302915177,44.65203704182686],[-0.333798991380993,44.65234575778813],[-0.332966491726537,44.652738586907844],[-0.332928584903243,44.65276784319269],[-0.332643375850442,44.65292286548109],[-0.333394563468862,44.653555750414355],[-0.33364154245463,44.653763660340374],[-0.33400369307698,44.65407036871407],[-0.334137115759128,44.65416402165791],[-0.334437231892631,44.65437167915954],[-0.33464629129361,44.65451468194814],[-0.334822010981043,44.65463400054943],[-0.334927727142485,44.65470740318493],[-0.335054969285895,44.654803223931935],[-0.335082426563574,44.65482348084488],[-0.335124716498549,44.65485545483549],[-0.335278705146837,44.65498083477291],[-0.335321749595232,44.655010623353775],[-0.335217626315768,44.6550792726409],[-0.334950647106182,44.655258710717796],[-0.33493486148065,44.65526927892065],[-0.334886943182921,44.65523179784041]]],[[[-0.333864951137223,44.652174096494996],[-0.333852135405472,44.65218151133965],[-0.333843738884924,44.65218681055625],[-0.333611696245057,44.651924026147675],[-0.333479946864192,44.65179454975366],[-0.333302215008854,44.65161969392829],[-0.333264844704582,44.651583336009296],[-0.332984798827001,44.65130920258296],[-0.332759873943725,44.65108765148221],[-0.332724458299172,44.651052315771224],[-0.332647198695418,44.650992470766816],[-0.33229248002131,44.65076185598405],[-0.331913028535038,44.65052279465397],[-0.33191605631049,44.65052063093317],[-0.331931516357008,44.65051097404245],[-0.331592769039255,44.6502792451223],[-0.331423018582884,44.65016019286071],[-0.331442632294278,44.65003507362874],[-0.331525953825117,44.649986157492336],[-0.331569146037979,44.64996304990942],[-0.331704159938821,44.64989815865828],[-0.331862440325629,44.649823284968086],[-0.332201185937343,44.64965809059673],[-0.332512980625349,44.64950037551079],[-0.332543520020848,44.64948530806173],[-0.332566073098903,44.64947606800426],[-0.332646982190593,44.64944614622709],[-0.333135499851587,44.64926508020301],[-0.333469896817985,44.64913956998038],[-0.333640228981683,44.64924923039168],[-0.333581285599124,44.64930263930612],[-0.333567125192606,44.64931505057761],[-0.333428724200522,44.64943357005795],[-0.333504689009381,44.64947795502922],[-0.333510836439816,44.649483716741926],[-0.333511104413676,44.649483978983355],[-0.333488384090804,44.64952665408875],[-0.333487660006829,44.649527216566334],[-0.333686631142201,44.64967286727689],[-0.333719738376806,44.64965213540766],[-0.333786840724321,44.64970886183883],[-0.333883424174637,44.64979875974197],[-0.334021544597373,44.649922907185974],[-0.334114859802844,44.65000875854339],[-0.334222204318221,44.65010770281287],[-0.334351564490552,44.65022670767151],[-0.334386544057738,44.650261064837224],[-0.334408845106196,44.65028382011897],[-0.334486980559588,44.65037337292013],[-0.334541620677885,44.65043065506142],[-0.334555513177905,44.65042437904461],[-0.334615582289757,44.65048167761473],[-0.334715941469303,44.6505756059487],[-0.334753127197573,44.650559796756845],[-0.334886489954784,44.650703730198295],[-0.334895123984618,44.6507003159868],[-0.334940127968233,44.65074833725613],[-0.334974193758551,44.65073100017371],[-0.335042920555374,44.65076821373717],[-0.335118830006096,44.65082440345743],[-0.335164350596012,44.65086195660032],[-0.335197913033057,44.65089581565225],[-0.33524369305424,44.65094840888135],[-0.335286959977652,44.65099053534333],[-0.335322364730747,44.65102352781555],[-0.335343140112552,44.65104182359266],[-0.335395486576723,44.65107313351996],[-0.335502252674398,44.651140916989014],[-0.335537673503376,44.65116778160894],[-0.335583661522323,44.6512110873753],[-0.335590545909242,44.651218628902214],[-0.335551393745826,44.65124386887937],[-0.335519858613526,44.65126131000095],[-0.33511550827524,44.65148255825115],[-0.334746174231081,44.65168337562389],[-0.334474758485459,44.65183240016528],[-0.333864951137223,44.652174096494996]]],[[[-0.331768260685635,44.64963311371942],[-0.331577525952375,44.649724824209784],[-0.331500913984453,44.649759121043076],[-0.331440489622697,44.649781125964054],[-0.33129206881027,44.64982848955609],[-0.331248943523582,44.649829248426606],[-0.3312223640127,44.64982590441942],[-0.331192276019026,44.64982086398226],[-0.331164543226333,44.649812959245935],[-0.331146040644018,44.64980531701866],[-0.331133623488024,44.64979812217151],[-0.331119062621672,44.64978882934497],[-0.331096997121437,44.649770031069146],[-0.331057388376621,44.64972779288399],[-0.331027337984719,44.64968923139789],[-0.330993342649642,44.64964799544804],[-0.330966226014464,44.64960781372982],[-0.330940183306202,44.64956444589749],[-0.330914775973178,44.649521149024],[-0.330863349816337,44.64942421136501],[-0.330799468824231,44.64927673840287],[-0.330794916170958,44.64906737643256],[-0.330792294276922,44.649050785605766],[-0.330787380603667,44.649044536044514],[-0.331195549241339,44.64873632544407],[-0.331523231436907,44.64848658550407],[-0.331869530809643,44.648227272697376],[-0.331956002868838,44.64829783345141],[-0.331997551410998,44.64833019113138],[-0.332067822293447,44.64837438818245],[-0.331973278351062,44.64839570980504],[-0.331944745051656,44.64840413881472],[-0.331913581686557,44.64841291740861],[-0.331868868446646,44.64842949317116],[-0.331838954127446,44.64844445149314],[-0.331809588027034,44.648462276713616],[-0.331740995157198,44.64851047889159],[-0.331611094195413,44.64860414056863],[-0.331538646140145,44.64865759490659],[-0.331524927281894,44.6486710738843],[-0.331512134308682,44.648693805996444],[-0.331502349403579,44.648716177133984],[-0.331496777395994,44.64874148495449],[-0.33150591963629,44.64879148924764],[-0.331511212030169,44.64881908276626],[-0.331588763672701,44.64888180301698],[-0.331995334940516,44.64865338232465],[-0.332306644350245,44.648479012524355],[-0.332344134818902,44.64845769840811],[-0.332462529557864,44.64850242693249],[-0.332578053913902,44.64857544542739],[-0.332794143369808,44.64871184106801],[-0.333009547043336,44.64884942839552],[-0.333097899454674,44.648904793634],[-0.332600326924044,44.64919092724799],[-0.33227958699887,44.64937450271032],[-0.332219052803463,44.64940957693448],[-0.332112844138001,44.649468464520446],[-0.331957818207621,44.64954071750782],[-0.331768260685635,44.64963311371942]]],[[[-0.331171014149121,44.64226116133972],[-0.331148261465722,44.64199801393218],[-0.3311377602119,44.64187803765983],[-0.33112756099617,44.64178238115855],[-0.331100613582093,44.641525127058124],[-0.331091253580947,44.64146287494075],[-0.331080578541187,44.641403996410276],[-0.33106493731245,44.641337968883285],[-0.331033882076692,44.641235371937576],[-0.331009595866826,44.64117041589551],[-0.330965264597272,44.64106740806237],[-0.330930316092297,44.64100142171944],[-0.330911505943294,44.640965044741044],[-0.330885387506236,44.64092032784019],[-0.330790142857702,44.64076947564305],[-0.330714815453258,44.640660914083035],[-0.330635394694818,44.64055355711047],[-0.330631607601036,44.64050870790712],[-0.330787316353214,44.6404676127273],[-0.331013022715595,44.64040863919241],[-0.331042005650056,44.64049967476181],[-0.331063041577664,44.6406121249393],[-0.331099502904752,44.640838185562586],[-0.33114692993637,44.64119421030116],[-0.331160405960465,44.64129832817958],[-0.331167479028461,44.64135605375772],[-0.331194089976119,44.641605478670435],[-0.331207702612781,44.641743923184244],[-0.331212982457694,44.641790529556715],[-0.331224074906061,44.641969598149565],[-0.331236253462953,44.64227162999287],[-0.331257738371941,44.64290182126404],[-0.331219473435421,44.642901442627895],[-0.331215165633078,44.64282858581368],[-0.33117200864228,44.64227798136623],[-0.331171014149121,44.64226116133972]]],[[[-0.330414952310059,44.643206097990934],[-0.330050561811373,44.64284502474511],[-0.329815686759357,44.64277253596995],[-0.329716052339732,44.64274174722758],[-0.329443382846419,44.64265760099529],[-0.328464085747148,44.64317006631447],[-0.327936222235758,44.643447179482266],[-0.328188723110932,44.643685568918734],[-0.327759311699141,44.643954310402464],[-0.327537428620434,44.64409326672242],[-0.327310343100384,44.64423391098396],[-0.327226734875101,44.644134697011],[-0.327164465471302,44.644063404563276],[-0.327103226059823,44.644001001658914],[-0.327030834530724,44.64392073281223],[-0.326873240797642,44.643742018567025],[-0.326627721906645,44.643495666980165],[-0.326599601638148,44.643468309832684],[-0.326550336635479,44.643426991717526],[-0.326403184096287,44.64330536069898],[-0.326382592098231,44.64328579645747],[-0.326335956182634,44.64322700854293],[-0.326245562615849,44.64311114819106],[-0.326224125466608,44.64308367996519],[-0.326028316519276,44.642830515133106],[-0.326055659431352,44.64281905979988],[-0.325701089325582,44.64233089760256],[-0.325557246376007,44.642102750107554],[-0.325379880184202,44.641817672436154],[-0.325702347487532,44.64173642608097],[-0.326081986899259,44.641640212743994],[-0.326432806680873,44.6415539661442],[-0.326775065157107,44.641470228740445],[-0.327196949368945,44.64136706329751],[-0.327281236024373,44.64134533342356],[-0.327558778066799,44.64127922015826],[-0.32796117883499,44.64118384679601],[-0.328163676515594,44.641137832518694],[-0.328415383652433,44.64107880240379],[-0.328532422306962,44.64105176018785],[-0.330305539736534,44.64059287081637],[-0.33030566571997,44.64059286702056],[-0.330386204500113,44.64061666148508],[-0.330418865449515,44.64065036853195],[-0.330488828315912,44.640732240073724],[-0.330546197130858,44.64080602101525],[-0.33062196616257,44.640915650667374],[-0.330649543027428,44.64095942260931],[-0.330675182315093,44.64100244196899],[-0.330681058553506,44.64101217665761],[-0.330708134834793,44.64106028880315],[-0.330752556865449,44.641152030630145],[-0.330780414518282,44.64121976251913],[-0.330802475710921,44.64127910891971],[-0.330812284100473,44.64131692856878],[-0.330815652964187,44.64132908158875],[-0.330834756841368,44.64143447161673],[-0.330849821892623,44.64151637534733],[-0.330857090192792,44.641568868858265],[-0.330864599036985,44.64168947593807],[-0.330873299496381,44.641907092255174],[-0.330875276844511,44.64195334762156],[-0.330881586868612,44.642092102336],[-0.330888572675594,44.64223588268198],[-0.330895022642362,44.642351385608734],[-0.330895820299324,44.64236487761106],[-0.330915930408094,44.6427306464035],[-0.330925511873957,44.64291192316664],[-0.330414952310059,44.643206097990934]]],[[[-0.331091159452858,44.65732633663086],[-0.3310816792679,44.65733040676152],[-0.330939953816975,44.65739099370222],[-0.330865146888197,44.65742397398609],[-0.330803126926769,44.65745116256109],[-0.33073563112033,44.6574796874543],[-0.330669368863888,44.65750772460795],[-0.330509672133529,44.6575803860906],[-0.330451799899775,44.65760726930506],[-0.330356952424733,44.657651485565665],[-0.330249894562001,44.6577005748911],[-0.330190032323178,44.65772796843859],[-0.329937919463126,44.6578475651853],[-0.329640022707237,44.65798286717327],[-0.329337606811711,44.65812289987874],[-0.329327034695434,44.65812772359136],[-0.329316593916741,44.65813263345556],[-0.329372121621882,44.65819421681657],[-0.329378070702717,44.658200885840664],[-0.329384145807834,44.658207551069644],[-0.329092298329696,44.658325639051846],[-0.328852903867334,44.65842340470396],[-0.328801752390062,44.65844440790678],[-0.328612857193897,44.65852082902191],[-0.328366623890975,44.65861825881648],[-0.32827507697899,44.658656426767514],[-0.328274709537272,44.65865661804286],[-0.328274095362713,44.658656906852656],[-0.328041071431829,44.65875997546017],[-0.327985726397166,44.6587847988955],[-0.327820321122831,44.65885925007166],[-0.32778023092966,44.65887730675189],[-0.32774700677105,44.658891912907045],[-0.327699635193331,44.658912801815916],[-0.327616456606404,44.65894945583915],[-0.327573022070751,44.65896860427162],[-0.327568974120652,44.658962058152376],[-0.327526660135913,44.65897666747597],[-0.327479894259398,44.65899285247699],[-0.327392919527074,44.65902295262523],[-0.327365084677575,44.65903262078898],[-0.327363828239938,44.659030586130704],[-0.327339388079727,44.65899086342175],[-0.327267533911174,44.658858044942086],[-0.327180575085649,44.65868324041632],[-0.327078024436959,44.65847529500176],[-0.326975201885154,44.65827555747592],[-0.326846588881837,44.65801748553536],[-0.326813883323746,44.657953231949605],[-0.326557780317494,44.65807807693004],[-0.326444412436406,44.65813582238462],[-0.326216606445201,44.65824602879648],[-0.325916685645556,44.65839426667175],[-0.325720794005042,44.658489094851745],[-0.325528929161811,44.65858371144779],[-0.325406034481874,44.65864264339504],[-0.325383468794346,44.65865602719072],[-0.325567814954045,44.65887881446134],[-0.325750923112032,44.65909343896469],[-0.325688035590034,44.659101728131894],[-0.325636076497171,44.659111220385924],[-0.325582048302621,44.65912843396369],[-0.325505284272843,44.65915615301769],[-0.325461744077808,44.659175664203225],[-0.325412098048566,44.65920509058922],[-0.325369991220162,44.65924032739488],[-0.32529508736981,44.659310250646776],[-0.325212893659358,44.65937859093205],[-0.325140962707137,44.659426168178605],[-0.325047132487779,44.65947917961712],[-0.325003706217428,44.65950490458563],[-0.324966666171822,44.65953187920998],[-0.324909800641503,44.65957161446654],[-0.324838848665238,44.6596315067569],[-0.324791387448585,44.659678708381314],[-0.324731646567951,44.659746733563225],[-0.324687684565693,44.65978905423851],[-0.324657263799487,44.65981267596627],[-0.324504478355955,44.65990854848122],[-0.324381691037857,44.66001000658075],[-0.324268303406994,44.66010388325184],[-0.324218302072975,44.66014656551218],[-0.324031967339921,44.66034571764967],[-0.323684015047951,44.66071579523812],[-0.323397500193445,44.66101238985261],[-0.323270603822475,44.660956552850266],[-0.323568180941878,44.66069765131282],[-0.323352472657422,44.66057879576204],[-0.323316762927235,44.660594105988494],[-0.323002994041988,44.66027257248704],[-0.322748021070874,44.66001027391715],[-0.322733240099413,44.65994376849352],[-0.32238340260225,44.66021991666529],[-0.322305933923439,44.66022503770271],[-0.322325248886197,44.65994890976202],[-0.322349531601938,44.659517287917765],[-0.322359098870587,44.65935201433755],[-0.322366313240825,44.65929881458672],[-0.322411302813163,44.658931447717016],[-0.322414034338174,44.65891568700543],[-0.322410224115034,44.6587547801354],[-0.322398512385805,44.65866538540311],[-0.322367312938449,44.6584532196655],[-0.32235897701174,44.6584231941705],[-0.32233976355457,44.65835429895144],[-0.322330991158179,44.65833185556484],[-0.322323656705938,44.65831666764276],[-0.322294188843061,44.65826655249248],[-0.322269755201939,44.65823115373542],[-0.322220130482981,44.6581667765689],[-0.322201107840394,44.65814392030972],[-0.322172591124803,44.658112068288126],[-0.322127751296491,44.65806674011956],[-0.322101155434208,44.65804176861054],[-0.321845669589847,44.65781120169455],[-0.321774481276835,44.657749364465225],[-0.321636253239781,44.65762538504118],[-0.321510074506817,44.65751519029386],[-0.321312610963975,44.65733721377372],[-0.321119577591865,44.657172259495646],[-0.321091088241027,44.65714941711461],[-0.320743902187868,44.65684510159996],[-0.320501562931664,44.656638195708716],[-0.320279751960066,44.656432565129066],[-0.320044706131407,44.65621012117795],[-0.320030113626934,44.656200287183],[-0.319635032339256,44.6557771142131],[-0.319634845597866,44.655771803516004],[-0.319300894847163,44.65539617266399],[-0.31920640721556,44.65529232288001],[-0.319098653925601,44.655164722648756],[-0.318935622826237,44.65497309388547],[-0.318583785038356,44.65457439024892],[-0.318210610150676,44.65414983471723],[-0.318177985317403,44.65410603083888],[-0.318150573660772,44.65406071889247],[-0.318126870594222,44.65401835926662],[-0.318096206414154,44.65395854763907],[-0.318069772645797,44.65389554541617],[-0.318050499098547,44.653849088147545],[-0.318039298053381,44.653806803837746],[-0.318030559018217,44.653763454465725],[-0.31802332758282,44.653711409605755],[-0.318017959750043,44.653628852753975],[-0.318019441865067,44.65359186452847],[-0.318034711552882,44.65353391819036],[-0.31804746023052,44.65348460764631],[-0.318071557924914,44.65342008889042],[-0.318093013883262,44.65336429965601],[-0.318120015504833,44.65331050653858],[-0.318156621222434,44.65324831556567],[-0.318194203623046,44.65319627732213],[-0.318227617413021,44.653154906662564],[-0.318338078373906,44.65303499321578],[-0.318410110239227,44.652954888890925],[-0.318463199930539,44.652898240182715],[-0.318494404587173,44.65286008947933],[-0.318535448824485,44.65280254079769],[-0.318648480657082,44.652642722689485],[-0.318683614998237,44.65258985668413],[-0.318708501719525,44.65254946268643],[-0.318733191774516,44.65249501794244],[-0.318751548229981,44.65245734295042],[-0.318775727647197,44.65241994368957],[-0.319417589400944,44.6528092177125],[-0.320109715841597,44.65256262720241],[-0.319903590059215,44.652226591748985],[-0.319755572013286,44.65232817157993],[-0.319744181701551,44.65233410022363],[-0.319720450087286,44.652344814675665],[-0.319660869831017,44.65236840953693],[-0.319531151984328,44.65241852924724],[-0.319464548202897,44.652350786454775],[-0.319392710965594,44.65227563179723],[-0.319374359454456,44.652283391329775],[-0.319056046797528,44.652091379348875],[-0.319242281661606,44.65197639857939],[-0.319382774021235,44.6518906338652],[-0.319562541091087,44.65177945098759],[-0.319647863944728,44.6517278709661],[-0.319698718780429,44.651697599885196],[-0.319986657693404,44.65151775060232],[-0.320252730978399,44.651354596214176],[-0.320513848483135,44.65119519426779],[-0.32099139700444,44.65150595509917],[-0.321199864459747,44.651342095901406],[-0.321348356532481,44.651225091520814],[-0.321719596633908,44.65093172332667],[-0.321713022567107,44.65088659714319],[-0.321538221207897,44.65085067035249],[-0.321133184485593,44.650767776227745],[-0.321247692152996,44.650690989330265],[-0.321479972107579,44.65053713686129],[-0.321651313557525,44.6504244915074],[-0.321860346362583,44.65028530322183],[-0.3221254349905,44.65010991913438],[-0.322413635326095,44.64991978313824],[-0.322607285179124,44.64978736313704],[-0.322770065745826,44.64967731602049],[-0.322855569632407,44.64971664569432],[-0.322914696249116,44.649747487152375],[-0.322969942017144,44.64978529334982],[-0.3230855509211,44.64986633846804],[-0.323115768289277,44.649886425037856],[-0.323130249610897,44.6498965322317],[-0.323163582610819,44.64991165936668],[-0.32324676067212,44.64995006749977],[-0.323369871969139,44.650004215199495],[-0.32313171031928,44.650372792980036],[-0.323087454804326,44.65043999135964],[-0.323051036711495,44.65049668195934],[-0.323276017674094,44.65054443374138],[-0.323302220380458,44.65054995354622],[-0.323536144261334,44.6505995084382],[-0.323640834622506,44.65062168110991],[-0.323712921122421,44.65063681440037],[-0.323790768168782,44.650653306269575],[-0.323918978271748,44.650680448287865],[-0.324135322220986,44.65035505512834],[-0.324315692208575,44.65045325443565],[-0.324496025666716,44.650550823821646],[-0.324523715686515,44.650566570801665],[-0.32455796362104,44.65059077082704],[-0.324675683917956,44.65066688515902],[-0.324840144984343,44.650777816654696],[-0.325135005023451,44.650976464716535],[-0.325176117671823,44.651003611840856],[-0.325201837305449,44.65102446392007],[-0.325235736130332,44.651059847519726],[-0.325307921233347,44.65115147764584],[-0.325345912018463,44.65121340979811],[-0.325183053591817,44.6514119481664],[-0.325163672871042,44.65148993297048],[-0.32518939871655,44.65149591722657],[-0.325203704190565,44.65150089337069],[-0.3252282167017,44.651514122669816],[-0.325295692441416,44.65154948751786],[-0.325336195357635,44.65157485080376],[-0.325364407897314,44.651601574936336],[-0.325408906556922,44.651666825510375],[-0.325591614539186,44.6518130697901],[-0.325810830910826,44.65194478958788],[-0.326059485298248,44.65209616775005],[-0.326343477950271,44.65226450357515],[-0.3263386712592,44.6522686129068],[-0.326511888081182,44.65238017985581],[-0.326630466428623,44.6524578884607],[-0.326724051353372,44.652518507826024],[-0.32684868558325,44.65259828666907],[-0.327020014266799,44.652709909714964],[-0.32714035434246,44.652789637272036],[-0.327205095437062,44.65282994913628],[-0.327471036091419,44.65300242988626],[-0.32759365246208,44.65308434116506],[-0.327688685556032,44.653148069953694],[-0.327766280652744,44.65320295240933],[-0.327934680565653,44.65331835672369],[-0.328043920473955,44.65339391216564],[-0.328084369025524,44.65342044757003],[-0.328197100591931,44.65351022480906],[-0.328347941788285,44.65362967132235],[-0.328501220390027,44.653749765131],[-0.328572723740488,44.65380834466322],[-0.328716427195149,44.653937286674214],[-0.328875764802752,44.654076570656464],[-0.329013505070394,44.65419857341223],[-0.329175088970774,44.654341663996206],[-0.329423286103132,44.65456612609484],[-0.329658437615215,44.65477701397069],[-0.329887649001097,44.65498348484991],[-0.330032134220792,44.65511059969853],[-0.330160709512754,44.65522269513998],[-0.330280342330218,44.65532658972392],[-0.330387671050318,44.65542094301832],[-0.330628562698261,44.65563057492138],[-0.330646452560508,44.655644903711284],[-0.330877028264871,44.65591702001293],[-0.330972047441787,44.65602733225057],[-0.331190018578393,44.656278382209635],[-0.331255525659925,44.65639129547151],[-0.331333137322382,44.65654664502245],[-0.33147375831644,44.656815343409676],[-0.331540062976724,44.65711033971118],[-0.33154482049707,44.65713101118175],[-0.331538295703916,44.65713382090389],[-0.33137755941329,44.657203811794886],[-0.331091159452858,44.65732633663086]]],[[[-0.33032797899951,44.64025294250895],[-0.330259845835016,44.64020201252385],[-0.330207707895444,44.64016546820908],[-0.33019454981511,44.640154240867254],[-0.330130201186098,44.640109684478304],[-0.330071526679337,44.64007144479775],[-0.329970822474115,44.64000752938414],[-0.329883036730335,44.639957191258794],[-0.329817351682506,44.63992204607252],[-0.329688957014982,44.639857252579446],[-0.329604635946735,44.639820686322864],[-0.329463518626652,44.6397648359795],[-0.329308832785756,44.639710024910904],[-0.329253910349347,44.639690414020464],[-0.329114378670924,44.63964857214668],[-0.329041293787278,44.639629147765895],[-0.328948790323166,44.639607875302545],[-0.328832477104327,44.63958092226063],[-0.328567662037051,44.639526903884736],[-0.328410212475718,44.63949578279502],[-0.328274645896469,44.639469769383126],[-0.327256011646866,44.63926832279429],[-0.327232633175779,44.639263530039685],[-0.327139108708329,44.63924417907834],[-0.32616599820573,44.639056940801865],[-0.325735602043241,44.63897500959845],[-0.325261064565108,44.63888287111263],[-0.324651811530781,44.63876621910762],[-0.323582518027133,44.63855914488905],[-0.323509325044938,44.6385378279759],[-0.32334046711226,44.63848649862048],[-0.323294146041324,44.63843292645279],[-0.323259602222117,44.63839287655369],[-0.323259722895953,44.638392782818975],[-0.323352929729393,44.63835330702698],[-0.32351878601116,44.638281010475744],[-0.323533978976005,44.63827541756675],[-0.323559832376538,44.63826869314263],[-0.323615009557204,44.63825631130453],[-0.323633816159017,44.63825421397604],[-0.323848329728024,44.63823659007418],[-0.323913074682521,44.638230227810666],[-0.324031677328715,44.63821692952771],[-0.324153828543502,44.63820388481836],[-0.32421763850985,44.638196649429695],[-0.32424969265422,44.63819235143674],[-0.324319525563024,44.63818024930652],[-0.324417523147361,44.63816423639271],[-0.324475808431561,44.63815320233647],[-0.324527605111346,44.63814128213879],[-0.324680649199001,44.63810640292086],[-0.324712831741452,44.638097865924436],[-0.32473587624674,44.63809059496588],[-0.324823008370206,44.63805941020664],[-0.324950984577486,44.63801248955179],[-0.325044413945709,44.6379789526196],[-0.325177674493769,44.637938180177215],[-0.325292576793282,44.63790282563956],[-0.325433690065501,44.637862537477226],[-0.325600725100227,44.63781669354354],[-0.325693098600302,44.63779093697431],[-0.325762417160882,44.637772271611],[-0.325810833065305,44.63776081294847],[-0.325871378498392,44.637747457466006],[-0.325944887502354,44.63773136908687],[-0.325984786112003,44.63772314015987],[-0.326264041804247,44.63766923266747],[-0.32640428606037,44.637642034833554],[-0.326702510365491,44.63758665426912],[-0.326786412758398,44.63757133377118],[-0.32692808178086,44.637540488112],[-0.327072768779459,44.63750946131381],[-0.327848659371612,44.63806089295365],[-0.327995047671918,44.6381633517817],[-0.328225397028089,44.63832410423263],[-0.328943544829461,44.63881419305776],[-0.329761205846561,44.63937561795148],[-0.33004899005789,44.63927801261343],[-0.330258335696858,44.639465434870715],[-0.330472043770609,44.639658311962734],[-0.330555530107983,44.63973626174707],[-0.330579259096549,44.63975978547122],[-0.330652321151829,44.6398385899438],[-0.33067554423815,44.63986636391608],[-0.330685291833531,44.639879676319964],[-0.330689555148728,44.63988774757342],[-0.330706596863,44.639960400795395],[-0.330714309487519,44.63999693197526],[-0.3307179309973,44.64002403511068],[-0.330772843569972,44.64037010269984],[-0.330581671231906,44.640419745332885],[-0.330554784119339,44.64041325684146],[-0.330494723469137,44.64039641445054],[-0.330436315625733,44.64034347949394],[-0.330373314029296,44.64028969174707],[-0.33032797899951,44.64025294250895]]],[[[-0.32708517319562,44.64129302615198],[-0.326619095568343,44.64140653188681],[-0.325307749770532,44.64173532237918],[-0.325152029689024,44.64143418502395],[-0.325100214904815,44.641334644105896],[-0.32504604481043,44.64122940720159],[-0.325017731837461,44.64117736632066],[-0.324986689376332,44.641117568267],[-0.324942025774587,44.64105151205454],[-0.324803358251455,44.64085321369189],[-0.324631478296453,44.64061392451305],[-0.324546880966969,44.640495636116405],[-0.32450466652495,44.64043256973167],[-0.324246594068403,44.640037194869734],[-0.324181238156723,44.639928419512536],[-0.324147759984373,44.63987437126263],[-0.324081107485914,44.63976500411273],[-0.324065341851093,44.639737365010774],[-0.324054853121104,44.639720019567655],[-0.324040543864093,44.639704230723666],[-0.323833240786999,44.639469790372715],[-0.323723249145225,44.63935740121314],[-0.323666211943604,44.63930189872891],[-0.323588021664315,44.639223694707475],[-0.323531415729851,44.63916908026131],[-0.323503353532208,44.639144784355764],[-0.32348294975551,44.639128367748135],[-0.32346899232851,44.6391206778452],[-0.323404582670209,44.63908567087526],[-0.323254527158884,44.63900223872658],[-0.323207614521404,44.63897715792255],[-0.323168980827929,44.6389533599971],[-0.323053610046874,44.63881391985141],[-0.322985088574258,44.638732721580375],[-0.322879946931279,44.63860621940278],[-0.323047341961545,44.63862632651623],[-0.323110501584543,44.63864443124086],[-0.323170749143516,44.638664515719654],[-0.323184498177548,44.638666535214924],[-0.323227735777367,44.63867424586569],[-0.32330633795745,44.638690985114266],[-0.324237764879827,44.63887148223446],[-0.324848385557828,44.63899206008036],[-0.325313836766294,44.63908420339033],[-0.326697780516167,44.639361896434494],[-0.326785646505762,44.63938159829512],[-0.326947939066532,44.63941140450048],[-0.328373398419055,44.63968656599005],[-0.328605962527505,44.639726598364284],[-0.328829854847666,44.639773649430516],[-0.32894706252686,44.63980291832539],[-0.3291056086614,44.639846170073085],[-0.329193235887806,44.639874617619526],[-0.329296805438134,44.639910153873814],[-0.329345910092394,44.63992741700075],[-0.329373046641727,44.639938133278406],[-0.329530883191524,44.640007807099714],[-0.329611983696093,44.640047534067634],[-0.329721013573173,44.640104981623885],[-0.329812232824326,44.64015575708867],[-0.329857813013269,44.64018384888589],[-0.329912894586977,44.64021895307709],[-0.329937757867707,44.64023604518614],[-0.330006013557937,44.64028264654453],[-0.33012266509139,44.64036653573666],[-0.330226440111205,44.64045036224074],[-0.330228186828875,44.64051194268486],[-0.330479999493456,44.64044623665057],[-0.330228312812135,44.640511938889134],[-0.329856337455202,44.64060946779156],[-0.329348252935612,44.64074236226777],[-0.328900620613772,44.64085604313408],[-0.328424828200862,44.64096948882711],[-0.327828504489686,44.64111070990881],[-0.32708517319562,44.64129302615198]]],[[[-0.326961393671166,44.64529893410344],[-0.326938105773649,44.6453149531544],[-0.326638038182966,44.64552149791734],[-0.326591017923286,44.645556702984],[-0.3266378820673,44.64558511803857],[-0.326759252406432,44.64565904747656],[-0.326485831106389,44.64586587114672],[-0.326631616368059,44.64596636841873],[-0.326655099071925,44.64598143043869],[-0.326634719330433,44.645997542115474],[-0.32651413700647,44.64609515222701],[-0.326495913580033,44.646109306744215],[-0.326388002739648,44.6461970741773],[-0.326220357101492,44.646066237594546],[-0.326086723411918,44.64596204021644],[-0.325797847972124,44.64616157789508],[-0.325718176194158,44.64609270037126],[-0.32555049196695,44.64594834797656],[-0.325672565355475,44.64585673125871],[-0.325819161601705,44.64575077047372],[-0.325708452209671,44.645664985626745],[-0.325646230694959,44.6456180196807],[-0.325616453542428,44.64559467678883],[-0.3255431162364,44.64553687196239],[-0.325338820599794,44.64537523896885],[-0.325285894286293,44.645331777708684],[-0.325042273416187,44.64512185858612],[-0.325083631632533,44.64509763732465],[-0.325183660404587,44.64503885234961],[-0.325344090384727,44.64495130836975],[-0.325559910306869,44.644831371386296],[-0.325699546836882,44.64475508501637],[-0.325732708474511,44.64478445330045],[-0.325849909671562,44.64472794435226],[-0.325923104364516,44.64469141143882],[-0.326214427646825,44.644529193960665],[-0.326631913422101,44.64429983390272],[-0.326670295538214,44.64433210843118],[-0.326689979517815,44.644351249434195],[-0.326823597030168,44.64448941668934],[-0.326851617618281,44.64452362492647],[-0.326739607748209,44.64458466429471],[-0.326717703046561,44.64459631654784],[-0.326397719289849,44.6447775994149],[-0.326554623150549,44.64491254330321],[-0.326842233782784,44.644734486957645],[-0.326854251533697,44.6447434963793],[-0.32697282406304,44.64482778189389],[-0.326885774837228,44.64488617791375],[-0.32691415941798,44.644907309703186],[-0.326961384379183,44.64494184100705],[-0.327189912148985,44.64477853731058],[-0.327373791795774,44.644921408508694],[-0.327505583307487,44.64502647070224],[-0.327483071381727,44.64504066437902],[-0.327493316272407,44.64505170945418],[-0.32737288029909,44.645128231163184],[-0.327287835014238,44.64507096009867],[-0.327243463721096,44.64510185070489],[-0.327186126313101,44.645141871922775],[-0.326961393671166,44.64529893410344]]],[[[-0.324755705714574,44.64492845875499],[-0.324599805351154,44.64501577551779],[-0.324558960182962,44.64503799881543],[-0.324372746419863,44.64484689613905],[-0.324338243136396,44.64481189109262],[-0.32433014518705,44.644815828998794],[-0.324271373464403,44.64484868324678],[-0.324140483945055,44.64492137076896],[-0.324060009470099,44.64484738025449],[-0.324050978834707,44.644837649970334],[-0.324078971564295,44.64482221092381],[-0.324055731209328,44.64479840076312],[-0.32396377295389,44.64484423696931],[-0.323795251013261,44.644931571666696],[-0.32374857410007,44.644955501820554],[-0.323713520624551,44.64491330459705],[-0.323633322129539,44.64480975050638],[-0.323658724900311,44.644716176859895],[-0.324053459663978,44.644520309760026],[-0.324101385837528,44.64457104033293],[-0.324279128078158,44.644751224923795],[-0.324996269304443,44.644406533463574],[-0.325267461709933,44.64427745258548],[-0.325287472821476,44.64426793004421],[-0.325536725832616,44.644147798275796],[-0.325589763178801,44.64412259469767],[-0.326149745268412,44.64385903393086],[-0.326208690013867,44.64391465825811],[-0.326304353580587,44.64400431927594],[-0.326356039841693,44.64405457533581],[-0.326391541225325,44.64408936951774],[-0.325979027644529,44.6443110100944],[-0.325497761992792,44.644576076402885],[-0.325459364454147,44.644543531623476],[-0.325326650992229,44.64461735675968],[-0.324851344903649,44.6448765641153],[-0.324755705714574,44.64492845875499]]],[[[-0.324264312434612,44.64133644895684],[-0.32425796517067,44.64132726876365],[-0.324243184508326,44.641305637172344],[-0.324201639636438,44.641247506368494],[-0.324158813770991,44.6411890536507],[-0.324047830504925,44.64103425425517],[-0.324029597902138,44.64100759037811],[-0.323810909568984,44.64108940562221],[-0.323761447966928,44.64102115048398],[-0.323827505986904,44.640994204585354],[-0.323818499807797,44.64098059899988],[-0.323783016216927,44.64092679112651],[-0.323736315837374,44.64085827274268],[-0.3237910285651,44.64083797547075],[-0.323554075334938,44.6405309891855],[-0.323514132049764,44.64054705778354],[-0.323445155475332,44.640456051735356],[-0.323378680268072,44.64036893513147],[-0.323318894417255,44.640292520257155],[-0.323214840252357,44.64013102420109],[-0.323193082095083,44.64009806865393],[-0.323116402898675,44.6399770182571],[-0.323101243742141,44.63995323537237],[-0.323112968045458,44.63994873798748],[-0.323219986525964,44.6399058736061],[-0.323884014817274,44.639648025959985],[-0.323910770200106,44.63968867036073],[-0.323945043635593,44.63973909049288],[-0.323998626158551,44.63981731348914],[-0.324102331750732,44.63997287229113],[-0.324359747594988,44.64036141909154],[-0.324428229933827,44.64046541481476],[-0.324449815206002,44.64049756439041],[-0.324499265175053,44.64056347679771],[-0.324592360698478,44.64068889836602],[-0.324654514744953,44.64077118843061],[-0.324873408234139,44.64106501963531],[-0.324896647717878,44.641097389706665],[-0.324956135323794,44.641202917244875],[-0.32466903337082,44.641320942516984],[-0.324403988084108,44.641429923734684],[-0.324358172226149,44.64144914276961],[-0.324345361602887,44.64145448391312],[-0.324325016037941,44.64142409914345],[-0.324264312434612,44.64133644895684]]],[[[-0.323021426707817,44.63849077464449],[-0.323041185522741,44.638483422619615],[-0.323105425495156,44.63845779324873],[-0.323041190827558,44.63848351256654],[-0.323021426707817,44.63849077464449]]],[[[-0.322855204513045,44.63857614684754],[-0.322868558361577,44.638592865606185],[-0.322877509554213,44.63860340927329],[-0.322868432382111,44.63859286939353],[-0.322855204513045,44.63857614684754]]],[[[-0.322015577117283,44.660567878826],[-0.321979157098167,44.66050265418192],[-0.321903937530609,44.66036182393354],[-0.321813815656148,44.66019522018758],[-0.321792467226954,44.66015648474023],[-0.321776612132706,44.66012740593279],[-0.321635500698765,44.65987970570778],[-0.321579659318597,44.659791276142144],[-0.321516227621109,44.659689738723024],[-0.321475064922767,44.65962114226351],[-0.321420861118655,44.6595305008799],[-0.321391282036542,44.65947849656381],[-0.32135475714665,44.659420032963276],[-0.321317541095681,44.65936483396943],[-0.321346307281859,44.659347390179605],[-0.321382725175744,44.65933124835278],[-0.321189932109665,44.659050589208285],[-0.32117667745651,44.6590313440089],[-0.321166119605799,44.659017153904934],[-0.32115269777799,44.658999355437345],[-0.321126355471399,44.65896797846982],[-0.32109874233625,44.65893645945458],[-0.321030285330648,44.65885886104112],[-0.320877565104875,44.658683954877475],[-0.3208158278132,44.658720320104585],[-0.320610239462706,44.658616564049176],[-0.320373995677419,44.65849390469815],[-0.320171845877801,44.65839491040145],[-0.319845658774402,44.65822629306953],[-0.319601951107444,44.65810331565339],[-0.319648605337661,44.657903139047136],[-0.319598791132051,44.65786976327993],[-0.319514637176557,44.65780209656439],[-0.319462369704132,44.657757080498214],[-0.319414285851973,44.65771878693483],[-0.319395587847726,44.65770141701057],[-0.319381256520327,44.65768959272344],[-0.31900211996275,44.6574449807468],[-0.318990612986045,44.6573739615241],[-0.318955707686101,44.657158662732016],[-0.318595496923012,44.65687734861238],[-0.318530289706498,44.65684623657989],[-0.318519769380752,44.65684123603782],[-0.318501303166105,44.65685350417505],[-0.318486713599581,44.65685871772945],[-0.318471095829998,44.6568657642788],[-0.31843182029411,44.65687838664965],[-0.318396885416596,44.656887544776616],[-0.318385084183755,44.656892944950805],[-0.318368564208319,44.65690182069957],[-0.318341497893921,44.65691596884539],[-0.318317712249139,44.65692794606643],[-0.318300615138829,44.656937740193975],[-0.318267219416825,44.656958025330816],[-0.318221885784691,44.656983534501194],[-0.318139117328738,44.65692862043814],[-0.318105028406796,44.65690927932998],[-0.318082197026013,44.656898881371696],[-0.317989771061926,44.65685146557572],[-0.317975940171936,44.65684169856433],[-0.317966757294419,44.65683368431064],[-0.317945741692059,44.65681124763123],[-0.318141656735887,44.65669742025788],[-0.318521281990197,44.656431925446526],[-0.318227664249892,44.656308010543114],[-0.317826391092352,44.656118123520834],[-0.317718332795489,44.656006750321495],[-0.31753804427698,44.65583501030811],[-0.317324922443414,44.655630915693806],[-0.317269746382965,44.655579318113716],[-0.317122162322979,44.65543768308791],[-0.316964828010199,44.65529552945301],[-0.316853765775352,44.65519740124116],[-0.316643023051648,44.654995036269156],[-0.316362834649248,44.65472807513624],[-0.316097094140486,44.654472754345456],[-0.31578748063875,44.65417333508406],[-0.315277027409991,44.65374306587169],[-0.31509413452442,44.65384856833397],[-0.31484386050091,44.6536349510137],[-0.31443325107737,44.65328800674154],[-0.31383792614063,44.65277945045171],[-0.313679750525975,44.652646328622296],[-0.31391154088953,44.65250728492621],[-0.3140433985272,44.652429084707],[-0.314109018145726,44.65240296913514],[-0.314126325290106,44.65239461106021],[-0.314329085459247,44.6522599508232],[-0.314381861524947,44.6522215151018],[-0.314554313557788,44.652129572442966],[-0.31458988269725,44.65211192645131],[-0.314613133331793,44.65210375052911],[-0.314697039658293,44.652077356648725],[-0.314793006844419,44.65205213289193],[-0.315154037133028,44.651966429000865],[-0.315417740115197,44.65190643962231],[-0.315528868051004,44.6518878789712],[-0.315567520205332,44.65188401659777],[-0.315637800776437,44.65187920565339],[-0.315743629810172,44.65187999639135],[-0.315770465626871,44.65188126398465],[-0.31578379405679,44.651886811268334],[-0.315822818935818,44.651904292874185],[-0.315988901575478,44.651828577887905],[-0.316123206094449,44.651749130298874],[-0.316599758692517,44.651455865040084],[-0.316634711520024,44.6514363446151],[-0.316764609562831,44.651378563865954],[-0.317062236626041,44.65124735965709],[-0.317152643913122,44.6512070725959],[-0.31738292673149,44.65110482998559],[-0.317591106745504,44.65130889171354],[-0.317645496382591,44.651360061999675],[-0.317718183430285,44.651430416507814],[-0.317732366751583,44.65144404749774],[-0.317414916992686,44.65159017530662],[-0.317655090449054,44.65182517472102],[-0.317707537524228,44.65187550223169],[-0.317811092392261,44.65197484578282],[-0.317703800523431,44.65202852531686],[-0.317671392122967,44.65204409514326],[-0.317540037705888,44.65210930939943],[-0.317413235243018,44.652174657222794],[-0.317543455746005,44.65231095556301],[-0.317648937589858,44.65241943235038],[-0.317321958001157,44.652596752325486],[-0.317020611413615,44.65275708303252],[-0.316747251269955,44.65290179579432],[-0.316593947750863,44.65298019215168],[-0.316575700158655,44.652966142287895],[-0.316557121114111,44.6529507507655],[-0.316574411087465,44.652939959936795],[-0.316469641873185,44.652826414789466],[-0.316365052047502,44.652713765245224],[-0.316275808635553,44.65261948756094],[-0.316222505549936,44.65257819570875],[-0.31619001992118,44.65255601274555],[-0.316143849917717,44.65253081618851],[-0.316099430365375,44.65250962190495],[-0.31603057637333,44.6524915032658],[-0.316003838729983,44.652487619691584],[-0.315950272406278,44.6524868835661],[-0.315815935159734,44.65250361772842],[-0.315796583465189,44.652507261747346],[-0.315732082723681,44.65253307446487],[-0.315721038213948,44.65253845167046],[-0.315659128505647,44.65259112849283],[-0.315558560484057,44.65270119112003],[-0.315528045367404,44.652746799100406],[-0.31552699911503,44.652754759852904],[-0.315528136364966,44.65276121341886],[-0.315553540778583,44.65279820619771],[-0.31559384957449,44.65283105762348],[-0.315842688031433,44.65305246538041],[-0.315627365450287,44.65320102118822],[-0.315602439248145,44.65321933950318],[-0.315641145163551,44.65324854462756],[-0.315747115413085,44.653328895310615],[-0.315854404337572,44.653410197526455],[-0.31592160117839,44.653462336199865],[-0.315945473754153,44.6534475635696],[-0.316054986980551,44.653534475612716],[-0.316458203041404,44.653794232602166],[-0.316751077710829,44.653624966859006],[-0.316818586376494,44.65358590775154],[-0.316885812244123,44.65354847900447],[-0.317119483557117,44.653420004566065],[-0.317141997252887,44.653407885531685],[-0.31718226000166,44.65345064954017],[-0.317410244888401,44.65332423731538],[-0.317672967359182,44.65317894105747],[-0.317685399519363,44.652935640429384],[-0.317577090394803,44.652794179325745],[-0.317671688472204,44.652741421512076],[-0.317697359936288,44.6527743510271],[-0.317778533271794,44.652883737428205],[-0.317783583202322,44.65288160353482],[-0.317847415993396,44.652964478282456],[-0.318015471274659,44.65287509492828],[-0.318021875535281,44.65287237973779],[-0.318016315848037,44.65286371614071],[-0.318083327416535,44.652831248924926],[-0.318113191632734,44.652868918278614],[-0.318193810104661,44.65283171749272],[-0.318291455214792,44.65296998395556],[-0.318275546864526,44.652991366183116],[-0.31817739936164,44.653093158981804],[-0.318049665213475,44.653226295702964],[-0.318020558737326,44.65326149988736],[-0.317985082092984,44.65333428951454],[-0.317947846882919,44.65341794470803],[-0.317927726940392,44.65346855773461],[-0.317893687744778,44.653589331056466],[-0.317888940192199,44.65363732018401],[-0.317887343074045,44.65374522582402],[-0.317899117721226,44.65381010971115],[-0.317909203449312,44.65384846280839],[-0.317947840086405,44.65396218934755],[-0.317975519140421,44.6540270464668],[-0.318018044601962,44.65411677801111],[-0.318050783300749,44.65417751857858],[-0.31810029235745,44.654257218882954],[-0.318126342806958,44.654290136971625],[-0.318220402187316,44.654395351982316],[-0.318383102476829,44.654575007366084],[-0.318628625238036,44.65484480630767],[-0.318804268345362,44.65503839966337],[-0.318930631765098,44.655179768473644],[-0.318989860365505,44.6552465617522],[-0.319106234552631,44.65537264179297],[-0.31933100177058,44.65562215776678],[-0.319448368034721,44.65575433499243],[-0.319537721942313,44.65585887940106],[-0.319532456880827,44.65586165057792],[-0.31990986601358,44.656261296032895],[-0.320060854014634,44.656398410206386],[-0.320146778158979,44.65647899866261],[-0.320356682515752,44.656671110607505],[-0.320352761221312,44.65667312061316],[-0.320587677630884,44.65689331525703],[-0.320798501499691,44.65709026464495],[-0.321379786365404,44.657630746773215],[-0.321919129175162,44.65813202836535],[-0.321927609735802,44.658140964489306],[-0.321983061706377,44.658203544769435],[-0.322044160818602,44.65827839012865],[-0.322064585510053,44.65831003478093],[-0.322084560481532,44.6583447565825],[-0.322104285930418,44.65839237118772],[-0.322115624968414,44.65843050620791],[-0.322164342242821,44.65875775300924],[-0.322172844914651,44.658820572485496],[-0.322183307983591,44.658912347538916],[-0.322205114923848,44.65911082896645],[-0.32222181437368,44.65933829814167],[-0.322221300797093,44.659357416276755],[-0.322211682337891,44.659560356139075],[-0.322200024766524,44.65976939445775],[-0.322159160780392,44.66057275582761],[-0.322149414035958,44.66058088799186],[-0.322020859481476,44.66058466026208],[-0.322015577117283,44.660567878826]]],[[[-0.320555397835011,44.646306561633004],[-0.320248693242843,44.64644165292974],[-0.31977997724037,44.64665054033812],[-0.319582541083542,44.646453008837256],[-0.319065999448381,44.64593157446744],[-0.31898407180622,44.64584996496903],[-0.31898487423122,44.64581002370907],[-0.319008488979766,44.64578237285508],[-0.319039248983971,44.64576459938601],[-0.319305614774442,44.645623964740224],[-0.319688560970865,44.64542261085232],[-0.319808716799323,44.64536043318059],[-0.319968040429225,44.64527752592349],[-0.320341892823525,44.64508257002054],[-0.320494619203132,44.645005536838624],[-0.320718035467274,44.6448943920866],[-0.320851512538607,44.64483127241005],[-0.321003962818632,44.64476028392314],[-0.32178690061362,44.6457581174237],[-0.321753567245762,44.6457729053864],[-0.32166215869356,44.645813136464604],[-0.321266046313128,44.64599020371895],[-0.321092816779851,44.64606632211786],[-0.320853749323901,44.646173252196505],[-0.320824855906462,44.646186284567925],[-0.320555397835011,44.646306561633004]]],[[[-0.321223786727037,44.64967746613305],[-0.321177255803573,44.64970823881868],[-0.321436569331875,44.64996157749045],[-0.321717617447703,44.65023453661781],[-0.321731749683334,44.65024943013828],[-0.32145361101042,44.650449714350785],[-0.321166243860724,44.65065622210283],[-0.321020835934521,44.65075700449232],[-0.321005645195465,44.650745566733534],[-0.320997188362765,44.650739152877826],[-0.320877578056826,44.650645881162056],[-0.320819498625793,44.650600680184446],[-0.320808236629226,44.6505916473768],[-0.320790487483043,44.650577493133554],[-0.320758419148991,44.65055169470591],[-0.320750340392479,44.65054526947692],[-0.320557656251073,44.65039652411066],[-0.320552915740658,44.65039747745754],[-0.320544579715737,44.65039096983591],[-0.320356364294619,44.65023235841428],[-0.320351435770589,44.6502258385443],[-0.320337335591888,44.65018364156913],[-0.320203895874103,44.650067717259],[-0.319971232593908,44.64987025259386],[-0.32012364295398,44.64977692037179],[-0.32025479724784,44.64969774232979],[-0.320393329938915,44.64961311632635],[-0.32060311041783,44.64948661304771],[-0.320610016941269,44.64948172004886],[-0.320652056753913,44.649456128483955],[-0.320763422618559,44.649388176785976],[-0.320842569081132,44.64934110639892],[-0.320812557399691,44.64931164197195],[-0.320660709832193,44.64917464563659],[-0.320543653131997,44.64906895241492],[-0.320508278224934,44.64903415250496],[-0.32049820576794,44.649038870271035],[-0.320481054154494,44.649021994856234],[-0.320467181640072,44.649028628891614],[-0.320439272430711,44.64900270549391],[-0.320397259367581,44.649028746710606],[-0.320389685755287,44.64903302898611],[-0.320369775547981,44.649012181611134],[-0.320353561982275,44.64901978701223],[-0.320323331762961,44.64899303223214],[-0.320283263602026,44.64897711539939],[-0.320255583308597,44.648965782359895],[-0.320238970142176,44.6489815994501],[-0.320213095077361,44.64896877047566],[-0.320154975928479,44.64894213240609],[-0.32016225267882,44.648932813091044],[-0.320188347863888,44.64891725187429],[-0.320551944914165,44.648678541545884],[-0.320768112397449,44.648536257586514],[-0.320911503034651,44.648514829914895],[-0.321082364716021,44.64848834176257],[-0.321374396313268,44.64844676936529],[-0.321389248591358,44.648446052814236],[-0.32140836222914,44.648451245376904],[-0.321437530555341,44.6484664080043],[-0.321482662316481,44.64849541795908],[-0.321521521831427,44.648527229446216],[-0.321832670603147,44.64883127141266],[-0.321300843318843,44.64915604638267],[-0.321247491064628,44.64910322481453],[-0.320894985333109,44.64933736928019],[-0.321223786727037,44.64967746613305]]],[[[-0.320624143416969,44.64855644094819],[-0.320591941444173,44.64858831479598],[-0.320556340199293,44.64861605572554],[-0.320527359051593,44.64863404649236],[-0.320361816037365,44.64873579327683],[-0.320229142342048,44.648825559598436],[-0.320138653829575,44.64888792788285],[-0.319998231652853,44.648989730590465],[-0.319907470193293,44.64906246913352],[-0.319592623622687,44.64934242389452],[-0.319456908167658,44.649462015753635],[-0.319214720803484,44.649674820749844],[-0.319195383923376,44.6496936929686],[-0.319146025679908,44.64974076884505],[-0.318939244547791,44.64993538990557],[-0.318743429207944,44.65011904878034],[-0.318594724917924,44.65025605957698],[-0.318413729218072,44.65041061906132],[-0.318306490016357,44.65049727668964],[-0.318263553882346,44.65052911157685],[-0.318197985815637,44.65057532194198],[-0.317999010560069,44.65070969583387],[-0.317842482856105,44.65081251963301],[-0.31760748333856,44.65093752154605],[-0.317533950173201,44.650874220705454],[-0.317459052282769,44.650811321201225],[-0.317350248315273,44.65071925337546],[-0.317025556073028,44.65044434934068],[-0.316946381483329,44.65048673217833],[-0.31689313103736,44.650514911286734],[-0.316834139392997,44.65054848879667],[-0.31660408721264,44.65032444765307],[-0.316567533323576,44.650291033483086],[-0.316815540430297,44.650151136391315],[-0.31718153035025,44.6499484085159],[-0.316970072334364,44.649748589571246],[-0.316751158186318,44.649544308444824],[-0.316689999582125,44.649485321433744],[-0.316465245681692,44.649274006507724],[-0.316562364695234,44.64925343205835],[-0.316750417921823,44.64922301091469],[-0.316947758135701,44.649191680053086],[-0.317093861521689,44.64917125730301],[-0.317211708519989,44.64916186427023],[-0.317468686698241,44.64915298157588],[-0.317480797794996,44.64915072589877],[-0.317655182069718,44.64910683697835],[-0.317671335849462,44.649104640169824],[-0.317705503934693,44.649103975183486],[-0.317878444023996,44.64909986622459],[-0.317894214485604,44.64909759078103],[-0.317999507296455,44.64905721660967],[-0.318051767116537,44.64903582464968],[-0.318067587094469,44.649027961089054],[-0.31811674402601,44.64899675050851],[-0.318156535897068,44.648977985382004],[-0.318192030048392,44.648963404033125],[-0.318212963125953,44.64895448591309],[-0.3182270814432,44.64894559212645],[-0.31823398396068,44.64894277185193],[-0.318263263850215,44.64893198126718],[-0.318286950764659,44.64891838503914],[-0.318305611139707,44.64890088489048],[-0.318320215910421,44.648878820933774],[-0.318327769816187,44.64885705872576],[-0.318339786499255,44.648806058144444],[-0.31834823945703,44.64878670182511],[-0.31837383654201,44.64875196330758],[-0.318382977107307,44.648742137639076],[-0.318625135352517,44.648895258110855],[-0.318986257050678,44.64862085512595],[-0.319330796704404,44.648358572529084],[-0.319702359468581,44.64807511321108],[-0.319977421354369,44.64786555473621],[-0.32009762858154,44.647941238389656],[-0.320263105968457,44.648050433515955],[-0.320442612696607,44.648187770830376],[-0.320533849073794,44.648260179324126],[-0.320629472631169,44.64834705324578],[-0.320656247590119,44.648373010652584],[-0.320678858267312,44.64842468342869],[-0.320681634969069,44.64844181039053],[-0.320682854744314,44.648453938147696],[-0.320680038410403,44.648468259595525],[-0.320675662336615,44.6484818169353],[-0.320656942626821,44.648513285819696],[-0.320624143416969,44.64855644094819]]],[[[-0.31978596380889,44.64332714336229],[-0.319786549991829,44.643277116691976],[-0.319753735923119,44.64327071346096],[-0.319625535283644,44.6432455493154],[-0.3196077391334,44.6433119515471],[-0.31960639515837,44.643321272869194],[-0.319436329822491,44.64329889755128],[-0.319387515025178,44.643292974708025],[-0.319310393645295,44.64328646015029],[-0.31913239471178,44.64327081026643],[-0.319009866879171,44.643260522844685],[-0.318891645127987,44.6432526289782],[-0.318821050029675,44.64324763015356],[-0.318808754806834,44.64324673781705],[-0.318799004705844,44.6432440570435],[-0.318743619126367,44.643231573222295],[-0.318718318093829,44.64322629571663],[-0.318706720536038,44.643224391252744],[-0.318684781194775,44.64322261706588],[-0.318646830516709,44.643221143364634],[-0.318624192351351,44.6432182187636],[-0.318544249369452,44.64320665232608],[-0.318432622321709,44.64319072073743],[-0.318385356688689,44.64318538169566],[-0.31836916639102,44.643184786454555],[-0.31835078244201,44.643185518553246],[-0.318339276123025,44.6431873056729],[-0.318314874605026,44.64319515660061],[-0.318232738763411,44.6432256453271],[-0.318223921757656,44.64323023510748],[-0.318184096186773,44.64325693070938],[-0.318018074075748,44.64337391647676],[-0.31798995088009,44.6433528648007],[-0.317933858398789,44.64340338612466],[-0.317946432516992,44.643415443373875],[-0.317760096881434,44.6436097189549],[-0.317724236309854,44.643650171749556],[-0.317680435563373,44.64370582049694],[-0.317671900295392,44.64371733996257],[-0.317664730871489,44.6437306205606],[-0.317636516911166,44.64381733869396],[-0.317620960039712,44.64386394004861],[-0.317608214733198,44.64389613011004],[-0.317589307537308,44.64393084786949],[-0.317557805639874,44.64397459383106],[-0.317539578730089,44.64399514446887],[-0.317396803493353,44.64415116843738],[-0.317309694409007,44.64424298788645],[-0.317297936141084,44.644255505106216],[-0.317284753761239,44.64426527176531],[-0.317273222937803,44.644270934075045],[-0.317256762514406,44.644276473999106],[-0.317237397848946,44.64427984841642],[-0.317221506898857,44.644280054971816],[-0.317221386202378,44.644280148700126],[-0.317346317374164,44.64433550931669],[-0.317409152471364,44.644285867241244],[-0.317416031032175,44.644278362195976],[-0.317434298207002,44.64425420611821],[-0.317517214679171,44.64413620134046],[-0.317691485761679,44.64389561322045],[-0.317825339482265,44.64370813918793],[-0.317966752490811,44.64351187797622],[-0.318017657221588,44.64348899479075],[-0.318917852758116,44.64452666748814],[-0.31906349997874,44.64469367686882],[-0.318564049999176,44.64497845063009],[-0.318778324195298,44.64516628719518],[-0.318601247349403,44.645264953652],[-0.318492542940821,44.6451658561206],[-0.31812101984584,44.6454004725822],[-0.318174086037342,44.64545069089072],[-0.318230795589049,44.64550061959983],[-0.318017347272668,44.64562254303022],[-0.317773997298169,44.64575969039934],[-0.317471400172851,44.645926007605766],[-0.317414784576159,44.64589481781812],[-0.317299842304711,44.64582266791364],[-0.317202675487844,44.64575872481246],[-0.317131012131378,44.64570347751047],[-0.317105259730093,44.64567983144533],[-0.31708786037947,44.645667288127285],[-0.317072364643887,44.64565063289808],[-0.317060475126104,44.64563305849817],[-0.317050848239726,44.64561532609651],[-0.317048832942646,44.645596103805445],[-0.317048963203288,44.645501848632804],[-0.317055688769193,44.64546172969775],[-0.317056950608132,44.64540384354598],[-0.317052434540033,44.6453400035406],[-0.317037814161044,44.64525889599638],[-0.31703040095203,44.64522731089895],[-0.317002603750115,44.64517750523045],[-0.316989395276599,44.64516753934099],[-0.316917024787523,44.6451238467731],[-0.316868199673582,44.64508990001004],[-0.316743282647555,44.64500264073329],[-0.316931044715324,44.6448924835254],[-0.317032332076858,44.64483565074534],[-0.317032200787221,44.64483556457862],[-0.31704967772462,44.64482584929763],[-0.317113952769361,44.64478778791466],[-0.317018390308836,44.6446953229899],[-0.31691701227038,44.64475918677643],[-0.316899492547792,44.6447467371612],[-0.316758016123531,44.64485199140205],[-0.316816920673313,44.64489635842226],[-0.316730047784062,44.64499222507629],[-0.31635206665577,44.64472270410275],[-0.316466640769743,44.64466430185358],[-0.316430807482855,44.64463663300769],[-0.316404261871832,44.644620939965215],[-0.316362298088369,44.64456417047461],[-0.316343821184186,44.644526880155],[-0.316322751296956,44.6444798460387],[-0.316309565073404,44.64444023443984],[-0.316301066095525,44.644409492849476],[-0.316298264355525,44.64438119342072],[-0.316301856482389,44.64435216153395],[-0.316315964241632,44.64432380533869],[-0.316341805186996,44.64429536745215],[-0.316355690746044,44.644284678751234],[-0.316389982775042,44.644264727619664],[-0.316409609944848,44.64425080303994],[-0.316436267173682,44.64422765691119],[-0.316464668053187,44.644195537938714],[-0.316480761969388,44.64417090659565],[-0.316507744975702,44.64412756686391],[-0.316537874483456,44.64407764506729],[-0.316564040230228,44.64404829631678],[-0.316585175919679,44.64402783878965],[-0.31659761191391,44.64401611227253],[-0.31661280913636,44.64400412269417],[-0.316668811527779,44.64396919317458],[-0.316722363945827,44.64393767106899],[-0.316744926892807,44.64392645163357],[-0.316773129695592,44.64390812478309],[-0.31681723442997,44.64385976591132],[-0.316931696686182,44.643720180709735],[-0.316942671395545,44.64370507395996],[-0.316958008132503,44.6436890253609],[-0.316974984954135,44.643677252647734],[-0.316992592829143,44.64366762354684],[-0.317002444411429,44.64366345335543],[-0.317028053269543,44.64365466543491],[-0.31704113406188,44.64365174993333],[-0.317058005179029,44.64364890090293],[-0.317110174998534,44.64364535304209],[-0.317126104303888,44.6436179332413],[-0.317142319571549,44.64359537059729],[-0.317179020094882,44.64355417194698],[-0.317220675462147,44.64351138289033],[-0.317249008913913,44.64348241944536],[-0.317345983200852,44.64338453717355],[-0.317376806495212,44.6433485607855],[-0.317395256514938,44.643323227844895],[-0.317407975637898,44.64330131072],[-0.31741551438027,44.64328144129658],[-0.317426755313567,44.64325371162176],[-0.317447552234983,44.64321893718146],[-0.317495463315653,44.643143071465275],[-0.31750828636385,44.643129350883086],[-0.317521363635184,44.64311994777228],[-0.317535638369047,44.64311158999663],[-0.317560830721823,44.64310002114937],[-0.31759237665064,44.64309132522044],[-0.317627735173779,44.64308521804277],[-0.317818406217596,44.64304174064061],[-0.317980296487808,44.6430046232938],[-0.318024732186607,44.642989773524775],[-0.318055970739599,44.64297586051937],[-0.3180762758188,44.64296488878484],[-0.31810000680033,44.6429499396363],[-0.318119118537255,44.64293584999332],[-0.318134335186242,44.64292205748265],[-0.318191322980683,44.642878177039215],[-0.318305656235041,44.64279220744813],[-0.318403487399461,44.64272178089407],[-0.318452341964265,44.64268553319149],[-0.318508400831255,44.64264303205656],[-0.318527752580251,44.64262659236805],[-0.318548486060145,44.64261218363944],[-0.318567211337961,44.64260225040806],[-0.318586185619651,44.64259654469575],[-0.318606405056356,44.6425926938306],[-0.318640500307313,44.642590859242475],[-0.318670030511877,44.642592946167284],[-0.318726841368037,44.64260178295702],[-0.31880299032042,44.642617517934305],[-0.318868009915698,44.64263286616783],[-0.319003334871866,44.64267187381127],[-0.31909269874199,44.64269982669353],[-0.319175606657971,44.64272959527841],[-0.319250603849101,44.64276005188176],[-0.319288752160186,44.642777738580875],[-0.319322419074488,44.64279862345629],[-0.319348341188216,44.64281658716877],[-0.319373582770429,44.64283799535448],[-0.319430767708579,44.64289601865107],[-0.319455124530498,44.642921688390615],[-0.319504410389022,44.64296345939417],[-0.319540267012582,44.64298508941012],[-0.319566906917619,44.643000238222996],[-0.319632614931155,44.64302511663408],[-0.319681177073625,44.64303960705906],[-0.319701291338099,44.64304467968886],[-0.319736335982977,44.64305038519605],[-0.319770870165278,44.6430538533626],[-0.319784530047164,44.64305434418088],[-0.319775420172898,44.64310751024337],[-0.31977305483435,44.64312091703097],[-0.32009526571831,44.643069340166555],[-0.320340733353109,44.64303051993579],[-0.320418959861468,44.64324424540412],[-0.320449052397951,44.643320112162215],[-0.320315870638594,44.64334321527522],[-0.320298710690781,44.643345442740504],[-0.320286494936402,44.64334589977659],[-0.319956606316681,44.64334859975025],[-0.319948761898773,44.64334613215909],[-0.31978596380889,44.64332714336229]]],[[[-0.319848280611959,44.64492231861865],[-0.319780326331431,44.64484650744126],[-0.319633556281615,44.64491110626334],[-0.319441559549936,44.6449964358871],[-0.319412419720769,44.64500956539791],[-0.319123127737441,44.644675306909775],[-0.318698136895314,44.64418428197268],[-0.318051218581577,44.6434395101687],[-0.318102428001314,44.643387513445894],[-0.318153646071108,44.64334209420126],[-0.318193790264112,44.643312235324984],[-0.318248282097977,44.64327311531104],[-0.318327197064292,44.64323722677642],[-0.318358416802332,44.64322727893051],[-0.318398701854556,44.64322552892954],[-0.318510134097038,44.64324029502006],[-0.318796212834584,44.643284508522704],[-0.318885400954157,44.64329660815873],[-0.318915788154034,44.64330038132011],[-0.31900239762278,44.643300844456924],[-0.319090294675147,44.64330388194963],[-0.319153372845034,44.64330982716843],[-0.319339128595346,44.643330740585775],[-0.319478695429288,44.643347454162424],[-0.319541260330444,44.64335539691742],[-0.319602435260224,44.643365453827606],[-0.319595596126553,44.643386473796966],[-0.31972400287465,44.64355436037944],[-0.319852816560754,44.643510664707286],[-0.319941080637839,44.64363344197282],[-0.320007971899168,44.64372550406701],[-0.320240369960494,44.64368545475996],[-0.320268615993411,44.64368073175916],[-0.320266798260913,44.643669162625],[-0.320351235022295,44.64366058923176],[-0.320626770074704,44.6436307769785],[-0.320661558781834,44.643683525477975],[-0.320434430383867,44.6437487373048],[-0.320970534800575,44.64430453823014],[-0.321215203329286,44.64456038854938],[-0.321105315529742,44.64463397318384],[-0.320948024677553,44.64471276629975],[-0.320847014971534,44.64476139475296],[-0.320601009184569,44.64488114773513],[-0.320043732292323,44.64514622009642],[-0.320015862722802,44.64511236613165],[-0.319848280611959,44.64492231861865]]],[[[-0.319533360455109,44.646880058824344],[-0.319379921782946,44.64696224800289],[-0.319263364220865,44.64702557857957],[-0.319236375876297,44.647038823633686],[-0.31908550783844,44.64686043725254],[-0.319045018736921,44.646820203920896],[-0.319002461914951,44.64678129414903],[-0.318960873102709,44.64674595956017],[-0.318856491506786,44.6466667360809],[-0.318762329516376,44.64660243369992],[-0.318668437969254,44.64654271855843],[-0.318471351198204,44.64641104254956],[-0.318412776389396,44.64637018055173],[-0.318384413135805,44.64634508131788],[-0.318350960030003,44.64631499879826],[-0.318264056098189,44.6462238967582],[-0.318222809756268,44.64617936078768],[-0.318097335461834,44.6461684397517],[-0.318372552905201,44.64603015485324],[-0.31846891989064,44.64597977590527],[-0.318556791978046,44.645928750824694],[-0.318617041854068,44.645893062057766],[-0.318785826115168,44.64579500500048],[-0.31883527951045,44.64576459610028],[-0.31889045152578,44.64573698899744],[-0.318923070862319,44.64572078165414],[-0.318906195689156,44.64573642619549],[-0.318893570801716,44.645757800046084],[-0.31888383556438,44.64578323203557],[-0.318883295071282,44.645812622971405],[-0.318885560639183,44.645827512625154],[-0.31889249041269,44.64584658735417],[-0.318902148533542,44.64586269676147],[-0.318915739031015,44.645879138636424],[-0.318959322517779,44.64592477556704],[-0.319354105223499,44.64633128639267],[-0.319596352349711,44.646582437597694],[-0.319766614340445,44.64676006066064],[-0.319533360455109,44.646880058824344]]],[[[-0.318695431524646,44.65149840026056],[-0.318651518906667,44.651453673952105],[-0.318647307636095,44.6514528993008],[-0.318640119852972,44.65145302495884],[-0.318581125936332,44.65148227836327],[-0.31849014333547,44.65152564750862],[-0.318443290310982,44.651548859685626],[-0.3183743279169,44.65158246699076],[-0.31830778248694,44.65151138789781],[-0.318151316816513,44.65133884439762],[-0.318076140539557,44.651258382825915],[-0.317986103021194,44.65115277695801],[-0.317806480058917,44.65097065590813],[-0.317794060942996,44.65095697198799],[-0.317793577724526,44.65094662423155],[-0.317796880025697,44.650936252975164],[-0.317803500898338,44.650926502978095],[-0.31791768724047,44.650848467819884],[-0.318108475027636,44.65071866494172],[-0.318312372596577,44.65057999819514],[-0.318448916121538,44.65048723475584],[-0.318502388957539,44.650454272548735],[-0.318524427130271,44.65044910568529],[-0.318534150807004,44.65044917422894],[-0.318551358870674,44.650454154182995],[-0.318588558908953,44.650466373287216],[-0.318712918665765,44.65052463350808],[-0.318807544087627,44.65057955122099],[-0.31893867219547,44.650666982781544],[-0.31897449758679,44.650690145935926],[-0.319108778829231,44.65080109059426],[-0.319484196642904,44.65107545701437],[-0.319712853532048,44.651247723215626],[-0.319447344428161,44.65140761548614],[-0.319267167299162,44.65151610730061],[-0.319167706771035,44.65158054620079],[-0.318926378683333,44.65137531979582],[-0.318695431524646,44.65149840026056]]],[[[-0.316863221594132,44.65128252525729],[-0.316702542946746,44.65134492394348],[-0.316495249734406,44.651447466594135],[-0.316381319574401,44.65151918506338],[-0.316151710141991,44.651662944414895],[-0.315945300072086,44.65179339251719],[-0.315836601588212,44.65181890903925],[-0.315500035448932,44.65182909313948],[-0.315399696875837,44.65183579657316],[-0.315334703358594,44.65185108138641],[-0.315181379911759,44.6518969479323],[-0.31501586707901,44.65194804551086],[-0.314984236397391,44.651955391517774],[-0.31487964478528,44.65197348530913],[-0.314715238269696,44.65201121349342],[-0.314618978784247,44.65204005020607],[-0.314561129101194,44.65206304973947],[-0.314508620440401,44.65208886262878],[-0.314335181543158,44.652181195227406],[-0.314259750053675,44.65222076062856],[-0.314221347002395,44.652241735296876],[-0.314120693404666,44.652307466721595],[-0.313858649793595,44.65245579761301],[-0.313638414955748,44.652580978885],[-0.313576683995973,44.65261526741005],[-0.313472866908862,44.65247916449104],[-0.313373891641846,44.65234381745143],[-0.313246601996951,44.65219922698241],[-0.313240943065034,44.65220173934159],[-0.313232328655675,44.65220551165623],[-0.313210815033374,44.65217669159475],[-0.31321536632202,44.65217466296383],[-0.313316769601103,44.65212810259016],[-0.313650376215714,44.65197744786764],[-0.313722135292682,44.651944120201],[-0.313994037682863,44.65181964260144],[-0.31400682518445,44.65181385289665],[-0.313793087059192,44.65126619533294],[-0.314653005849214,44.65109732736677],[-0.314701782950776,44.65107676233909],[-0.314577696422569,44.65095658636818],[-0.314483782646373,44.65086650228946],[-0.31446931018723,44.650850086283164],[-0.314468932418244,44.65083937494382],[-0.314470176868404,44.65082834464983],[-0.314476545281005,44.65081643988381],[-0.314490981434559,44.6508000582367],[-0.314526552017222,44.650776014650006],[-0.314543779213939,44.650766307298596],[-0.314562415676573,44.650761243226675],[-0.31464017924112,44.65075062192702],[-0.314659891535959,44.6507445344115],[-0.31467969075354,44.65073348843219],[-0.314689684610706,44.65072742197666],[-0.314727215195929,44.65069593082788],[-0.314832448623754,44.6505965418665],[-0.314877726250195,44.65053796665515],[-0.314888274959759,44.650528459498744],[-0.315036938844278,44.65041848710653],[-0.315078084098983,44.65038193158598],[-0.315121231844524,44.65032792545688],[-0.315211716933039,44.650231050812806],[-0.315251056544767,44.650195991073474],[-0.315379414769956,44.65011636224445],[-0.315402920803947,44.65009538335931],[-0.315467219104518,44.65001470202174],[-0.315512096357497,44.649966500778966],[-0.315558193287877,44.649932589862736],[-0.315590585215924,44.64990602815605],[-0.315695365563153,44.64984188352579],[-0.315729710966991,44.64982706713192],[-0.315817544945266,44.64978811981497],[-0.315898506755008,44.64973964705342],[-0.315908123353289,44.64973575435158],[-0.315919149308234,44.64973650491196],[-0.315931641798568,44.64974072563513],[-0.315947218776423,44.64975017011997],[-0.315969645576214,44.64976661766033],[-0.316019790398369,44.649807914131486],[-0.316088645607879,44.649877573526574],[-0.316262175193735,44.65005068894257],[-0.316536865389752,44.650310425353176],[-0.31665245383235,44.65041914028099],[-0.316757028287204,44.65052944703566],[-0.316799623460968,44.65056898736075],[-0.316611253622557,44.65068844321566],[-0.316774937371434,44.65085077027568],[-0.316645254730051,44.650927196653086],[-0.316714808602641,44.650982958384695],[-0.316726021087658,44.65097829688397],[-0.316747342109961,44.65099739056023],[-0.316769723614539,44.65098518544555],[-0.316808267715703,44.651018089331906],[-0.316831657864771,44.65103802198133],[-0.31681398520488,44.65104873423617],[-0.31683334621957,44.65106455275957],[-0.316852740619841,44.65105306799314],[-0.316920937238573,44.65110292329652],[-0.316984866701581,44.65115533946879],[-0.317037175954138,44.65120549116978],[-0.316863221594132,44.65128252525729]]]]}}]}
