{"type": "FeatureCollection","name": "aoc_geojson","features": [{"type":"Feature","properties":{"dt":"Colmar","type_prod":"Vins","categorie":"Vin mousseux \"Crémant\"","type_denom":"appellation","signe":"AOC","id_app":2,"app":"Crémant d'Alsace","id_denom":3,"denom":"Crémant d’Alsace","insee":"68147","cvi":"1B001M 1, 1B001M 3, 1B001M 4, 1B001M 5, 1B001M 6, 1B001M 7, 1B001M00, 1S001M00","nomcom":"HUNAWIHR","insee2011":"68147","nomcom2011":"HUNAWIHR","id_aire":16,"crinao":null,"grp_name1":null,"grp_name2":null},"geometry":{"type":"MultiPolygon","coordinates":[[[[7.300568680393472,48.18063329192459],[7.300615777232386,48.18049532241089],[7.300545175442414,48.18033668266106],[7.300080552998191,48.18039417328209],[7.29988152181447,48.18040224007519],[7.299763731814712,48.18040689445709],[7.299505625960544,48.180417564650185],[7.299277068284978,48.180427067150724],[7.299139558942168,48.1804328001185],[7.299065571479717,48.18044585990705],[7.29906517577005,48.180445964443614],[7.299016764635316,48.18080430952391],[7.299217864434365,48.18082491518039],[7.299043491170137,48.18115874447942],[7.299140608166161,48.18119305264182],[7.299257119440215,48.181233862942285],[7.299537577513489,48.18133538147978],[7.299538750014815,48.18133488817159],[7.299927323431609,48.18111958941483],[7.30022191932829,48.18123915443981],[7.300484772148194,48.18090317865076],[7.300514300225149,48.18080919458181],[7.300568680393472,48.18063329192459]]],[[[7.304619766173605,48.17448047350821],[7.304139494598669,48.174314078129704],[7.303965698985607,48.17431906897282],[7.303965161674873,48.174319088581235],[7.303454146113236,48.17424978448245],[7.303375088059451,48.174236899186326],[7.303375000291345,48.17425068991428],[7.303383055776861,48.17431311570223],[7.303419497570045,48.17450553223953],[7.303419272882134,48.17450608112532],[7.303393727208795,48.17460253465368],[7.303342626040397,48.17481679916132],[7.302923934404241,48.17475457717203],[7.302914922405911,48.17485222961014],[7.302914433942066,48.174854500293385],[7.302872670227942,48.17510564108388],[7.302872557879868,48.175105915526146],[7.302828724983776,48.175254040808774],[7.302763332985231,48.17548144225726],[7.302763870308238,48.17548142265433],[7.303230565514546,48.17558370701757],[7.303231662146036,48.175583937348705],[7.303384846281132,48.17561691708698],[7.303406143984583,48.17562695371481],[7.303654104060592,48.175743255132865],[7.303658033897181,48.17574518436601],[7.303748742595245,48.175788553668504],[7.303793924818514,48.17581060503414],[7.304009989846453,48.175862916860524],[7.3040895780841,48.1758773144096],[7.304115421189151,48.175881958398],[7.304118435121043,48.1758825693241],[7.304257984530863,48.17590694399231],[7.304259200845823,48.17590698971741],[7.304403966876012,48.17591603459993],[7.304539256433872,48.17592452402811],[7.304539928092439,48.175924499514345],[7.304585989377642,48.17592759445931],[7.304644593080737,48.175881299425726],[7.304668224566153,48.17578122081984],[7.304711770686906,48.1756676190719],[7.304904564907764,48.17517216115799],[7.30475693938774,48.175124742402915],[7.30475415749882,48.17512367245171],[7.304631109959289,48.175083556880054],[7.304561932115378,48.17506959079782],[7.304561663456305,48.17506960060338],[7.304474114057366,48.17505008709266],[7.304508388239668,48.17491862061447],[7.304619766173605,48.17448047350821]]],[[[7.304821261309288,48.17556467694553],[7.304729724490909,48.17579519676154],[7.304710733333297,48.17588609456369],[7.304736321214411,48.17592228781818],[7.304694870778338,48.175975706676276],[7.304648680058348,48.1759743286721],[7.304581692284541,48.17597235797831],[7.304281691748701,48.17595311856316],[7.304246613951013,48.17595088426205],[7.304175996601532,48.175940755267376],[7.30417082602749,48.17594013293311],[7.304127082515991,48.175934069578645],[7.304065236911533,48.17596705558494],[7.30407227179933,48.17599878949927],[7.304072396399173,48.17600031689836],[7.304097415910495,48.17617819097089],[7.304097437898905,48.17617846051187],[7.304110832186461,48.17627989117136],[7.304110927470052,48.17628105918218],[7.304140230989164,48.17644868406405],[7.304146963072299,48.17647835638539],[7.304195156010919,48.176624835916634],[7.304229098736092,48.17672380447459],[7.304245588914251,48.17677069299076],[7.304282264886082,48.17686848040948],[7.30445758411219,48.17735437725278],[7.304545854272246,48.17763204238248],[7.30460913341896,48.17782798461212],[7.30461127308693,48.177829438466325],[7.304688767635785,48.17787923696478],[7.30475388720214,48.17788965650882],[7.304755125555674,48.17788997176928],[7.305075587280327,48.17794351803273],[7.30535714279041,48.17798920185404],[7.305359873519409,48.17798964286131],[7.305485820421609,48.178032175227195],[7.305490519856892,48.1780336257394],[7.305826493771363,48.17814184392508],[7.305829820522629,48.17814298407871],[7.305952175082734,48.17818276345151],[7.306014341065199,48.17821311533179],[7.30601883052047,48.178215294405625],[7.306157310130038,48.178282600591096],[7.306158152821746,48.17828302039725],[7.306277062823431,48.1783416690195],[7.306279307561906,48.17834275855136],[7.306369316875018,48.178420395039616],[7.306370039900012,48.17842099944247],[7.306499969657532,48.17852880847286],[7.306501266707564,48.17852984248848],[7.306530329512705,48.1785541035069],[7.306572101884271,48.17859376060625],[7.306637546339264,48.17865436105318],[7.306659906653643,48.178674090704455],[7.306772834526827,48.17877332857772],[7.306784312747548,48.178783542966364],[7.306676037147491,48.17880732171611],[7.306637208361242,48.178775667472955],[7.306563151061291,48.178710244978035],[7.306562271689472,48.178709375941466],[7.306432966376422,48.178597669250664],[7.306337429803687,48.17852825479796],[7.306219826750806,48.178442704400155],[7.306163978620384,48.17840392154203],[7.3060310285295,48.178336683828235],[7.306030185837948,48.17833626402119],[7.305874710794614,48.17826047658411],[7.305650921849379,48.17818465958134],[7.305488485276322,48.178129221315444],[7.305487515587267,48.17812889625507],[7.305306596888608,48.17807151909852],[7.305087014765405,48.178034026373666],[7.30465184764374,48.17796673379995],[7.304651161297932,48.17796657862061],[7.304521070222421,48.1779211327483],[7.304491019729971,48.17790456704036],[7.304471591269123,48.17780020271157],[7.304525682009955,48.177784441131024],[7.304518590520865,48.17775532264728],[7.304518270535284,48.17775470352463],[7.304483022126395,48.17764965494821],[7.304388057185315,48.17736259186992],[7.304163734551762,48.176733489136325],[7.304070954285847,48.17645499700623],[7.304044936124936,48.17629130737431],[7.304023422446459,48.17614980173111],[7.304015285649211,48.17610125662339],[7.304001454811639,48.17601759443148],[7.303974053541027,48.175911268034156],[7.303763043970321,48.175851562502615],[7.303623887471945,48.17578409821106],[7.303352565717242,48.17565558254268],[7.303275339777826,48.175638755345574],[7.303273825495711,48.17563836002465],[7.303122038404072,48.175604337912304],[7.302728834368086,48.175520999482494],[7.302687729142512,48.175512586500375],[7.302415744110101,48.1754105866245],[7.302189232963018,48.17523672824953],[7.302113732383245,48.175214610750544],[7.301955395538948,48.175263821476],[7.301701456109581,48.175343463191695],[7.301699880769968,48.17534397122195],[7.301614829514327,48.17536996236992],[7.30126078025032,48.17547434109744],[7.301260242926828,48.175474360693535],[7.300875156580473,48.17558807051807],[7.300751306882342,48.17562403670357],[7.300505739125321,48.175697332765644],[7.300354403805939,48.175753134605934],[7.300109793531262,48.17551252693819],[7.300016782767436,48.17542102775933],[7.299578921803757,48.175209542697],[7.299122046205229,48.174991179635114],[7.299121337951819,48.17499075488121],[7.299056798740997,48.17495598038316],[7.298612727327847,48.1747128178978],[7.29859718252721,48.17470392247867],[7.298581215957292,48.17471630938565],[7.298612111951001,48.174804486485634],[7.298596700667764,48.1748054987631],[7.298635671324945,48.175015936872526],[7.298664151940837,48.17516872375061],[7.298685616180848,48.175284999756606],[7.2987414873489,48.17561025805723],[7.298826383242988,48.17608503912031],[7.298836363025215,48.176083503885785],[7.298839085171242,48.176098724072105],[7.298837883497582,48.17609885798582],[7.298840280239239,48.176121659620954],[7.29882522508743,48.176123740302664],[7.298793695514142,48.1771340774568],[7.298975945016771,48.177155009656204],[7.299134268320683,48.17717663347638],[7.299551744195952,48.17719070260295],[7.299549025310624,48.17707797882863],[7.299684092617188,48.177082066403],[7.2997957625351,48.177063577128095],[7.299825051810128,48.17707413407284],[7.29984886011477,48.177086873340066],[7.299944110891691,48.17722235679674],[7.299953499727372,48.177221834275656],[7.29996761959349,48.17722149972851],[7.300289870783893,48.17720785838698],[7.300316030081603,48.17756186428603],[7.301044244825314,48.177530084471115],[7.30103221070963,48.17760558843621],[7.301451003920147,48.17764402389886],[7.301615414056799,48.17765929472144],[7.3016963697915,48.17766895812679],[7.301698272478086,48.17766915907477],[7.301982174681428,48.1776214068452],[7.302082573710029,48.17772741385175],[7.302235051291847,48.177885499588726],[7.302235937905277,48.177886458505014],[7.302408075927222,48.1780625706574],[7.302408246898859,48.178063014991984],[7.302430360977956,48.17810618407217],[7.302430539276823,48.17810671825369],[7.302453703629016,48.17815615701506],[7.302454060227567,48.178157225378],[7.302526298851261,48.17832103124338],[7.302526499133112,48.17832183496555],[7.302578406751509,48.178472594960496],[7.302771240912091,48.178496019044154],[7.30281094898831,48.17863595971419],[7.302809329598205,48.17864088495957],[7.302792512835863,48.178687456706],[7.302770913575605,48.17872825537544],[7.302770823202,48.178728799357685],[7.302769562839625,48.178822383903984],[7.302770017136596,48.17889734236386],[7.302771353196232,48.178941810048045],[7.302893546027367,48.1789498782456],[7.303165571580159,48.178967889523996],[7.303438425342331,48.178986140307074],[7.303438320935668,48.179036067413314],[7.30342676899969,48.17934044423436],[7.303589558396503,48.1793655039751],[7.304342173082041,48.17942770475842],[7.304608591678342,48.17946448097519],[7.304705627810203,48.17947797116529],[7.304706575526327,48.17947802669153],[7.304867335592512,48.179488109678296],[7.304983203704269,48.179494604318336],[7.305083258664616,48.1795005045313],[7.305104372319381,48.17939267806798],[7.305108167265967,48.179374787029566],[7.3051245873459,48.17929200342263],[7.305380210515321,48.179295559273044],[7.305445876157246,48.17929613609572],[7.305617560564296,48.1792914910942],[7.30570076832178,48.179551587600024],[7.305709659442207,48.17955486760716],[7.305768371368622,48.17955443650425],[7.305809596987903,48.17955437337751],[7.305734183603746,48.179307239208846],[7.305918878187528,48.17928040126285],[7.305945272205896,48.17927691449907],[7.306078981332891,48.17925932698643],[7.306346264979763,48.17922415641107],[7.307045505754005,48.17912932677995],[7.307091617970912,48.17906203958196],[7.307088987146842,48.17905952233131],[7.307293531975377,48.178990324408126],[7.307354729651986,48.17907315762645],[7.307354893333101,48.179073512106946],[7.307375054606418,48.1791075600302],[7.307375218287777,48.17910791451066],[7.307458096174315,48.17921699028223],[7.307466721846225,48.17922857038711],[7.307467117530138,48.179228465822284],[7.307476823938088,48.17922522768145],[7.307482199829645,48.17922340929318],[7.307485326765661,48.179228701967034],[7.307503208111863,48.179249676417015],[7.307524363129581,48.17927774046845],[7.307551772064889,48.179316389859196],[7.307566211525684,48.17933316450417],[7.307569653467174,48.17933736429786],[7.307567113381134,48.17933925935327],[7.307624324787701,48.17941286611628],[7.307687177239372,48.179392187304],[7.307708541919836,48.17938816290755],[7.307790182525297,48.17949692319585],[7.307921894765167,48.17946643003913],[7.307943523086053,48.179460683796094],[7.307961698152898,48.1794852520353],[7.308112639390052,48.17946748340436],[7.308137853640826,48.17946439969829],[7.308067253045308,48.179358840970096],[7.308067106312006,48.17935704403907],[7.308148489611063,48.17933064171961],[7.308263728558475,48.17932282791254],[7.308338214781996,48.1792812677958],[7.308447221675649,48.17924169077829],[7.308498906462061,48.17922286127927],[7.308508678842289,48.17922043167237],[7.30863401957653,48.17918782743925],[7.308726541800866,48.179152637139424],[7.308695942331998,48.17913762444421],[7.308727481088328,48.17912124295422],[7.308720018483297,48.179115658120274],[7.308719004729795,48.17911479400751],[7.308630859665216,48.179040245087634],[7.308638731505853,48.17903599248859],[7.308592851419004,48.17899720703286],[7.30856886241489,48.1789674443832],[7.308602469820848,48.17894999609545],[7.308697778339515,48.178912631379795],[7.308707152713648,48.17891192847008],[7.308726106917431,48.17891303835148],[7.308820923087833,48.178886144809034],[7.308700876407201,48.17870309188753],[7.3086941984365,48.17870216434861],[7.308506108049749,48.17844319720361],[7.308744024168474,48.17838341107399],[7.308746928231373,48.17838267418235],[7.308840503931339,48.178367000109546],[7.309113500084195,48.17831935873298],[7.309116343184091,48.178319525205666],[7.309083895914123,48.178270336557226],[7.309139259822545,48.17818603918068],[7.309138678444437,48.17818551973326],[7.309360485087055,48.17811163214596],[7.309371459683068,48.17807608644392],[7.309435156841311,48.17789587273123],[7.309452292012796,48.17784667482997],[7.30950055016354,48.17770838779418],[7.309537468978816,48.17759953198139],[7.309541268033426,48.1775883090583],[7.309552252607983,48.17755618731322],[7.309583687405669,48.17750060942373],[7.309654590716311,48.17737564284489],[7.309677698484147,48.177335238116726],[7.309758610647833,48.17719260368624],[7.309778514136339,48.177099779105816],[7.309839299678229,48.17711981627252],[7.309865186578333,48.17716951482371],[7.309963700885426,48.17720772815609],[7.310229168593035,48.177290664997585],[7.310230414305265,48.1772910700473],[7.310660216988609,48.17742459235944],[7.310660634675108,48.1774247573233],[7.310900581558523,48.177497090764824],[7.310901543928065,48.17749732593441],[7.311012251772731,48.177531398047925],[7.311014877555778,48.17753220322057],[7.311103384923292,48.177560057749],[7.311103936947509,48.17756021780107],[7.311328746219914,48.17763031015818],[7.311332617741414,48.177631520361714],[7.311575133545547,48.177703938815846],[7.311635974032475,48.17772298182767],[7.311665846603754,48.177729098979206],[7.311669412756095,48.17772986976119],[7.311787843113795,48.17775455726868],[7.312072151499732,48.177815714490656],[7.312073382551946,48.17781593982797],[7.312202990121349,48.17788176124808],[7.312445052194842,48.17801123729593],[7.312587601370504,48.17806559111934],[7.31263392175322,48.17808336225792],[7.312703257498311,48.178112367216194],[7.31270451059328,48.17811286208592],[7.312798028881774,48.178150895388335],[7.312900119970026,48.17817347583897],[7.312901903070194,48.178173861211214],[7.31315796233042,48.178233886148085],[7.313159589062205,48.178234006890065],[7.313222296917886,48.178241265894556],[7.313223386302848,48.17824140628615],[7.313297645022421,48.17824986491019],[7.313369053310235,48.178258067270974],[7.313371635092121,48.17825833331306],[7.313400667534547,48.17826240812275],[7.313555130553133,48.17828118030618],[7.313636910138253,48.178290985734144],[7.313684298481918,48.1782970925927],[7.313817317145738,48.17830736689044],[7.313925156083803,48.178317841081174],[7.314064582094563,48.17833067431625],[7.314194767340082,48.178362318962805],[7.314215380752499,48.17836724221396],[7.314301564401406,48.178388060355594],[7.31436323889741,48.1784040977169],[7.314468186326265,48.17837097142534],[7.314588043913183,48.17833234328293],[7.314906071468015,48.17818625748235],[7.315025752628677,48.17807464214174],[7.315022829334239,48.17779178785445],[7.315021682771436,48.17776623712658],[7.314899353358118,48.1774039442137],[7.314759874674624,48.17715978858706],[7.314561868014663,48.1769330934378],[7.314489999041823,48.17676765789246],[7.31452716013942,48.176490546301224],[7.3145273553313,48.17648963800973],[7.314535872125713,48.17642408311429],[7.314551910712576,48.17628904464467],[7.314556343078767,48.17614388727054],[7.314565505340395,48.17590663940976],[7.314588850621468,48.17582305967532],[7.314657883741157,48.175568301900014],[7.314658318197705,48.175567024393715],[7.314661590200819,48.17555266649561],[7.314689687030148,48.17538880048782],[7.314721592966685,48.17521055689447],[7.31470283623104,48.17498613533053],[7.314620227997852,48.174951309087575],[7.314617519390232,48.17495113783282],[7.314516367969612,48.17494492560847],[7.314417507500539,48.17493871960597],[7.314318654401386,48.174932603367076],[7.314118212376085,48.17491821783918],[7.313959315666238,48.1749077192425],[7.313761536255678,48.17489458744963],[7.31367832415439,48.174888619508195],[7.313454227238241,48.17485680468551],[7.313249906563105,48.17487572192401],[7.313248436297359,48.174875865809845],[7.313229100375787,48.17487666307861],[7.31322886322002,48.17487541014017],[7.313228757290515,48.17487081814307],[7.313228906308385,48.17487099292343],[7.313213659647976,48.174826222616474],[7.313213256663633,48.174826237354345],[7.313138022440675,48.174626139640225],[7.312515473633578,48.17468260847589],[7.312115356775307,48.174707691817936],[7.311866990450341,48.17472344098519],[7.310933060540003,48.174801107723106],[7.310100168709519,48.1748671444261],[7.310023484344846,48.17490644340101],[7.309962681958939,48.17490596194141],[7.30992921853174,48.17486410990072],[7.309689264663272,48.1748608031107],[7.309369660713987,48.17485554000427],[7.308932515918695,48.174846279934506],[7.308888115301758,48.17487836094214],[7.308801869528819,48.17486493077289],[7.308734884756018,48.174813489321856],[7.30810278339035,48.174642473383535],[7.307890643677137,48.17458542980412],[7.30788735378395,48.174584738940055],[7.307795917602509,48.174558881576644],[7.307533326343386,48.17449115420484],[7.307530573771902,48.174490443706134],[7.307371335070239,48.17444930979969],[7.307369955119264,48.174448909625],[7.307207004114688,48.17440520764415],[7.307206041817941,48.17440497244396],[7.306903808497063,48.17434013332318],[7.306580605289138,48.174297326267734],[7.306080151813828,48.17434263410414],[7.306046632350823,48.17432646580966],[7.305868530541435,48.17423906888915],[7.305786146350407,48.17419864141136],[7.30554688889239,48.17474536081847],[7.305546043904606,48.174746563156674],[7.305366198342662,48.174872260142465],[7.305361387099709,48.17487604036263],[7.305356517204612,48.17487910180664],[7.304983330053625,48.175146757477904],[7.304966499284079,48.1751947721009],[7.304821261309288,48.17556467694553]]],[[[7.305108886329615,48.173082603812695],[7.305111748756642,48.17308466207535],[7.305381238790698,48.17324532131585],[7.305536301137725,48.17333770527672],[7.305543950592912,48.173342292208375],[7.305702672245685,48.17343823707691],[7.305829648516689,48.17351497484412],[7.305937635666905,48.173580240305135],[7.305960584246396,48.17359400101824],[7.306179382962647,48.17372776274363],[7.306294251274,48.17379809342032],[7.306296950128322,48.17379979716997],[7.306309382456355,48.173815113299746],[7.306309971091434,48.17381572260967],[7.306409135291807,48.173914832518754],[7.306410879204591,48.1739163909059],[7.306471858244202,48.173980128260666],[7.306472156230198,48.173980477838676],[7.306639816168185,48.1741528729266],[7.306738747776952,48.174227660091226],[7.306920718295747,48.1742980630099],[7.307004386129335,48.174312940373845],[7.307006699031528,48.174313216366976],[7.307256426395115,48.17436861837292],[7.307440415853554,48.17441587740643],[7.307440833506202,48.174416042382056],[7.307819999772052,48.174515557876155],[7.308503995019096,48.17470008911961],[7.308687540295492,48.17475177813591],[7.308847354934721,48.17479333986172],[7.309060677566071,48.17480050504292],[7.309061349208243,48.17480048050339],[7.309345695560143,48.17480955593043],[7.30931969244182,48.17465613925674],[7.309318455764775,48.17464924559699],[7.309303411828344,48.17455742751993],[7.309285520366686,48.1744472399275],[7.309266272665701,48.17433034326395],[7.309232389435662,48.17412332574731],[7.309209717600758,48.173984295783974],[7.309188864458612,48.173857635215946],[7.309159881499729,48.17359348594042],[7.309159683381211,48.1735910600758],[7.309148571829216,48.17353748721917],[7.309148535140735,48.17353703798496],[7.309140162389424,48.17345101378745],[7.309136711897749,48.173393916865905],[7.309136484430423,48.1733911316135],[7.309106041813708,48.17310910271347],[7.309058753712653,48.172587803149746],[7.308850479937799,48.172573064384814],[7.30876839291116,48.172565970641024],[7.308479007558665,48.17255113075775],[7.308207961347569,48.172538143444655],[7.3080065632448,48.17252675662867],[7.307659640049693,48.17252167632036],[7.3075947396927,48.17251882020755],[7.307493521736286,48.172526572396976],[7.307486551357226,48.172469243562205],[7.307463687570308,48.17236410351962],[7.307427067433937,48.172182868229115],[7.307409441437533,48.17209402788783],[7.30740081490739,48.172031262515695],[7.307354535963598,48.172015560638314],[7.307257187228628,48.17202118881363],[7.307093748501376,48.17195326378114],[7.306891521854223,48.17187062451592],[7.306771572493562,48.17177101243288],[7.306603101608296,48.17163316113529],[7.306549252851641,48.17158907885326],[7.304168459764541,48.17168311446703],[7.304095005779978,48.17168768772163],[7.30410632890819,48.171730709773364],[7.304146546190522,48.17188351841031],[7.304171620413406,48.171977854553525],[7.304171813367226,48.171978568429154],[7.304195862009509,48.17207519486324],[7.304215445853757,48.17215342060881],[7.304215668125258,48.17215449387321],[7.304235516014509,48.172240910416185],[7.304235530672826,48.17224109011065],[7.30425744463178,48.17232310573459],[7.304257918494764,48.17232561165189],[7.304279395445787,48.17241052689014],[7.304279930340824,48.17241212943257],[7.30429162503077,48.172456399501215],[7.304291908335171,48.17245656939067],[7.304327282503342,48.17248393478727],[7.304460380438199,48.17258622330106],[7.304461960608013,48.17258742723232],[7.304564732826215,48.17266477934232],[7.304566737960371,48.17266623810527],[7.304595142079152,48.17268908175394],[7.304659016022846,48.17274045870107],[7.304661751420145,48.1727426117252],[7.304699929725378,48.17277131650139],[7.304702069190996,48.172772770358996],[7.304761251532246,48.17281783024347],[7.30476439723925,48.17282005840321],[7.304904967900821,48.17292639919526],[7.304907547002524,48.17292828757517],[7.304959104708514,48.17296740777133],[7.304959969297369,48.17296809712897],[7.305008628009228,48.1730047098003],[7.305010073879812,48.173005918627176],[7.305108886329615,48.173082603812695]]],[[[7.307515623300484,48.18022687482361],[7.307491375649225,48.18022694930475],[7.30748813905919,48.180088291272114],[7.307484765836854,48.180088234231334],[7.30736962463894,48.180089014713424],[7.307381399412077,48.180021990149115],[7.307389937013979,48.17997472874495],[7.307389712344064,48.179975277636245],[7.307253981469215,48.17995986840693],[7.307238015536855,48.180061379602776],[7.307111971499631,48.18007220022024],[7.307121508832184,48.180119702707486],[7.306940417159879,48.18014614053197],[7.306913247562471,48.18004440219927],[7.306908604271721,48.180045292662214],[7.30677655186264,48.180061739177155],[7.306661550793708,48.18007413861013],[7.306651809831606,48.180075305305266],[7.306598254030657,48.18008113565864],[7.306561310938594,48.17992568548028],[7.306486226261789,48.179930229210775],[7.30647655226996,48.179910757252564],[7.306500147044714,48.17990268663119],[7.306490326371688,48.17988141774143],[7.306465944697381,48.17981382100337],[7.306302488160475,48.179825195703934],[7.306254858593649,48.17983594606578],[7.306183022872615,48.179843975565824],[7.306158785305447,48.179769885281324],[7.306129004548428,48.17967905585893],[7.306103115719849,48.179678829522956],[7.306027075995407,48.1796782713211],[7.305969509349929,48.17967622764911],[7.305939375284529,48.17967516499927],[7.305883547747449,48.17967296768236],[7.305873689514521,48.179672696766936],[7.305645379463557,48.179663729277976],[7.305507620629331,48.17965812446344],[7.305469777813614,48.1796567122856],[7.305464076828301,48.17965619947147],[7.305243758568784,48.179637837942835],[7.305177017550412,48.179632343956],[7.305010807444567,48.17961822492051],[7.305010673103502,48.179618229823774],[7.304879174788293,48.1796133870389],[7.303912758296422,48.17951528585613],[7.303662300083409,48.179505680913074],[7.303383009967773,48.17949775817631],[7.303170265599881,48.179555713568746],[7.302823687590945,48.179652884405925],[7.30249549635161,48.17968639368313],[7.302461825479165,48.17968987475461],[7.302304291732156,48.179697873862715],[7.301905326532973,48.17971774243936],[7.301734180156954,48.179725696578366],[7.301567154367464,48.17973295950766],[7.301301797718232,48.17974389819735],[7.301189927674163,48.17974842829252],[7.301090503049561,48.17981306110406],[7.30088410529047,48.18021997266695],[7.300960393845291,48.18053430213584],[7.301102964295199,48.18076087663782],[7.301239014915241,48.18104464077099],[7.301376884245974,48.18142340867151],[7.30147597357274,48.18169175915849],[7.301593069597637,48.181928093225196],[7.301708461367037,48.182059236228916],[7.30181817222871,48.182044691807505],[7.302053451630341,48.182016736459204],[7.302132411530109,48.18199358096967],[7.302280870608566,48.1819502281989],[7.302410095786925,48.18191226271762],[7.302560403445282,48.18188497255927],[7.302716715015643,48.18187512554547],[7.302740450470056,48.18187371904616],[7.303397223728159,48.181837594154594],[7.303434245810604,48.181914822931375],[7.303528682355982,48.18210782618245],[7.303600321217403,48.1822542611324],[7.303600506871578,48.18225488515727],[7.303647285403735,48.18231625828546],[7.303753103004857,48.182455498596376],[7.303656780356256,48.18247559397098],[7.303792696936322,48.18272115202386],[7.303868472670109,48.18285716286737],[7.303924537686765,48.18295802746428],[7.304043689293508,48.18318139808826],[7.30416130488643,48.18338427864343],[7.30405220583367,48.1834327758124],[7.30417076252888,48.18354478707773],[7.304283066112989,48.18365116899646],[7.30433671995548,48.18377365863464],[7.304376735221958,48.18386771932576],[7.304416604009123,48.18395998306739],[7.304453639264277,48.18405054791258],[7.304503035734385,48.184160486751125],[7.304549891978563,48.18427232054473],[7.304576373807656,48.18433263169906],[7.304609549493924,48.1844089190946],[7.30466950058213,48.18454911145913],[7.304666960141308,48.18455100644534],[7.304896131163854,48.18455210522264],[7.305277034191871,48.18465886652611],[7.305313031804535,48.1846689971831],[7.30531327118144,48.18466862799033],[7.305340022750407,48.18467774438783],[7.305328222322321,48.18469331423336],[7.305314589895576,48.18471120379139],[7.305247722204204,48.18479835145609],[7.305247788197817,48.184799160073595],[7.30518999727477,48.184875342965555],[7.305095026199502,48.184999561783016],[7.305019527779389,48.18509819839019],[7.305093542101999,48.18519273020548],[7.305163026964784,48.1852713869977],[7.305325349690701,48.185455603255654],[7.305358747579143,48.18549331355767],[7.305623975845911,48.18566205878644],[7.305775924622981,48.185682825903356],[7.30599219225007,48.18559842495902],[7.306157644444766,48.18557165915541],[7.306158181869187,48.18557163953716],[7.30638428848968,48.18556320525042],[7.306550933086908,48.18557910940981],[7.306897995247573,48.18564096284331],[7.306991985963571,48.185668169945686],[7.307015063984014,48.185673545207365],[7.307088805190864,48.185690407542026],[7.307280118118348,48.18573280468004],[7.307375379109236,48.18572770426499],[7.307431053890445,48.1857527055449],[7.307555718294109,48.185761129802266],[7.307704772335587,48.18577118648564],[7.307816562903954,48.18577872887467],[7.307826048565978,48.185779373730774],[7.307933771787701,48.18578661397165],[7.307964251467736,48.18578856475636],[7.308071146575474,48.18579556477308],[7.30862907903684,48.185832319968846],[7.308999016203071,48.185839263349536],[7.309058496604425,48.18583330583063],[7.309130651456576,48.18579444418611],[7.30933153082406,48.18558606123707],[7.309340463135595,48.1855766333935],[7.309576128967011,48.1853850019823],[7.309849251797731,48.18523291337492],[7.309824605599348,48.18511927860357],[7.309822528007978,48.18511034308238],[7.309775310142748,48.185014023878395],[7.309719183542269,48.184899376479684],[7.309716615483476,48.18489433378951],[7.30967139805033,48.184830743056985],[7.30962727534374,48.18476900471328],[7.30958710835325,48.18471279903631],[7.309581163924198,48.18470436523832],[7.309550205501261,48.184660258895676],[7.30947550582093,48.18455412987047],[7.309414647033043,48.18444587310012],[7.30940202718886,48.18442335499212],[7.309342605401084,48.184317839231575],[7.309310099390278,48.18425973153663],[7.309284874569636,48.18421487498316],[7.309242829495997,48.18413566854583],[7.309209822391856,48.184073073414766],[7.309164256687307,48.183987056761666],[7.30914336132844,48.183947358763554],[7.309133441778839,48.18393150055677],[7.309009777576255,48.18373235970118],[7.308950627725651,48.18362025547163],[7.308912380460588,48.18354793910471],[7.308891194747702,48.183507981326656],[7.30878763472473,48.18331738763711],[7.30876973061005,48.18328460922697],[7.308667106834192,48.183092269062804],[7.308653916965258,48.183056164435264],[7.308597638290298,48.18285050659038],[7.308597601600032,48.182850057358856],[7.30854218650652,48.18251802761017],[7.308473923059135,48.18213591292537],[7.308473625013866,48.18213556335437],[7.308474771097888,48.181732169495945],[7.308474067590023,48.18157341361222],[7.308385423665908,48.18150600175779],[7.308294218220997,48.18151446961616],[7.30818067241195,48.1815249248579],[7.308084652469046,48.181533838740954],[7.307915482889148,48.1815495694006],[7.307898643369828,48.18155126578494],[7.307775548705191,48.18153224151696],[7.307631859815787,48.18151018441565],[7.307483117265668,48.18148894249559],[7.307369869532974,48.18147334302269],[7.30702543899506,48.18145329884862],[7.30687286606338,48.18145445427465],[7.306642742970929,48.1814448337234],[7.306392209103086,48.181434425965534],[7.306139017757595,48.18142447515327],[7.306065337412623,48.18142148778007],[7.306060550954345,48.18136119584097],[7.306078626573583,48.18136143710679],[7.306270096399754,48.18136634213561],[7.30627049943594,48.1813663274215],[7.306479211841874,48.18136952124467],[7.306481368702266,48.181369532612116],[7.306688261297782,48.18137189136475],[7.306689343395347,48.181371941969815],[7.306917802300855,48.1813760360969],[7.307143105280375,48.18137943399463],[7.307148232409721,48.18137951711749],[7.30737807885158,48.18138410037582],[7.307598531209996,48.18141885410997],[7.307806694679988,48.18145162315914],[7.307916940589088,48.181468413221765],[7.308028422562654,48.181460737039934],[7.308028825599073,48.18146072231982],[7.308371303222854,48.18144199560383],[7.3084374510681,48.181403894162955],[7.308458979940276,48.18135237336691],[7.308454393012494,48.18126485957745],[7.308387844566499,48.1808641183758],[7.307990023737477,48.180888200837316],[7.307866920680546,48.180436717875416],[7.30783125788893,48.18042900891649],[7.307691688018323,48.18043590850621],[7.307667849249398,48.18020996108056],[7.307796490964508,48.18020949828269],[7.307821417655228,48.180209489053034],[7.307824003527076,48.18017515111872],[7.307555658389727,48.18015611475038],[7.307536905340516,48.18022348429238],[7.307534511928268,48.180227176276524],[7.307509846578075,48.180227085786825],[7.307515623300484,48.18022687482361]]],[[[7.308177559608608,48.18928314622116],[7.308230144639485,48.18936926716574],[7.308235307986892,48.18938133409671],[7.308258617600682,48.18943572267452],[7.308276264249607,48.189536276146576],[7.308297595376101,48.18956974042891],[7.308376988793867,48.18963758040901],[7.308518860750923,48.18966186638976],[7.308662456532721,48.1896544592607],[7.308735686165529,48.189630337591396],[7.308781493748073,48.18961532768233],[7.308851980608158,48.18957742856614],[7.308917467521077,48.18950636986629],[7.308928123575615,48.18948174000396],[7.308986813155322,48.18946770131541],[7.309055012933391,48.18949089274638],[7.309302382182579,48.18949672588295],[7.309315159371716,48.18949806143533],[7.309464802194115,48.189846743052854],[7.309535085807465,48.189902028788666],[7.309697007001104,48.18987313466971],[7.309778978952067,48.189858695634655],[7.309948993462731,48.18982824389923],[7.309964613796382,48.18982478958746],[7.310142552114032,48.18978575759173],[7.310368164558046,48.189736422627085],[7.310631251519501,48.189678959376835],[7.310774668683045,48.18968750638362],[7.310873773256072,48.189897545424635],[7.310895620181133,48.189937298429825],[7.310952522425153,48.19000857196413],[7.311133789811233,48.18998059096821],[7.311158694629665,48.1899060576768],[7.311147273500127,48.18976796973043],[7.31102697856189,48.18936297744516],[7.310913698257706,48.18898278038232],[7.310897322409966,48.18893246432217],[7.310798379279804,48.18863203486889],[7.310766622940383,48.18853533135514],[7.310709564487658,48.18837142611469],[7.310676320936718,48.18827630885524],[7.310671354641777,48.18826171160928],[7.310522126013346,48.1879791596577],[7.310513032037224,48.18795362918899],[7.310476201742554,48.18785089310987],[7.310471975634335,48.18783545778154],[7.310427634685475,48.18767379112157],[7.310385633168512,48.187520960258844],[7.310376722167359,48.18749271966636],[7.310326013266391,48.187332276884],[7.310289514235844,48.187217092872174],[7.310236850717278,48.18705086403697],[7.310221548774291,48.18700213067866],[7.310210533765079,48.18696792929531],[7.310183835842269,48.18688527880833],[7.310158386847927,48.186806367477146],[7.310114341906024,48.186669741582676],[7.310106538331417,48.186645155183754],[7.310053963197866,48.18649153900242],[7.310053564562478,48.18648830945592],[7.310035088943647,48.18631001767582],[7.310015972568778,48.18612553140515],[7.310014830964153,48.186119805805184],[7.309980228164657,48.18596183823014],[7.309965630341211,48.18589532659224],[7.309956102539624,48.18585458261146],[7.309927958995158,48.18573278516127],[7.309905454529997,48.18563547297342],[7.309887623010836,48.185554120498516],[7.309847095782353,48.185368163542165],[7.309732136184213,48.18536966018516],[7.309652534437088,48.1854295205872],[7.309508744611255,48.18554822753043],[7.309425188549493,48.18561742386444],[7.309223845576272,48.185848172232504],[7.309213329673601,48.18585306208787],[7.309109589748358,48.18590118783346],[7.309006189900026,48.18591388618738],[7.308822855623704,48.18591310342963],[7.308629012172768,48.18591234377826],[7.308066640037629,48.18587403852292],[7.308012353257073,48.18590729067108],[7.307923771355472,48.18591827543583],[7.307882032475099,48.185865911453924],[7.307494467576828,48.18583122232029],[7.307478310395357,48.18582973968061],[7.307367876714427,48.18580745882907],[7.307031436717926,48.18574368695409],[7.306839943644536,48.18570733363787],[7.30652481925444,48.18565044182136],[7.306362491178176,48.18563789448662],[7.306202848929998,48.185641739751446],[7.306070611896097,48.185667653604824],[7.305894927719261,48.18576057597242],[7.30584793214965,48.18584519625171],[7.305846711770702,48.18586326359321],[7.305883997218269,48.18598986446695],[7.3060445052214,48.18637960590014],[7.306058492643884,48.18641063520714],[7.306072749417633,48.186451567215634],[7.306098318536388,48.18652047218361],[7.306103987186218,48.18653873862128],[7.306107265479967,48.18669280392019],[7.306098745145593,48.18677827261152],[7.30607095676067,48.187124603526534],[7.306064343720588,48.187202072540614],[7.306062695958293,48.18722150717806],[7.306080665081646,48.187322770092344],[7.306088013701145,48.18736656754901],[7.306082280026747,48.18740363342621],[7.306067337513789,48.18749627526074],[7.306063154510485,48.18752427314105],[7.306025932695696,48.187662604907835],[7.305862010295239,48.18797894034847],[7.305861072686172,48.187987265045244],[7.305859595568355,48.18800218774485],[7.30591608174552,48.18812790742537],[7.30596165396227,48.188228883683436],[7.305999532419851,48.18831319935122],[7.306021537807631,48.188338439032],[7.30607031034623,48.18839442174285],[7.306094387587461,48.188421928745235],[7.306426569151456,48.188816306665395],[7.306509984014959,48.188799744571135],[7.306809210372955,48.188879565621214],[7.306891484663154,48.188867190134246],[7.306967216762271,48.18885721616837],[7.307107484744772,48.18886849580532],[7.30734465453866,48.18891120143494],[7.307433892588384,48.18894119517653],[7.307582546013344,48.18898749273227],[7.307616292168738,48.18899806544568],[7.307852310750429,48.18910091809835],[7.307980581455718,48.18915670052104],[7.308060078660767,48.18919777307491],[7.308177559608608,48.18928314622116]]],[[[7.310077833075477,48.18067964079089],[7.310062631450879,48.18063540933364],[7.310052333629361,48.18060172231862],[7.310046063036489,48.18058104487137],[7.310043201548631,48.18057240831921],[7.309946858468141,48.18057899262636],[7.309728437076286,48.18059382223761],[7.309711708936924,48.18045502623969],[7.309712576868391,48.180442558718404],[7.309712334661103,48.180439593787824],[7.309711125576641,48.18043963796543],[7.309710307070829,48.18043786558089],[7.309452515797591,48.18044908677931],[7.30944924180881,48.18044199723405],[7.309437658453081,48.180399165461424],[7.309429470891076,48.18039955471451],[7.309269312426862,48.18040513576211],[7.309166286267749,48.180409079937476],[7.309166566185243,48.18040095940389],[7.30916677151699,48.18038202785201],[7.309142999613879,48.180378030135465],[7.309105605492679,48.18037552133473],[7.309014886946956,48.18037342864557],[7.308885855918653,48.180369130909725],[7.308882469647029,48.18034086854316],[7.308808099755078,48.18034097201202],[7.308610393235232,48.1803421564838],[7.308346013114381,48.18036343843576],[7.308360121882412,48.18043555535759],[7.308397811864483,48.180578632161726],[7.308489205542695,48.180925568718244],[7.308522652449438,48.181082678071824],[7.308557747744024,48.181256668708144],[7.308576087423432,48.1814152309994],[7.308630688538568,48.18144198303524],[7.309434478775281,48.18137305904724],[7.309626387741269,48.18138992782975],[7.309626932461444,48.18138999804198],[7.309711861907815,48.18139707791116],[7.310043157472734,48.18147734015151],[7.310221164415275,48.18155329040673],[7.310224633162481,48.18155451537092],[7.310331745048613,48.18105136671763],[7.310515976418183,48.181071578482275],[7.310499213347139,48.18114347169856],[7.310492400623503,48.18117553110418],[7.310450934620966,48.18136232195494],[7.310391764537829,48.181621040310446],[7.310431908887366,48.18163245968647],[7.310558429443034,48.181668658020726],[7.310592821250242,48.18151402624102],[7.31062225017575,48.18138111317564],[7.310624269018313,48.18137283897222],[7.310651747225879,48.18124738656463],[7.310655293761031,48.181229774728976],[7.310656872852125,48.18122106602185],[7.310693979529129,48.18102875714724],[7.310590030938594,48.18102967233829],[7.310580597484202,48.18102965662615],[7.310583543516835,48.18101458994385],[7.310610398364568,48.18086996588576],[7.310627346192997,48.18079374037898],[7.31062599541644,48.1807936996293],[7.310575502066128,48.18079743733332],[7.310365045845435,48.180815761817115],[7.310194462403623,48.18083064638026],[7.31014094514633,48.18083530542614],[7.310129569975294,48.1808362617779],[7.310078182505038,48.180680619282604],[7.310077833075477,48.18067964079089]]],[[[7.31147515104295,48.186844578567204],[7.311566534913257,48.18684313099279],[7.311579015597713,48.18684249460424],[7.311689573048159,48.18683656135133],[7.311841446881029,48.18682830679394],[7.311863721060623,48.1868271321784],[7.311980870666293,48.18681446946544],[7.312137166970182,48.18679767223881],[7.312268343307211,48.18678350524245],[7.31242824507386,48.18676630548186],[7.312446260758004,48.1867624928866],[7.31289232103572,48.18666859705327],[7.313145377278063,48.186602392597074],[7.313161487229217,48.18656044106549],[7.313237414329789,48.18654631050616],[7.313305044395221,48.18656420354071],[7.313492102470132,48.18652149822748],[7.313711316900015,48.18647157905896],[7.313711578268142,48.18647147938691],[7.313944298373964,48.1863955635065],[7.314062696628135,48.18635699015827],[7.314238986853654,48.18629962827768],[7.31463182898012,48.18617135574055],[7.314870340544917,48.18609378426273],[7.314899992266232,48.186083958554114],[7.315008764835081,48.18604798915043],[7.31513039549858,48.18600776447957],[7.315131052581265,48.18600756021432],[7.315230398738191,48.18596508670565],[7.315540563835571,48.18583271627005],[7.315562840413347,48.18582334042234],[7.31568159479079,48.18577267696096],[7.315693426279618,48.18576575585483],[7.315740351181699,48.18573646402679],[7.315773285484794,48.18571570423542],[7.315846347134292,48.185669866296266],[7.315999260082546,48.18557388668765],[7.316117826725111,48.185499529461],[7.316134618592354,48.18548900245388],[7.316336875143841,48.18536201975965],[7.316338174580657,48.18536143152422],[7.316473229652263,48.18529755467305],[7.316851334921046,48.185119439320694],[7.316998277388349,48.18506251619581],[7.317082232257322,48.18487317654041],[7.317104494137233,48.18487515536639],[7.317104501490041,48.184875245212034],[7.317155002977111,48.18487979511101],[7.317245367823735,48.18500589267193],[7.317407666467929,48.184927500363116],[7.317628311042555,48.184761813770315],[7.317934514346767,48.18453180689658],[7.317931659195581,48.184473877466644],[7.317639177484089,48.18412241196401],[7.31762348221743,48.18410352165133],[7.317572364561486,48.18404204196155],[7.317540861844207,48.18400453576856],[7.317323540439119,48.18374647102342],[7.317148760701499,48.183538935305144],[7.317147568259074,48.18353753711009],[7.317029592301478,48.183398392051174],[7.31702915249041,48.18339795757327],[7.316745756259278,48.18318042861791],[7.316745323804322,48.18318008398466],[7.316538001528714,48.18300131349139],[7.316346195351371,48.1828359426859],[7.316345181401661,48.182835078640835],[7.316170830713462,48.18268375754494],[7.316002266588672,48.18267397508639],[7.315937361457608,48.18266463501551],[7.315944302944222,48.182622657874255],[7.315471617097141,48.1825619128315],[7.315469430787309,48.18256154224472],[7.315446619907989,48.18255778093487],[7.315285690619719,48.182530956801315],[7.315286904749043,48.18252108987322],[7.315098016687171,48.182495108099594],[7.315123534806271,48.18223049875208],[7.315124019591282,48.182224893900724],[7.31504540353638,48.1822225432093],[7.314958369803906,48.18221941901884],[7.314771463868677,48.18221436099369],[7.314711020516466,48.18244573379478],[7.314501119107942,48.1824115983741],[7.31450147806159,48.18241104455613],[7.314435962650835,48.182400824854895],[7.314130509175544,48.182348375977206],[7.314141847354155,48.1821970191364],[7.314144370434297,48.18216196234269],[7.314100612214208,48.18215085659263],[7.313952065735084,48.18209582248006],[7.313793189548381,48.182052880876576],[7.313725408656952,48.18204625812561],[7.313728665445876,48.18229701834614],[7.313468194133054,48.18226238752354],[7.313464278317581,48.18202003210144],[7.313314671236456,48.1820063986454],[7.313047983807498,48.181978122056805],[7.31303143930105,48.18197683460243],[7.312974724288214,48.18197205966769],[7.312630890009975,48.18194290827455],[7.312630897354763,48.181942998120654],[7.312571830937067,48.182153412601515],[7.31265125685221,48.182164025868566],[7.312622055330009,48.182246917607934],[7.312968658889801,48.182300028446086],[7.312971556558869,48.182480512231365],[7.312808420189109,48.182464579229915],[7.312623150230673,48.182446571574864],[7.312438076887886,48.182421076933174],[7.311986822047472,48.182333942087936],[7.31204813650151,48.1821691339382],[7.312105443468824,48.1821778527242],[7.312337358467012,48.18221262935751],[7.31233960474685,48.182207140358884],[7.312369454854983,48.18220965364599],[7.312405499169533,48.182156069405345],[7.312462139364069,48.18199179231371],[7.312467892804408,48.18193030401466],[7.31244172375539,48.18192666491641],[7.312183661693005,48.181895097277945],[7.31209451194484,48.18188420838746],[7.312016383802636,48.181874628696505],[7.311764179907322,48.18184383726427],[7.311520684596176,48.181814078702466],[7.311460098610602,48.18179655815937],[7.31139871393209,48.1817791568944],[7.311272439200116,48.18174268010392],[7.311184262417637,48.181779966272344],[7.311183962171925,48.18178123885012],[7.311042813861309,48.181805141508],[7.311041956390435,48.1818045420453],[7.310721804386745,48.181765057590326],[7.31057003378683,48.18174636324563],[7.310569623407687,48.181746288128174],[7.310426575189182,48.18170735953866],[7.310365518373799,48.1816906666867],[7.310215808404267,48.18162792071464],[7.310108234659681,48.18158282927755],[7.310005681042901,48.181539807176215],[7.309691425627554,48.18146360817809],[7.309569565156131,48.18145310154537],[7.309449324216031,48.18144262573329],[7.309447055024628,48.18144288886738],[7.30915827533554,48.18146740684642],[7.308988742196537,48.18148198085794],[7.308880758382958,48.181491242335596],[7.308774244993877,48.18150035988501],[7.308627985038726,48.18151282161258],[7.308570185195703,48.181564045273475],[7.308575238888302,48.18171831677545],[7.308584941177061,48.1821406889977],[7.308584963190858,48.18214095853674],[7.30869035770743,48.18283909962705],[7.30869295039898,48.18284774601345],[7.308698729625473,48.182867360067156],[7.308760826402867,48.183043608307884],[7.308788340933172,48.183104962371075],[7.308790811158791,48.1831104592266],[7.308837221132712,48.183221677198375],[7.308868895071449,48.18329765805419],[7.308902687052166,48.18335337592195],[7.308975624393559,48.18347425830548],[7.309067438523607,48.18362662188458],[7.309236362299488,48.18390638366668],[7.309236682377661,48.18390700277393],[7.309392138881354,48.18419013997922],[7.30950754528267,48.18439868369421],[7.309508021739267,48.18439956743059],[7.309573868322176,48.18452269102476],[7.30957401735519,48.18452286580858],[7.309806939917859,48.1848684150736],[7.309938561668486,48.18512529800117],[7.309956584923567,48.1852518808506],[7.30996991713809,48.18535403388976],[7.310023374101958,48.185374969759636],[7.310029704483806,48.18541781308587],[7.309985797714913,48.1854593379266],[7.310018468695321,48.18560521070165],[7.310058405847871,48.185775689506734],[7.310135372169642,48.18610413730293],[7.310159206428825,48.18634306040894],[7.310170718416784,48.18645591335669],[7.310175313604246,48.18647421887269],[7.310239472583722,48.18672671761421],[7.310309850597609,48.18676505796677],[7.311053059944536,48.186850903044196],[7.311326703545504,48.18684694011409],[7.31147515104295,48.186844578567204]]],[[[7.310754588770115,48.17831246849391],[7.31077420645028,48.17832499836542],[7.310792097522882,48.178322992748996],[7.310812182790729,48.17832640393447],[7.310820715057826,48.17833023736777],[7.310923571605566,48.17828304270272],[7.310948626132027,48.17832583262106],[7.310964044463392,48.17838096000285],[7.310959025228231,48.178444854591966],[7.310916016469503,48.17866053920062],[7.310907383365215,48.1787478154594],[7.310905154721989,48.178756818273854],[7.310768888756487,48.178790905691336],[7.310664447623211,48.17881707123279],[7.310511675310883,48.17885527607524],[7.310558511682241,48.17896017007946],[7.310687070081861,48.179272044612865],[7.310884672138879,48.179300958642884],[7.310962527476137,48.17929405793282],[7.311081851884559,48.179283478708356],[7.311361319939431,48.17925893542753],[7.311451072631849,48.17925087858888],[7.311686467491828,48.17922947750683],[7.311686990164043,48.17922927817068],[7.31179225845353,48.179181904535874],[7.311839819983175,48.17909780093686],[7.311994191968322,48.17882199329986],[7.312004406870067,48.178823332037986],[7.312018584524896,48.17880226754583],[7.312015875728201,48.178802096231834],[7.312231157507499,48.178813239814595],[7.31249761516896,48.1788900078877],[7.312497502862853,48.17889028233841],[7.312508462924731,48.178892494936896],[7.312638129022077,48.17892767476429],[7.312725906064409,48.178951499702414],[7.312876906957642,48.17899382928037],[7.312878138040752,48.17899405460913],[7.313040016928724,48.17906725607423],[7.313145872793409,48.17913421543634],[7.313223942578489,48.17921399586239],[7.313275444267252,48.17917976126398],[7.313500598915228,48.179158370542375],[7.313506015448395,48.179165291528236],[7.314048800999675,48.1791889654488],[7.314070659377359,48.1791547333285],[7.314094895936546,48.17911662939109],[7.31403480442598,48.17910512983149],[7.3140446226355,48.179055477866356],[7.314108951000838,48.1790627672793],[7.314142408199752,48.178911682413435],[7.314187917627646,48.17870861093158],[7.314240063650689,48.178474657552016],[7.314206358449937,48.17843651017653],[7.314036733483432,48.17838062533999],[7.313625891018281,48.17834572803945],[7.313625488007197,48.1783457427787],[7.313288044502648,48.17830383437536],[7.313148669194483,48.17828667286296],[7.313066946535992,48.178267673298805],[7.31290778335209,48.178230959260986],[7.312775806621468,48.178200460118056],[7.312112686223427,48.17793579748748],[7.311877643958505,48.17784274090695],[7.311730797722441,48.17780503437177],[7.31164745492462,48.17783214177566],[7.311647447582077,48.17783205192924],[7.311618089441329,48.17782068930526],[7.311600782032111,48.17777707561053],[7.311341643344393,48.17769580277412],[7.310793239062105,48.177523993388505],[7.310354536848144,48.17738710206168],[7.310201758821663,48.17733942751043],[7.310095028347025,48.17730620058153],[7.309939901044528,48.177257800523925],[7.309790795744773,48.17719899725305],[7.30958628477446,48.17756539712297],[7.309405506208762,48.17808051971072],[7.309390868466849,48.17812070499106],[7.309204198390061,48.178204122672945],[7.30918007375901,48.178304670885026],[7.3091890975788,48.178314524154864],[7.309312245626733,48.17844645845271],[7.309620109757638,48.17869041463248],[7.309766853808823,48.17879778617392],[7.309911978574318,48.17882925005306],[7.310120245653589,48.17877432938901],[7.310153064673965,48.17876538022479],[7.310261671149141,48.17874401923063],[7.310256414358165,48.17874069686127],[7.310358403569057,48.178580620715536],[7.310270672956106,48.17856228937322],[7.310256949873738,48.178572433144495],[7.310240519519612,48.17857582713061],[7.310224440096925,48.17857362117834],[7.310214574009001,48.17856830449549],[7.310203288230998,48.178558804301375],[7.310205242487166,48.17854314304196],[7.310219527157773,48.17853162703345],[7.310237691423946,48.178526367391655],[7.310236245624994,48.178475685645374],[7.310241730134982,48.17834490899711],[7.31022443440633,48.1783426573811],[7.310212943847517,48.17833559776903],[7.310208565131424,48.17832323183815],[7.310210427564138,48.17831469299417],[7.310222904852379,48.17830414417701],[7.310223278503347,48.17830377006346],[7.310239581776926,48.17830047083481],[7.310259661873025,48.178302170121995],[7.310274315590227,48.1783100152813],[7.310494030465656,48.17825341388978],[7.310497998198872,48.178244257409695],[7.310507983939826,48.17823289846864],[7.310524966199534,48.17822966449922],[7.310540686563276,48.1782324242186],[7.310556007580792,48.17824348908735],[7.310562274431563,48.17825587611813],[7.310581663748343,48.17826066449753],[7.31058276780827,48.17826098460641],[7.310688844972801,48.17828783688417],[7.310721146107772,48.17829728988169],[7.310754588770115,48.17831246849391]]],[[[7.311816478311134,48.180835074724826],[7.311719298558848,48.180864399946124],[7.311547856297654,48.18091329108667],[7.31149715133681,48.180952361855645],[7.311397772464463,48.18117407178358],[7.311367969045515,48.181259508426784],[7.311247108725822,48.18162068965887],[7.31127960194248,48.18167203881891],[7.311530216015384,48.18174109794813],[7.312273843504926,48.18183124334483],[7.312294274487313,48.181833920766266],[7.312355859277814,48.181322972066184],[7.312373826080971,48.181033407546046],[7.312374490456647,48.18103329314161],[7.312354183536719,48.18099916118267],[7.312354161504159,48.18099889164411],[7.312123422516101,48.1806503830003],[7.312032791130877,48.18071695681331],[7.311986406005744,48.18074622762428],[7.311986152006221,48.180746417139154],[7.311933665650901,48.18077852429585],[7.311816478311134,48.180835074724826]]],[[[7.312017367888483,48.18687188991114],[7.311868720277698,48.186889939338926],[7.311822156480667,48.18689236223264],[7.311704910355624,48.18689890053653],[7.311703574109853,48.18689903949105],[7.311576690826025,48.18690638047892],[7.311469401078646,48.18690777859197],[7.311467915786017,48.186907742762706],[7.311353930111626,48.1869096558382],[7.311353258316491,48.18690968039054],[7.311053282204352,48.18691298363359],[7.311051408520254,48.18691314222125],[7.310809702982509,48.18688412707859],[7.31055601994094,48.186853656718036],[7.310554669009413,48.186853615967706],[7.310334457020342,48.186827058592236],[7.310275867580259,48.18685217848347],[7.31046780918449,48.18745794158969],[7.310498969599274,48.18756385863158],[7.310509395328052,48.18760898533107],[7.310605963378815,48.18792986769205],[7.310664992351312,48.18804368764998],[7.31066515608246,48.188044042123714],[7.310767414253207,48.18824324254686],[7.310866598622463,48.18851365525407],[7.310978919267817,48.188873882171805],[7.311017614829332,48.18889553733535],[7.311050120419129,48.18895193239475],[7.311017442339186,48.1889956604151],[7.311181284584564,48.18945529258203],[7.311207825171927,48.189590394947885],[7.311265109216985,48.189832871141775],[7.311313882286957,48.189849201671905],[7.311499098863257,48.18980359362941],[7.311551524307561,48.18979041338837],[7.311696128998626,48.18975412918325],[7.311838620355508,48.18971837260473],[7.311978998386776,48.18968314366051],[7.312018349048205,48.18967323463209],[7.312056072613467,48.1896632048343],[7.312056878809279,48.18966317536673],[7.312285382609891,48.189660770551704],[7.312409224827973,48.189660659236985],[7.312651773974543,48.1896602634891],[7.312889793541413,48.189658861352996],[7.312940312979661,48.189658636485426],[7.312968763942366,48.18965552372052],[7.313074358877985,48.18964157042558],[7.313118387940023,48.18963284169208],[7.313284031851894,48.18960335587225],[7.313293610671613,48.189601834167895],[7.313293618018595,48.189601924013495],[7.313358950723424,48.18964441218521],[7.313386188871029,48.189672613294164],[7.313537304062245,48.18982307573582],[7.313588770142874,48.189875622913284],[7.313683443737744,48.189891265422744],[7.313741922461243,48.18990102220979],[7.31408491822156,48.190047801867294],[7.314228820097148,48.19011003509583],[7.314678823139662,48.19025019643809],[7.314829777249381,48.1902388180366],[7.31500978284598,48.19022178102661],[7.315257307061445,48.190173437474996],[7.315407431072538,48.19014532742397],[7.31577143215652,48.190077672946],[7.315999466536923,48.190028328599425],[7.316207886289749,48.18998303565708],[7.316410057176313,48.18995031663765],[7.316540401114074,48.18995059392982],[7.316540655141528,48.18995040440637],[7.31657782111326,48.18995003578405],[7.316578209506854,48.18994984134411],[7.316618255991153,48.189950088227484],[7.316843566706372,48.18997122121215],[7.31698346604455,48.190019089237495],[7.317076690961786,48.19004829924563],[7.317441057947062,48.19011192286725],[7.317514221725949,48.190126547259155],[7.318034555580229,48.190328914497655],[7.318164861445158,48.190379745641735],[7.318250219858006,48.19039680690154],[7.318356250284108,48.190417797370834],[7.318442518010897,48.1904113954456],[7.318645869589442,48.190396381954024],[7.318716122031174,48.19038696151364],[7.318732919882733,48.190384724525615],[7.318808863753877,48.19037239224413],[7.318808998121021,48.1903723873252],[7.318879147509423,48.19036170895483],[7.318879005785719,48.19036162402867],[7.319575712408712,48.19025564405931],[7.319634950274483,48.19024338223013],[7.319663703171271,48.190237373128944],[7.319945275501041,48.19017695915032],[7.320162890150001,48.19013042128451],[7.320201937625076,48.19012340425838],[7.32020210878551,48.190123848563495],[7.320228604852894,48.190119904486565],[7.320228441051106,48.19011955002662],[7.32045372286622,48.19008435561676],[7.320665864043193,48.19005162455367],[7.320686374333136,48.19004699844901],[7.320843938826668,48.19001103923062],[7.321012889291514,48.18997259012002],[7.32111119565629,48.18996015815245],[7.321147754292905,48.1899556650612],[7.321201484039379,48.18995513885082],[7.321245121624562,48.18995480205479],[7.321429824756742,48.18995894026047],[7.321449806593865,48.18995937979991],[7.32166138292579,48.189962533251084],[7.321749909702684,48.189963976205746],[7.321877507492391,48.18996362729239],[7.322087587456727,48.18996332032549],[7.322269362257048,48.18996296865267],[7.322450741320274,48.18996272131431],[7.322491997146472,48.18996950027528],[7.322492310054143,48.18997002949899],[7.322573430211268,48.1899797634286],[7.322744954798439,48.19000727160494],[7.322815428875399,48.19001865707086],[7.322900252223702,48.18980882556828],[7.322902195894852,48.18980623113125],[7.322921709745249,48.18976478418597],[7.322979189097953,48.18964228453656],[7.32307154614035,48.18953589891205],[7.32310779533628,48.18941417713812],[7.323061756817545,48.18917309484838],[7.323091630199798,48.18879270667459],[7.323071696726943,48.1886563724217],[7.323061676300537,48.18863276906787],[7.322931771827662,48.18827770068592],[7.322798236496667,48.18800657205025],[7.322788227385115,48.18798639262342],[7.322671941494598,48.18774977657249],[7.322655816315377,48.18772567595881],[7.322653670219341,48.18772251046087],[7.3226141937825,48.18764204252421],[7.322674029703779,48.18759929825761],[7.322748125986736,48.187546389107034],[7.322703560515817,48.18747782261233],[7.322517428075392,48.187299907387704],[7.322315424144148,48.187145372508326],[7.322270171139983,48.18711116484314],[7.322189223118122,48.187052492138804],[7.322060696291953,48.186931220542014],[7.321900307549946,48.18695232622354],[7.321749660580831,48.18697226375252],[7.321702062741478,48.18697851326455],[7.321169261884156,48.18709093975391],[7.321116410885189,48.18710215753657],[7.320889920941071,48.187173443952055],[7.320663904946078,48.18725381414488],[7.320663120869447,48.187254113207075],[7.32049540755126,48.18731414444145],[7.320355054315462,48.187351185393396],[7.320324254436643,48.187360153375735],[7.320337364174973,48.18737048702873],[7.320324261795276,48.18736024322103],[7.320192120867858,48.18739554137141],[7.320191598146921,48.187395740744094],[7.319928256277882,48.187466302155926],[7.319927330476312,48.1874665162881],[7.31976924667568,48.18753718779493],[7.319768201227802,48.187537586536536],[7.319637826865995,48.187599403189914],[7.319409448780984,48.18772338272018],[7.319407111223077,48.18772445957214],[7.319386586635099,48.18773548415874],[7.319384906163934,48.187736356721565],[7.319250315342477,48.18780923116769],[7.319214191369531,48.187769641726966],[7.319424537986984,48.187650918683545],[7.319561545068567,48.187572999222],[7.319575586997175,48.187565095645475],[7.319698838021616,48.18751174034175],[7.319773727628178,48.187478359009724],[7.319891535729804,48.18742601383143],[7.319904296362334,48.18742221229641],[7.319972249925239,48.18740287238147],[7.32005886305981,48.18737771255321],[7.320095464433051,48.18736718046253],[7.320125233629782,48.18735879097533],[7.32044689085182,48.18726969244905],[7.320459853895104,48.187265072404344],[7.320604492041954,48.18721453738393],[7.320738497065675,48.18716745553743],[7.320855237513057,48.187126773245005],[7.321090405487389,48.18705120395878],[7.321091995709465,48.18705087536441],[7.321279021505191,48.18701275460349],[7.321282470661387,48.187012087566096],[7.321344557330606,48.18699845873944],[7.321346013191189,48.18699813506346],[7.321726792759442,48.1869184918959],[7.322073134826229,48.186882373098655],[7.322139723022242,48.186874346266315],[7.322138195401613,48.18687214936347],[7.322139715660588,48.18687425642109],[7.32239884421836,48.186893778934746],[7.322463799845067,48.18689049771529],[7.322539086299511,48.18688665768406],[7.322612372099272,48.18688307114441],[7.322719532633438,48.18687680142079],[7.322854991109764,48.186868863816876],[7.32309168316959,48.186828379383144],[7.323340468861803,48.18678582916807],[7.323358393589225,48.186782558903026],[7.323678189302239,48.18672839395468],[7.323962658369626,48.186639476980496],[7.324327896108102,48.18652155524242],[7.32470218216291,48.186366083037925],[7.324929587991177,48.18626826152335],[7.324972090960017,48.186237686145105],[7.324949676110181,48.18605962936906],[7.324915659207561,48.18580909476924],[7.324908239470998,48.18575475700569],[7.324905973070259,48.185738619367676],[7.324877704849879,48.18557627694928],[7.324876962944725,48.18557215885137],[7.324862924155982,48.18546174176081],[7.324862419424667,48.185452298170716],[7.324861818626227,48.18543510819609],[7.324838274156231,48.185369826856416],[7.324819956927068,48.18535022250091],[7.324786413216478,48.18528296475615],[7.324788591142194,48.185256931730365],[7.32472843821003,48.18514946688493],[7.324694477239963,48.18508862259088],[7.324641125689911,48.184993434363406],[7.324614962079806,48.18482551765645],[7.324589517860877,48.184648292688316],[7.324519287967608,48.18445405574027],[7.324469212585139,48.18433964289082],[7.324396499945672,48.1841709994929],[7.324351516422592,48.18407595493055],[7.324339784537611,48.184047908601],[7.324346027142909,48.184045156521684],[7.324296492181856,48.18394225853509],[7.324202546880518,48.18374636754542],[7.324156371437728,48.18364992475723],[7.324122415449419,48.18357925754919],[7.324354907210777,48.18357055439413],[7.324354966795925,48.183570642284536],[7.324963928595713,48.18337520450717],[7.326114368065911,48.18300616880992],[7.326079675502367,48.18298734543504],[7.325957265578092,48.182925870304736],[7.325912859363346,48.182903618277194],[7.325902460864711,48.18289841247465],[7.325905227083738,48.18284505281501],[7.325890834964642,48.18272870092702],[7.325878971233122,48.18263496539334],[7.325854061651512,48.18243636334693],[7.325853817247442,48.1823577916432],[7.325853556375525,48.18228066238642],[7.325788522491919,48.18203477933519],[7.325776406360525,48.18198890432749],[7.325772689791981,48.18197480238334],[7.325764356554389,48.181943837924706],[7.325754537745391,48.181906259401366],[7.32575291045254,48.181899560419446],[7.325730156542837,48.181814334604454],[7.325711023469197,48.181742042739735],[7.325698432507792,48.18169366189982],[7.32569070129931,48.181665108472956],[7.325323338924154,48.18170408282324],[7.325115462708632,48.18172594365226],[7.325089801140579,48.181728506685495],[7.324739330254022,48.18176478715625],[7.324713436786048,48.18176780918586],[7.324377732387504,48.18180670119485],[7.324276002338117,48.181818270782074],[7.324081342593776,48.18184027603709],[7.323813159317273,48.181871103971204],[7.323810912270472,48.18187163691752],[7.323571043031201,48.181930623751825],[7.32359224252214,48.18203474093015],[7.323596300838261,48.1820497315477],[7.323599052518428,48.18206522063623],[7.323607514050091,48.18212736039765],[7.323618151291066,48.182206181854895],[7.323620393253561,48.18222367216238],[7.32364924724809,48.18233733131113],[7.323751785021634,48.182345467956026],[7.323740681611281,48.18239742092078],[7.323688809822616,48.1824254557519],[7.323418967006921,48.18245580280015],[7.323318581311622,48.18239171550655],[7.323140278657196,48.18232723972672],[7.323139308782419,48.18232691481226],[7.322953880822721,48.18227414455148],[7.322951716559487,48.1822740436395],[7.322753097544213,48.18225762238997],[7.322686888779261,48.18225211861735],[7.322479984640195,48.18223654123019],[7.322413291918798,48.182236642185586],[7.322405827428424,48.182237636641034],[7.322281686067281,48.18225363032074],[7.322128082307541,48.182273497010215],[7.32208634845667,48.18227890117803],[7.321977557381415,48.182289826306175],[7.321891360380182,48.18229857175535],[7.321757840274844,48.18231193470975],[7.321712412760865,48.18231666303828],[7.321463479634203,48.18234236454186],[7.321333686086661,48.1823535178313],[7.321290175327487,48.182398096789036],[7.321531912541885,48.18262669395784],[7.321511548564192,48.182642939836185],[7.321383226863267,48.182736224240266],[7.321318899313208,48.18278165593423],[7.321270897851197,48.18281747797699],[7.321172123064686,48.18289147641567],[7.321054272121823,48.18297770830236],[7.320948909895282,48.183055191981964],[7.320946370110585,48.183057087320336],[7.320840580557024,48.18313593826736],[7.320839684270758,48.183136511789414],[7.320610500484845,48.18330468072718],[7.320309962352278,48.183486817080635],[7.319796141825536,48.18372695751065],[7.319792081548658,48.18377117242907],[7.319723742002402,48.18379890728498],[7.319656539669461,48.183792807340105],[7.31957361783761,48.18383170967468],[7.319466186434093,48.183882323245115],[7.319413692592273,48.18390938754708],[7.319257776879637,48.18399160434258],[7.3191757670127,48.18403506883835],[7.319159232143341,48.184043784618986],[7.319074862642377,48.184088056356124],[7.319039223504066,48.18410702379982],[7.318976312134674,48.1841385244913],[7.318900182332667,48.18417645670215],[7.318876239438779,48.18418850757844],[7.318856949293229,48.184198135225785],[7.318781086520729,48.18423110125644],[7.3187541584186,48.18424290094158],[7.318663628658171,48.18428271192105],[7.318552674855497,48.18433147101159],[7.31852496996077,48.18434365953804],[7.318417781681802,48.18438903649941],[7.318297696875194,48.18443984179022],[7.318184384870613,48.18448778568585],[7.318090869091571,48.18452734503852],[7.318040776105933,48.18454918423754],[7.3180120255766,48.18456177136891],[7.317979050723722,48.18458037058851],[7.317962980778919,48.184593124332814],[7.317942375656545,48.18460973879203],[7.317905658401884,48.184636945770926],[7.317845177650041,48.18468169381916],[7.317784838502515,48.184726526762866],[7.317715340605289,48.184778002943226],[7.317652722602063,48.184824631401916],[7.317586167499634,48.184874197484696],[7.317523153561618,48.184920930469886],[7.317520860210446,48.1849225463603],[7.31746204650516,48.18496461983571],[7.317416951346946,48.18498825833969],[7.317296763995611,48.185047717275104],[7.317294665807921,48.18504842487027],[7.317204045975862,48.18508057816174],[7.317203127558078,48.185080882118534],[7.317093423348407,48.18511859997062],[7.31693159158876,48.18517471637843],[7.316708878764754,48.18526577208511],[7.316707982397461,48.185266345574966],[7.316523880033719,48.18535661878556],[7.316418109627339,48.185411133574576],[7.3164168175419,48.18541181165652],[7.31629585188661,48.18548319309305],[7.316295590528251,48.18548329277089],[7.316166542440028,48.18555965575932],[7.316166161428517,48.185559940044165],[7.316030459322206,48.18563897942581],[7.316028659209111,48.18564003654925],[7.316007834574527,48.18565233315114],[7.3159875252989,48.18566434054925],[7.31581755951193,48.18576436837969],[7.315754956235086,48.18580297495792],[7.315726005182188,48.18581971408465],[7.315350392997231,48.185978990394005],[7.315349481903122,48.18597938418189],[7.315176419936678,48.18605312068778],[7.315152597062006,48.18606336404988],[7.3144104834282,48.18630723375658],[7.313939970566776,48.18645799085751],[7.313738397101412,48.18652258482228],[7.313714246079258,48.18656672289729],[7.313637573815585,48.1865799798708],[7.313551495620794,48.18656555514997],[7.313350142929335,48.186614730779475],[7.31322291380955,48.186647498474734],[7.312920885835352,48.18671963880849],[7.312435522949737,48.186822360884975],[7.312017367888483,48.18687188991114]],[[7.324353893781377,48.18356905954647],[7.324354959430963,48.18357055243926],[7.324354907210777,48.18357055439413],[7.324353893781377,48.18356905954647]]],[[[7.312410411036195,48.18041280171534],[7.312417621460431,48.180411997406395],[7.31241742836433,48.18041128354838],[7.312410411036195,48.18041280171534]]],[[[7.312807183937311,48.180250686656194],[7.312883246823,48.18018888025749],[7.312947192200078,48.180090930287044],[7.313023286534929,48.179891066764164],[7.313023334170191,48.179809240784124],[7.312991185719641,48.17958576012645],[7.312743433420538,48.17948073396884],[7.312642303150376,48.17942378444271],[7.312524087748741,48.179408371633805],[7.312340847106682,48.1793820892507],[7.312296279079987,48.1793758787146],[7.312102203363859,48.179348910729935],[7.311816141501585,48.17930926475569],[7.311613984187632,48.179298812076325],[7.311706619100627,48.17950737564801],[7.311795790514063,48.179683444223414],[7.311809039962871,48.17973180205693],[7.311824165325739,48.17982289580721],[7.311824928373604,48.17989982588744],[7.312037723432249,48.17989862504875],[7.312033537798243,48.180015566759835],[7.312326011556845,48.18000667640834],[7.312329399649944,48.18003493868259],[7.312339970022153,48.18012304490066],[7.312345890033519,48.180172391567744],[7.312352133195263,48.180225691466994],[7.31236009094167,48.18029172496993],[7.312360497015438,48.18029504436865],[7.312375208549621,48.18029369547164],[7.31241742836433,48.18041128354838],[7.312455546119292,48.18040286096745],[7.312501391762847,48.180391722730725],[7.312610776680934,48.18035347976897],[7.312693596285201,48.180318280661695],[7.312807183937311,48.180250686656194]]],[[[7.313836887885515,48.18070541887266],[7.31385380889248,48.18066352744253],[7.313814852102454,48.18046724032443],[7.313784726351705,48.18030974003412],[7.313763547964041,48.18019904255075],[7.313767975521457,48.1800422610495],[7.313767587829764,48.17986943496601],[7.313761964042784,48.179688599910065],[7.313688801251068,48.179639189285716],[7.313566933638301,48.179636797487795],[7.313535153750423,48.17963868063686],[7.313488439600055,48.179807281693606],[7.313567741423458,48.17982465738972],[7.313536590510965,48.17990509766484],[7.313490914568579,48.17990676806801],[7.313437016289846,48.18003859459787],[7.313412974417388,48.18004118598802],[7.31336265665415,48.18028273145944],[7.31337650221827,48.18028727156609],[7.313368940436015,48.180362884060976],[7.313365362108909,48.18039987186581],[7.3133648664361,48.18042512213228],[7.313344852677049,48.180686285718764],[7.313425554739304,48.18071253170386],[7.313499810626126,48.18072585661611],[7.313773728713976,48.180738818374046],[7.313802937870249,48.180728558413854],[7.313836887885515,48.18070541887266]]],[[[7.314909663211019,48.181658524025515],[7.3149701071244,48.18165946690872],[7.315216748627595,48.18166342058033],[7.315291902334891,48.181664636189375],[7.315332247967455,48.18166532291014],[7.315383101933032,48.18166598562582],[7.315383504968962,48.181665970880594],[7.315559821891977,48.181668441499205],[7.315619473479278,48.18130390716567],[7.31561820558171,48.18130323263607],[7.315438197297653,48.18129350778246],[7.315443160261085,48.18124051889717],[7.315447642580503,48.1811898905809],[7.315454776424692,48.181114023203406],[7.315474549293024,48.18089945717145],[7.31536496478686,48.180895716574526],[7.315266320900778,48.18089229653424],[7.315264567088059,48.180892270582454],[7.315259112320719,48.18109739135522],[7.315257846735366,48.181147811863255],[7.315236121811957,48.181147435167205],[7.315000550367584,48.181143707456926],[7.31498678848818,48.18114348998114],[7.31497128013664,48.18114333639361],[7.314938224158538,48.18114445553572],[7.314911878032,48.181145239095905],[7.314682904331987,48.18115298432297],[7.314691899788424,48.181279446821556],[7.314691145791694,48.181402030546224],[7.314545465659617,48.18140015020326],[7.314529699424977,48.181240322557606],[7.314365736397048,48.18124884316519],[7.314365946304581,48.18124811456903],[7.314045618931345,48.181252621570195],[7.314005522039904,48.180834783974625],[7.313836587406733,48.1808335730985],[7.313843028514026,48.18084478210714],[7.313857197269042,48.18098015701161],[7.313868686562461,48.181115720014894],[7.313872514238142,48.18116252982236],[7.313878880773538,48.18123709223832],[7.313552742918307,48.181256228768554],[7.313532313248835,48.18098329737753],[7.313522361586752,48.18082532966751],[7.313265517965973,48.18084157091912],[7.31324740902325,48.18083268096108],[7.313205341583642,48.18084223948067],[7.313275353223637,48.18165900242689],[7.313276957724064,48.181681923003595],[7.313351822801907,48.18168125799245],[7.313345751258185,48.18193001635615],[7.313552439467148,48.18194796048906],[7.313609750662805,48.18195343426254],[7.313616993907602,48.18177834683507],[7.314003452003601,48.181794852331436],[7.313984395941369,48.18190621017324],[7.313970987587665,48.181984469571475],[7.313965969547089,48.1820153822182],[7.314023536980977,48.18204211349898],[7.314161307296997,48.18209060282164],[7.314234053923605,48.18210686620936],[7.314297282950188,48.182118791701626],[7.314327591400391,48.18191600633798],[7.314753291269842,48.18192792008424],[7.314753289194968,48.18192954222616],[7.314745802193969,48.18204723565061],[7.314739912282941,48.18214162103385],[7.315056242162418,48.18215077580195],[7.315390543138119,48.18216053386135],[7.315497364585605,48.18209093204392],[7.315499966749265,48.1820634419369],[7.315058970119523,48.1820539828404],[7.315275729795023,48.18205830868007],[7.315281121354658,48.18192654381462],[7.314754080401554,48.18191779836264],[7.315512697382215,48.181929155661486],[7.315512682682836,48.18192897596963],[7.31553618414732,48.181799522271255],[7.314775612626046,48.18178895760592],[7.31476301560017,48.18178815679881],[7.314765691439757,48.18175003047533],[7.314679689177765,48.181746327687556],[7.314682866046772,48.181655015313645],[7.314745063789912,48.181655984272474],[7.314909663211019,48.181658524025515]]],[[[7.316274718501933,48.18167742830749],[7.316137660513826,48.18166730428019],[7.316132100903858,48.181666876911855],[7.316134290771858,48.18165246851459],[7.316144089016616,48.181587767951406],[7.316170176827853,48.18145371364989],[7.316174378267207,48.181454010484394],[7.31617475093197,48.181430566974335],[7.316002484683187,48.18141830679124],[7.315968724154737,48.18141575728586],[7.315920209811564,48.18141239589223],[7.315709974394384,48.18139719906259],[7.315693067122431,48.18150018815951],[7.315683342675853,48.18155920873323],[7.315679469470255,48.18158269019443],[7.315663752022264,48.18167716494054],[7.315641982611747,48.181836022870215],[7.315613364064516,48.18204622647071],[7.315622089103278,48.18207546490962],[7.315986647386429,48.18206636161237],[7.316085487449202,48.18206391648626],[7.316626771052954,48.18203590865274],[7.31663160508927,48.181821618754476],[7.316636437177429,48.18177692515714],[7.316698976514147,48.18158115973087],[7.316717122793114,48.18140441106689],[7.316739191766328,48.180959426824415],[7.31662045367639,48.180952507898695],[7.316601533599729,48.18108521870634],[7.316569763767826,48.18130626180295],[7.316549754542343,48.181450366898844],[7.316544175881164,48.18148923035251],[7.316298479560318,48.18148200075565],[7.316274718501933,48.18167742830749]],[[7.316588048318342,48.18118060324941],[7.316570054510604,48.181306521507814],[7.316601533599729,48.18108521870634],[7.316588048318342,48.18118060324941]]],[[[7.318237406847287,48.17461967830905],[7.318162920026249,48.17461826028525],[7.317991613302738,48.17461416911602],[7.317801918493093,48.17461093113724],[7.317789777582623,48.17461074481922],[7.31755113920218,48.1746366933782],[7.317513210830688,48.17464078534727],[7.317421565634077,48.17465360242132],[7.317284370086294,48.17467286298739],[7.317196852169712,48.17468507822031],[7.317116402106179,48.17469640385996],[7.317035668650679,48.17470755958609],[7.316963070328828,48.17471769655648],[7.316953037866869,48.17472022655069],[7.316885184395963,48.17473730890602],[7.316820085602434,48.174753479354266],[7.316686864515203,48.174786741840514],[7.316660186061426,48.17479330545664],[7.31656381557687,48.174801068107705],[7.316442010991166,48.174810842935415],[7.316360909711086,48.17481750588376],[7.316317596874307,48.17485459649856],[7.316271428120179,48.17486007102536],[7.316271435470177,48.174860160871674],[7.316218385104199,48.17483092248918],[7.315739343224659,48.17487116223111],[7.315677406575669,48.17487658271351],[7.315565056056728,48.17488664147996],[7.315474498091457,48.17489464111499],[7.315232004694888,48.17491631030425],[7.315129005543504,48.174925395685854],[7.315043537222124,48.174933028534625],[7.314965681499113,48.174939842110035],[7.314845972045178,48.17495052988112],[7.314802251848953,48.17498430053432],[7.314831706529673,48.175240682067376],[7.314774250373837,48.17551177793278],[7.314762898225124,48.175565721660085],[7.314663714987659,48.17592133998409],[7.314663556537272,48.175922697507914],[7.31464389222766,48.17620286392729],[7.314623003201783,48.17650100799162],[7.31458373722123,48.1767672025895],[7.314647538840133,48.1769097736367],[7.314836172743835,48.17713059360853],[7.314971172552734,48.17732327708084],[7.315038880724134,48.17734720367816],[7.315053821031951,48.177388200130004],[7.315015698290648,48.17743771631845],[7.315123674808029,48.17776124408368],[7.31512418804097,48.17776257703245],[7.315186170829106,48.178105269740676],[7.315186586473712,48.17810705683465],[7.314996849845146,48.178261606844444],[7.314640214647492,48.17839198335387],[7.314383864413164,48.17847507477129],[7.314348361471892,48.178604426796944],[7.314382602055404,48.17863264190582],[7.314876224008274,48.17869776078661],[7.314891251005102,48.17870027495984],[7.315380068939962,48.17878241903125],[7.315615998071769,48.17881370771653],[7.315603426427984,48.17886427165758],[7.315214919609267,48.178802699470644],[7.315026141328974,48.178771307087544],[7.314869864763799,48.17874521367993],[7.314739559819959,48.17873024538627],[7.314363755306654,48.17868722004458],[7.314306679667358,48.17870435698816],[7.314186623058045,48.17908164398487],[7.314209382043138,48.179101267613134],[7.31461019319974,48.1791419369426],[7.314746739575099,48.17915577593876],[7.314923789336304,48.179173900398396],[7.315134439835892,48.179195931871156],[7.315375789201819,48.179220985086374],[7.315537245118083,48.17922472008369],[7.316115716492058,48.17915588245006],[7.316377256417804,48.17912468391445],[7.316715562916631,48.17908481778899],[7.316801045763034,48.17907069517094],[7.316922962384519,48.17905064313745],[7.317203632122424,48.17900459450044],[7.317356660095566,48.178979438176285],[7.317721348418544,48.178919499006234],[7.31774488361166,48.178915663646436],[7.318017273551592,48.17885901218444],[7.318030643136098,48.1788560896168],[7.318312703256922,48.1788188186511],[7.318353621378805,48.17881335546911],[7.319285502955556,48.1786637954724],[7.319318587904131,48.178705839202074],[7.318572859172092,48.17882506362027],[7.318458356303275,48.17884349423127],[7.318336545664651,48.17886318355089],[7.318335478315473,48.17886331274436],[7.318083325313228,48.17890381437926],[7.317909502933508,48.17893171546066],[7.31776626932637,48.17895471166653],[7.317614787503532,48.17897900089677],[7.317613190150026,48.178979239600146],[7.317531036715784,48.178992880485104],[7.317464290025371,48.17900379458603],[7.317190830684432,48.17904903924153],[7.317000718969027,48.17908041886091],[7.316999001974741,48.17908084216492],[7.316885497185645,48.17909995559694],[7.316723241360927,48.17912761177565],[7.316721912676356,48.17912784063375],[7.316531400131871,48.179151033674295],[7.316529534090653,48.17915128219577],[7.316282683195714,48.17918086214506],[7.316282153190713,48.179180971655526],[7.315673753529688,48.17925126562807],[7.315669003566781,48.179354621100636],[7.315784051100199,48.17942682903905],[7.315998272576303,48.17945296375889],[7.316020570917614,48.17945376988219],[7.316308844691821,48.1794643979413],[7.316350070227846,48.179464331134135],[7.316540566366348,48.17946727239857],[7.316607536965206,48.179468966763956],[7.316607351167127,48.17946834275833],[7.316608022865157,48.17946831817597],[7.316812954192979,48.17946982956085],[7.316986713417042,48.17945265619532],[7.317102098363234,48.17944663068201],[7.31729212519752,48.17943066374107],[7.317541408301035,48.179414329712785],[7.317613510388608,48.179406283464445],[7.317688593362337,48.179401732655975],[7.317854585853786,48.17938844691229],[7.317996397198592,48.179376046187066],[7.318161187832972,48.17936289412048],[7.318192335952415,48.17954919327019],[7.318209622639661,48.17965174222464],[7.31823506384541,48.17965802000952],[7.318235869885033,48.17965799049957],[7.318248111437899,48.17979767135569],[7.318039650070868,48.17980737580559],[7.3180231409168,48.179808160422596],[7.317807624196028,48.17981397745509],[7.317759493574645,48.17981528880117],[7.317589823640835,48.179819877693205],[7.317524617069925,48.17982163378417],[7.317377948721625,48.179825740858256],[7.317079924743506,48.17983430624709],[7.316905161159231,48.179817813433516],[7.316837793119311,48.179811267554626],[7.316553005187601,48.17976257472102],[7.316417587740223,48.179739504699334],[7.316327125486812,48.17972407125591],[7.3160482297827,48.17965515608121],[7.31598112825882,48.1796386873221],[7.315955593816573,48.179629618908386],[7.315663767201023,48.179606864316106],[7.31564761904423,48.17960547263398],[7.315360831778732,48.17959325659738],[7.315306699796156,48.17958379249355],[7.315189267252308,48.179568083326686],[7.314744397829432,48.17949289147849],[7.31448527561724,48.17944658913813],[7.314373296944967,48.17942671462314],[7.314325682912513,48.179421156950575],[7.314076770218882,48.1793925933871],[7.314042360433252,48.17943151997495],[7.314062116782112,48.17943584380735],[7.31406408045036,48.17943514118048],[7.314310516442716,48.179463074450105],[7.314371435413931,48.17946985764133],[7.314457058341862,48.179487091635515],[7.314467705844545,48.17948877480241],[7.314437048682032,48.1795637003209],[7.314415226215733,48.179616494858074],[7.314265825019402,48.179587175302395],[7.314169440090152,48.17957015457469],[7.314120693897082,48.17969575537971],[7.314457921373188,48.17974478869151],[7.314670734564173,48.17981630514872],[7.314886462946773,48.179890508157534],[7.3148555650164,48.18004321174771],[7.314417657844812,48.179965871457526],[7.314488600818667,48.17979205816706],[7.314444271379173,48.17977394452849],[7.313914489731453,48.17969680906216],[7.313858007927126,48.179721223316285],[7.313832923681958,48.179865964046364],[7.313829870313317,48.179970338595325],[7.313832523230881,48.18010000693701],[7.314323452518626,48.180168290924954],[7.314327483563268,48.18028349049771],[7.31433390757032,48.180394997939715],[7.314338526454671,48.1805173851813],[7.314371721656458,48.180517973282235],[7.314450342491473,48.18052041427106],[7.314708914190798,48.180528618397005],[7.314745788088007,48.180529702628846],[7.314776148361775,48.180523635705285],[7.3147881048407,48.18052319832444],[7.314788187745324,48.180522564487596],[7.314788993800067,48.18052253500121],[7.314796737859901,48.180419520760395],[7.31496195805576,48.18042969735829],[7.315056879437557,48.18043703862923],[7.315047183903538,48.18054913578404],[7.315133457052887,48.180549584190665],[7.315332577883796,48.180545903973226],[7.315303042796995,48.18080750668171],[7.315410858606905,48.180811041694696],[7.315518092961455,48.180814057194155],[7.315529719966244,48.18081453294394],[7.315657924514938,48.18081858337205],[7.315776583371194,48.18082289281743],[7.315925875752202,48.18082941550205],[7.315963572238961,48.180651140555966],[7.315903418966153,48.18064550161122],[7.315914312484613,48.1805941880744],[7.315923734760395,48.18054959687328],[7.315993501778411,48.18055416310515],[7.316218299680633,48.18057116942011],[7.316159564280293,48.18083978860897],[7.316161191099211,48.18083990930937],[7.316417300322039,48.1808492812468],[7.316654498675622,48.18085808310013],[7.316655312085928,48.180858143446926],[7.316896649082556,48.18086976714999],[7.317117060064849,48.180880894661314],[7.317264288879224,48.18089677303824],[7.317603548054365,48.18094085713746],[7.317658515108441,48.180934159088565],[7.31776334528565,48.180907792953235],[7.31789006711684,48.18095298770512],[7.317893916411622,48.18096050657126],[7.317926523456989,48.181021402173556],[7.318371476401384,48.181146773617606],[7.318914188016029,48.1810145295638],[7.318925161983027,48.18101196498013],[7.318954500741179,48.181004943114374],[7.318980237824211,48.181057619201724],[7.319197030211079,48.18100642560083],[7.319238754770041,48.181083207747804],[7.319250625377523,48.181104761150216],[7.319169066818444,48.18112405851752],[7.319134488622227,48.18113127229046],[7.319135099554051,48.18113215107063],[7.319224471572281,48.18127576606459],[7.319227305569862,48.181277464590444],[7.319200878128987,48.18128383922109],[7.319111289588417,48.18130874736761],[7.319111296944143,48.18130883721335],[7.319110498235537,48.18130895657498],[7.319083531330217,48.181348242938384],[7.319096766731761,48.181351903590595],[7.319360626878336,48.18142298462215],[7.319534233659668,48.181469704929384],[7.319642540365622,48.18151376995955],[7.319658302475129,48.18152031181775],[7.319765780309035,48.18154602361217],[7.319767038949457,48.18158607874338],[7.319914539967312,48.18166448383323],[7.319983845412972,48.18170123577294],[7.320095742641938,48.18176445354714],[7.320114947980482,48.18177519476457],[7.320308924874118,48.18188469908913],[7.320481578876358,48.18198227790852],[7.321092069061484,48.18188782287545],[7.321106321867709,48.181915416676986],[7.321163414194046,48.18202678016195],[7.32116600528441,48.182032092149775],[7.321544075469895,48.18194119273792],[7.321547018006214,48.1819524394462],[7.322006730043535,48.1818794540486],[7.321915015669354,48.181759987499895],[7.321850584345125,48.181675837670234],[7.321782638263067,48.1815849678299],[7.321747288014234,48.181523542843564],[7.321740026220239,48.1815105619716],[7.321682154838131,48.1813946313682],[7.321682147478018,48.18139454152262],[7.3216542175986,48.181338161432954],[7.32164955618062,48.181328960236286],[7.321624053686407,48.18127753765672],[7.321604843116607,48.18123877102573],[7.321576138645959,48.18118115768398],[7.321554329700502,48.181136989214515],[7.321490086209856,48.18112420359857],[7.321033687395608,48.18104179733516],[7.321031791872942,48.18104168654492],[7.32095820329532,48.18103654232631],[7.320959204452518,48.18103560449851],[7.320645166610102,48.18100502448367],[7.320198179327462,48.180974987699784],[7.320202609918901,48.18081847557849],[7.320321353888061,48.180820524472665],[7.320343775944806,48.18068462051092],[7.320342320252131,48.180684944175916],[7.320342312894398,48.180684854330224],[7.320345440575023,48.180658876704726],[7.320275530838214,48.18029881373466],[7.320263279254204,48.1802265394962],[7.320235996165676,48.18006614243373],[7.320137476489522,48.179768045122096],[7.320136536109243,48.17976807956552],[7.31976671958987,48.17982632144167],[7.319765779208312,48.17982635588213],[7.319517928952126,48.17986679295779],[7.319446933801873,48.17988507294954],[7.319431043480913,48.17981112960008],[7.31948287552787,48.179797426351136],[7.319487616144136,48.179796081244746],[7.319675264774305,48.17976586926525],[7.319844961210757,48.179738567354036],[7.320191392637051,48.179682713705915],[7.320293520842975,48.17966617657965],[7.320313600136137,48.17966291787588],[7.32059518067596,48.179521035291785],[7.320751628120602,48.17942410764377],[7.320899344666431,48.17933245595096],[7.320931978424436,48.179314679224646],[7.321099791744144,48.17922328228819],[7.321224919381685,48.17915525687705],[7.321225583714559,48.179155142422665],[7.321273195039655,48.179137627898854],[7.321350625945189,48.17910910814174],[7.321352850821572,48.17910830570401],[7.321451208724043,48.17909181553645],[7.321591434142081,48.17906829422943],[7.321748444331501,48.17904406762056],[7.32183417050449,48.179031284121486],[7.322071752013693,48.17899220951069],[7.32222930095292,48.178966340424985],[7.322399344985985,48.17893839113891],[7.322438166740579,48.178932012085184],[7.322530708815036,48.17891690562682],[7.322892912039233,48.17885794247784],[7.323007518280921,48.178839143259914],[7.323291786607133,48.17879267766488],[7.323632842062148,48.178737100691336],[7.32365065915488,48.178734194670746],[7.323794771228823,48.17871701651342],[7.323903399934202,48.178704202926376],[7.324069537524276,48.17868450477666],[7.324028693434379,48.17832590034677],[7.323911643520114,48.17766054249409],[7.323923794309697,48.17765919588097],[7.323886416367695,48.17753521535562],[7.323841369901903,48.177388356228505],[7.323628498364259,48.176903497821264],[7.323566346856129,48.17675176856831],[7.323338923699476,48.17620436208958],[7.323313751520316,48.17615860490335],[7.323270249294392,48.17608810700657],[7.323223685119113,48.17601312543414],[7.32324230729655,48.17601018992568],[7.32317824719532,48.17581212084003],[7.323138870370035,48.175696594062806],[7.323102261367126,48.17558853553251],[7.32303311245724,48.17538425466646],[7.322988096150816,48.175254155567316],[7.32298110349653,48.175234586424395],[7.322904998355222,48.1750588567804],[7.322822387171827,48.17488922307542],[7.322768414515849,48.17480108562785],[7.322715119246338,48.174721213975374],[7.322660572863853,48.17463922537909],[7.322591894753283,48.17455577216609],[7.322517374565585,48.17446514354574],[7.320786614709675,48.17464418343512],[7.320700711886806,48.174641563167555],[7.320147817818285,48.174716067029976],[7.31902013846981,48.174870914954],[7.318949544231134,48.174880163508995],[7.318853629076703,48.17463081711062],[7.318800795742441,48.17461247586607],[7.318565766007823,48.17461666663473],[7.318457866544579,48.17461854493383],[7.318313505597739,48.17462103726471],[7.318237406847287,48.17461967830905]],[[7.318952725229935,48.174888432968935],[7.31894948902912,48.174880170741],[7.318949544231134,48.174880163508995],[7.318952725229935,48.174888432968935]]],[[[7.320681536163572,48.18221907552514],[7.319743593571721,48.1826787716579],[7.319514684238742,48.18247673586882],[7.319858793060096,48.1823050810448],[7.320085215645467,48.18219207483262],[7.320370811227774,48.18204968603514],[7.320139558319291,48.181917756668426],[7.320118496069768,48.181905731737395],[7.320075096273686,48.1818809175366],[7.319913520124655,48.18178860969548],[7.319750117130205,48.18169537728546],[7.319749415977846,48.18169504250294],[7.319468418005625,48.18156772725027],[7.319369229367966,48.181537926811046],[7.319157326233699,48.18147440533874],[7.319060762803683,48.18146514487524],[7.318960310584757,48.181487386769895],[7.318920232434047,48.18150642669748],[7.318647682981854,48.181635357779484],[7.318607470261142,48.18165440251777],[7.318378902220101,48.18175108352039],[7.318312355161714,48.18177929273229],[7.318109969947728,48.181836986080874],[7.317991644163154,48.18186970395948],[7.317906820920376,48.18189029139077],[7.317684183988131,48.181944219569885],[7.317376708239659,48.182018554684205],[7.317382443742358,48.182027716706436],[7.317480939035145,48.18220875703934],[7.317485704738602,48.18221759409438],[7.317265084720054,48.18231100802713],[7.316987689916712,48.18242857754401],[7.316941691713474,48.18244774328509],[7.316935829246678,48.182438676006754],[7.316787114903562,48.182160977597654],[7.316477301277446,48.182234765021235],[7.316557413985745,48.18238385711217],[7.316651838629357,48.182559640085714],[7.316655829564159,48.18256724391323],[7.316306387166335,48.18271502343802],[7.316583787463667,48.18294331621441],[7.316798236193697,48.18311695962888],[7.316938796992632,48.183230767120726],[7.317007929300789,48.18328681167835],[7.317078068374577,48.18334363038608],[7.317277785616165,48.183579270467455],[7.317382929059011,48.18370320500085],[7.317497470957035,48.1838382400321],[7.317599172390263,48.18395797486],[7.317679498092669,48.18405362033514],[7.317692786365626,48.184069444726],[7.317781586718203,48.18417478268329],[7.317875805056327,48.18428704132715],[7.317957458595273,48.18438407986052],[7.318004762261834,48.184440111892],[7.318096156334046,48.18446353042306],[7.318293950894097,48.18437761944992],[7.318794693824796,48.18416193551312],[7.318864193949011,48.18413190587201],[7.319353697038938,48.183874457091],[7.319416736794165,48.183841239287624],[7.31965112107525,48.18372992528979],[7.320243135568689,48.18344087288368],[7.320248789412548,48.18343751178342],[7.320552888669007,48.18325443410415],[7.320793990944746,48.18308042178873],[7.321023224687425,48.18291288138753],[7.32137076712444,48.182661434563386],[7.321387730807013,48.18261025849011],[7.321365588368991,48.18256366912197],[7.32132631004973,48.18252996318865],[7.321286144743865,48.18249529847133],[7.321194980266632,48.18241708402879],[7.321178604840939,48.18241128575245],[7.321089844934257,48.18237722968389],[7.32093604931878,48.18231744003712],[7.32093604195981,48.18231735019155],[7.320913072671495,48.182308369051476],[7.320682393750602,48.18221967491766],[7.320681536163572,48.18221907552514]]],[[[7.325395751387325,48.17660998527224],[7.325274970362528,48.17650573512261],[7.325275202197337,48.17650527604164],[7.325162093593534,48.1764075030971],[7.324995297366983,48.176202118060395],[7.324989513465716,48.17619566159415],[7.324562879673215,48.175719814502926],[7.324498678075699,48.175687744379694],[7.324070890844953,48.17547390449095],[7.324064012205204,48.17546559568929],[7.324006887241094,48.17539821082973],[7.323955979814721,48.17519461330113],[7.323940596385562,48.174941140923124],[7.323940791409824,48.174940232615114],[7.323965699924714,48.174846319898876],[7.323996865791583,48.17472847729602],[7.324016213991763,48.174655495045116],[7.324027109743434,48.17461418298793],[7.32406411101612,48.1744623329562],[7.322806291071624,48.17456449527429],[7.322930824205156,48.1746949240109],[7.323013685255282,48.17482814174907],[7.323035086032465,48.174862412320365],[7.323079724601962,48.174969816110945],[7.323141138353875,48.175117517513016],[7.323145764586058,48.175131225755464],[7.323287336879114,48.175548498691874],[7.323445748289974,48.17603805772716],[7.323811854918807,48.17690326436872],[7.323812182488505,48.17690397328513],[7.324039697050782,48.17735540237253],[7.324171018293202,48.17762607131896],[7.324175052558026,48.17764241457193],[7.324197038552485,48.177729831702244],[7.324342656275379,48.178248875626345],[7.324402577429339,48.17873005871798],[7.324531777407185,48.178747940659626],[7.324589964164124,48.178755900163665],[7.324651709985452,48.17876454018272],[7.324770987153848,48.17877314333016],[7.324892697159102,48.17878183738193],[7.324905980037284,48.178782792171454],[7.325437102899258,48.1787989112597],[7.325788062309988,48.178803342267216],[7.325759361353859,48.178620919398384],[7.325619430358731,48.17805309588564],[7.32559642184343,48.177956524647435],[7.325556002289614,48.17772154340302],[7.325492199527719,48.1774823732032],[7.325511648453427,48.177481299464],[7.325435043837536,48.17707939910546],[7.325426519300617,48.17703294166137],[7.325212657172884,48.1767136644927],[7.32520052031364,48.17669545561877],[7.325395751387325,48.17660998527224]]],[[[7.325780079482612,48.17943561604213],[7.325827743896308,48.17917884068339],[7.325856193250662,48.179024600673245],[7.325851181635641,48.17887474191114],[7.325810646888506,48.178878301228586],[7.325558739478986,48.17886915630966],[7.325245406707707,48.17885856867089],[7.324723039089314,48.17884077594134],[7.324640671796067,48.178840281544126],[7.324640403121547,48.17884029139535],[7.32432398710715,48.178797012306816],[7.324285624912657,48.17924133674008],[7.324205043152716,48.1802358319634],[7.324201401673037,48.18024894209306],[7.324201079657005,48.180249945168775],[7.324786077747341,48.1802869818941],[7.324788510614496,48.180287072921026],[7.32539206606131,48.18030720544523],[7.32556331388269,48.18030047485163],[7.325592990226973,48.18029758422143],[7.325622229114806,48.18024334375681],[7.325668356295946,48.18007133367973],[7.325741492197468,48.179627265297086],[7.325766852200789,48.17950107451755],[7.325780079482612,48.17943561604213]]]]}}]}
