{"type": "FeatureCollection","name": "aoc_geojson","features": [{"type":"Feature","properties":{"dt":"Pau","type_prod":"Vins","categorie":"Vin tranquille","type_denom":"appellation","signe":"AOC","id_app":9,"app":"Béarn","id_denom":61,"denom":"Béarn","insee":"64005","cvi":"1B101S, 1R101S, 1S101S","nomcom":"ABOS","insee2011":"64005","nomcom2011":"ABOS","id_aire":75,"crinao":null,"grp_name1":null,"grp_name2":null},"geometry":{"type":"MultiPolygon","coordinates":[[[[-0.557644033506368,43.35524158200919],[-0.557867103956435,43.355386520665746],[-0.55808683356783,43.35553129868285],[-0.55812519747972,43.35555299962069],[-0.558285479128755,43.35563642682649],[-0.558433931671448,43.35571015725178],[-0.558571638303724,43.35577973851293],[-0.558667818863669,43.35581439524138],[-0.558581001111544,43.356003119364956],[-0.559135821507724,43.356042493625495],[-0.559202069568696,43.3560540911805],[-0.5593322117863,43.35608312697422],[-0.559602249491205,43.35612727921401],[-0.559742533841958,43.35614868647226],[-0.559873708112206,43.356162468871844],[-0.559900613609018,43.3561724794576],[-0.559961730031869,43.35620486739784],[-0.560091629699856,43.35628785144867],[-0.560119493777185,43.356307375941036],[-0.560127977099996,43.35631484113322],[-0.559802074984968,43.35664066177563],[-0.559755284691189,43.35666633595697],[-0.559684416568935,43.356763673636216],[-0.559575846525245,43.35691592327986],[-0.559496096990974,43.35704128920083],[-0.559325852785156,43.35731785925699],[-0.558758810672852,43.35704700379065],[-0.558478080407308,43.35694971026271],[-0.558155147580311,43.35690639497825],[-0.558058868718508,43.35700997070788],[-0.558022056719949,43.35705134505739],[-0.557964295374386,43.35713915504637],[-0.557830705228708,43.35733995353256],[-0.557650186869108,43.35734652270478],[-0.557584761909684,43.3573322855651],[-0.557389348358052,43.3572915267252],[-0.557053101396201,43.35721649753989],[-0.556741764656797,43.35712515913326],[-0.556624217869989,43.35705230091005],[-0.556557705112459,43.35701045301829],[-0.556410187697347,43.35689193338111],[-0.556254475274267,43.35676260668997],[-0.556208809584827,43.356680630340946],[-0.55617492026407,43.35668741804606],[-0.555811622871738,43.356997615974024],[-0.555575730236105,43.35719664220843],[-0.555251443824001,43.3571833500407],[-0.555094297479754,43.357160690205646],[-0.554951779906171,43.35713709899818],[-0.554854397814672,43.35711895791046],[-0.554817039454784,43.357111540976135],[-0.554766576688123,43.35725368057992],[-0.553789546121626,43.3569702509292],[-0.553528417239847,43.35681646863985],[-0.553367067645978,43.35671767068162],[-0.553322251555251,43.35669338847489],[-0.552656432199144,43.35661917884157],[-0.552251984678046,43.35657672301187],[-0.552047105440389,43.35655445611548],[-0.5517823384861,43.35646562652733],[-0.551684261496548,43.35640617180631],[-0.552210496893171,43.35569819157944],[-0.552223349484286,43.35568047949024],[-0.551694128055925,43.35559178158114],[-0.551665717415398,43.35558334932533],[-0.551426301805115,43.35549728853109],[-0.551024489868286,43.355353343901136],[-0.550808425913875,43.35527570025361],[-0.550273010403791,43.35520052661475],[-0.549880304473715,43.35514615028488],[-0.549948433527984,43.35507421398977],[-0.550099649478476,43.35492075502018],[-0.550254760103087,43.35476842868553],[-0.550429092917876,43.35462564681907],[-0.550845913092212,43.35428264276019],[-0.551030597369472,43.35413366663275],[-0.551119688130619,43.35406149147729],[-0.550843925098359,43.353978244266294],[-0.550974643237307,43.35384067579131],[-0.551109954447831,43.353697553236586],[-0.551285641258367,43.35351078039332],[-0.551363251336001,43.35342655497604],[-0.551478641728143,43.35330461788834],[-0.551486811876807,43.35330903222841],[-0.551655016365995,43.35316104649013],[-0.551778457665195,43.3530536130649],[-0.551933441533175,43.35291938871795],[-0.551999832182039,43.352955389727995],[-0.552238371703174,43.3530954183339],[-0.552430316581581,43.35320626965779],[-0.552537725815175,43.35328504802632],[-0.552649409929811,43.35333910181506],[-0.552811683576781,43.35341904912572],[-0.553108102181354,43.35356104656813],[-0.55319537863837,43.35349352185983],[-0.553228546734874,43.353521068365275],[-0.553405286024351,43.353679424623266],[-0.553686746363707,43.35376896184099],[-0.55382660753404,43.35361569042599],[-0.554076031304913,43.35367602218061],[-0.553911890970048,43.35385179430187],[-0.553747970482544,43.35402314641436],[-0.553467982395116,43.354309436005025],[-0.553257442391145,43.354225312201066],[-0.553223222869605,43.35426272737431],[-0.552920387028803,43.35454679451233],[-0.552955402109957,43.354776266065244],[-0.552956120414455,43.35480190715664],[-0.55295006876931,43.35481183155519],[-0.553139392579922,43.354860092225024],[-0.553223536925395,43.35487776913486],[-0.553272280799071,43.354883731821985],[-0.553330922858646,43.35488810851993],[-0.553409960428563,43.35488902339537],[-0.553468421769922,43.3548864719858],[-0.553581039599203,43.3548716048606],[-0.553604532953601,43.354864349117406],[-0.553878488665,43.35476421390206],[-0.553973869759978,43.35473001142642],[-0.55400450953842,43.354716577319245],[-0.55432595626987,43.35453815613957],[-0.554470402163882,43.35445515346802],[-0.554659183843772,43.354270735928026],[-0.554674541780811,43.3542556427245],[-0.556101561866661,43.354992084095606],[-0.556062689137449,43.355066034151605],[-0.555845022709089,43.35549211240944],[-0.555585696354219,43.35599304226596],[-0.555720282142234,43.35605210358112],[-0.555888746213492,43.35574849286234],[-0.556035900665895,43.35547953214968],[-0.556151319523261,43.35550401292219],[-0.556185580326515,43.355513242205696],[-0.556437823106927,43.35495968344242],[-0.556636858749098,43.35491936799255],[-0.556778867443771,43.35487885667133],[-0.556809099343192,43.354862823664355],[-0.557007017673427,43.35493627964569],[-0.556965708255857,43.35500472700284],[-0.557017523542415,43.3550044634719],[-0.55723437773193,43.35507279361814],[-0.557289543437569,43.35517669972578],[-0.557345344925016,43.355077157883564],[-0.557421270580489,43.35512157717813],[-0.557644033506368,43.35524158200919]]],[[[-0.548241210805249,43.34854967005196],[-0.548504331607349,43.348382185530824],[-0.548840662179598,43.348549718256265],[-0.548414267976109,43.34882296864623],[-0.54828166469111,43.34894987948003],[-0.548190491137784,43.34909632245994],[-0.548173028242377,43.34920342573512],[-0.54816148358195,43.34927440449114],[-0.548339709935281,43.34961354114309],[-0.54842763039276,43.3497807622077],[-0.548453754637193,43.349830243394315],[-0.548643220196915,43.34998926916097],[-0.548780048719817,43.3500870765278],[-0.549035036633456,43.350244041314404],[-0.549396244749172,43.350522689910754],[-0.549629336678307,43.35078681260342],[-0.549703501171493,43.350870917091044],[-0.54932598119268,43.351044410981885],[-0.548959618404183,43.35121276460964],[-0.54874815735589,43.351355681848865],[-0.548428421280112,43.35157185136765],[-0.548400942678656,43.351596526579414],[-0.54820117101319,43.35144855430097],[-0.547810658178065,43.35115492397785],[-0.547573902399825,43.350979437865],[-0.547484261400607,43.350980577746455],[-0.547481242331828,43.3509916630165],[-0.547608583135177,43.35108969316535],[-0.547903380809467,43.3513159547114],[-0.547992407327166,43.3513969612287],[-0.548183999825251,43.35157041655277],[-0.548283098129781,43.35165865667595],[-0.548428958827166,43.351714744827675],[-0.548464288647234,43.35172736327652],[-0.548500639834975,43.351744540803885],[-0.54853060770031,43.35175625457753],[-0.548759149445391,43.3518424075924],[-0.54893941127832,43.35191204443401],[-0.549101795436352,43.351945887099816],[-0.549311292120534,43.35198529718335],[-0.549422704908846,43.35198299093489],[-0.549525561801597,43.35197601260826],[-0.549665244969456,43.35193585712932],[-0.549746203187137,43.351911947417996],[-0.549935120677557,43.35203388841016],[-0.550017064769636,43.352088020530424],[-0.550129481626074,43.35220607908302],[-0.550278353081052,43.35235698003382],[-0.550449915215492,43.352415553670824],[-0.550784575599295,43.35252550384207],[-0.551135389757563,43.35254919369614],[-0.55134034225354,43.352710948860924],[-0.551603279224719,43.35291645528923],[-0.551632107399755,43.35293567994978],[-0.551499087566438,43.3530258677735],[-0.551412229178161,43.35309418777944],[-0.551251666520311,43.35322202080549],[-0.551139315754542,43.353307206910536],[-0.548927479782496,43.35323015511545],[-0.548938810555364,43.352981512008945],[-0.547364962141286,43.353270618347494],[-0.547001769032461,43.35296987468036],[-0.54682914606655,43.35291808424091],[-0.546568119310537,43.35287153433718],[-0.546517234448755,43.35297703213725],[-0.546277309389125,43.35347549911321],[-0.546050098718842,43.35395004533011],[-0.546049392985013,43.35395060877954],[-0.54585346242891,43.353885082751624],[-0.545840864525954,43.35388090323456],[-0.545823744441319,43.3538754311814],[-0.545545066113516,43.35378677323473],[-0.545321755991256,43.35371548021804],[-0.544559807527436,43.35347615868025],[-0.54396330338244,43.353290213290755],[-0.543945310501056,43.3532845894569],[-0.543244482097299,43.35306369755276],[-0.543243351581845,43.35306337439231],[-0.543193443017194,43.353046459229475],[-0.542893197521322,43.35295210783322],[-0.542682469252901,43.35288462979325],[-0.5426757982969,43.35288250702125],[-0.542389534258671,43.35279273908773],[-0.542002983262963,43.35267149579601],[-0.541815369159504,43.35261262431758],[-0.541506688936248,43.35251548379481],[-0.541179256384849,43.35241238282777],[-0.541134586200351,43.35239835694205],[-0.541093811175963,43.35238546419413],[-0.54104926418686,43.35237143424052],[-0.541046494013354,43.352370534396265],[-0.540843016362544,43.35230650759076],[-0.540644663344837,43.35200872101265],[-0.540797268841706,43.35193780696886],[-0.540754868764078,43.35192055483705],[-0.540721593825176,43.35192326530986],[-0.540697043794205,43.35192136765147],[-0.540669440216135,43.35191596794252],[-0.540630790715163,43.35193362268777],[-0.540479384852572,43.35216253623555],[-0.540463916340879,43.35218591558433],[-0.539837178812518,43.351991483063856],[-0.539811391042448,43.351983502276205],[-0.539756675930922,43.351966652899875],[-0.539274158232683,43.351817744414426],[-0.53904686574672,43.351747650011944],[-0.53896877524513,43.351723910992945],[-0.53896399603311,43.35172244649509],[-0.538476830256554,43.35157413699045],[-0.538375373913346,43.35154566908379],[-0.538344733912093,43.351537036284206],[-0.538190818763847,43.35151235592801],[-0.537673161732752,43.35142204263625],[-0.537152041513527,43.351331570061085],[-0.536902896077083,43.351570609116585],[-0.536894372681629,43.35156845654286],[-0.536550915354753,43.35147946386378],[-0.536398408280857,43.35143951640728],[-0.536335382788144,43.351421946586655],[-0.536081110652271,43.35135651059315],[-0.535984365267597,43.35133238896801],[-0.536168388420153,43.35105766064558],[-0.536257092866982,43.350924726941415],[-0.536220592825988,43.35082668503483],[-0.536139129398957,43.35079017716429],[-0.536094472736132,43.350776328955114],[-0.536036841129155,43.3507621846227],[-0.535953092328819,43.35074673309892],[-0.535906228598627,43.35074115157359],[-0.535829329185634,43.35074078454803],[-0.535730490494292,43.35082524191756],[-0.535567989642403,43.350815426843745],[-0.535339380495921,43.35080011866123],[-0.535095187126157,43.35074803863932],[-0.534773114908102,43.35061529742709],[-0.534671243570125,43.35061016278382],[-0.534395378701439,43.35059090429175],[-0.533874155957343,43.35055886238514],[-0.533911030180244,43.350464004986804],[-0.533985441610694,43.350258959947304],[-0.534086181730717,43.349994341591035],[-0.534089511759773,43.34995812260156],[-0.533995585740796,43.3499577704963],[-0.533957848788594,43.3499561222303],[-0.533834357785177,43.34995457503096],[-0.533735117996565,43.349956107315],[-0.533768326836293,43.34984173883983],[-0.53381520827841,43.3496807277596],[-0.533692789293735,43.34965843383441],[-0.533534243748899,43.34962453321988],[-0.533512962965779,43.349623607742224],[-0.533393075279822,43.34964256380702],[-0.533250204662038,43.349757543835],[-0.533163746968142,43.349738126493364],[-0.533009285626531,43.34970643296297],[-0.532819642613106,43.34967048567112],[-0.532636815247104,43.349637016890775],[-0.53252529024041,43.34966155203182],[-0.532495782587084,43.3496472074972],[-0.532400041796486,43.34960116783749],[-0.532287496195657,43.34954469095049],[-0.532200727148886,43.34950006899918],[-0.532165801254871,43.34947986801782],[-0.532059446977729,43.34940562889543],[-0.531949924202129,43.34933203347867],[-0.531808812095963,43.349238307997624],[-0.531719936053819,43.34917943655634],[-0.531694837936269,43.348774220573425],[-0.531679647627333,43.34854463886442],[-0.53167573645935,43.348408430868055],[-0.531677659361657,43.348329124043225],[-0.531692260762947,43.34811450820003],[-0.53169776076054,43.34808749365532],[-0.531707719972618,43.348050698111045],[-0.531732150308254,43.347988305949286],[-0.531752052564018,43.347966764282724],[-0.531820254346948,43.34790384288147],[-0.531878629932766,43.3478497071015],[-0.531934200642607,43.34779611315961],[-0.532081892445042,43.34765315202972],[-0.532214471423231,43.34752734363904],[-0.532235722302049,43.34751170112307],[-0.53225841948293,43.347505556654],[-0.533846832390443,43.34845672274498],[-0.534179342051345,43.348403891708045],[-0.534446791861067,43.34836462268695],[-0.534626265802153,43.34840783326933],[-0.534691371711618,43.34842317470715],[-0.534783933960958,43.3484495952126],[-0.53487678348899,43.348492755586335],[-0.534920363048361,43.348513213083734],[-0.535015589623057,43.34862725519958],[-0.535197151207135,43.348678321052695],[-0.535186626464288,43.348723960416756],[-0.53523032175721,43.3487342383426],[-0.535338331460348,43.348763034958445],[-0.535438116054547,43.34878849839577],[-0.535596665936824,43.34882248606887],[-0.535647399040239,43.348830822752944],[-0.535684304629693,43.34883501899771],[-0.535810062927851,43.34887151941995],[-0.535914060748495,43.34889927601752],[-0.536034477843669,43.34893117818819],[-0.536242060115874,43.34897995061911],[-0.536403211909947,43.34901610331253],[-0.536441643377637,43.34902304096006],[-0.536491449913012,43.34902231248217],[-0.537345633722977,43.3490552458597],[-0.538186746187646,43.34908427782957],[-0.539622549051594,43.34909806989927],[-0.540890536001418,43.349182084894245],[-0.541723845153269,43.34852840150894],[-0.5422385535712,43.34812774546435],[-0.542379026828998,43.34812458426238],[-0.542425740360641,43.3481197219805],[-0.54247712840622,43.34810660198041],[-0.542653116692374,43.348044914651375],[-0.542871883397864,43.347970569034324],[-0.543052386969825,43.34791008384499],[-0.543136382636088,43.34787743467137],[-0.543377648536977,43.34778172914757],[-0.543624941277558,43.34761954831882],[-0.543886023534342,43.34745088154965],[-0.544131229596309,43.34729092911782],[-0.544378670646815,43.3471572876631],[-0.544490592390081,43.347097247089096],[-0.544749953688909,43.34698689729117],[-0.544874816884786,43.34693264552155],[-0.545508085963614,43.347199683665266],[-0.544958438275132,43.34766768873459],[-0.544385774609434,43.34813077216051],[-0.543977880699727,43.34844626206236],[-0.543829474921488,43.34861528845637],[-0.543744726343673,43.34892847066745],[-0.543222940395611,43.349388529447076],[-0.542339291200717,43.35014455077208],[-0.54241270067055,43.350998888415646],[-0.543147447894742,43.35114176964204],[-0.543257055852883,43.35092565819668],[-0.543287318266859,43.350863972322],[-0.543311686590279,43.35061625457514],[-0.543420806074703,43.35042231149143],[-0.543559145272724,43.35018184505935],[-0.543754961171677,43.349922925441156],[-0.543871886379922,43.34984182982521],[-0.544195105474388,43.34970219332505],[-0.544236141661842,43.34969328399548],[-0.544587432558427,43.349719049915194],[-0.544867832663056,43.34972777786255],[-0.545112616810761,43.349681120888874],[-0.54534000968479,43.34981297398293],[-0.545257883793591,43.350076453874244],[-0.545164190219678,43.35036651778651],[-0.545074856833707,43.35072541766507],[-0.544931145952012,43.35130951649143],[-0.544847686013279,43.351631573070016],[-0.544826346102518,43.35163371345533],[-0.544844182733955,43.35166887894544],[-0.544919204624184,43.35165876519968],[-0.544984681497365,43.35164995488201],[-0.545031291113092,43.35164536510821],[-0.545040689385976,43.35164568735076],[-0.545136989499575,43.35166450261886],[-0.545295379138309,43.3516756089147],[-0.545548509876216,43.35169423458593],[-0.545898164180279,43.351717258790245],[-0.546003167082241,43.35172309073028],[-0.546197665331538,43.351490954549696],[-0.546231439474743,43.351446262249915],[-0.546252210698208,43.35140884025149],[-0.546300987424926,43.35125109219808],[-0.546326365017321,43.35118227143174],[-0.546342507495561,43.35116787416852],[-0.546380255322176,43.351147635413305],[-0.54651499741114,43.351073336665756],[-0.546580217333427,43.35103031441674],[-0.54660027130918,43.350937174330056],[-0.546621794672033,43.35082381463553],[-0.546584473189136,43.35076281353874],[-0.546577556010412,43.35074467002137],[-0.546562657535399,43.35066105109307],[-0.546536851294136,43.3504784637543],[-0.546524172346281,43.35031066448812],[-0.546514349455184,43.350237325019854],[-0.546475123133052,43.350123346424574],[-0.546465243585341,43.350099176612055],[-0.546446493249098,43.350017124868025],[-0.546438379327864,43.349981550735095],[-0.546435829201026,43.34997019791156],[-0.546421124909676,43.34983362274149],[-0.546415572203794,43.34981759570104],[-0.546395115913537,43.34975793253811],[-0.546382323835435,43.34972053072401],[-0.546365189890981,43.34963266272856],[-0.546379350602857,43.349562048673675],[-0.546395887032201,43.34950396382035],[-0.546423088791468,43.349450752112716],[-0.546472927410928,43.34938842321421],[-0.546479683891681,43.34937991693262],[-0.546480025659142,43.34937945546886],[-0.54656880208053,43.349322243017774],[-0.546741432938179,43.349266152184384],[-0.546796473888172,43.349248227658535],[-0.546806008742469,43.34924476311866],[-0.546882517222865,43.34921676908283],[-0.547146318201022,43.34911230129994],[-0.547336878508011,43.34903680067676],[-0.547368930711973,43.34901026474493],[-0.547388650446147,43.348993858893074],[-0.547389238496171,43.34899338934639],[-0.547487554928318,43.348922805750156],[-0.547501953156019,43.34899626381658],[-0.547625579731078,43.348867848815566],[-0.547986601821833,43.34849282803722],[-0.548241210805249,43.34854967005196]],[[-0.547501951847042,43.34899626517626],[-0.547504110557578,43.34900727060996],[-0.547501953156019,43.34899626381658],[-0.547501951847042,43.34899626517626]]],[[[-0.533763573336286,43.33642240758397],[-0.533365555368987,43.336560585764],[-0.533418318543492,43.336407128169085],[-0.533369660087732,43.336249421372244],[-0.533328172257537,43.33612011588144],[-0.533212039669914,43.335753358863485],[-0.533169505133414,43.335619044837564],[-0.533139324775682,43.33552926160475],[-0.532954663131849,43.335332415840725],[-0.532924383711194,43.33529531459393],[-0.532851809285301,43.335192148722406],[-0.532749147054996,43.3350509747842],[-0.532617402635097,43.33486806784338],[-0.532484471977534,43.33468591995077],[-0.532453487654525,43.334643348649465],[-0.532429517188618,43.33461054360502],[-0.532455206629311,43.33458286952243],[-0.53367585354692,43.33414198680863],[-0.533832870992771,43.33408732701287],[-0.534100217330079,43.33439529010501],[-0.53429234906029,43.33477216810268],[-0.534207780992222,43.33501239272215],[-0.53420419424426,43.33525150066726],[-0.534625224028948,43.33612778253014],[-0.534996305650452,43.33690159991667],[-0.534747695746494,43.33702184045338],[-0.534168657965462,43.33730218490516],[-0.534087512293853,43.33724036227022],[-0.534020329260001,43.337184926898466],[-0.533970144252747,43.33710894487676],[-0.533920525834457,43.337074367024094],[-0.533893462771539,43.337055530877734],[-0.533882106875801,43.336946852321866],[-0.533870589430275,43.336849615322464],[-0.533850106135092,43.33674096499835],[-0.533811062687015,43.33660527624119],[-0.533763573336286,43.33642240758397]]],[[[-0.529879307097151,43.339426919115255],[-0.529958741693796,43.33943468118913],[-0.530128986252799,43.33945262525797],[-0.530295275959423,43.33947448027744],[-0.530389726353018,43.339487694966195],[-0.530518455665501,43.33950060060286],[-0.530656224814465,43.33951204022845],[-0.530888946463165,43.33953280541896],[-0.531052158745731,43.33954872649216],[-0.531158738182812,43.33956658713648],[-0.53122457385244,43.33957992527831],[-0.531249154765176,43.339590468619384],[-0.531336470595101,43.33963219104432],[-0.531382815018894,43.33966165424774],[-0.531486237569861,43.33973869011551],[-0.531561693729709,43.33982240260779],[-0.531587805019314,43.339853877405865],[-0.531680487850228,43.339954946945234],[-0.531694745589772,43.339998335270195],[-0.531751225838866,43.34015686830288],[-0.531777994127694,43.34023325629267],[-0.531805896356741,43.34038245726621],[-0.531797586025786,43.34052860890933],[-0.531778072790621,43.34081398286923],[-0.531774290595443,43.34110037383849],[-0.531766114065873,43.34146399083192],[-0.531757484,43.34159889683383],[-0.531540531762994,43.341553754966014],[-0.531501787966189,43.341545655357045],[-0.530530509741765,43.34134360857777],[-0.530496537969435,43.34146970661532],[-0.53043305470806,43.341675921837705],[-0.530346116116395,43.34193828338698],[-0.529840985690535,43.34161186799036],[-0.529659601119744,43.341923597815565],[-0.529550643673146,43.34192940612865],[-0.529104204720175,43.342325159007615],[-0.52845014309461,43.342900671042806],[-0.528041192995535,43.34326412880735],[-0.527593924149367,43.34364666498688],[-0.5270315747345,43.34329049558891],[-0.526916283733992,43.34332388280146],[-0.526758437704062,43.34311165245895],[-0.526742879347187,43.34308928741348],[-0.52693512705965,43.342855911640655],[-0.526651907055984,43.342719900602916],[-0.527117845728991,43.34222924054055],[-0.527124078028367,43.342226245691975],[-0.527153287821203,43.34219350534047],[-0.527150757067722,43.342194488396444],[-0.527256695762209,43.34208297300162],[-0.527451967832382,43.341874891562455],[-0.527712742724169,43.341322214813815],[-0.52790130558099,43.34100467138393],[-0.528112815530612,43.340838201945836],[-0.528327639376625,43.34080237554737],[-0.527990620188756,43.34065002427938],[-0.527928578699205,43.3406200813113],[-0.527699955582812,43.3405232643487],[-0.526945182947245,43.34142244816354],[-0.525638454361926,43.342971683173865],[-0.525632009945196,43.34297927736685],[-0.525608430197031,43.34296897020975],[-0.52556988594796,43.342952037121734],[-0.525505243011682,43.34291992626759],[-0.525401029292204,43.34282589104566],[-0.525366233041423,43.34283188830634],[-0.525354882216291,43.342821812698],[-0.525329119233035,43.342838321320066],[-0.525076966327741,43.34271191911252],[-0.524937785633802,43.34264324681476],[-0.524845034233147,43.34259737397735],[-0.524794275712438,43.34257237421096],[-0.524603374266252,43.342479093296106],[-0.524428505230177,43.342393754072084],[-0.52434290858698,43.34235187992007],[-0.523952615207816,43.34216361197083],[-0.523919052295006,43.34214741646867],[-0.523797666604788,43.342052949043946],[-0.523672657648224,43.341955718017076],[-0.52366812256996,43.341952173805964],[-0.523582498203374,43.34188562653835],[-0.523150085088004,43.34154924710783],[-0.522883368938771,43.3413419104421],[-0.522873929582235,43.34133483399334],[-0.522611506281222,43.34113915330254],[-0.522814174253401,43.34092066430789],[-0.52297692578391,43.34073742412717],[-0.523699052801806,43.340911008144246],[-0.52371784027482,43.3409216519532],[-0.523783224432692,43.34096391511156],[-0.523805027556104,43.340975451157775],[-0.523853314954539,43.340996389581676],[-0.523965208736396,43.34104262970511],[-0.523998313645341,43.34105739930135],[-0.524107020370654,43.341095908895106],[-0.524321797804288,43.3411681510471],[-0.524822780709387,43.34135280864367],[-0.524944956371578,43.34139970314033],[-0.525044627531516,43.34144174820654],[-0.525172945756051,43.34148619095532],[-0.525223777951623,43.34150434435445],[-0.525314972410894,43.34152883583219],[-0.525397000190902,43.341552725648455],[-0.525460986077891,43.34158017534663],[-0.525509223302441,43.34158616653924],[-0.525737429536501,43.34130533528291],[-0.525872640543547,43.34111371347712],[-0.526071060067836,43.34083610414496],[-0.526265706029084,43.34056339013314],[-0.5265227733333,43.340205974509736],[-0.526482642355685,43.34019332590352],[-0.525964263687914,43.339972323501875],[-0.525485606046209,43.33976326072774],[-0.526047380259959,43.33916763517208],[-0.526140147062092,43.33914128682317],[-0.526079781658258,43.33911651109443],[-0.525903210512865,43.339039514765396],[-0.525652895461227,43.33893079449413],[-0.525261190450553,43.338761488705934],[-0.525160968643978,43.33872045256555],[-0.525260098191165,43.338594483374635],[-0.525357927935716,43.33846945696636],[-0.525465758689851,43.338338521295576],[-0.525485162770657,43.33831087382063],[-0.525559383032544,43.33819922399775],[-0.525602138079968,43.33813182377894],[-0.525639624090723,43.33806702669968],[-0.525683024740993,43.33796583701937],[-0.525718658193436,43.3379010102817],[-0.525800407649859,43.33776525176533],[-0.525883284373644,43.33770635826164],[-0.526007903341535,43.33763205561349],[-0.526069926149886,43.33760130706213],[-0.526196677454111,43.337547735957116],[-0.526404057640629,43.337475145757836],[-0.52671211181337,43.33737846967325],[-0.527175057471057,43.33723450623774],[-0.527692743771114,43.33707389642078],[-0.528240577998991,43.33690401561855],[-0.528971563811237,43.33667700554208],[-0.529029145261148,43.33665837674046],[-0.529429288573471,43.336532572253624],[-0.529578572554929,43.33648240366517],[-0.529408558310707,43.336725774021666],[-0.529407527316542,43.3367270683685],[-0.529213782042164,43.336999938836456],[-0.528993503005586,43.33732302202779],[-0.528936901321006,43.33740195172997],[-0.528689725253954,43.33772303071325],[-0.528458403412823,43.338025041548065],[-0.528241069397743,43.338305703971976],[-0.528226336377441,43.33833103836159],[-0.528290528346591,43.338329663789175],[-0.528752152038869,43.338335218399656],[-0.529231588359851,43.33834154029039],[-0.52928707857738,43.33834513175315],[-0.529290531572453,43.338345109077665],[-0.529374335278558,43.33853291738422],[-0.52956078300466,43.338958256384906],[-0.529576690266122,43.338984301582975],[-0.529403739864545,43.33927450359061],[-0.529448066559968,43.339311327436036],[-0.529473512458626,43.33932391405898],[-0.529602518192563,43.339373551853946],[-0.529702323761848,43.33940973496746],[-0.529879307097151,43.339426919115255]]]]}}]}
