{"type": "FeatureCollection","name": "aoc_geojson","features": [{"type":"Feature","properties":{"dt":"Pau","type_prod":"Vins","categorie":"Vin tranquille","type_denom":"appellation","signe":"AOC","id_app":9,"app":"Béarn","id_denom":61,"denom":"Béarn","insee":"64305","cvi":"1B101S, 1R101S, 1S101S","nomcom":"LAHONTAN","insee2011":"64305","nomcom2011":"LAHONTAN","id_aire":75,"crinao":null,"grp_name1":null,"grp_name2":null},"geometry":{"type":"MultiPolygon","coordinates":[[[[-0.993299822590818,43.506330642842215],[-0.993251217726944,43.50664440008869],[-0.993254958850565,43.50682812709799],[-0.993231227697905,43.50684638789927],[-0.993223351264287,43.50735962595021],[-0.993154333170376,43.507792778247364],[-0.993195117962846,43.507852443974244],[-0.993210486077553,43.5079524134997],[-0.993178914831371,43.50813203641777],[-0.992922955593145,43.508411452391975],[-0.992913768006593,43.50847512111427],[-0.992905350640405,43.50854452695432],[-0.992210130422477,43.50831131782779],[-0.991965258608906,43.508244664213514],[-0.992181895322483,43.50802624556688],[-0.992557734395022,43.50756269501527],[-0.992015040465545,43.507399358812286],[-0.992127401494747,43.507133792132166],[-0.99226736667169,43.50677928509493],[-0.992308967216634,43.506685144872264],[-0.992098678965495,43.50638236499503],[-0.992009077124007,43.506195494392976],[-0.992112123948651,43.50561794436607],[-0.993059999750499,43.50524719019816],[-0.993141167247401,43.5053625724037],[-0.993245462253667,43.5055934030119],[-0.993309470068716,43.505759234670776],[-0.993333186237318,43.50582619538309],[-0.993348206485637,43.505887350649644],[-0.993364005861969,43.50604513908355],[-0.99333092568986,43.50613184907882],[-0.993292776733603,43.50619550371422],[-0.993265069699451,43.50630787031491],[-0.993299822590818,43.506330642842215]]],[[[-0.991783581541513,43.51297212237724],[-0.991012145390714,43.512654596451156],[-0.990835120563108,43.51258841438443],[-0.990805916876721,43.51257606670721],[-0.990423747208483,43.512316904964784],[-0.990105372753719,43.512163496867544],[-0.989951355047595,43.51211664584436],[-0.989267728595406,43.51192424866577],[-0.989268656600782,43.51191088182135],[-0.989242322285603,43.51187212311715],[-0.989642410476829,43.51124382482506],[-0.990005859838587,43.51134773930397],[-0.990399522155333,43.51156044512551],[-0.99043558573314,43.51157533301741],[-0.990535507856286,43.511554448282965],[-0.99057255272114,43.51161551403204],[-0.991066956160289,43.511822617208146],[-0.991527627515513,43.51201627636072],[-0.991622041509082,43.51184136638759],[-0.992485899351432,43.51220647229973],[-0.992204863151449,43.5123836617499],[-0.991883383020962,43.51261296807134],[-0.991816313593601,43.512784168848356],[-0.991783581541513,43.51297212237724]]],[[[-0.988678422078227,43.50799342796612],[-0.988721774468138,43.507993904659365],[-0.988738901381808,43.50808723358245],[-0.988783438079675,43.50828828707509],[-0.988788539750431,43.508324313714624],[-0.987966664387799,43.50842707309726],[-0.987576527533812,43.50847322598583],[-0.987531641190667,43.5084773996085],[-0.987420524456967,43.50748856583371],[-0.98686164529105,43.50746444114872],[-0.986577403700014,43.50745273451469],[-0.985585948397932,43.507412441574516],[-0.985558137778341,43.5074094103135],[-0.985420550133425,43.50651478806946],[-0.985792549985645,43.506499938479564],[-0.98648767104137,43.50650068024756],[-0.986871151443954,43.50648540471007],[-0.986861132824333,43.50660315433279],[-0.988199007917535,43.50674338629097],[-0.988200038837118,43.506858027040295],[-0.988353184297917,43.50686581483849],[-0.988354797318042,43.50693358978496],[-0.988287725440398,43.507400628112904],[-0.988274671012651,43.50752452546796],[-0.988366153234868,43.50761565903673],[-0.988671143585999,43.50783874878349],[-0.988678422078227,43.50799342796612]]],[[[-0.988748603519016,43.51445980878028],[-0.988439150184822,43.51436543362942],[-0.988341037601091,43.51433760332411],[-0.988536386588036,43.51412583112868],[-0.988557106355081,43.514103358100556],[-0.989024862519738,43.51375922540179],[-0.98947855998174,43.513380294287444],[-0.989488816227164,43.51342279771542],[-0.989494223240975,43.51354871895813],[-0.990164395292053,43.51407267674635],[-0.990602864813871,43.51425301437923],[-0.990429645813222,43.51460856401115],[-0.990225237815449,43.51465428448158],[-0.990177968859058,43.51464917780237],[-0.989752146787904,43.514823671928156],[-0.988790791937106,43.51447375125448],[-0.988748603519016,43.51445980878028]]],[[[-0.984350138167342,43.512903174733864],[-0.984787617531654,43.51301258367409],[-0.985257491343555,43.51312323232437],[-0.985192119692905,43.51337625373541],[-0.98510011077066,43.5137288080377],[-0.985014851354386,43.51405913329683],[-0.984951212251192,43.514294344088185],[-0.985047740263414,43.5142922371141],[-0.984980376589781,43.51485189337821],[-0.984271799952307,43.51484956079452],[-0.984263251839153,43.514861946439375],[-0.984110940603143,43.51520185207879],[-0.984029713482349,43.51535491996561],[-0.983776325048314,43.515313873837535],[-0.983424586753093,43.51525761310255],[-0.983348720555986,43.51524175302173],[-0.983151918376063,43.51549356662106],[-0.982749198942693,43.51597293418076],[-0.982631064854483,43.516066909334775],[-0.982465020626208,43.516233992183686],[-0.982421946451638,43.51652673135511],[-0.982378164033258,43.51680391174795],[-0.981720323868271,43.51679095954671],[-0.981547296084907,43.516761009847194],[-0.981542601408466,43.516718301505584],[-0.981529384031699,43.51647771781153],[-0.981530405554128,43.51633714674677],[-0.981542903540748,43.51617642545945],[-0.981488817818546,43.516064093223434],[-0.98144340368446,43.515889373547274],[-0.981307325032359,43.51586383206802],[-0.981345544287246,43.51574378579183],[-0.981442898179063,43.51564823306396],[-0.981797202648241,43.51547018351879],[-0.981865640263466,43.51538785401268],[-0.982319567989686,43.51490075338726],[-0.982403087612192,43.51481102298753],[-0.982474140620874,43.51461472886197],[-0.982607092163405,43.51462020448302],[-0.982748696044637,43.514256101390934],[-0.983149721407134,43.514300283347104],[-0.983230085058674,43.51430426713295],[-0.983318766521307,43.51411768450553],[-0.983399819354716,43.513897870298415],[-0.98343037649953,43.51372990902622],[-0.983536723313102,43.51321098219757],[-0.983614016315634,43.512856718314914],[-0.984117951124958,43.512885673706286],[-0.984340286954228,43.51295029120904],[-0.984350138167342,43.512903174733864]]],[[[-0.982339239785366,43.50765825168257],[-0.982248383495227,43.507708073539646],[-0.981984106531879,43.50785218925587],[-0.981895642462462,43.50787940165152],[-0.981426964636115,43.50782454946936],[-0.981172443643663,43.5078112865587],[-0.980573451760366,43.50776554096234],[-0.980374741074576,43.50773428162771],[-0.979726105277734,43.507581171426274],[-0.979009800338571,43.507407029396205],[-0.97895612694136,43.50739512658734],[-0.978901038149397,43.50748426085802],[-0.978952312846406,43.507833079178404],[-0.978912708937564,43.50783489328399],[-0.978724840697387,43.50784935641668],[-0.978672046664675,43.50791624545538],[-0.978587998761651,43.5079822096724],[-0.978477084070151,43.508033755406565],[-0.978171498783204,43.508155234857846],[-0.978094053001277,43.50813249301647],[-0.977398796358366,43.50788342792968],[-0.975981794251152,43.50731527006772],[-0.975920868478293,43.50725759852549],[-0.975872097430116,43.507223533736756],[-0.975721699210472,43.507123110614955],[-0.975673387780052,43.50709389346287],[-0.975408928087969,43.507024588742595],[-0.975461176224858,43.50693547055663],[-0.975599368923841,43.50668798430756],[-0.975636301352157,43.50662077783815],[-0.975770749254321,43.50643720864292],[-0.975884131309913,43.506326569770216],[-0.975654451867161,43.50628049306257],[-0.974669970936214,43.505947070824995],[-0.975070438419648,43.505134866779926],[-0.976168795905604,43.505248805263115],[-0.977302326718468,43.50531477829764],[-0.977539202772115,43.5048000806173],[-0.978461372054811,43.505096937088204],[-0.979105310122185,43.50534346360324],[-0.979871444374247,43.50563693828021],[-0.980820846549793,43.50582278223021],[-0.98125278366619,43.50593168551003],[-0.981307946503134,43.506113252431554],[-0.981829717801542,43.50654847479268],[-0.981974982679332,43.50664790721787],[-0.982174788834304,43.50680208930147],[-0.982521253107302,43.5070953791945],[-0.982591069747917,43.50730613548167],[-0.982632771068844,43.5074719813921],[-0.982339239785366,43.50765825168257]],[[-0.97852800678297,43.506353515671066],[-0.978506312626603,43.50635836576409],[-0.978472897788531,43.5063548177437],[-0.978451545833239,43.50645928903992],[-0.97852907615771,43.50653508736423],[-0.978827247044764,43.506678277806685],[-0.978858548512104,43.50659416068356],[-0.978896893731668,43.506500956678195],[-0.978933935559725,43.506510407114284],[-0.978947701426851,43.506480444053054],[-0.978908684394694,43.506471066128796],[-0.978686423316317,43.5064070667888],[-0.97852800678297,43.506353515671066]]],[[[-0.976222531837456,43.50192091514124],[-0.976329369340289,43.50172304397872],[-0.976402128790558,43.5015012894424],[-0.976474215362292,43.50144855779549],[-0.97656263545437,43.50152269619538],[-0.977122501760454,43.50143693237245],[-0.977200277890968,43.50141633173722],[-0.977301064590695,43.50140812904596],[-0.977636848693242,43.501419408541224],[-0.977967886176981,43.501440770503756],[-0.978278640332369,43.501480172193],[-0.978397132385718,43.501531044598],[-0.979101098649661,43.50173716975665],[-0.979157473112846,43.50179527653491],[-0.979216295325486,43.501879778278145],[-0.979313900862227,43.501948892982426],[-0.979602454606407,43.5021982824914],[-0.979838473764303,43.50243960102398],[-0.980062777838649,43.5024761365574],[-0.980142835481892,43.50259201833435],[-0.980680646111883,43.50333600551666],[-0.98073150124474,43.50333765107524],[-0.980460533738803,43.50361533433306],[-0.980192121510946,43.503887067531934],[-0.979299793732131,43.503713537742236],[-0.979165842353727,43.50368611509993],[-0.979174519574571,43.503673815279754],[-0.978948168785812,43.50357564488814],[-0.978837425777078,43.50329729497416],[-0.978622514564575,43.50326239386876],[-0.978150590971118,43.503149363643296],[-0.977896058265218,43.50309988032164],[-0.977933530306423,43.50293869508395],[-0.977912704722497,43.50260587642715],[-0.97784767099515,43.50257997670244],[-0.977615190596279,43.50254508795098],[-0.977217248827825,43.50246375120928],[-0.976918246626382,43.50239932202482],[-0.976941578411284,43.50233414563457],[-0.976781943307942,43.50228604237291],[-0.976675714776402,43.50226750894854],[-0.976607055865548,43.50222498582896],[-0.976473519582967,43.502337536003175],[-0.976141269305534,43.50223973214391],[-0.97615365680808,43.502148742899514],[-0.976222531837456,43.50192091514124]]],[[[-0.974641531972236,43.50233716969776],[-0.974778260768576,43.50171102438364],[-0.974919880107928,43.501708082792526],[-0.974951478831591,43.50169079884023],[-0.975157763752773,43.50166377501752],[-0.976006636146102,43.50146949525839],[-0.976144471062828,43.501454799742255],[-0.976181728238964,43.50149243944568],[-0.976156669309844,43.50180973498751],[-0.976138774435206,43.50197668720502],[-0.976122602503339,43.50204340240472],[-0.97609942475169,43.502132265115456],[-0.976078931844055,43.50224382068001],[-0.974641531972236,43.50233716969776]]],[[[-0.97146177651462,43.50600088599484],[-0.971063553142863,43.506039168234466],[-0.971537160377175,43.5045998351398],[-0.971701858766093,43.50468712757463],[-0.972898677891482,43.50520665386775],[-0.97318870679862,43.50520386025111],[-0.973842103635048,43.50532629447684],[-0.97358382340172,43.5060276119269],[-0.973542141132676,43.50598148527302],[-0.973493744866426,43.50597605266093],[-0.973377587468571,43.50596256411603],[-0.973029840429462,43.505877119031105],[-0.972576849653168,43.50590372150516],[-0.972112598497628,43.50594109442388],[-0.972000180944745,43.505951249647254],[-0.97146177651462,43.50600088599484]]],[[[-0.970670720892773,43.50206003718414],[-0.970856997925869,43.502017449422866],[-0.971033059573417,43.50198820771373],[-0.971170452117951,43.501972453803326],[-0.971419923072207,43.50195070125285],[-0.971628557330314,43.501939723202455],[-0.971782839384389,43.50194271769502],[-0.971815820345814,43.50206708636231],[-0.971805579008046,43.50218204867129],[-0.971789550347021,43.50220975136794],[-0.971782365508744,43.502222176014556],[-0.9716365594388,43.50218427859901],[-0.971445197395943,43.502135438488374],[-0.971408015041554,43.502293907605875],[-0.971365222790605,43.50241420643696],[-0.971350777915351,43.502450499107546],[-0.970976394288985,43.502453766442486],[-0.970686204116989,43.50243791314569],[-0.970682002177792,43.5024684254193],[-0.968646393718976,43.50252829638925],[-0.968651879394756,43.50253962627524],[-0.967570475235683,43.50267362535636],[-0.966228957089294,43.50318431406387],[-0.966567586192731,43.50371152468885],[-0.966574248815425,43.503718397494595],[-0.966092311407857,43.503829180135426],[-0.96589239882619,43.50387874438637],[-0.965622183243915,43.50389772958691],[-0.964942936086243,43.50411914206879],[-0.965146128520347,43.50410630393845],[-0.965385869631516,43.50411555011762],[-0.965726986575296,43.504157300423245],[-0.965712732787627,43.50437384317112],[-0.965972797737245,43.50434045546575],[-0.965964115016382,43.50429537086302],[-0.966478843256945,43.504180866587646],[-0.966789227195124,43.504121673119734],[-0.966787038228112,43.50414373371956],[-0.967624726613577,43.50414496278163],[-0.967648091947952,43.503949345843466],[-0.967756746969656,43.50384537514069],[-0.968094712936599,43.50378778057944],[-0.968754961122239,43.503737572609865],[-0.968844854081589,43.50367374455512],[-0.968876342244009,43.50366556499309],[-0.968933937351751,43.50365192524294],[-0.96991611981533,43.503849363383054],[-0.969590629510832,43.504307651398854],[-0.968954029125468,43.50512451515973],[-0.968829864366977,43.50527806083424],[-0.968629050985928,43.505499093218894],[-0.968617216174788,43.505494391738935],[-0.968509706301315,43.505520038306315],[-0.968363112497184,43.50550306453758],[-0.968246180037865,43.505490860136064],[-0.968178422742501,43.5054738825572],[-0.968095461429509,43.50543926454747],[-0.9679625319735,43.50537107265288],[-0.967840574113383,43.50530941545328],[-0.967865203268979,43.50526464289903],[-0.96789798970803,43.5051820967369],[-0.967950021412844,43.50519001115221],[-0.967979631226787,43.50511343671969],[-0.967985630249301,43.505096371379786],[-0.967812508245097,43.50506442317875],[-0.967533856180405,43.50499003437239],[-0.967517327326452,43.50500874629162],[-0.967284258202183,43.50492953540555],[-0.967171993274215,43.504900673682506],[-0.966609043397253,43.50476326925604],[-0.966479657698325,43.50473737557236],[-0.966263939650646,43.50470148862694],[-0.966037445062203,43.504683381786585],[-0.966035498470052,43.50471074845413],[-0.96601756517911,43.50472167421011],[-0.965873058500937,43.50473308734927],[-0.965736740920046,43.50480752969287],[-0.965509381819928,43.504943586998415],[-0.965325723146122,43.505009941629616],[-0.965152630899388,43.50505726202229],[-0.964851784174622,43.505084392197354],[-0.964666348197764,43.505101714954485],[-0.964358616233646,43.50515819268856],[-0.964236679595409,43.505164904499864],[-0.963945395550529,43.5051620447917],[-0.963239041214736,43.50515057969689],[-0.963112451051254,43.50514007421459],[-0.962708105874263,43.50512188689426],[-0.962650867556473,43.505101278358794],[-0.962530894928564,43.504851267756045],[-0.962610620150063,43.50479421279191],[-0.962817070265011,43.50470838224792],[-0.963268286220592,43.50447505286854],[-0.963419479154351,43.50418215711437],[-0.963614413382567,43.504074765618256],[-0.963832132007614,43.503956811470886],[-0.964086159302627,43.50383059250496],[-0.964528158010273,43.50364497877677],[-0.964797694643664,43.5035928702636],[-0.965057349760976,43.503490855773435],[-0.965390394006009,43.50333868151996],[-0.965758600594575,43.50306847099136],[-0.966060188289917,43.50292140921571],[-0.966729298059276,43.502677118621996],[-0.967439899922397,43.50243698022222],[-0.967984214651562,43.50227093823243],[-0.968555022439818,43.50213193947538],[-0.968847547808133,43.502054475986014],[-0.969173761932986,43.5019953261925],[-0.969367714820747,43.50200290695369],[-0.969762908426839,43.50198564052518],[-0.969907295769508,43.50200125151981],[-0.970032418270673,43.50199955117399],[-0.97053728298448,43.50198979547802],[-0.970556811393556,43.502016285462574],[-0.970602971522965,43.502039547714816],[-0.970671161457733,43.502037770281646],[-0.970670720892773,43.50206003718414]]],[[[-0.970073410977214,43.50588653182832],[-0.970012667148829,43.50624134654474],[-0.969978570233975,43.506328175456765],[-0.970004924518163,43.50644801325315],[-0.969973073394231,43.506490348354035],[-0.969170935715252,43.50653125498476],[-0.969265612756541,43.506909024707404],[-0.969273798521645,43.5069397139504],[-0.969195399744793,43.50703023681761],[-0.969174854200606,43.50706783363221],[-0.969152838930791,43.50719160485218],[-0.96912196746118,43.507319754159546],[-0.969051344710211,43.507334771784635],[-0.968881757729725,43.507345125232966],[-0.968765655289373,43.50733424210717],[-0.968700718199624,43.507306171205116],[-0.968646255586608,43.507216549541795],[-0.968643932540621,43.50716681799182],[-0.968656069440568,43.50709529713355],[-0.968583482898234,43.506824008507735],[-0.968519096857136,43.50667853759466],[-0.968455463987957,43.50654754265527],[-0.968405971964502,43.506218205076706],[-0.968362611062248,43.505891615884465],[-0.968270743464713,43.50555797438797],[-0.968341355816814,43.50553746246523],[-0.968594569663095,43.50554098366507],[-0.968639357222045,43.505538983489586],[-0.968667396789371,43.50553282204985],[-0.969041527734367,43.50564379942563],[-0.969069789860249,43.505667717854706],[-0.969381271072403,43.505737117187806],[-0.970073410977214,43.50588653182832]]],[[[-0.969442624854643,43.509928207278506],[-0.969533850540076,43.50992828988845],[-0.969711532763107,43.50990601831781],[-0.969859990655857,43.51005183342987],[-0.969964929767038,43.51015717271152],[-0.970035894809568,43.51021150714417],[-0.97019466290013,43.510663952526905],[-0.970258525387822,43.51070863769096],[-0.970313801784123,43.510768771511536],[-0.970408135569973,43.51093908959709],[-0.970467856002982,43.51103842757266],[-0.970464672183874,43.51118033739679],[-0.970414187212248,43.511304071028526],[-0.970312154356607,43.51155049614461],[-0.970231549598899,43.51171659162415],[-0.970172086504447,43.51183759109795],[-0.970093195117911,43.51205533232831],[-0.970069042724592,43.512148193317884],[-0.970071209647602,43.51230305960817],[-0.970046421371772,43.51242432056944],[-0.969964115253331,43.51265714086687],[-0.969986608615157,43.5126799193092],[-0.969964841182791,43.512764315081185],[-0.969969242027133,43.51281901550324],[-0.970002510598665,43.51298868785772],[-0.970045839573118,43.51311051713908],[-0.970159119165674,43.51331491471417],[-0.970242410591703,43.513481223641],[-0.970035064401232,43.5134989067572],[-0.96977596870716,43.51340903156613],[-0.969544321493499,43.51332049290239],[-0.96909799151726,43.513138108656015],[-0.968984028472638,43.51275185424951],[-0.969089639759091,43.51248187743106],[-0.968317414360008,43.51203981720068],[-0.9686040091162,43.511471071402234],[-0.96864168206732,43.51125682241599],[-0.968811893525054,43.5108362920024],[-0.96885220464195,43.51073365119999],[-0.96820621907939,43.51063856921429],[-0.967947929785489,43.51048848448684],[-0.967775445591687,43.510424802442316],[-0.967712840979139,43.51040187029793],[-0.967694982883568,43.510372706000574],[-0.967686283103116,43.51021276425057],[-0.967985734933663,43.51027612287883],[-0.968065709833673,43.51028175339081],[-0.968112861102924,43.51026912715674],[-0.968214202974383,43.51021857345997],[-0.96831532249436,43.51013793959875],[-0.968444601805819,43.510038528093276],[-0.968596273064299,43.50991568544256],[-0.968653513829296,43.50992548094184],[-0.96872450434492,43.50994080866491],[-0.969030039659614,43.50999727540854],[-0.969279607963482,43.51004804341229],[-0.96943209236549,43.51005516168564],[-0.969442624854643,43.509928207278506]]],[[[-0.968987280297841,43.50801770466418],[-0.968977263575924,43.508066176474],[-0.968980836905116,43.508270086701685],[-0.968988107614873,43.508341257383314],[-0.969042318195922,43.50856151058641],[-0.969275251866908,43.50884800771738],[-0.969066623577064,43.50897762131001],[-0.96913908433136,43.509100185425204],[-0.969215551853053,43.50923773698399],[-0.969435393647385,43.5096338057208],[-0.969111544142448,43.50970809273869],[-0.968958199512243,43.50970821230471],[-0.968768518732543,43.50973416498859],[-0.968773164789916,43.50975840776935],[-0.968621418538441,43.50977270167496],[-0.96857888620627,43.509787681406074],[-0.968496018151373,43.50969540591043],[-0.968409519210741,43.50950939533335],[-0.968149019476554,43.50907292397921],[-0.968116807973263,43.50904023142749],[-0.968034965255349,43.508914406782424],[-0.967973397111662,43.50884017893694],[-0.967809384803829,43.50866259074778],[-0.967684750646029,43.508531846194096],[-0.967651559240765,43.50847063268204],[-0.967617014944201,43.50837550690635],[-0.967412192581821,43.50837750863073],[-0.967316642216651,43.50829866878819],[-0.967010624486382,43.508244017020004],[-0.966373227132145,43.50813662992056],[-0.966491953582585,43.50781816188005],[-0.966557402882109,43.507651183080945],[-0.966604530730471,43.50735335181316],[-0.966670174182872,43.507244740402534],[-0.966813981534831,43.50708336186103],[-0.966850593455451,43.50708661629337],[-0.967368682216347,43.50718701640399],[-0.967391010844905,43.50719133394721],[-0.967720198746945,43.507237479122935],[-0.967906050651747,43.506826648235595],[-0.967894860136483,43.50608971883491],[-0.967908132366908,43.50606148706026],[-0.967854511112989,43.50575473158337],[-0.968216156342318,43.50567248793685],[-0.968314983986013,43.50606028553552],[-0.968347720491346,43.50626357813996],[-0.968381439272073,43.506618987053265],[-0.968492246939708,43.506726995014766],[-0.968517652396392,43.50685821845296],[-0.968563325089862,43.507083918935024],[-0.968516906227076,43.507309477828954],[-0.968494927920447,43.50757170707505],[-0.968438562547716,43.507929153229234],[-0.968987280297841,43.50801770466418]]],[[[-0.962352384819926,43.532215508417465],[-0.962212994501492,43.532223123981],[-0.962051355177979,43.53223488543656],[-0.96178980822427,43.532264800517254],[-0.96158958832426,43.53231139249871],[-0.961370361795013,43.532385794148745],[-0.961312999121946,43.53239068226291],[-0.960842498981748,43.53242678647618],[-0.960742492066456,43.532445303327236],[-0.960813306951478,43.532025260935384],[-0.960313041846699,43.531985246937],[-0.960267490883179,43.531981865705816],[-0.960141891189921,43.53277983472472],[-0.960065936775516,43.532820354253836],[-0.959807803995078,43.53293211748454],[-0.959678247441819,43.53295666703346],[-0.959161613355635,43.53305462534774],[-0.958875078904378,43.53310112036481],[-0.958859429341438,43.533148896417586],[-0.958342603130012,43.53299452869162],[-0.957705399016378,43.53278050138938],[-0.956555737323283,43.53244292464196],[-0.955913509339731,43.53224204293155],[-0.955213020010698,43.53197004345296],[-0.954493904075728,43.53186970041801],[-0.954459170733786,43.53196402489289],[-0.953580274877074,43.531753202682886],[-0.953593516197784,43.5317207397493],[-0.953923330711949,43.530927497624866],[-0.954321395395364,43.53102090427353],[-0.954413133999755,43.53078531980831],[-0.954457274549787,43.530671193993165],[-0.953831442772779,43.530538978576],[-0.953957188371269,43.530450164177154],[-0.954185272220285,43.53014663898878],[-0.954619540709882,43.53000540412168],[-0.954694553639578,43.529983570407445],[-0.955234446993292,43.52987847850925],[-0.955304681680483,43.529866367654336],[-0.955838483333431,43.529789691481184],[-0.955633046298341,43.530313913339036],[-0.956312567838388,43.53044722245102],[-0.956455337709131,43.530068340612054],[-0.957082997745831,43.53022704927164],[-0.957165513952618,43.530238631836966],[-0.957206308204254,43.53012633846599],[-0.957763344577834,43.530230416499],[-0.958359827581955,43.530348096032284],[-0.958331045771049,43.530431664691015],[-0.958725614518634,43.530506625351045],[-0.958514381810628,43.5310990797232],[-0.958618100053236,43.53111286008268],[-0.959184628876083,43.53122153949735],[-0.959138736563042,43.5314070791064],[-0.959086022379606,43.531626559674024],[-0.959058427458016,43.53176323560993],[-0.95957882541378,43.531842067611606],[-0.959640188883267,43.53145182945811],[-0.959672489752811,43.53125057051613],[-0.959711646861761,43.531008703013235],[-0.959750515340599,43.530821888170465],[-0.959819307302307,43.53055731804975],[-0.959844797276432,43.530456572751234],[-0.95984631510931,43.53045165271966],[-0.959908374389541,43.5304430804851],[-0.960221242486849,43.53050390309636],[-0.960344270268547,43.53008330603081],[-0.960943751618071,43.53019951070153],[-0.96125650012263,43.53025321793673],[-0.961146516453048,43.53031011573876],[-0.961093574058921,43.53071815438994],[-0.961524118124597,43.53074557715419],[-0.961583474341041,43.53029775638458],[-0.961632236727826,43.530306424808444],[-0.961858289981979,43.53033284879553],[-0.962053725781673,43.5303569677778],[-0.961996630186723,43.53087695485731],[-0.962471157087459,43.53092627921427],[-0.962393404213218,43.531292254836295],[-0.962333704736291,43.53160946515056],[-0.963203247664669,43.53169687192926],[-0.962945350438168,43.53230509575358],[-0.962776388034709,43.532221545143976],[-0.962745152374021,43.53222106505888],[-0.962708463754683,43.532220513974856],[-0.962565803655853,43.53221843015694],[-0.962352384819926,43.532215508417465]]],[[[-0.958755801163587,43.506042919067326],[-0.959107847438408,43.50594871542607],[-0.959142144039677,43.50595430907446],[-0.959139764178348,43.506163930585444],[-0.959112432094372,43.50631500829499],[-0.959104056103494,43.50639098451659],[-0.959073870117914,43.506484512916536],[-0.959025656415653,43.50663968641945],[-0.95900735085396,43.50667575790677],[-0.959011639958625,43.506772080884396],[-0.958997360106798,43.50683782303959],[-0.958954834963668,43.507009093914064],[-0.958934542901505,43.50707559615663],[-0.958874676312866,43.507189216215],[-0.958826217808846,43.50728161025486],[-0.95876454607081,43.50733494008972],[-0.958765226954163,43.507368156114765],[-0.958798464447195,43.50743198267278],[-0.958855296921003,43.50753107106276],[-0.958700957061485,43.5076548976514],[-0.95819419034942,43.50777781100065],[-0.957556643323654,43.507928287963075],[-0.957526117960078,43.50806542881132],[-0.957432765815679,43.50848880724486],[-0.957254643562479,43.50850467879031],[-0.957174162109345,43.50850959873048],[-0.957094066133147,43.508498559724096],[-0.957015187415091,43.50846387429726],[-0.956879072422486,43.50839425376385],[-0.956790317979355,43.50833299366726],[-0.956733998360314,43.50828262077956],[-0.956665942281767,43.508193039461055],[-0.956614954010836,43.50810148386394],[-0.956544041861263,43.507868053106364],[-0.956484393541318,43.50768492830069],[-0.956399436538985,43.50749912391645],[-0.956374726630214,43.50743687721996],[-0.956263752906103,43.50719319781483],[-0.956116682697722,43.50695371847783],[-0.956120294351779,43.5069253004304],[-0.956144382925879,43.506906674800405],[-0.956362862764497,43.50685329847646],[-0.956564763714088,43.50680719303965],[-0.956907471426249,43.50670667147756],[-0.957410159626299,43.50653724959392],[-0.957892717507787,43.506375676940465],[-0.958155788081894,43.50628157240252],[-0.958507414712132,43.50612558873933],[-0.958755801163587,43.506042919067326]]],[[[-0.958740837929963,43.51007183123621],[-0.958493846424133,43.509837444386946],[-0.958376934301899,43.50973046010905],[-0.958292956919399,43.50968109784231],[-0.957923857682777,43.50946179858498],[-0.957686639733363,43.509318848730814],[-0.957588356279897,43.50922172339443],[-0.957498472162074,43.50911357137133],[-0.957342280054565,43.50889991972724],[-0.957322567275121,43.508859921541415],[-0.957328595784384,43.508536120724784],[-0.957478577999375,43.50853037488343],[-0.957715862209242,43.508462436528],[-0.957802370311543,43.508439009139295],[-0.957863902770354,43.50844288814234],[-0.957951843900599,43.508477962740415],[-0.957944470245738,43.50854516420029],[-0.958213098446242,43.50881524565528],[-0.958411261955805,43.509021868357344],[-0.958525692262238,43.50897796265303],[-0.958755236215921,43.50908858057355],[-0.95911254642843,43.509260743270836],[-0.959244561378223,43.509306728829905],[-0.959283077999745,43.509319645346956],[-0.959643574995419,43.50948592466651],[-0.959933176648178,43.50972253590157],[-0.960078115572177,43.50970643097946],[-0.96027753916805,43.509672750801144],[-0.960442108765771,43.509636199805996],[-0.960654938910053,43.50955464493247],[-0.960799066160198,43.50948550922242],[-0.96080960494474,43.50962394355334],[-0.960947879684189,43.50968528293561],[-0.960970644711797,43.51056078846684],[-0.96044437179291,43.510559117698165],[-0.960426437724212,43.510600580981766],[-0.960345684819907,43.510799013586684],[-0.960249293001353,43.511106298495555],[-0.960091591200736,43.51133402678186],[-0.960327519441255,43.511425761386526],[-0.960105778439957,43.512151742178496],[-0.960292153060376,43.51218357964665],[-0.960173314155084,43.512520781917594],[-0.959851890752881,43.512797550982974],[-0.959714267933418,43.51291806587227],[-0.959361720295907,43.512781222999],[-0.959354598975559,43.51276770022875],[-0.958789987489954,43.51261238628267],[-0.958896998706551,43.51196527826078],[-0.958804983282708,43.51185324100036],[-0.958842667650021,43.511712234579],[-0.958877149287788,43.51157684023964],[-0.958946557696822,43.511285586228816],[-0.95896307122818,43.51123606753763],[-0.958995877022409,43.511241535646],[-0.959005722629502,43.51121379054052],[-0.959406143225185,43.51129294331307],[-0.959439324127207,43.51121948399811],[-0.959517547664282,43.51096457178321],[-0.959525567411767,43.51091932693863],[-0.95907079046926,43.510848826160576],[-0.958868817139629,43.51090124446945],[-0.958832954756355,43.5108406664979],[-0.958816780818244,43.510814322070416],[-0.958791234683105,43.51052815751458],[-0.958752187232566,43.51013591683126],[-0.958740837929963,43.51007183123621]]],[[[-0.960313028751285,43.526342670426494],[-0.96068992874151,43.526411331584036],[-0.960938101300373,43.52645352452168],[-0.960875875588327,43.52664623745039],[-0.960813124473444,43.52683851912132],[-0.960472941600708,43.52787458198937],[-0.960036332832951,43.52780737961628],[-0.959942840557973,43.52779638037667],[-0.95988970187995,43.527950384635766],[-0.959423645417695,43.52786191410889],[-0.95895579855336,43.52776900275569],[-0.958486119741764,43.527678228280294],[-0.958010926705748,43.527581076910934],[-0.95797933963892,43.52757187013422],[-0.957543929518699,43.52748425498886],[-0.956858582391845,43.52727315411259],[-0.956963984224327,43.52701869160548],[-0.957081982470181,43.52659314858295],[-0.957139851620644,43.5264412255591],[-0.957219301172708,43.52620185330022],[-0.957276845077756,43.52600571043542],[-0.957305971521172,43.52591996767993],[-0.957341618236396,43.525804889549825],[-0.95829082015851,43.52597527538283],[-0.95967733662298,43.52622679554025],[-0.960313028751285,43.526342670426494]]],[[[-0.956471967343482,43.5084458678887],[-0.956478480708747,43.50842004639401],[-0.956382481959353,43.50840093928874],[-0.95617326234874,43.508331914199616],[-0.95614371768115,43.50823182857346],[-0.955863756956302,43.50825519808944],[-0.95556642731661,43.508222267862365],[-0.955284721337167,43.50818795599254],[-0.954997097367523,43.508127014430904],[-0.954767991212758,43.50805673048934],[-0.954934187263364,43.50779762217955],[-0.955002865676704,43.50761954357278],[-0.954909069553653,43.507407756336235],[-0.954795520272665,43.50729731302315],[-0.955266129930108,43.507310680155236],[-0.955446061520749,43.507315735210206],[-0.955526464495572,43.50729532499731],[-0.955683875166055,43.507221387467695],[-0.955860343127928,43.50709531650789],[-0.956009948924711,43.50698175631076],[-0.956057381863071,43.5069893938603],[-0.956087452860961,43.50700730398938],[-0.956224761468538,43.50723443787385],[-0.956320993467825,43.50741145302683],[-0.956462773873687,43.507764540581704],[-0.956521280912927,43.50798139834481],[-0.956588776781662,43.508231709394224],[-0.956715527018371,43.50833248070281],[-0.956570254083308,43.508332918844324],[-0.95656589874642,43.50846730247019],[-0.956471967343482,43.5084458678887]]],[[[-0.957211228533821,43.52590513823264],[-0.956908405356459,43.526878746072306],[-0.956865216832947,43.52699040582844],[-0.956770540708206,43.527246008272],[-0.95668235688038,43.527457502402676],[-0.956305094191344,43.52821176590286],[-0.954887916089381,43.52785168620804],[-0.9545083212157,43.52862638695414],[-0.954448488078815,43.52860974127804],[-0.954306363341227,43.52857753909077],[-0.953685017638382,43.5284346203544],[-0.953629513920611,43.528419708166844],[-0.953318181957082,43.5283503433392],[-0.953819684171015,43.52733391915286],[-0.954199073163972,43.526579588201365],[-0.953838211553825,43.52648302425336],[-0.953426931645011,43.52637343348724],[-0.953307827121001,43.526344624908376],[-0.954517539313489,43.52440360046281],[-0.955253393936812,43.52460629552208],[-0.955440208697644,43.524643982428884],[-0.955530732843924,43.5246641020495],[-0.956641661906797,43.525223442567366],[-0.956798763829089,43.5253059926986],[-0.957236802442563,43.525523596565385],[-0.957287780098236,43.52563272053234],[-0.957211228533821,43.52590513823264]]],[[[-0.954767767946008,43.52948813570161],[-0.953714280039315,43.529226209612396],[-0.953588800994429,43.52877954988222],[-0.953278347366262,43.52843890759724],[-0.954425321195877,43.52869580639814],[-0.955026157533006,43.528871629455416],[-0.954831938247532,43.52933409233206],[-0.954767767946008,43.52948813570161]]],[[[-0.950933948381987,43.510742481627744],[-0.951124401760262,43.51079058099867],[-0.951545983387738,43.51087709847451],[-0.951628903135357,43.51089137183239],[-0.951865870693831,43.51092471221869],[-0.952356758843012,43.5110434722613],[-0.952702643059726,43.511136078392596],[-0.952864843738536,43.51122322029519],[-0.952951256801579,43.51127024582089],[-0.953002888035672,43.51130286508692],[-0.953045069833663,43.51134744970807],[-0.953056628518898,43.51140747433496],[-0.953038953570386,43.511443792000854],[-0.952759166605886,43.5117755930219],[-0.952472307711189,43.51210539903708],[-0.952110646076436,43.51201922254685],[-0.95182104169018,43.511945912483],[-0.951758824551957,43.51192313732171],[-0.951616733854396,43.51186922216515],[-0.95095561803232,43.51157190151772],[-0.950526165908987,43.511407025470795],[-0.950211487868709,43.511300213194],[-0.949996381151076,43.51122121103062],[-0.949829840754537,43.51115548281809],[-0.949540956729347,43.51097016703006],[-0.949470074274855,43.51079258271884],[-0.949451607673802,43.51068245293508],[-0.949551080176769,43.51066207324697],[-0.949616256081962,43.51065951841506],[-0.949713107314264,43.51066761035636],[-0.949785253528606,43.510674620545764],[-0.949841177803456,43.51069411278089],[-0.950130812643945,43.510724817163805],[-0.950533449378965,43.51071230644416],[-0.950820329531022,43.5107245521966],[-0.950933948381987,43.510742481627744]]],[[[-0.95203992794028,43.5282023560307],[-0.952308892093801,43.528330742747],[-0.952462347851277,43.52832794193356],[-0.952327962579067,43.52900874590816],[-0.952430891481821,43.52902373184074],[-0.952929158509355,43.52908556421721],[-0.953619883234955,43.52924343440613],[-0.953785060774632,43.52943235539416],[-0.953877509765497,43.52998543872974],[-0.953629850405009,43.53021508663666],[-0.95274202335479,43.53049266429673],[-0.952459518355958,43.53050584446478],[-0.95215163257963,43.53046869066747],[-0.951797129509079,43.53042701905128],[-0.951359622832786,43.53036485878173],[-0.95047291312859,43.53033320592238],[-0.94992124936042,43.53037176951568],[-0.948796608388146,43.530623257444155],[-0.948756163279696,43.530758866291],[-0.94863842984526,43.53083468067822],[-0.947275996466961,43.53088734621405],[-0.947060928763538,43.53089454410748],[-0.946563333947593,43.530909231753455],[-0.946560353216526,43.53138633791162],[-0.946485372793603,43.53142131700868],[-0.946101912335771,43.53141230022557],[-0.945841626127013,43.5314047457337],[-0.945839095086493,43.531454384320064],[-0.945879198027719,43.53145418625118],[-0.946640296105566,43.53147036003558],[-0.946633273328602,43.53103145340969],[-0.946710086570413,43.53097631863782],[-0.947283854656533,43.53096201053261],[-0.94831541018339,43.53091769948193],[-0.948812349879777,43.530900685444344],[-0.948891302539497,43.53074169361841],[-0.94901834678024,43.53065184700082],[-0.94965676173567,43.53050824260388],[-0.949585445647641,43.5315069968803],[-0.948329107322597,43.531633463859066],[-0.947779709223476,43.531809582953244],[-0.947310522673536,43.53174774862103],[-0.947061868288981,43.531714910230356],[-0.945878533672973,43.531938054506185],[-0.944639709456512,43.53218266233535],[-0.944565807610664,43.532200935178714],[-0.94431318731547,43.532263544113874],[-0.943881591418283,43.53253796425222],[-0.943545550616704,43.532579462559845],[-0.943187901144751,43.53262363732662],[-0.941763350079073,43.532448505339396],[-0.941030096777916,43.532358316685574],[-0.940217222304519,43.53223011798386],[-0.940071356235594,43.53217407056953],[-0.939579228457524,43.53216393411109],[-0.939202542527122,43.5321778884137],[-0.938978390926326,43.53218630090517],[-0.938875322904055,43.53218193708793],[-0.938595466090623,43.53215624838804],[-0.938058730467223,43.532066199072126],[-0.937952166159738,43.53196935489056],[-0.937870676816086,43.53144568251428],[-0.938836180476159,43.53161330631041],[-0.938988746175597,43.53122571780003],[-0.939090040219305,43.53122951529598],[-0.939281334347736,43.53122950279415],[-0.939602540143584,43.531222698405884],[-0.939795403001048,43.531220285816836],[-0.940410163843273,43.53133055265217],[-0.941184702250154,43.53125402991886],[-0.941417906982867,43.53128194797485],[-0.94148064181859,43.53129399114809],[-0.942167036005152,43.531513349036054],[-0.942303419949532,43.53108337312192],[-0.942418617373412,43.531022792278726],[-0.942727647689742,43.53108029102399],[-0.942813250525777,43.5308989016846],[-0.942939599364212,43.530847463736436],[-0.943153196776569,43.530871136329175],[-0.94385342131361,43.53094935889786],[-0.944268174498247,43.530999404784765],[-0.944543921586228,43.531030182861066],[-0.944591967789555,43.53054738437454],[-0.944629267803675,43.53019469841411],[-0.944671161129484,43.53004399472733],[-0.94471834021436,43.529896341783925],[-0.94495053916402,43.52910434091186],[-0.945001755144496,43.52890735498714],[-0.945022799249064,43.52869831445007],[-0.945057193217003,43.52836465209173],[-0.945111827814917,43.52788954176213],[-0.945220973646844,43.52736632507132],[-0.945970131715407,43.52743833778785],[-0.946053879336365,43.52699243583001],[-0.946141909145037,43.52700869039804],[-0.946610593355561,43.52709441874083],[-0.946692071779253,43.527107217871176],[-0.947333317158814,43.5272213446168],[-0.947404668892873,43.52723090850187],[-0.948139369456671,43.52735910474395],[-0.948614109524755,43.52742298390437],[-0.9488613815538,43.52745577825259],[-0.948924607510546,43.52746419573141],[-0.949826099601568,43.52758360387278],[-0.950530189890053,43.5277274029592],[-0.951061682840352,43.52789622443784],[-0.951524709661329,43.52805961106796],[-0.95183131790207,43.52816113309842],[-0.95203992794028,43.5282023560307]]],[[[-0.950647958842722,43.51361801253919],[-0.950429963556707,43.51370405918831],[-0.950313366647332,43.51372028912048],[-0.949931410420388,43.513754835923415],[-0.949373865236375,43.51376136643275],[-0.949214509611964,43.51376780236662],[-0.949011311800921,43.51380087837028],[-0.948721784215277,43.51384214324554],[-0.94847739666701,43.513881042560996],[-0.948355050611579,43.51388567881151],[-0.948202533524887,43.51387096479362],[-0.948108127655627,43.51385710697623],[-0.947898603770326,43.513825190787784],[-0.947730022477203,43.5137892609214],[-0.947584023513887,43.513743319967084],[-0.94789481705549,43.51331644701439],[-0.948149198244936,43.51297108131241],[-0.948036722732298,43.51292842429901],[-0.948399523595602,43.51247677458512],[-0.948591363572156,43.51233799498732],[-0.948839824450857,43.51220183686122],[-0.94890381334263,43.51214959968588],[-0.948962285796961,43.51204774726963],[-0.949067232553624,43.51188916081951],[-0.949160434407666,43.51177577360978],[-0.949118160723404,43.51178740298349],[-0.948913199750027,43.511843334352314],[-0.948699287448019,43.51181230053487],[-0.948695593202984,43.51168118354986],[-0.948707734402414,43.5111989752378],[-0.947251847411334,43.51125379964547],[-0.9472491039994,43.511194084223426],[-0.947234780618923,43.51100912426114],[-0.947305486625095,43.510969975816174],[-0.947378074461948,43.51077095103638],[-0.947594874225079,43.51073603122603],[-0.947888886182886,43.51067559801401],[-0.947990698644423,43.510651441141434],[-0.94867707541137,43.51060193844995],[-0.948744247148308,43.509901255700846],[-0.948907128070163,43.509877846083654],[-0.948853262571911,43.50935732520742],[-0.948776835490471,43.508920863336364],[-0.948907638643581,43.50889357750561],[-0.949187446448727,43.50881032634515],[-0.949215125758832,43.50905083118129],[-0.949237162380061,43.50920028725841],[-0.949347385360019,43.50956840567071],[-0.949368579753335,43.50967681448179],[-0.94934573835826,43.50981979816826],[-0.949324322770383,43.51004110242801],[-0.949299734816789,43.510192887850245],[-0.949309948545261,43.51031620019891],[-0.949345959344444,43.51051226091204],[-0.949323708880942,43.51055946449451],[-0.949397813989711,43.510749723277],[-0.949478126562201,43.51097623967764],[-0.949512924476576,43.511124059932904],[-0.949509625229482,43.511166068933335],[-0.949495689694595,43.51120999687155],[-0.949463598618292,43.511252694523066],[-0.949482112605935,43.51125913658862],[-0.949682735617859,43.511329118624744],[-0.949771267066797,43.5113439997014],[-0.949881026767682,43.511411977130216],[-0.949842790197668,43.51148768921365],[-0.949895194725896,43.51155676553992],[-0.949897909840212,43.51161422995527],[-0.949882205881609,43.511693625211144],[-0.949542036947298,43.51240209451075],[-0.949443112851034,43.51260145007534],[-0.949845844809243,43.51260812670135],[-0.950303009743733,43.51257480303548],[-0.950351917504834,43.5126002260556],[-0.950298866563253,43.51289060687961],[-0.950357782719311,43.512991335429035],[-0.950407030105304,43.513077462420625],[-0.950439736519243,43.5130742887268],[-0.950647958842722,43.51361801253919]]],[[[-0.949405406496167,43.509656194921995],[-0.949386460186719,43.50956247787687],[-0.949319599624989,43.50931916654685],[-0.949273727361136,43.5091506704574],[-0.949245586956887,43.50877748975055],[-0.9505686383552,43.50881305677721],[-0.950777450280665,43.50904714010095],[-0.950717680501017,43.50974169942936],[-0.9496869297793,43.50960323812227],[-0.94995415690334,43.51067215957578],[-0.949715814864771,43.51063859492861],[-0.949438864688015,43.51058535688737],[-0.949412658737582,43.51057324956474],[-0.949388202901822,43.51044442049094],[-0.949349385685578,43.51027954080501],[-0.949345859463366,43.510183280074365],[-0.949372484757686,43.510035924579114],[-0.949378657455208,43.509952913088],[-0.94938411713488,43.50983074132438],[-0.949406479534799,43.50972038524408],[-0.949405406496167,43.509656194921995]]],[[[-0.950401658393152,43.52677899148423],[-0.950608697849634,43.52716628874024],[-0.950663164699597,43.527266910553244],[-0.951177571728172,43.527808132867506],[-0.951154311744519,43.527819159995076],[-0.950566725028834,43.52764301390636],[-0.950459642524237,43.52761979979176],[-0.95006524610943,43.52754147094382],[-0.949854743968908,43.527497881016124],[-0.949219086395757,43.52740212273638],[-0.949646358524832,43.526180419519775],[-0.950339701423932,43.52673323368255],[-0.950401658393152,43.52677899148423]]],[[[-0.947359399661854,43.52510152290432],[-0.947354475645742,43.5243331039306],[-0.947441081604092,43.524213472120685],[-0.947256648225192,43.524116679891705],[-0.946902227105212,43.524478928273524],[-0.946562308794312,43.52432284398959],[-0.946340378018418,43.524220838942355],[-0.945258114016207,43.52372368374787],[-0.944249046862398,43.52342672487864],[-0.944217167935161,43.52341500255437],[-0.944387519371088,43.523083512454754],[-0.94435356596078,43.52307402766093],[-0.943770889129928,43.52291244303166],[-0.943445793236818,43.522825895883116],[-0.943120782014019,43.52303797259431],[-0.942630233713614,43.522831592910016],[-0.942822862077908,43.52254676976312],[-0.942775171726051,43.52252111854408],[-0.942876545869461,43.522268530590935],[-0.943702913694715,43.522324776292045],[-0.943978396754889,43.522343312292115],[-0.944739589745722,43.522344627598464],[-0.944872950720836,43.52234328873507],[-0.945014424877208,43.52234832071484],[-0.945369163637416,43.5224176594415],[-0.945669321406796,43.52291589120075],[-0.945932485530321,43.52335493236207],[-0.946175173323654,43.523557256862716],[-0.946705828782524,43.52366604170424],[-0.946728438767455,43.52362936523095],[-0.946961370795288,43.52372574403314],[-0.947677676906151,43.52402279812392],[-0.948137183220022,43.5243426215301],[-0.948954533706876,43.52491155626268],[-0.949155540163167,43.52510341176652],[-0.949241814827661,43.525367729790815],[-0.949095695823644,43.52569843633801],[-0.949087132680144,43.525798922009336],[-0.947945508152171,43.5255519550459],[-0.947750968338294,43.525466701805456],[-0.947476322322541,43.52533815143195],[-0.947359399661854,43.52510152290432]]],[[[-0.944304090865855,43.52561898843452],[-0.945694476883967,43.52586315697342],[-0.946159909225825,43.52594495137372],[-0.948490709292072,43.52635430224222],[-0.949240245670634,43.52648591409791],[-0.948927286524518,43.527364554855865],[-0.948165472098339,43.527272393969156],[-0.947008127830064,43.527083462135096],[-0.946525011962581,43.5269841175227],[-0.945870192228222,43.52686876855352],[-0.945806337532782,43.52686019205019],[-0.945401770309934,43.52678320775858],[-0.945227514947997,43.526755316128586],[-0.945146327562537,43.526741334248335],[-0.944367373927713,43.52661932241574],[-0.944020569638418,43.52656311323423],[-0.944179812974737,43.52603195037865],[-0.944304090865855,43.52561898843452]]],[[[-0.942513233769381,43.5263449754448],[-0.94227401002198,43.52630664947564],[-0.942241487488457,43.52629999460705],[-0.941960423213545,43.52626715286034],[-0.942179681536363,43.525544185140994],[-0.941680400667552,43.525486756071665],[-0.941888992505984,43.524709406126306],[-0.941897520735968,43.52468936771421],[-0.942256233592469,43.524774967911085],[-0.942801623679152,43.524939628892255],[-0.943304177053844,43.525095215246694],[-0.943284139119212,43.52513332883227],[-0.943406773513805,43.525190216023475],[-0.943908156163932,43.5254296204712],[-0.943735469548873,43.525956136830715],[-0.943562445994626,43.52649761920846],[-0.943412595164406,43.526478926566924],[-0.94300156826946,43.52641775302759],[-0.942753371883305,43.52637858328169],[-0.942632580289354,43.526362976792655],[-0.942513233769381,43.5263449754448]]],[[[-0.941599144631608,43.52761388993625],[-0.941374927383146,43.5282955084835],[-0.941029036021421,43.52935638892399],[-0.940888004038206,43.529410340131285],[-0.940065828059206,43.52928851576717],[-0.940050577878395,43.52933330116117],[-0.94088105956204,43.52946248096357],[-0.940694319168665,43.530192462869294],[-0.941005177726633,43.53024422451784],[-0.941018451560129,43.53019590740353],[-0.940765083829564,43.530157370827794],[-0.940947182665025,43.52947160860619],[-0.941099001099607,43.529443119434966],[-0.94244354924146,43.529640713975205],[-0.943402991002763,43.52978338319036],[-0.943473307408547,43.52955075080051],[-0.943514863486364,43.52940771714903],[-0.943621182835487,43.52904315319188],[-0.944829772105644,43.529173865397325],[-0.944604530825492,43.52993201141465],[-0.944532977213794,43.530182616544245],[-0.944528962880308,43.53026113597386],[-0.944454713745569,43.5308653303113],[-0.944388810246048,43.53092610222976],[-0.942753496856325,43.5307626147194],[-0.942693434639513,43.530958930212456],[-0.942636027633568,43.5309884030733],[-0.942271037562414,43.530920146545355],[-0.942154886944859,43.531293174216444],[-0.942014201680446,43.53137927431804],[-0.941546544710744,43.531197097338655],[-0.941252576217723,43.53114616447547],[-0.941205019735697,43.53114780283521],[-0.94069401840551,43.531194480171166],[-0.940410764900315,43.53122387111318],[-0.940243598372046,43.53121823444818],[-0.94003025029575,43.53116572012399],[-0.939818434037564,43.531113870415695],[-0.939638626315488,43.531115268255974],[-0.939492449257341,43.53111958790353],[-0.939062420559972,43.53114097496691],[-0.938860816924955,43.53117117940833],[-0.939259859676471,43.53043303852516],[-0.939365067689132,43.530499301972924],[-0.93956688268241,43.52955032134902],[-0.939645194539422,43.52922830844188],[-0.939963419143133,43.528344823134304],[-0.940061496282958,43.52806190900091],[-0.940242267577254,43.52755159073673],[-0.9403623455677,43.52723932030495],[-0.940595872156677,43.52652907997916],[-0.940699370254955,43.526253085026404],[-0.941606918467212,43.526304416626424],[-0.941968705607821,43.52635171086054],[-0.942042163124711,43.526444259073465],[-0.941941169213442,43.52677466534963],[-0.941661483116587,43.52746334554958],[-0.941599144631608,43.52761388993625]]],[[[-0.937373825052109,43.531960447487855],[-0.937342839954055,43.53141485238458],[-0.937353022802988,43.53137016130829],[-0.937362999187139,43.53134592680433],[-0.937773077161991,43.53142715609611],[-0.937856392914219,43.5319558068921],[-0.937778265635163,43.532020801962744],[-0.937373825052109,43.531960447487855]]]]}}]}
