{"type": "FeatureCollection","name": "aoc_geojson","features": [{"type":"Feature","properties":{"dt":"Colmar","type_prod":"Vins","categorie":"Vin mousseux \"Crémant\"","type_denom":"appellation","signe":"AOC","id_app":2,"app":"Crémant d'Alsace","id_denom":3,"denom":"Crémant d’Alsace","insee":"67429","cvi":"1B001M 1, 1B001M 3, 1B001M 4, 1B001M 5, 1B001M 6, 1B001M 7, 1B001M00, 1S001M00","nomcom":"SAINT-PIERRE","insee2011":"67429","nomcom2011":"SAINT-PIERRE","id_aire":16,"crinao":null,"grp_name1":null,"grp_name2":null},"geometry":{"type":"MultiPolygon","coordinates":[[[[7.451239798427419,48.38149443858562],[7.45115321201179,48.38156455543746],[7.451105719998947,48.38160274531465],[7.451075455656555,48.38162713145506],[7.451053161380834,48.38164500037166],[7.451033419382526,48.38166106124553],[7.450977328521327,48.381706332572655],[7.450969052793988,48.381714032706675],[7.450964248321538,48.381717997940925],[7.450881964325792,48.38178461874551],[7.450840698819222,48.3818180689303],[7.450801199333555,48.38185001095069],[7.450746904581737,48.38189413331103],[7.450634245370532,48.38198703642731],[7.450596158337438,48.38201649229623],[7.450605521688466,48.382032810798236],[7.450610770425524,48.38204207511591],[7.450694978725899,48.38219299889176],[7.450715711731372,48.38223015610149],[7.450724512952802,48.382246225391434],[7.450806414321909,48.382397055577684],[7.450917912915639,48.382597054823904],[7.450969442343595,48.38268955364127],[7.451047315316215,48.38282954161411],[7.451065421626912,48.382862832640186],[7.451106020886729,48.382938080612995],[7.451106155733202,48.38293807554424],[7.451232980232135,48.3829229455583],[7.451510790820326,48.38287609766277],[7.451618328965852,48.382853672447986],[7.45168172975579,48.38284038560927],[7.451732107040434,48.38282506525578],[7.45184299137269,48.382789448015025],[7.451843785227653,48.38278923794877],[7.451843920073673,48.38278923287917],[7.45188418927876,48.38277276059682],[7.45193440231983,48.382752310030575],[7.452017523345041,48.382717916628856],[7.452157887632985,48.382659834528695],[7.452266970631353,48.38261094823726],[7.452402068904386,48.382548197852955],[7.452535418199319,48.38248875704254],[7.452615951354599,48.382452568170905],[7.452616737589537,48.382452268275124],[7.452694118085216,48.38241718910822],[7.452930075922716,48.38230910444513],[7.452955075449784,48.382297621399545],[7.453052490513336,48.38219726940385],[7.453231705071698,48.382173048246386],[7.453384710776416,48.38215242570996],[7.453829435908354,48.3820927164403],[7.454264257731888,48.38203427909649],[7.454453665999026,48.382009041819515],[7.454456513543052,48.381993165332226],[7.454459250965972,48.38196801158756],[7.454565131271334,48.38198989027752],[7.454578215568409,48.38199264204193],[7.454740890885861,48.38197120339538],[7.454827044786969,48.381959852239525],[7.454896749973827,48.38195074184584],[7.454896158651617,48.3819294078551],[7.454904302572657,48.38192973223964],[7.455037999258744,48.38193506495777],[7.455096330944786,48.38193061755415],[7.455199158722873,48.38192287399301],[7.455315351204474,48.38191480771007],[7.455324693484034,48.38191490675541],[7.455339524010431,48.38191272675404],[7.455568100509184,48.381894754661346],[7.455734516352073,48.38188074317994],[7.45581062211583,48.381873734270464],[7.455827587627274,48.3819732990353],[7.455794704683736,48.382116731183935],[7.455975220019353,48.38241253027302],[7.45600441704455,48.3824457637582],[7.456033036638903,48.38247856841242],[7.456084525785117,48.3825146575396],[7.456124226398067,48.38254253963984],[7.456181681674148,48.38256443704541],[7.456208943940058,48.38257485516415],[7.456328747252333,48.38258701708602],[7.456328882097402,48.38258701201132],[7.456480249083848,48.38256779881766],[7.45652666699043,48.38256163644871],[7.456532681684849,48.3825607793085],[7.456534411813942,48.3825604438622],[7.456603795225384,48.38254593795126],[7.456732188794008,48.38251902852675],[7.456732323638863,48.38251902345158],[7.456860210338637,48.38247816578657],[7.456982501939341,48.38243832956743],[7.45701727873552,48.382422512750324],[7.457134651509112,48.38236934488241],[7.457152552114388,48.38235551491203],[7.457458194161341,48.38212017457197],[7.457563751912973,48.38205690801164],[7.45760288500787,48.382033447809086],[7.457710409001432,48.38195190468302],[7.457741019956072,48.3819204750478],[7.457810994912253,48.38184917624356],[7.457827723275736,48.38182791107853],[7.457830288254998,48.381824660633555],[7.457835262836745,48.38181951725638],[7.457841239954245,48.381813435027496],[7.457841105111306,48.381813440103926],[7.457927710257449,48.381710156537615],[7.457988303910406,48.38170048621099],[7.45803061462852,48.38169375695477],[7.458115818791557,48.38167919512524],[7.458558731896153,48.38165242646184],[7.458576777919584,48.381651476638005],[7.458657584300679,48.3816472625408],[7.458808295297461,48.38163789302438],[7.458927799037818,48.38163059957764],[7.459020665468839,48.381620254100625],[7.459060604554831,48.38161586655262],[7.459212384641663,48.381599968264375],[7.459227637062993,48.381599574098786],[7.459545899977893,48.381591192695666],[7.459908473547433,48.38159646037751],[7.460038399539616,48.38160039757791],[7.460165748300592,48.38160425149052],[7.460313773274104,48.38161264299017],[7.460441006915255,48.38162470105403],[7.460934943010842,48.38168746422914],[7.461123481713324,48.38169982521926],[7.461240794532435,48.381695405421866],[7.461058263333889,48.38135229065591],[7.460936229184264,48.381219829127105],[7.460885263514563,48.381164438488724],[7.460662906961134,48.38099430500062],[7.460582768482571,48.380933074663396],[7.460646630216646,48.38092048636325],[7.460620051277816,48.3808910300579],[7.460170862172331,48.38056489761091],[7.460163955702719,48.380555245535504],[7.459999312571607,48.38035581351186],[7.459831160558675,48.380148493546926],[7.45976466882438,48.38010936659367],[7.459742595287191,48.380091544973695],[7.459621451283182,48.38002528036416],[7.459561228164175,48.37998988209762],[7.459406478576326,48.3799085728449],[7.45940038324667,48.37990528807049],[7.459295327283347,48.37983093802408],[7.459257328938802,48.379803984057276],[7.459220334805369,48.37980799048935],[7.45916696925712,48.37978963511551],[7.459166961634465,48.37978954529144],[7.459087742932073,48.379678538041716],[7.459049620726769,48.379623023449696],[7.459032946903375,48.37959869058171],[7.458869348197509,48.379406697011994],[7.458748017195382,48.379220230364936],[7.458674751043557,48.37908529947378],[7.458607719414884,48.37896166800037],[7.45856358561029,48.37887195717211],[7.458545602649219,48.378864073764554],[7.458507800049373,48.378847384878846],[7.458503722156015,48.378845555985784],[7.458498647066471,48.378843133863704],[7.458453291992792,48.37884105701985],[7.458425182940582,48.37883977255473],[7.458399373710375,48.37883849159691],[7.458377505188608,48.37883742269587],[7.458359300083123,48.378836486183665],[7.458325751898822,48.37883486583084],[7.458273466894026,48.37883241907511],[7.458219818299741,48.378829843416625],[7.458105710777963,48.37882413744616],[7.458051110732978,48.378821507424284],[7.458003163343772,48.37881916756817],[7.457992435153946,48.37881867037878],[7.457903589924725,48.3788141757425],[7.45788851652767,48.37881348169506],[7.457824671505758,48.378810298527796],[7.457760706896548,48.378807300050916],[7.457570677946646,48.378797963874646],[7.457559267969287,48.37879740220247],[7.457546224729859,48.378796721793954],[7.457486590119791,48.37879374038225],[7.457443804617645,48.37879165653159],[7.457417860599713,48.378790380435994],[7.45728171184174,48.37878316054466],[7.457218771023173,48.37877309457416],[7.457165606933862,48.378763471540715],[7.457151594696509,48.378760935233345],[7.457123053742205,48.378756152388874],[7.457089027959102,48.37875049466977],[7.457013738726577,48.37873837031246],[7.456974467331827,48.37873146824081],[7.456955374788143,48.378728041810504],[7.456896258210893,48.37871521850139],[7.456849820755465,48.378705161909],[7.456780034728025,48.37869093792973],[7.456753709125874,48.37868994638723],[7.456741093283675,48.37868952013732],[7.456662574317165,48.37868715901111],[7.456571963622157,48.37868417161633],[7.456549174210468,48.37868340737571],[7.456495167055057,48.37868138510706],[7.456428971425245,48.37867919077909],[7.456408219778985,48.37867853003748],[7.456384748579163,48.37867770131496],[7.456321392112131,48.37867549018078],[7.456307830149682,48.378673477495276],[7.456238326157885,48.37866257669658],[7.456198561285966,48.37865623361189],[7.456141390538409,48.378647211476874],[7.456064759459186,48.37862882925955],[7.456020899336817,48.37861885557647],[7.455973164832352,48.37860785624142],[7.455877568665311,48.37858595241196],[7.45583107058451,48.37857517682464],[7.45580443050567,48.37856888036],[7.455783875498612,48.378564157116394],[7.455740127468344,48.378553908781754],[7.455686682059481,48.378540961581905],[7.455563427525086,48.37851829610081],[7.455531963922925,48.37851254153059],[7.455416089601909,48.37849076962672],[7.455396847180399,48.37848716836967],[7.455385577490853,48.37848506932614],[7.455250588108321,48.37845960109993],[7.455151079186622,48.3784409978144],[7.455148194351799,48.37844047558445],[7.455053300337732,48.37842205901935],[7.454704861316224,48.37836145808551],[7.454678913113569,48.3783569375643],[7.454616983445931,48.37834602120625],[7.454574288497652,48.37833861638542],[7.454531967606284,48.37833083703334],[7.454459203343656,48.37831816554648],[7.454449042859683,48.37831638513076],[7.454375267216093,48.37829816476577],[7.45416245679286,48.378626424668546],[7.453961538270477,48.378937025508385],[7.453766245272915,48.37916081774902],[7.45352815659212,48.37942073165027],[7.453245172144876,48.379682423567125],[7.452816541726275,48.380059526934645],[7.452816414499193,48.38005962182981],[7.452681473045891,48.38016724228651],[7.452574399425549,48.38025254851651],[7.452151239477312,48.38059853531146],[7.45207754071587,48.3806626716675],[7.451979903961812,48.38074762243727],[7.451979911572328,48.38074771226173],[7.45185313161675,48.38088304912365],[7.451807695712456,48.38093431818453],[7.451770398232719,48.38097627019222],[7.451608514031653,48.38114752895658],[7.451407763763791,48.38135980705105],[7.451329567567361,48.381423571239225],[7.451239798427419,48.38149443858562]]],[[[7.45236479771006,48.37931462830656],[7.452303109480635,48.37945184365582],[7.452256745875949,48.37957037047137],[7.452214144592928,48.37967902382962],[7.452191303749394,48.3797638658198],[7.452167678787914,48.379850629604675],[7.452182579238366,48.379873227783605],[7.452183538329433,48.37987337194263],[7.452235396991099,48.37994900730764],[7.452217630228212,48.38000752640038],[7.452200170620434,48.38011117937682],[7.452185378572088,48.380198422011645],[7.45207383937388,48.38041942205196],[7.45207395899254,48.38041923733314],[7.452073966603169,48.38041932715761],[7.452417544905581,48.38016383050058],[7.452468062017863,48.380126247105316],[7.452575704244179,48.380046055887455],[7.452597404689243,48.380027578173674],[7.452613814851866,48.38001371481508],[7.452665067868627,48.37997204866661],[7.452706023031403,48.37993815881927],[7.452775675938221,48.37988057197754],[7.452808437348765,48.379853748520844],[7.452846002884131,48.37982295973863],[7.453018979216527,48.37966137406255],[7.453117769223509,48.37956772822431],[7.453182501769273,48.379506361266905],[7.453219283889617,48.37947271825997],[7.453232100968756,48.37946115259008],[7.453280241804551,48.37940671732738],[7.453449975732957,48.379214885479506],[7.453533309036021,48.379120829337644],[7.453568000620666,48.37908167795404],[7.453723578902575,48.37888244827005],[7.453766398001325,48.378821094163975],[7.453886525594906,48.37864887923317],[7.453974132416546,48.37848716887833],[7.454089596021141,48.37827430885068],[7.45408946118691,48.37827431392285],[7.454089453573147,48.378274224098355],[7.454040027850021,48.3782640085161],[7.454033973326158,48.37826279449714],[7.453982255443408,48.37825266511653],[7.453952043748284,48.378247313599815],[7.453888450670237,48.37823591877739],[7.453813229226522,48.37822297889],[7.453707061098783,48.37820399413815],[7.453602482803058,48.3781862110465],[7.453512814642956,48.37817039015495],[7.453420943517363,48.37815411139075],[7.453344208682183,48.37814086769228],[7.453292694397501,48.37813154135946],[7.453232074424745,48.3781137266124],[7.453114441422094,48.37808075480954],[7.453103912405171,48.37807781670099],[7.45310377757135,48.37807782177204],[7.45292277993384,48.37836496368161],[7.452684271713293,48.378742846815754],[7.452548374743232,48.37896845826156],[7.452545526848006,48.37897316100308],[7.452538599028043,48.378985586470215],[7.452404279575251,48.37922663738724],[7.45236479771006,48.37931462830656]]],[[[7.45318721066946,48.38231682594679],[7.453151905327023,48.38232482185837],[7.453148587498624,48.3823255774055],[7.453148452653921,48.38232558247658],[7.452973520061333,48.382392354861935],[7.452211548680158,48.382742340588386],[7.452138284566925,48.38277492176175],[7.45204690846959,48.38281566301503],[7.452003230075443,48.38283181297511],[7.451894097590507,48.38287214035706],[7.45179984391821,48.38290127523076],[7.451723780372011,48.382924770106406],[7.451502657599628,48.38296372040973],[7.451407083691858,48.38298046934897],[7.45132316863344,48.38299272497425],[7.451240459546019,48.38300484509543],[7.451115398833383,48.38301684502864],[7.451070311018967,48.38302115303336],[7.451060782559622,48.38302205185821],[7.450849823121839,48.38304205614443],[7.450707720382384,48.38305568740955],[7.450689666126523,48.383056546210014],[7.450578223884731,48.38306163587395],[7.450463563917621,48.383063872724605],[7.450433312571642,48.383064469012794],[7.450513822533602,48.38345919017041],[7.450531560733986,48.38360152857567],[7.450546719261771,48.38372459020502],[7.450559544954193,48.383828095455506],[7.450571751004531,48.383927478913506],[7.450571878245017,48.38392738402102],[7.450571885853592,48.38392747384536],[7.450677664710369,48.3838810562676],[7.450693888016588,48.383877743207734],[7.450705722177023,48.38387531599431],[7.450744685069804,48.383867363623985],[7.450823397086096,48.38385115896123],[7.450920871631134,48.38383127538001],[7.450949325981778,48.38382543001889],[7.451032045286959,48.38380862403806],[7.451091805216387,48.383800250273104],[7.451123894958039,48.38379580009589],[7.451150906102584,48.38379208147061],[7.451185527520069,48.3837871756721],[7.451282806652682,48.38378414976344],[7.451299805189026,48.38378360089783],[7.451377920586446,48.38378111505574],[7.451389929722411,48.38378075373253],[7.451455766279291,48.38377863930048],[7.451734365560615,48.38376978800581],[7.451734500409158,48.38376978293634],[7.451733573091238,48.38370295589498],[7.451733309330991,48.38367908655894],[7.452239214095199,48.38368187327241],[7.452904660671012,48.38368523662376],[7.452904795519227,48.38368523155296],[7.453013711931829,48.383477936713874],[7.453049723595602,48.38340963040383],[7.453199993270584,48.38334072181307],[7.453243876134711,48.383320598868494],[7.453493045264642,48.38329014225721],[7.453518737964727,48.38328683310249],[7.453532655477051,48.38328504812669],[7.453851981580526,48.38324600486677],[7.454490235559661,48.3832063178036],[7.455905662061652,48.38243614357036],[7.455680118800299,48.38215970043615],[7.455625493878363,48.38212012471048],[7.455546327458568,48.38208147239521],[7.455414857556992,48.382056141977976],[7.455290180690795,48.38204551421045],[7.454903237617999,48.38205917127515],[7.454154606454037,48.382153024489064],[7.454108030942908,48.382158921530554],[7.45410160410802,48.382159703940275],[7.453628693196184,48.38223480190335],[7.453428116658785,48.382262350165824],[7.453279061492585,48.38229607042848],[7.45318721066946,48.38231682594679]]],[[[7.453217153763336,48.37532003730546],[7.453144478770758,48.37548713330956],[7.453087636857885,48.375652732619024],[7.453035666826342,48.37580400120519],[7.452977316286568,48.37603480737844],[7.452874507560384,48.3763666778865],[7.452802792291188,48.37659780623528],[7.452800857885292,48.376646809220134],[7.452800758931284,48.37665681525469],[7.452799424719236,48.37672886406162],[7.452797919804584,48.376779743218336],[7.452797842600674,48.37678362089136],[7.452796374656716,48.37682855133497],[7.452794889306014,48.376882853966514],[7.45279347354535,48.37693318909861],[7.452792056690952,48.37698830014781],[7.452790578942647,48.37704269259747],[7.452787848532479,48.37713497873105],[7.452786584985901,48.37718711034647],[7.45278484734756,48.37724322466825],[7.452792567530694,48.37726888626632],[7.452798218492044,48.37728768714407],[7.452814329788565,48.37734213898578],[7.452816218521419,48.377348465827495],[7.45283545382898,48.37741424426007],[7.452849577511519,48.3774612015309],[7.452886286720084,48.377496946649224],[7.453040752896212,48.3776198156899],[7.453040618063558,48.377619820760884],[7.453044194580532,48.377666814238935],[7.453047220865606,48.37770571843077],[7.453047776534437,48.377712275626116],[7.453048591008177,48.377721886857614],[7.453054423916993,48.377792314407465],[7.453148883617001,48.378040261220626],[7.453317623142192,48.37809690229405],[7.453524074965452,48.37813248049596],[7.454005891937544,48.37821555139991],[7.454141371529543,48.37823883989946],[7.454141491135985,48.37823865517826],[7.454141498749832,48.37823874500274],[7.454157220202091,48.37820400155243],[7.454185496808685,48.378141842626135],[7.454207283214348,48.37809407525737],[7.454227718065663,48.37804951260821],[7.454255533530653,48.377989894105625],[7.45427499844933,48.377948251480085],[7.454294652423497,48.37790245663339],[7.454317495406233,48.377849603267094],[7.454348758884528,48.37775885684344],[7.454348624051645,48.37775886191592],[7.454385636988586,48.37765456275233],[7.45439719891642,48.37761862406253],[7.454408516229538,48.37758458690306],[7.454472686922755,48.37734590172322],[7.454484163913574,48.37727545369666],[7.454537426716576,48.377003837700755],[7.454582588570958,48.3767738873543],[7.45458245374062,48.37677389242703],[7.454590752667886,48.37671861246223],[7.454590887498081,48.376718607389485],[7.454619361978971,48.376534340324184],[7.45462415602174,48.37650153975289],[7.454638352214136,48.37640413624901],[7.454663730288025,48.37620727995415],[7.454679638011328,48.37608539191832],[7.454744440697847,48.375638796086804],[7.45475926516526,48.37545945782976],[7.454771886770417,48.37537220590672],[7.454785073628138,48.37528204915014],[7.454794814623687,48.37515922157762],[7.454797601269375,48.375126676709634],[7.454800408519879,48.37509277939793],[7.454800273693871,48.375092784470915],[7.454795643922568,48.37509241800462],[7.454746858429636,48.37508812604722],[7.454746723603635,48.37508813112015],[7.454719619512264,48.37509708071106],[7.454684870630024,48.37510839048915],[7.454672405718156,48.375108138594385],[7.454669289490209,48.3751080756205],[7.454639340645683,48.375107400221765],[7.45460247760187,48.37510653440347],[7.454563711766159,48.37510555994249],[7.454542519936507,48.37509968904152],[7.454489869834124,48.375084909266135],[7.45441779565541,48.3750914957126],[7.454409744162169,48.37509224918917],[7.454286267600547,48.3751035628955],[7.454266749229587,48.37509988176596],[7.45422068409616,48.37509098169252],[7.454190166473051,48.37508519124501],[7.454160465426288,48.375079460180736],[7.454104375309674,48.37506877454405],[7.454084167607746,48.375064939095935],[7.454046771677052,48.3750577853754],[7.453988054587787,48.37504323362255],[7.453927396676916,48.375028124075456],[7.453820040948691,48.375001434741506],[7.453728031627486,48.374978673580664],[7.453727896801669,48.37497867865243],[7.453727072621426,48.3749785294336],[7.453698271991573,48.37497384571922],[7.453666459523884,48.3749687346269],[7.453632435717433,48.37497902559519],[7.453617670173656,48.3749835459092],[7.453613185057196,48.37498488606676],[7.453603866848911,48.37498505636024],[7.453564652855531,48.37496283221693],[7.453526840438919,48.37494118611809],[7.45352760005633,48.37491024944011],[7.453528389097967,48.374884447986986],[7.453517299438116,48.37486531102317],[7.453505691125788,48.37484484190124],[7.453446439248308,48.37481120645674],[7.453446446860469,48.374811296281514],[7.45344630442289,48.374811211528204],[7.453444822505072,48.37481766515816],[7.453442044585529,48.37482957420264],[7.453398508121761,48.374951059559294],[7.453277469087505,48.37518107020213],[7.453217153763336,48.37532003730546]]],[[[7.455688112265412,48.37506108723245],[7.455675771478327,48.3750638945537],[7.455645788257041,48.37507079004583],[7.45553930680871,48.3750432583309],[7.455519943787993,48.375038219890705],[7.455467236770541,48.37504191548064],[7.455446399694202,48.37504342050718],[7.455444519748353,48.375043581363975],[7.455444384922535,48.37504358643769],[7.455445335468768,48.37504841667223],[7.455202697174149,48.37521127699863],[7.455077225678153,48.375664932150265],[7.455046283283779,48.375807300599504],[7.455011432519728,48.375967387748894],[7.455036665113269,48.37596986253303],[7.45505235312156,48.37597143489733],[7.454879030945778,48.37655313556275],[7.454851417887797,48.3767204294318],[7.454846344454659,48.37675152841365],[7.45480718528233,48.37699323782627],[7.454707608190982,48.377450873530506],[7.454656925830336,48.377588577637766],[7.454626147707815,48.37767227726142],[7.454601001633263,48.377744230772045],[7.454647925533106,48.377771210766014],[7.454553155724694,48.377984013892316],[7.454385097068438,48.37826093959737],[7.454492582503399,48.37828428963136],[7.454547513693566,48.378294027571094],[7.454554789355582,48.37829528573396],[7.45506991939081,48.37838674099337],[7.455249290151444,48.378420361557765],[7.45534730065713,48.378438840921966],[7.4557031658902,48.37850564854426],[7.456158441628827,48.37861061546552],[7.456337860323607,48.37863999740979],[7.456496457457421,48.37864556245971],[7.456799711951273,48.378647034078526],[7.456955208827633,48.378663888983965],[7.456968178141407,48.37866529312724],[7.456966990663465,48.37867840392998],[7.456965520579616,48.37869296714734],[7.457172165378028,48.378729162673594],[7.457293966077942,48.37875061969687],[7.458535402458658,48.37880921971795],[7.458535356730068,48.37880868077295],[7.458525487772771,48.37874975924938],[7.458508141825913,48.378648947245864],[7.458501455669162,48.37861000065685],[7.45848391928193,48.3785069430345],[7.458479439786072,48.378481249803286],[7.458474037545006,48.37844946375761],[7.458469451361178,48.378422512986134],[7.458464577922906,48.378393770807115],[7.458460301871344,48.37836888091367],[7.458456153036582,48.37834389611824],[7.458447542331792,48.37829501964745],[7.458445940723315,48.37828570839261],[7.458438868325915,48.378243802667605],[7.458429091036594,48.37818595900166],[7.458421489880269,48.37814100940327],[7.458417796002818,48.378119792142435],[7.458412818271948,48.37809141432874],[7.458411178570243,48.37808165395089],[7.458396098268556,48.37799319193049],[7.458387198076934,48.37794090212155],[7.458378412218464,48.37788995967349],[7.458363181952242,48.37780132306476],[7.458363031877653,48.37780114849331],[7.458326860439663,48.377704829947724],[7.458429668964648,48.37772087331783],[7.458483359242049,48.377727141831805],[7.458553816830423,48.37773494160233],[7.459082867505226,48.37772420982008],[7.459158343121241,48.37772100690098],[7.459339631590701,48.37771345833961],[7.459526911709246,48.37770000681662],[7.459711907208213,48.37768673115745],[7.459987695808618,48.37769454550758],[7.460258607660238,48.377702272594554],[7.460628636852892,48.37770166932028],[7.461009213442287,48.3777010279441],[7.461664573943327,48.37766768351904],[7.462073293495761,48.37763687221715],[7.462273290129113,48.37762185574573],[7.462474762169107,48.377606693213856],[7.462555948788877,48.37760065963963],[7.462573558342484,48.3775993651539],[7.462612140610654,48.37759655930392],[7.462665358498966,48.377592480920065],[7.462674226874828,48.377591786216435],[7.46272193954159,48.37758818563852],[7.462735364157914,48.37758858076013],[7.46282552304911,48.377591039748225],[7.462937234609657,48.37759403795317],[7.462942793221691,48.37759418887711],[7.463002994134769,48.37759588459937],[7.463123388343473,48.377599186128194],[7.463174367313202,48.377600598602015],[7.463228732334829,48.377602063637575],[7.463281336919017,48.37760350489848],[7.463322297711761,48.37760322238959],[7.463347992013606,48.37760315491757],[7.46338840584973,48.3776028028927],[7.463439232237459,48.37760241877389],[7.463504516124415,48.377601850061254],[7.463522359673711,48.377601718062756],[7.463666329179097,48.37760070605435],[7.463673220849655,48.3776006264655],[7.463726743864644,48.37760014056184],[7.463783520702132,48.37759655828174],[7.463818777896705,48.37759441806244],[7.463858866132772,48.37759182536269],[7.463956540167949,48.377585619786366],[7.463984096691292,48.37758358962355],[7.464005616317515,48.37758214750551],[7.464030588146903,48.37757994444576],[7.464080460601394,48.37757310798186],[7.464130999569343,48.377566156255064],[7.464208464127846,48.37755611673962],[7.46427991471016,48.377542158793204],[7.464288267380826,48.37746533909982],[7.464319332018671,48.37718617344418],[7.464365007303697,48.37678444561426],[7.464396592616127,48.376508233818505],[7.464396457787417,48.37650823890242],[7.464396686758085,48.376506157699964],[7.464396282271974,48.37650617295168],[7.46433857815679,48.376505194842196],[7.464314629489836,48.37650988253633],[7.464279047440921,48.376509782389824],[7.464262941775579,48.376509668765685],[7.464229366896185,48.37650931270007],[7.464196346593694,48.37650911593817],[7.464168869530905,48.376508890385686],[7.46416535635315,48.376508932736435],[7.464145355916378,48.37650914616974],[7.464136831183365,48.37650910714149],[7.464116126080206,48.37650898669205],[7.464095502391734,48.37650823238768],[7.464088992459395,48.3765080272786],[7.46405751379784,48.37650687123571],[7.464021886451457,48.37630402146446],[7.464018182813781,48.37628271452503],[7.464008361456671,48.37623397395809],[7.463926185098139,48.37623310733596],[7.463893426996051,48.37623281049889],[7.463866708150927,48.37623354752361],[7.463743645763994,48.376237015718765],[7.463628688306129,48.37624035845256],[7.463609392628677,48.376240905676376],[7.46355178287976,48.37624262698706],[7.463479723629649,48.376244622664714],[7.463363013372556,48.37624803121802],[7.463303905239699,48.37624962867016],[7.463248541775315,48.376250724483995],[7.463114306471717,48.3762516395224],[7.463095369496226,48.37625163247091],[7.46305263410198,48.376251711500416],[7.463054067674678,48.3762877021079],[7.463055667955108,48.376588434320894],[7.463046866012648,48.37666157627535],[7.463014309639689,48.376929623859844],[7.463013762691195,48.37692955436514],[7.462895769104835,48.37692264794295],[7.462764829211508,48.37691938328517],[7.462701683227861,48.376916446802184],[7.462636336680587,48.37691467456622],[7.462633220336104,48.3769146118018],[7.462566500135265,48.376910998959744],[7.462474567808911,48.376884456766554],[7.462245665274727,48.37688398257965],[7.462253805647064,48.37709931264216],[7.462209632192879,48.377099986207995],[7.462161945518676,48.37710070204871],[7.461773522336077,48.3771060584423],[7.461735423869206,48.377106593014055],[7.46171493725965,48.37710745512918],[7.46165669810629,48.377109739866334],[7.461590473441163,48.37711196504063],[7.46153274309434,48.3771138700977],[7.461469754351951,48.37711597326908],[7.461407582213976,48.377118135748034],[7.46135281812631,48.37711992894641],[7.461337304984585,48.37712042337172],[7.461292803268162,48.37712201007814],[7.46121539525861,48.37712474653716],[7.46113271359593,48.37712750142483],[7.46095617455194,48.377133612314836],[7.460831005952747,48.37713778753215],[7.460803154584281,48.377137935735576],[7.46074486718915,48.37713805916564],[7.460677388432806,48.37713825851252],[7.46065805427124,48.37713835613477],[7.460613827390674,48.37713840033687],[7.460487791575522,48.37713873307182],[7.460486435643979,48.3771386940422],[7.460489773836985,48.377101532500554],[7.460490738898137,48.377090592665176],[7.460504498910145,48.37693877724275],[7.460560912893867,48.37631902819256],[7.460556534295081,48.376230793815516],[7.460552221918721,48.376141745935],[7.460520036906701,48.37597769404337],[7.46050940225767,48.375928893828146],[7.460439319990516,48.37593027252013],[7.460429192671242,48.37593047382651],[7.460430486593084,48.37569712646586],[7.460430516271189,48.37567676015201],[7.460430823974564,48.375586366735824],[7.460430637344746,48.37553636188752],[7.460430629720552,48.37553627206325],[7.460334323401411,48.37553305175073],[7.460261748979383,48.3755305593387],[7.460125005147335,48.37552579842637],[7.460035516864817,48.37551844623697],[7.459902314745491,48.37550760429591],[7.459806705967606,48.37549985170914],[7.459762714848195,48.37549628230664],[7.459750316039456,48.37549521744855],[7.459690952314112,48.37549060506504],[7.459624096910868,48.3754853737251],[7.459583120593544,48.37547907746706],[7.459547906094804,48.37547373561878],[7.459490499068799,48.37546508453172],[7.459415282586873,48.375453770089],[7.45933225144956,48.375441218039235],[7.459266482881793,48.37543125977193],[7.45919742515023,48.375420794569465],[7.45909662803822,48.375404496020764],[7.459062484628015,48.375399023580556],[7.459033950055593,48.375397485016926],[7.458896399010275,48.37540392691934],[7.458833480802964,48.375406837111754],[7.4587980519384,48.37540853180727],[7.458762345797351,48.37541014682281],[7.458729272304442,48.375414095691674],[7.45869351751969,48.37541832574849],[7.458571521287868,48.3754327420731],[7.45852142386914,48.37543850341445],[7.458518076068519,48.37543889981819],[7.458398127893973,48.375408904040974],[7.458386662952177,48.3754060917598],[7.458380064659761,48.37540165443578],[7.458344455823958,48.375377313586064],[7.458325944749395,48.37537116217347],[7.45827263735744,48.375353435106874],[7.458206656928534,48.375331409317184],[7.458190791409209,48.37532614949143],[7.45812565048706,48.37530445249281],[7.458050069991133,48.37527927375939],[7.457977442215146,48.37526020148494],[7.457905511481778,48.37524137325643],[7.457838144355267,48.37522372482812],[7.457766056036832,48.37520463211755],[7.457730278060779,48.3751926427181],[7.457726523466394,48.375191432411874],[7.457673905827107,48.37517385934091],[7.457627830762675,48.37515847292548],[7.457586207299989,48.375144540895405],[7.457537209513986,48.375128183150046],[7.457468434111876,48.375105090749535],[7.457458421893294,48.375101863243664],[7.457446176273325,48.37509781870815],[7.457418827183491,48.37509749669012],[7.457394601943498,48.3750973273926],[7.45727522086224,48.37509632502071],[7.457260733554165,48.37509614953527],[7.457248149044484,48.37509608263619],[7.45723474796148,48.37509595636584],[7.457169822425445,48.3750672220724],[7.457156757955036,48.37506149621968],[7.457086656003674,48.375048275678736],[7.45702563541946,48.375036875900385],[7.457016419261903,48.37503506017171],[7.456949352108208,48.375022536308634],[7.456935962393497,48.3750145698937],[7.456904474717423,48.37499575051305],[7.45686163755806,48.37500258952696],[7.456855496525584,48.37500354158856],[7.456712306510241,48.37502641329063],[7.456691764273788,48.37502979977628],[7.456656035544031,48.37504709437902],[7.456643564570379,48.37505315070983],[7.45664226963669,48.3750538302325],[7.456631363245345,48.375059196889154],[7.4566090363544,48.37508779158445],[7.456588630508737,48.37511352051374],[7.4565714299496,48.37512281864693],[7.45656172173502,48.37512795997275],[7.456504752110896,48.375157948740316],[7.45640774060355,48.375147993470456],[7.456397094682714,48.375146862288624],[7.456362394149075,48.37512843403484],[7.456326696538545,48.37510941252184],[7.456298510343767,48.37509443361805],[7.456261111082459,48.37507448491098],[7.456241425788524,48.3750640520402],[7.456223861909171,48.37505471076633],[7.456201581413275,48.375047169017236],[7.456195735926129,48.375045226360044],[7.456187799501316,48.3750425514],[7.456116911017078,48.3750184564374],[7.456071668348099,48.37500330844201],[7.456068745609306,48.37500233711021],[7.456068610783653,48.37500234218465],[7.456045158736273,48.37500331495868],[7.455964563454268,48.37500670872605],[7.455910528822423,48.375009102813216],[7.455688112265412,48.37506108723245]]],[[[7.458691066493365,48.37895077993057],[7.458710303077802,48.3789861901233],[7.458710310699558,48.378986279947455],[7.458710175863947,48.37898628502487],[7.458821739019814,48.37919952211401],[7.458851270888501,48.37924148315036],[7.458976259200734,48.379418440417716],[7.459204442951857,48.379678108057135],[7.459297311118154,48.37976346018234],[7.459314332018128,48.379779129276315],[7.459326262960982,48.379787420725634],[7.459456424878003,48.37987866721155],[7.45978909198811,48.380059246018355],[7.459867604918507,48.38012206996378],[7.459917384394873,48.380161916454554],[7.460080202255109,48.380363760228754],[7.460212790154581,48.38052817493103],[7.460386498609875,48.38064634539066],[7.46069070779581,48.38085331508553],[7.460728026176608,48.380875428241175],[7.461293536762897,48.380877912275885],[7.461557467206769,48.38087013057667],[7.461700989478531,48.38083985200172],[7.461992468498936,48.38076939519181],[7.462306044536462,48.380658095491604],[7.46245783161914,48.38062957705205],[7.462653802555145,48.38060047452813],[7.463074013596819,48.380559765891995],[7.46331593922757,48.38050793416313],[7.463437203562379,48.38047362638403],[7.463779305487886,48.38031601136507],[7.463840456806558,48.380271533914154],[7.463863034038691,48.380231574428514],[7.464004600880831,48.38010188364996],[7.464240746966372,48.379943846181575],[7.464704768809979,48.379793165713274],[7.464697556336077,48.37977514503917],[7.46465199430684,48.37971811032731],[7.46460263406987,48.3796561725704],[7.464561554851215,48.379615278977575],[7.464530506973303,48.37958418973615],[7.464509363168973,48.37956777567229],[7.464482113606564,48.379546365355516],[7.464445975092043,48.37951745048802],[7.464403003258202,48.37948293600897],[7.464505659848389,48.379417519226195],[7.464536186340277,48.37939789535913],[7.464549911678533,48.37938908758063],[7.464596219162528,48.37933868130947],[7.464617899846658,48.37931524582723],[7.464617892214767,48.3793151560035],[7.464529137467293,48.37925443328968],[7.464438612501904,48.379158543660004],[7.464374423960346,48.37906535554538],[7.464351576039912,48.37903206474484],[7.464334197952202,48.378989917000304],[7.464332333198522,48.37898548173323],[7.4643044865603,48.378922011814545],[7.46427903391384,48.378861245083776],[7.464258679270249,48.37883182516706],[7.46430209860949,48.37882703419523],[7.464331039743703,48.378823780322634],[7.464489429805144,48.37880618387226],[7.464535927402342,48.378801006411294],[7.464696459414944,48.37878314869154],[7.464722179736616,48.3787801963925],[7.464765464156543,48.37877541033502],[7.464788787978445,48.37877290883419],[7.464789327316345,48.378772888496826],[7.464790668028987,48.37877274782965],[7.46491782200201,48.378761645224955],[7.464936589433098,48.37876282986313],[7.464950607130227,48.37876383316177],[7.465067457747512,48.37876996979238],[7.465191230745484,48.37877638592568],[7.465205225552632,48.37877711972298],[7.465237837703638,48.378778863546444],[7.465287973260717,48.378781478412506],[7.465305835031013,48.37878314770523],[7.465363638382366,48.37878844705113],[7.465435624827299,48.37879510381992],[7.465504733966382,48.378801328390935],[7.465718442181289,48.37883300761614],[7.465780087214736,48.37884212678127],[7.465880343434905,48.37885672821064],[7.465973377134822,48.37887070085989],[7.465998036707821,48.378874366441394],[7.466069280583098,48.378885015752644],[7.466121484727807,48.3788928688333],[7.466183692143473,48.37890223691571],[7.466268760533483,48.37891479766644],[7.466257393747748,48.37882403343911],[7.466251322299081,48.37877488127146],[7.466230588743028,48.37869645520331],[7.466211595535596,48.3786241811876],[7.466140742519706,48.37846375164679],[7.466117539623128,48.378410379626885],[7.466247940599427,48.378378607610315],[7.466311561202414,48.37836323169936],[7.466308636318245,48.37830017373706],[7.466559551955551,48.3782571870674],[7.466657015386851,48.37824053428914],[7.466739402983555,48.37822634251022],[7.466911001066697,48.378197070590026],[7.467004956630607,48.37813279063165],[7.466951408026641,48.377954767589216],[7.466901602492302,48.37778894861056],[7.467282557927954,48.377772052698226],[7.468021434789171,48.3777393967246],[7.468108070296255,48.377694045170884],[7.46821753989621,48.377521134562656],[7.46797653237025,48.377513558758935],[7.467850398782058,48.37750957761187],[7.467630217189636,48.377516263917364],[7.467262700784237,48.377527337375845],[7.467083728716932,48.377525529215156],[7.466892298754891,48.37752355999882],[7.466783057105964,48.377514615073814],[7.466491698735176,48.37749073320217],[7.466465058080072,48.377489215045784],[7.466444522996173,48.37748791712199],[7.466394566516653,48.37747943876793],[7.466392371047302,48.377479071027906],[7.466392236216296,48.37747907611408],[7.466389771084968,48.37747871854636],[7.466292366658835,48.377465812286864],[7.466233788677551,48.37745774919594],[7.466221058538745,48.37745597659821],[7.466208875358963,48.37745427347905],[7.466144955020019,48.37744542063511],[7.465997281467655,48.37742512879492],[7.465994508509891,48.3774243322715],[7.465986324468004,48.377421937615125],[7.465918547647835,48.377418636818355],[7.465870069497776,48.37741641030839],[7.465782747272051,48.37741231475087],[7.465758905104511,48.377413484349226],[7.465550454074401,48.3774292761921],[7.465540776778166,48.37743000162224],[7.465500726913955,48.37743304401021],[7.465487208215987,48.37743472531972],[7.465464709272672,48.37743737609742],[7.465440203128201,48.37744028279477],[7.465418378335168,48.37744290813822],[7.465389460926739,48.37744643175114],[7.46529092750596,48.3774584380828],[7.465242596963558,48.37746431580002],[7.465192378774995,48.37747026468479],[7.46514377854848,48.37747615253128],[7.465064253657039,48.377485819809344],[7.465022746027522,48.377490809352146],[7.464987005601945,48.37749522094861],[7.464953002711519,48.37749938678768],[7.464911629891953,48.377504371206996],[7.464882569952486,48.377507809956704],[7.464799284953892,48.377517799069054],[7.464746074932708,48.377526744152256],[7.464554436281465,48.37755893133916],[7.464423346964311,48.377580995450145],[7.464339858208033,48.377594956825135],[7.464315990458691,48.37759901066475],[7.464275451910294,48.37760585574398],[7.46426212137755,48.37760816059693],[7.464259455270862,48.37760862156735],[7.464230247663791,48.37761350750642],[7.464163834108494,48.37762466226786],[7.464030228446012,48.37764736147529],[7.463980625653204,48.37764941183413],[7.46387359981771,48.37765380732141],[7.463796252201887,48.37765726405606],[7.463758919077174,48.37765885174882],[7.463738640907954,48.377658985455746],[7.463706601858179,48.37765920209506],[7.46359087306609,48.37765987040373],[7.46351165565953,48.37766042375909],[7.463479212112697,48.377660655585615],[7.46342798117372,48.37766105496995],[7.46335819435771,48.377661162602635],[7.463288954497881,48.37766133968763],[7.463195992019932,48.377657725167644],[7.463031904709028,48.37765120466039],[7.462923172092355,48.3776466524703],[7.462803281089806,48.377654055037006],[7.462766548292548,48.3776563406806],[7.462706258065484,48.37765996478086],[7.462627534009215,48.37766473419021],[7.462586066825629,48.377667017995826],[7.4625498731322,48.37767405916152],[7.462499832356584,48.37768369476974],[7.462460560389752,48.37769112226005],[7.462399837564143,48.37769602406699],[7.462356818544325,48.37769755527431],[7.46228048839895,48.377700251775096],[7.462116789332204,48.37771263877476],[7.461685224019945,48.377745212205866],[7.461640581773031,48.37774833621236],[7.461446410327945,48.37776187053432],[7.4614454665025,48.37776190609812],[7.461410417754038,48.37776331685777],[7.461022769833435,48.377779454755114],[7.460534291480509,48.37778055670448],[7.459715426390777,48.37775688542015],[7.459702736902182,48.37775718315705],[7.459556507616159,48.37776025789383],[7.459091644028274,48.37777344048456],[7.458573116287337,48.37779341793531],[7.458518374263842,48.377795479295855],[7.458518239431268,48.37779548437307],[7.458480325165313,48.3778252970874],[7.458465861161743,48.37783656496783],[7.458571871285938,48.3785312052013],[7.458641618378063,48.37877133830625],[7.458655599883786,48.37881974217859],[7.458661105383174,48.378839990096154],[7.458691066493365,48.37895077993057]]],[[[7.461550406554441,48.38888801720103],[7.461550414182482,48.38888810702432],[7.461674731618809,48.38894686145084],[7.461698837903052,48.38895829842798],[7.461731035573014,48.38897420642708],[7.461782721347103,48.388999742933265],[7.461901927650598,48.38905247206106],[7.462123890838531,48.38915062001552],[7.462174661000254,48.38917492930974],[7.462264369563016,48.38921804633943],[7.462587417156541,48.389364198335876],[7.462697022044235,48.389413774188824],[7.462992479179139,48.38954726799061],[7.463050724416759,48.389544892795286],[7.46310574058594,48.38954272937178],[7.46325629460062,48.389470734034774],[7.463317303977,48.38943878832014],[7.463387379678937,48.38940208545042],[7.463728679849588,48.38924071939373],[7.463787108437316,48.3892118443401],[7.463824284730733,48.389190798941854],[7.463841547149787,48.38918059653985],[7.464103373245995,48.38902655013016],[7.464115999385801,48.38901751366444],[7.46412569926984,48.38901066005068],[7.464410961753314,48.38880923224373],[7.464625580854753,48.388655342083815],[7.464745193976452,48.3885695526725],[7.464745186342999,48.3885694628494],[7.464749400202926,48.388451889486355],[7.46470272108763,48.3884470712062],[7.464346178937035,48.388409870021945],[7.46433125282952,48.388409351361304],[7.464314685513522,48.38840862423454],[7.464108083737846,48.38841325840429],[7.463981282978054,48.38841605566126],[7.463634928729632,48.38842550619544],[7.463631129773703,48.388425379049565],[7.463528071952706,48.38842259515881],[7.463004876250859,48.388436636346206],[7.462926423727601,48.388438421419785],[7.462703480827077,48.38844339861524],[7.46257972539933,48.3884533785814],[7.462469807050681,48.38846220624471],[7.462086901825456,48.38849051099282],[7.462067782270426,48.388491591819104],[7.461966108169288,48.38849713473028],[7.461596794898581,48.38853096318841],[7.461581016301725,48.38853155762604],[7.4615181563745,48.388533745547754],[7.461478641842571,48.388544785907285],[7.46146793940253,48.38854780230668],[7.461163996952568,48.38861539116827],[7.461147004688545,48.38865108431108],[7.461130707153485,48.388685399619625],[7.461229179622547,48.38873296311594],[7.461550406554441,48.38888801720103]]],[[[7.463457063750188,48.38945154317433],[7.463376990473922,48.38948682065826],[7.463245574682038,48.389545209058696],[7.463487290428136,48.38976272779278],[7.463584420033678,48.38985016900514],[7.463490368111878,48.39042159140996],[7.463473568558543,48.39052323863031],[7.46329772727561,48.390549239421794],[7.463105648614563,48.390575221077256],[7.463002010143956,48.39053857685502],[7.462999094044563,48.39053769552854],[7.462998959179754,48.39053770061081],[7.462781420083751,48.39066691674947],[7.462643334031365,48.39078061322586],[7.462586803167182,48.390827077763106],[7.462567577816873,48.39084285065043],[7.462551574234846,48.39108927535357],[7.462548908262484,48.39112956512524],[7.462548498302905,48.39113588831285],[7.462544317245676,48.391199754030495],[7.462542980336483,48.39122224193719],[7.462539232117833,48.39128005393281],[7.46253492875007,48.39134725834173],[7.4625337879474,48.391365683881126],[7.462530490504203,48.39141446782882],[7.462526892385546,48.39147245438008],[7.462521310625744,48.39156124336726],[7.462518251957449,48.391619209585],[7.46251745738745,48.39163374732097],[7.462490269526125,48.39170550850651],[7.46247099655913,48.3917541734925],[7.462470869321177,48.3917542683972],[7.462470876951207,48.39175435822024],[7.462473563147586,48.391776424197936],[7.462474931185443,48.39179890028395],[7.462477555286614,48.39184412700557],[7.462483436587712,48.391946811620585],[7.462484776586877,48.39197055030761],[7.462488400037119,48.392032319703965],[7.46248842292742,48.39203258917302],[7.462491769228862,48.392089503041845],[7.462494184872351,48.39213068263591],[7.462495372278455,48.3921526248593],[7.462497131945732,48.39218130380804],[7.462499547597633,48.39222248339913],[7.462503145509089,48.39228713728276],[7.462507235070778,48.39234005827478],[7.462507530173987,48.39234193947604],[7.46250836454622,48.39234857621448],[7.462558465554395,48.39256565695312],[7.462561640780907,48.39257914399664],[7.46258543471769,48.3926792613109],[7.462641945459211,48.392922412727465],[7.462655364011541,48.39298002837192],[7.462684416197987,48.39306877382601],[7.462791720308055,48.39339696783569],[7.46313414538531,48.393383884464],[7.463188641341954,48.39338192098368],[7.463448974948906,48.393372470832496],[7.463525694237839,48.39336930924812],[7.463567219555107,48.393367564077884],[7.463956864693343,48.39335287895273],[7.463976024141135,48.39335224693993],[7.464025934388112,48.39335045590888],[7.464104294972309,48.39334750241754],[7.46412331191138,48.39334678564161],[7.464160266812775,48.39334539274916],[7.464191422220823,48.393344218440376],[7.464322517688794,48.3933392771033],[7.464536994461035,48.393331553030585],[7.464683701916797,48.39332404036361],[7.464717921181143,48.393322299866654],[7.464751878333822,48.39332065935108],[7.464849148870783,48.39331573096858],[7.464882558893752,48.39331402093022],[7.464943594717557,48.39331099910275],[7.465247865166734,48.39328520058596],[7.465360294608912,48.39327555518326],[7.46542919359691,48.39326953332681],[7.465490458338014,48.393264430039515],[7.465607323180473,48.39325443694909],[7.465635801408633,48.39325201153871],[7.465664279634162,48.39324958612149],[7.465714785153143,48.39324524883115],[7.465724997207453,48.39324441323131],[7.465737089826414,48.39324341661278],[7.465843742525181,48.39323425889007],[7.465861079853932,48.393232884279385],[7.465952127979081,48.393216835663196],[7.465999584746896,48.39320846811858],[7.466071964621306,48.393195646437455],[7.46611035701253,48.39318888219665],[7.466205015962964,48.393172336778534],[7.466299089548377,48.39315527269247],[7.466367082357434,48.39314973500597],[7.466368026455722,48.39314969940338],[7.466496242964028,48.39313954767257],[7.466555545480901,48.39313523870932],[7.466574905825248,48.393133787699696],[7.466605969406485,48.393131534884056],[7.466965830384171,48.39310552772715],[7.467188196643509,48.393088760506124],[7.467214277585417,48.393086785573146],[7.46725205410451,48.39308391894513],[7.467358266033786,48.393075947901664],[7.467669221631485,48.39305241401402],[7.467802728168702,48.39304242174501],[7.467959678384988,48.39301694698215],[7.468147979467898,48.39294964929437],[7.468148114338397,48.39294964420627],[7.468157720399314,48.39294486637881],[7.468191615159646,48.392928178711394],[7.468214196374563,48.3929168739491],[7.46823337292081,48.39290849106432],[7.468364287645214,48.392848944854585],[7.468372463577702,48.392844851739355],[7.468404874633641,48.39282821998172],[7.46845310566983,48.39280351215007],[7.468474623095368,48.39279242768991],[7.46850159111979,48.39277861447615],[7.468596488010732,48.39272988853373],[7.46885086365799,48.39259954212783],[7.469013351628007,48.392538984023815],[7.469076331390752,48.39251588205181],[7.469138517165828,48.39249299022649],[7.469277021270821,48.39247019211879],[7.469439684373123,48.392443508493585],[7.470080387826763,48.392437711046185],[7.470080522695761,48.39243770595587],[7.470106197583651,48.392349869931245],[7.469743939372354,48.391353758262916],[7.469737219445928,48.39133202478593],[7.46972686713816,48.39129781285212],[7.469697973984041,48.39120311526379],[7.469697604902492,48.39120195774959],[7.469695736568127,48.39119590071073],[7.469666143576897,48.39109933719188],[7.469651579081781,48.39105537200286],[7.469638867647737,48.39101728420599],[7.469636953473725,48.3910106882296],[7.469625847853405,48.390973981604226],[7.469593301630743,48.39085860619474],[7.469577707847555,48.390799360959456],[7.469560868227594,48.390666632113636],[7.469558446583319,48.39064771007118],[7.469593039175113,48.390407069547095],[7.469591824531948,48.39039756361304],[7.469592653514311,48.39039140477365],[7.469611201270743,48.39025319525871],[7.469565168579425,48.390187619549906],[7.469374745438928,48.38991654290192],[7.469358124707214,48.38989293025654],[7.46885660529638,48.38960052195245],[7.468855607779132,48.389599928815514],[7.468855465276672,48.38959984408166],[7.468851226870506,48.38947844415143],[7.468851219229911,48.389478354328645],[7.468754314466781,48.38934116729222],[7.468625986828228,48.38915902897179],[7.468561819522247,48.38906791483868],[7.468477906057161,48.389075496498506],[7.46836551672438,48.38908550417939],[7.467396528801825,48.389405099393294],[7.467254128384598,48.389423356831394],[7.467157229477803,48.3894357526757],[7.467135762093887,48.38940286091577],[7.466852031579302,48.38896345849658],[7.466740427849628,48.38881880452844],[7.466709110822354,48.38877826431512],[7.466624841153555,48.38863366062007],[7.466497175372816,48.38841463987354],[7.466437498590337,48.388322183907974],[7.466299442759949,48.388108240588785],[7.466299307901687,48.38810824567481],[7.466299300265647,48.38810815585177],[7.466116405667277,48.38816407375782],[7.465817985800433,48.38825516579945],[7.465754022374449,48.388274608796145],[7.46569323443206,48.38829321112558],[7.465566108866648,48.38833197661427],[7.465247677094474,48.388429588831926],[7.46520363420644,48.38844305397983],[7.465203499347215,48.3884430590646],[7.465089825928526,48.38848411024509],[7.465071337506698,48.388491024972126],[7.465033559125983,48.38850497474803],[7.464955798789804,48.38854674430957],[7.464953605417484,48.38854799844621],[7.464828270044573,48.388615801417906],[7.464820791693049,48.388620138349374],[7.464775440637332,48.38865482870436],[7.464748896132512,48.38867520328419],[7.464700013171676,48.38871291030722],[7.464693667109298,48.38871783531844],[7.464693539882702,48.38871793022575],[7.464482208330492,48.388861153595535],[7.464482065837078,48.388861068856386],[7.464222037706848,48.38905217408007],[7.464099694817651,48.389142481185786],[7.464016270857075,48.389205189019265],[7.463918287097942,48.38924781021295],[7.463836919250149,48.38928376760782],[7.463792053273233,48.389303480849975],[7.463703639308145,48.38934249715931],[7.463549124477916,48.38941085773803],[7.463518874405051,48.38942425291014],[7.46350323280951,48.389431240294],[7.463457063750188,48.38945154317433]],[[7.468365659224658,48.38908558891385],[7.468365524364089,48.38908559400222],[7.46836551672438,48.38908550417939],[7.468365659224658,48.38908558891385]]],[[[7.470875772675959,48.39083452919085],[7.470780058094559,48.39136484187329],[7.470759732497436,48.391464641235515],[7.470754381488072,48.39149079522326],[7.470734214130728,48.39159563481476],[7.470578207761009,48.392403241655316],[7.470641143910539,48.39243051252051],[7.47070900693345,48.39246003037252],[7.471092816376422,48.39249131814981],[7.471620798273886,48.392533021022246],[7.471829339634271,48.39254938712015],[7.47198312848136,48.39256151247131],[7.472045398331505,48.39256664045222],[7.472095519554498,48.39257051501746],[7.472235429520988,48.392581722327705],[7.472652324738328,48.39261382833008],[7.472725603245855,48.392619531446734],[7.472872025439364,48.392630942637595],[7.473554084755797,48.39268493035121],[7.474404068952477,48.39275176397472],[7.474440993435354,48.392754784450965],[7.474556428977274,48.392764570789076],[7.474577008480828,48.392766316403545],[7.474636632146996,48.392770551791614],[7.474669838672056,48.3927728115528],[7.474671749796898,48.39277300968197],[7.474739129895329,48.39277776297269],[7.474785429266797,48.392781240144004],[7.474806540610936,48.39278287551381],[7.475282368329915,48.39282058544297],[7.475442027025355,48.392833295566575],[7.475682309124826,48.39285215012435],[7.476182509359547,48.39289163879441],[7.476207292884561,48.39289349557722],[7.476231941541752,48.392895357452154],[7.476276803472718,48.39289942904357],[7.476362442998012,48.39290727598875],[7.476364893612494,48.39290745370077],[7.476406750162845,48.392911188276635],[7.476410160172876,48.392911509949336],[7.476410295042478,48.392911504851824],[7.47641357018295,48.39291183162195],[7.476461734995352,48.392914967306965],[7.47646255952117,48.3929151163657],[7.476463368738801,48.3929150857803],[7.476502787089692,48.392917200361715],[7.476541269010725,48.39291944043566],[7.476720075054628,48.39293295704123],[7.477000096869779,48.39295292008681],[7.477042027130342,48.39295593076392],[7.477070567023818,48.39295899704434],[7.477182403225123,48.39297098948179],[7.477182538094802,48.3929709843834],[7.47718267296448,48.39297097928501],[7.477309628798753,48.392977804364676],[7.477344431038919,48.392979732728065],[7.477714168774432,48.39300297072629],[7.477841776134086,48.3930095002751],[7.477883795418432,48.393011966623455],[7.47820298618554,48.393019993015905],[7.478458848311215,48.39302635820297],[7.478501022513446,48.39302746680403],[7.478556625393949,48.3930289687152],[7.478684519689071,48.393032512833834],[7.478768193766257,48.39303475536135],[7.478809232500079,48.39297652331223],[7.478918103108994,48.392822010083556],[7.478918207345012,48.39282164569556],[7.478919657292384,48.39281960840929],[7.47888193986677,48.3927644447325],[7.478881466335964,48.39276365163624],[7.478880865594395,48.392762953462196],[7.478880234220027,48.3927618960005],[7.479061863447898,48.392497488427324],[7.479212686872074,48.39227803976195],[7.479216753262499,48.392268604478474],[7.479246143719726,48.392200720243935],[7.479270013148524,48.392145840650294],[7.479270661518284,48.39214392378518],[7.479270765750518,48.39214355939669],[7.479270989532538,48.39214301026359],[7.479271378817034,48.39214281531744],[7.47927203484549,48.39214098827424],[7.479115916060702,48.39209679063855],[7.479115638667697,48.39209671101778],[7.479031611600361,48.392072855360496],[7.478523740474294,48.39192904945697],[7.478508349091267,48.39192467533685],[7.478378583711718,48.391888040829414],[7.478053161906216,48.39179572614342],[7.477912444108687,48.391755990913374],[7.477803603291694,48.391725142797334],[7.477493439849214,48.391637205875405],[7.477346612714058,48.3915956284057],[7.477332053689445,48.391591493006594],[7.477326371070663,48.39158990560555],[7.477258426438447,48.39157057710855],[7.477191876447399,48.39155173652095],[7.477058079313859,48.39151381125779],[7.477019815250839,48.391503002560476],[7.476627998800475,48.39139201775831],[7.476591676612341,48.39138176630822],[7.476562558802542,48.39137349532145],[7.475884156221864,48.39118124636593],[7.475565415648884,48.39109101552816],[7.475269818387365,48.39100720836499],[7.474986704193449,48.39092698383267],[7.474812705423986,48.39087768923264],[7.473552577265932,48.39052069513381],[7.473378581184964,48.39047139841395],[7.473343782007912,48.390461539039116],[7.472924393791383,48.390342753020114],[7.472848693559303,48.39032128200995],[7.472572640653161,48.39024285782146],[7.472232754379506,48.39021559373798],[7.472142977329786,48.39020835077921],[7.471723686490511,48.39017489233406],[7.471455735044958,48.390153470468015],[7.471352476806964,48.39014520402208],[7.471342802149803,48.39014439784342],[7.471232866858275,48.390135572385745],[7.47121089457837,48.39013811403979],[7.471010311839181,48.39016109566149],[7.471010319483565,48.3901611854841],[7.471010184620495,48.390161190575455],[7.470914276522874,48.3906462752414],[7.47090471924713,48.390692953168085],[7.470875772675959,48.39083452919085]]]]}}]}
