{"type": "FeatureCollection","name": "aoc_geojson","features": [{"type":"Feature","properties":{"dt":"La Valette du Var","type_prod":"Vins","categorie":"Vin tranquille","type_denom":"dénomination géographique complémentaire","signe":"AOC","id_app":297,"app":"Côtes de Provence","id_denom":1839,"denom":"Côtes de Provence la Londe","insee":"83047","cvi":"1B594S, 1R594S, 1S594S","nomcom":"LA CRAU","insee2011":"83047","nomcom2011":"LA CRAU","id_aire":1137,"crinao":null,"grp_name1":null,"grp_name2":null},"geometry":{"type":"MultiPolygon","coordinates":[[[[6.080998273644772,43.13567743527285],[6.080882412696141,43.1356966800258],[6.080738084436224,43.13572835018351],[6.080724095910649,43.1357310904258],[6.080687251135558,43.135738534660085],[6.080639052923749,43.13573820223963],[6.080613661924882,43.135736857772066],[6.080586729370887,43.13573195683317],[6.080553267905299,43.13571986143052],[6.080378879901765,43.13564644472372],[6.080317629966975,43.135627222389495],[6.080264423545123,43.13562055200022],[6.080222382512353,43.13562274380328],[6.080199138943199,43.13562709871081],[6.080186374656873,43.13563205422337],[6.080168907430282,43.13564101472644],[6.080156059361932,43.13565362375934],[6.080147065381183,43.13566936311141],[6.080139546496897,43.13569433167039],[6.080145277623802,43.13576266797848],[6.080148350794201,43.13583648105813],[6.080136458306231,43.13589469952112],[6.08011418883508,43.1359565450685],[6.080078292886597,43.13602562108705],[6.080030135909322,43.13609756789801],[6.079995503460364,43.136128082080624],[6.079962637581114,43.136147924191945],[6.079918445805806,43.13616511954458],[6.079847563756987,43.136179657157726],[6.079755702540224,43.1361972246307],[6.079720543738444,43.13620633059628],[6.07970491533072,43.13621289812592],[6.079686792886752,43.13639641308918],[6.07968249913015,43.1364542343335],[6.079687457529146,43.1366856969431],[6.079709467103661,43.13669046876749],[6.079741728653444,43.13670079847668],[6.07977599749303,43.136718811960094],[6.079800150842832,43.13674305539878],[6.079813201522998,43.136766535970146],[6.079836534699633,43.136835359454246],[6.079861189183283,43.136885152357316],[6.079895900576109,43.136932227479996],[6.079917887516933,43.13695041190519],[6.079960979609744,43.136981765196325],[6.079996453788451,43.13700163445329],[6.080020166104926,43.13701067819755],[6.080060546909821,43.13702113582387],[6.080386131974507,43.137078619858336],[6.080501015109896,43.13710324018069],[6.08063578829777,43.13713206252207],[6.080669311046921,43.137142986010666],[6.080690076288168,43.13714977350998],[6.080759899152392,43.137179912297015],[6.080835309862203,43.1372387856102],[6.080946847714936,43.13733668203896],[6.081038362449071,43.13740481628858],[6.081133636587849,43.13748121424015],[6.081183935602151,43.13752784335478],[6.081283369986824,43.13761771428414],[6.081353120151543,43.13767413874087],[6.081468786370269,43.1377733568905],[6.081543284914492,43.13782892536197],[6.081834008985505,43.13804852626667],[6.081985333626111,43.13816409684009],[6.082069384536813,43.13823973488146],[6.082104336454877,43.13827744113048],[6.082125248653576,43.138307717715115],[6.082162336544187,43.13837164682687],[6.082196111591908,43.13845412346289],[6.082207966858264,43.13849204017884],[6.082228572909633,43.13855806090455],[6.082295692890074,43.1387333780364],[6.082348336816363,43.13882854700144],[6.082368418104401,43.13885245635966],[6.08244484584576,43.138944154624284],[6.082552130491067,43.13906359459844],[6.082619971658453,43.139137175584715],[6.082647851262514,43.13916671273262],[6.08266909679188,43.13919400926598],[6.082706443822934,43.13924433879458],[6.082733326296341,43.13928974685365],[6.082812840598353,43.13944850684222],[6.082835557129819,43.13949646442485],[6.082886953277465,43.13960508096611],[6.083036452012788,43.139829169152414],[6.083118230008176,43.13978839384415],[6.08315819253206,43.13983243749245],[6.083188624195678,43.13985911109972],[6.083195206648059,43.139867294063855],[6.083196044715535,43.139876091434054],[6.083194350800957,43.13994572051287],[6.083172621804665,43.139985408104074],[6.083159510814862,43.140023048873196],[6.083157290233891,43.14004363553321],[6.083159742097692,43.1400688592531],[6.083166511559559,43.14008054740717],[6.083183055457665,43.1400957365104],[6.083208472585659,43.14013209503643],[6.083256793834437,43.14020839450729],[6.083275637136841,43.14022981877994],[6.083313249926512,43.14026897886499],[6.083362087070713,43.140318079384855],[6.08337955549958,43.14034368361188],[6.083382069712364,43.14035855396771],[6.083383270486919,43.14039488518075],[6.083371812693137,43.140445080621646],[6.083340909583928,43.14051095470022],[6.083252858608424,43.1406622665459],[6.083232352914624,43.14070876021769],[6.08322147409543,43.14076289969379],[6.083224964677311,43.140828329883604],[6.083235104771909,43.14086863602076],[6.083253394293811,43.140928061986806],[6.083286893283645,43.1409983945732],[6.08333195328691,43.14106884647543],[6.083392568956277,43.141140563588586],[6.083455337469065,43.14121806998294],[6.08342604069736,43.14124033145908],[6.083443417409533,43.14126881877108],[6.083474429492094,43.14133400167792],[6.083481383439512,43.141362967212686],[6.083508350967866,43.14141224336577],[6.083545239812263,43.141453944535144],[6.083649867195224,43.141537274308654],[6.083684688914563,43.14157939463947],[6.083760069424914,43.14166518138663],[6.083804928744292,43.141708814761635],[6.083841274111251,43.14173801946973],[6.083893339388402,43.141778476167325],[6.083986597089509,43.141835306851206],[6.08404719820662,43.1418652576448],[6.084174490291604,43.14191949401773],[6.08429800941795,43.14197212795798],[6.084396176954204,43.142017296024],[6.084539037436941,43.14208683888964],[6.084601317379823,43.142125202658605],[6.08463745432774,43.14215279284094],[6.084683826712979,43.14219251199177],[6.084766303468322,43.14225460139261],[6.085011564569741,43.14235415785867],[6.085080599188049,43.14238548696573],[6.08525477203862,43.142463584114914],[6.085426371172457,43.14255102612642],[6.085488921669533,43.14258983175332],[6.085646310976585,43.14271962679608],[6.085775882576609,43.14280728138348],[6.085845001044457,43.14284706896223],[6.08611813654915,43.143015045832676],[6.086165397303759,43.14303223546061],[6.086189191945168,43.14302894370217],[6.086260200118434,43.1430051269688],[6.086367259442244,43.14296353519612],[6.086447696272157,43.14292522610447],[6.086502031814173,43.14289765599962],[6.086555280473299,43.142863545963166],[6.086697178480105,43.14276307706163],[6.086921726632434,43.142603621889805],[6.08706747891653,43.1425016918811],[6.087161692790056,43.14242446158615],[6.08719569296135,43.14238901227944],[6.087247298753153,43.142324164128055],[6.087290223527168,43.14224408219869],[6.087313081609238,43.142186448500496],[6.087346111738278,43.14209602832774],[6.087372984584156,43.14201460591105],[6.087400351304491,43.141910215754564],[6.087405721353799,43.14186577499867],[6.087423400596878,43.14175032058628],[6.087431047656697,43.14170248408485],[6.087442623420671,43.141682169354205],[6.087472897733508,43.1416460165723],[6.087470811528565,43.14162537310366],[6.087461497487245,43.141593684936275],[6.087451477651651,43.14154878492305],[6.087426447029077,43.14134715041503],[6.087423147315802,43.14129458673445],[6.087429860459144,43.141247677143404],[6.08744513613672,43.14119998217685],[6.087470002985383,43.141124738199416],[6.08747166781064,43.1410914753344],[6.087464443305195,43.14103677375066],[6.0874578319047,43.14102346104893],[6.087431109364495,43.14100874416812],[6.08734243659945,43.14098716060336],[6.087325455330447,43.14097531513561],[6.087312496063527,43.140958223653],[6.087308588489798,43.1409172892074],[6.087338756029789,43.14083082171416],[6.087360984227682,43.14078211748387],[6.087395122254345,43.14073316208403],[6.087415419352577,43.14071043719137],[6.087494811642173,43.14064344274212],[6.087622122255965,43.14051854664367],[6.087521756946606,43.14045985242361],[6.087455203145779,43.14041972253268],[6.087428656431035,43.14040599078316],[6.087386272511949,43.140392622704034],[6.087358304645681,43.14038910322732],[6.087326868778772,43.14038739335479],[6.087289534275764,43.14038801278146],[6.087220348563447,43.14039755583584],[6.087144516944604,43.14041845094594],[6.0870784167925,43.14044203771244],[6.087022611679537,43.14046505950861],[6.086945580911855,43.14050723211492],[6.086518411601757,43.14044466506237],[6.086293112557614,43.14041268121695],[6.086441971838482,43.14026313579152],[6.086668818520865,43.14003871536491],[6.086420535125815,43.139887041559575],[6.085931514336286,43.13958221613739],[6.085793230361966,43.139499312319316],[6.085759552698878,43.13952467034138],[6.085736640716204,43.13950993399948],[6.085628467223843,43.139588102709126],[6.085326970690604,43.13980493642248],[6.085108163788775,43.139963593646016],[6.085124169704739,43.13998941949566],[6.085006810455155,43.1400866634064],[6.0843486360166,43.139251631063935],[6.084287132132667,43.139172468902196],[6.08456162160001,43.13903688348703],[6.085294085640746,43.13860176354603],[6.085459160869342,43.138488931071336],[6.085591745236279,43.138398361851856],[6.085833683516113,43.13823337044528],[6.086023114295458,43.138104807395784],[6.086086235988295,43.138062313651695],[6.086162527216597,43.13797641617504],[6.086213851841016,43.13792246838602],[6.086238360241627,43.13787964010534],[6.086364370249877,43.13764298589171],[6.086343111203742,43.13764998569779],[6.08629976144262,43.13765761814126],[6.086252035360088,43.1376592549633],[6.086199670372778,43.137656883979595],[6.086165623132773,43.13765227814638],[6.086130881386804,43.13764157125933],[6.086100652431463,43.137625604350745],[6.086064156280782,43.13760045547827],[6.085988745288704,43.13753708496259],[6.085868658592673,43.137421975616455],[6.085776313539713,43.137333796030276],[6.085734383641449,43.13729665080516],[6.085649417450281,43.137220051638],[6.08562007009036,43.137186056639266],[6.085546393115681,43.13709068137629],[6.085513980533291,43.13705452377718],[6.085490105715774,43.13703324401504],[6.085426149641709,43.1369887181086],[6.085351612571186,43.136946295373065],[6.085296148394992,43.13691808878084],[6.08522258897189,43.136887069702155],[6.085140373754521,43.13685737853672],[6.085084023565791,43.13684710991266],[6.085030829073594,43.136845302213366],[6.084961715977799,43.13684692062678],[6.084954735071041,43.13684739050418],[6.084826768146534,43.13685861476798],[6.084675521054848,43.13687581604287],[6.084628292432111,43.13688445898218],[6.084585125287375,43.13689550603027],[6.084438150327215,43.13694669983174],[6.084233090100744,43.137012697787576],[6.084088000298395,43.1370554658856],[6.083925451703937,43.13710044365167],[6.083820053199995,43.137124612918065],[6.083719620997886,43.13713819839866],[6.083677169609539,43.13714193349627],[6.083631291499085,43.137145946655394],[6.083608929583179,43.137143796090264],[6.083577077520808,43.13713885660376],[6.083542943450255,43.13712570115663],[6.083502518669401,43.13710291421631],[6.083473630994614,43.13707520646948],[6.083435112128335,43.13702824134656],[6.083386347683791,43.136978148841365],[6.083358140876265,43.13695168177847],[6.083305248079564,43.13690944852356],[6.083179081729481,43.13680927259038],[6.083082289210266,43.136736700448715],[6.083001856681481,43.136680492727095],[6.082950967296663,43.13664585315467],[6.082866747826431,43.1365992951077],[6.08278718048161,43.13656160526843],[6.082750039237119,43.13654736543991],[6.082597333416697,43.136500335918164],[6.082488945448952,43.13646383031797],[6.082364026462042,43.13641465547732],[6.082335335072757,43.1364067448089],[6.082103625472272,43.13630490574288],[6.081953767608764,43.13624672225143],[6.081687193414531,43.13614794972206],[6.081470698286662,43.13606862771387],[6.08146342222379,43.13606586532503],[6.081425063976254,43.13605183989016],[6.081394444246783,43.13602850182133],[6.081378797519005,43.13601166664747],[6.081336130900084,43.13595140749183],[6.081302970430155,43.13589654736049],[6.081232106671218,43.13576616388626],[6.081213027868858,43.13574258581157],[6.081191246247115,43.13572133534611],[6.081162009173381,43.13570317846623],[6.081127388555893,43.13568778588763],[6.081083105331156,43.13567789033317],[6.081051850582094,43.135674913351494],[6.080998273644772,43.13567743527285]]],[[[6.081111659419419,43.13564403905521],[6.081147795045059,43.135653267414824],[6.081192639923974,43.13566908776365],[6.081150498128165,43.135579469214235],[6.081011986021387,43.135293676538666],[6.081059568782092,43.135280164329764],[6.081117507284405,43.13526032512528],[6.081125978006041,43.13525783260396],[6.081092995780375,43.135224750577756],[6.080997707242353,43.13526330022419],[6.080961360460375,43.13518323740228],[6.080945060707414,43.13515183870499],[6.080877243141188,43.13500939627154],[6.080744112020475,43.13473227092294],[6.08071001869452,43.134659884787325],[6.080444525855059,43.13485335162693],[6.080376493029836,43.13491209469032],[6.080340982106839,43.13494686471279],[6.080238091863489,43.13506187218333],[6.080124197667922,43.13519411656212],[6.079991791785795,43.135352633690964],[6.079914289788971,43.1354551234966],[6.079876829659424,43.135515602852465],[6.07984420230409,43.13558143488837],[6.079804786188476,43.135676715244436],[6.079782590657262,43.13574918015806],[6.079756142204769,43.13585255115393],[6.07973409610687,43.13596011697666],[6.079706242803755,43.13613400853448],[6.079698919374771,43.13617418372788],[6.079901764403716,43.13614039256494],[6.079934811096851,43.13612855648991],[6.079962110131728,43.13611265404763],[6.079988864966528,43.136088845980225],[6.080028264399754,43.136039382774435],[6.080073731568642,43.13595617116791],[6.080090396014515,43.13591599900907],[6.080102044418371,43.13589010230283],[6.08011221167239,43.135841024497985],[6.080110684932707,43.13578931048911],[6.080099653454654,43.13572760662811],[6.080098733811035,43.13569189763751],[6.080101279752551,43.13566356069863],[6.080108326294578,43.13563203467397],[6.080128106499086,43.13557422087322],[6.080187979348874,43.135576830213985],[6.080369090560593,43.13561035917285],[6.080595696102112,43.135699565757015],[6.080642440323901,43.13571182151779],[6.080659460411951,43.135710614863214],[6.080682095158556,43.135706367273805],[6.080818081235904,43.135672685346854],[6.080897771513511,43.13565969552518],[6.081008593031477,43.1356427551515],[6.081057025185568,43.13564056034287],[6.081111659419419,43.13564403905521]]],[[[6.081607231677197,43.13426319708476],[6.081768605420013,43.134509809298955],[6.081857736840657,43.13464165014412],[6.081944806654259,43.13481549610082],[6.082024381615171,43.13497785464692],[6.082045376960058,43.135007408645016],[6.08215927415782,43.13516572506107],[6.082216469953154,43.13523799014709],[6.082308739899636,43.13534336707879],[6.082334509729201,43.1354163509447],[6.082367081938916,43.1355016521031],[6.082339785965222,43.13559595673703],[6.082428431560717,43.135707108128805],[6.082531058497489,43.135783114371016],[6.082687130255944,43.135902508417864],[6.082798685969636,43.135975378595106],[6.08308002652049,43.13612053293681],[6.083256520201815,43.13621719868513],[6.083325399259269,43.13616743083637],[6.083316520061115,43.1360355451215],[6.083301103258068,43.135794930206586],[6.083314945580777,43.13574106617832],[6.083355030523776,43.135593917499776],[6.083221685962373,43.135520411129846],[6.083074391712532,43.13543884244163],[6.083142356190674,43.13536272695923],[6.083331089777031,43.135154346911136],[6.08355116810673,43.13491149464335],[6.083748758398115,43.13469178878485],[6.08375355780384,43.13468499045541],[6.08378245581481,43.13457929792709],[6.083800608568611,43.13450487748658],[6.083918200716794,43.13438683531739],[6.084137618257667,43.13416164337926],[6.084255772682937,43.13404034426267],[6.084195198325923,43.13398770988194],[6.083831767192835,43.13380575235733],[6.0833677591813,43.13357230352548],[6.082952847575863,43.13336751267358],[6.082891809151651,43.1333914021728],[6.08279140137615,43.13343298034468],[6.082537526199476,43.13353754712198],[6.082220354265178,43.13366516685487],[6.082180688341737,43.133684214014586],[6.082028162176515,43.13376256731141],[6.081849810572115,43.133868302878845],[6.081657029977849,43.13398696260551],[6.081531573115716,43.134072822294115],[6.081467462955605,43.134117501843974],[6.0815786897284,43.134228097988945],[6.081607231677197,43.13426319708476]]],[[[6.081592822933963,43.13793273466059],[6.081143462154172,43.13755024369408],[6.080910162601073,43.13735636359493],[6.080822086662846,43.13727894956847],[6.08072908234328,43.13721283803308],[6.080656110327769,43.1371697373003],[6.080594756265516,43.13714628739665],[6.080529064426401,43.137129082367004],[6.080085807456936,43.137054618946095],[6.080018888621062,43.1370374486828],[6.079957681023933,43.137007513281326],[6.079913153330553,43.13698151180519],[6.079875241457371,43.136952800865274],[6.079833778993474,43.1369105093529],[6.079799173024622,43.13686541149399],[6.079743970439805,43.136768244422676],[6.07968976993847,43.136740629014135],[6.079661799518126,43.13673701767523],[6.079667027801936,43.13713040667503],[6.079667678241852,43.137654716105914],[6.079680347921932,43.13810010055424],[6.079693570854635,43.13841053916041],[6.079702407543459,43.13850948148673],[6.079720653164182,43.13857277964599],[6.07974111930836,43.138638534728706],[6.079896832599777,43.13897721631203],[6.080068277668159,43.13936657590993],[6.080208673074146,43.13967608066089],[6.080272512568647,43.13981530736585],[6.080342675248534,43.13996938560317],[6.080365707907353,43.14002561589141],[6.080470780731827,43.1402904032077],[6.080570893445025,43.140531298635935],[6.0805750654258,43.14055422288405],[6.080585853766467,43.14064131778784],[6.080582101010951,43.14073233887049],[6.080516301957489,43.14086770992306],[6.080438447284815,43.141016747545805],[6.080353744003099,43.1412102676048],[6.08030259780954,43.14135305094387],[6.080226388783481,43.14157450245343],[6.080062574328867,43.14202502218572],[6.079955802820746,43.14230963651692],[6.079912950470976,43.1424235583488],[6.079773892011615,43.14279433825915],[6.079913651662129,43.14280807722557],[6.080129121257838,43.142819292307365],[6.080853458683294,43.142813621700036],[6.081312598009332,43.142809317473635],[6.081603594779259,43.14280765865473],[6.081955998555294,43.14280496321608],[6.082200939008466,43.14280867040258],[6.082495981206352,43.14281832525232],[6.083031656838482,43.14285233097592],[6.083138970585588,43.14285925271341],[6.083326500948583,43.14286748008196],[6.083425344856126,43.1428677127673],[6.083862961025653,43.14290695011603],[6.084058868765823,43.14292933875488],[6.084273807744168,43.142953612806785],[6.084484148050143,43.1429769378766],[6.085093586561067,43.143052479216955],[6.086130834107823,43.14318606910263],[6.086123431042916,43.14310958906339],[6.08610883645582,43.143052667982],[6.086063796779186,43.14300571008052],[6.085912841243001,43.1429204683519],[6.085840113233014,43.14287754365045],[6.085556286367847,43.14268196786465],[6.085386776486945,43.14255999084965],[6.085318048862513,43.14251830152231],[6.085257246125257,43.14249150765076],[6.085161479062335,43.14244528144009],[6.085040425254042,43.14239050752698],[6.084915814325044,43.142338175667035],[6.084773105843325,43.14228762185519],[6.084718739458904,43.14225704291926],[6.084644889831797,43.14219767702987],[6.084555371034864,43.14212570752442],[6.084471930635695,43.142084708824434],[6.08423450354798,43.14197988624601],[6.084008727798577,43.14188607153001],[6.083900711040362,43.14182678273149],[6.083755773663355,43.141727503900896],[6.083723122829118,43.14169612313668],[6.08360614130509,43.14155634812404],[6.083570018569382,43.1415220962011],[6.083502443989761,43.14146741083825],[6.08344602111926,43.141414386694535],[6.083403581280984,43.1413446699711],[6.083376681003922,43.14129665206788],[6.08330197267189,43.14120040427334],[6.083259583044851,43.14113392657636],[6.083225922789577,43.141039834936656],[6.083198717633638,43.140942318132964],[6.083165744998629,43.14082885385597],[6.08314339365521,43.1407094148662],[6.083151815065515,43.140669117812706],[6.08317524997283,43.1405968864313],[6.083197104794743,43.14055494488189],[6.083247985629224,43.140483368529644],[6.083281822955217,43.140426411914945],[6.083283213074602,43.140394867322875],[6.083282097589993,43.14034170109487],[6.083232806794507,43.14026335904356],[6.083170392489945,43.14019016314573],[6.083100590436806,43.140105206736585],[6.083060457976461,43.140032633558384],[6.083039781459148,43.139986057852],[6.082942113080126,43.139772728844335],[6.082848581774495,43.13960698872367],[6.082808193961042,43.13953883347558],[6.082697918673061,43.13930804228458],[6.082593958589348,43.13916798420359],[6.082451890518997,43.13903936758754],[6.082378280512886,43.13895902045718],[6.082294193836335,43.138864300705855],[6.082251696839529,43.13879575558005],[6.082225540005306,43.138736284560736],[6.082197769144257,43.13863041268278],[6.082166970115954,43.13855073135475],[6.082142662404872,43.138466003645426],[6.082130144751733,43.13842027468679],[6.082094310154749,43.138347578402204],[6.082038031125659,43.138262594852435],[6.082013974967288,43.13823789899252],[6.081899290380353,43.13815251535117],[6.081592822933963,43.13793273466059]]],[[[6.084393230785287,43.13693412338785],[6.08454710314329,43.136878591604614],[6.084210541579426,43.136940252094476],[6.083817519263817,43.13701261855249],[6.083519714208311,43.137068127047414],[6.0835505117231,43.137087858944184],[6.083585916179659,43.13710178815992],[6.083629698485264,43.137109176695276],[6.083682125208323,43.13711271731846],[6.083739989148479,43.137109891396726],[6.083789934380576,43.137103781510824],[6.083950917522046,43.137066319875814],[6.084153746341608,43.13700686730485],[6.084393230785287,43.13693412338785]]],[[[6.091114585462889,43.143937091030665],[6.091100150710068,43.14396828993925],[6.091103925552375,43.143986004526475],[6.091126243652449,43.1440033673221],[6.091169170416823,43.14401302791217],[6.091164797015277,43.14402089458138],[6.091221645934191,43.14403573674975],[6.091224719823323,43.144026557133294],[6.091263543043107,43.144039935956634],[6.09130876512079,43.144060332388776],[6.091355818131707,43.144089677729],[6.091387788931499,43.1441151349549],[6.091422280165136,43.14416932449324],[6.091491030745377,43.144135487410495],[6.091492444066566,43.144005646086114],[6.091353116402851,43.14388290212485],[6.091364892573005,43.14387554323442],[6.091367384129017,43.1438646700434],[6.091361218906228,43.14385512532211],[6.091348023620867,43.14384974287183],[6.09132907118935,43.14385163668375],[6.091317198285841,43.143866379524724],[6.091155285015377,43.14370746726076],[6.090978910105354,43.14370334417025],[6.090957406163303,43.14374716777178],[6.090960179170013,43.14377373249852],[6.090980722725061,43.14380158787623],[6.091001900171081,43.14381601293015],[6.091029508439878,43.143826562959894],[6.091056397577378,43.1438305625577],[6.091146913889481,43.14382904672813],[6.091157507292467,43.143838644487026],[6.091164266642449,43.14385240285497],[6.091163620032406,43.14387708534141],[6.091158899904432,43.14388766238563],[6.091114585462889,43.143937091030665]]],[[[6.091450251338364,43.14064545291905],[6.091449419696619,43.14074710276462],[6.091457935677313,43.141074060028565],[6.091458392397276,43.14108259827599],[6.091352983689527,43.14124224652203],[6.091228909672094,43.14135859311698],[6.091120927525785,43.141513814241165],[6.091053320414288,43.1415850642143],[6.091021681404569,43.141692188406005],[6.090926569866606,43.14179159145153],[6.09089735096788,43.14183824666294],[6.090891623097332,43.1418759468637],[6.090889434655216,43.14192236695275],[6.090903885922843,43.14199261367791],[6.090946148132903,43.14208870702644],[6.090946433021042,43.1421445977026],[6.090919471252159,43.142226563796754],[6.090906534330025,43.142248988305944],[6.090888417815385,43.1422802927405],[6.090854187937605,43.14232979208677],[6.090822347260551,43.142419369265376],[6.090812541397672,43.14247275889331],[6.09087512113049,43.14245458162345],[6.090936256190584,43.142446167289336],[6.091179726023702,43.142438464414774],[6.091286320534025,43.142443418362056],[6.091565255116769,43.142452970300816],[6.091637555983262,43.142455667091824],[6.09181624191309,43.142466293740924],[6.092173613969777,43.142487546151095],[6.092169914763703,43.14234488956784],[6.092195823128902,43.14161377027978],[6.092069778813936,43.14149568728981],[6.092229116215198,43.14063472043931],[6.09167982853494,43.1409227720484],[6.092069231960477,43.14064686889816],[6.092516065910848,43.139958041611486],[6.092370793722957,43.13985500323681],[6.092104052549834,43.13995366096087],[6.091801580588831,43.14006684518546],[6.091748648097624,43.1400998686571],[6.091670549812457,43.14015188690401],[6.091608990723385,43.14021207200132],[6.091547360841013,43.14028702141196],[6.091511624898264,43.14035888764527],[6.091482078656885,43.14046604189015],[6.091450251338364,43.14064545291905]]],[[[6.091819260410255,43.14003429295051],[6.092082946541283,43.13992906255498],[6.092341060337008,43.139832272686014],[6.092282490788969,43.13979668737391],[6.092185196249793,43.13976329330405],[6.092079594175165,43.13974003905524],[6.091991414114815,43.13973455773264],[6.091892861245765,43.13974656662218],[6.091822413321436,43.139762359853634],[6.091747031335234,43.139791616674025],[6.091650359370597,43.13985947014034],[6.091498154173585,43.13998526536135],[6.091406853469145,43.140082309126974],[6.091297154062851,43.14019158239002],[6.091233180329914,43.14025948772293],[6.091004121499028,43.14052727851748],[6.090873502443619,43.14067981802797],[6.090777976955108,43.14079903588285],[6.090715740101308,43.140858069709076],[6.090542005321304,43.14096521793992],[6.090393370668751,43.14106363488831],[6.090238570760918,43.141152506875436],[6.089970468732978,43.14132014900237],[6.089744103287246,43.14144536744891],[6.089637562890839,43.141501170030544],[6.089524846253478,43.14154031690994],[6.089049927569748,43.14162180070516],[6.088857609415223,43.14165503708956],[6.088783628840225,43.141662288160965],[6.08865366409329,43.14165242066761],[6.088432513503522,43.14163607467144],[6.088045554199121,43.14159927526104],[6.087915716695337,43.14159408397231],[6.087666987387306,43.14159760956561],[6.08759671758019,43.141605293594345],[6.087561647365737,43.14162070054455],[6.087527823092259,43.14164102256275],[6.087502243916203,43.141659218073386],[6.087480127403779,43.14168010481766],[6.087461789852291,43.14171420538179],[6.087447426609828,43.14175827366631],[6.087516881672406,43.14179976076107],[6.087533445228667,43.14182449019348],[6.087534991916595,43.141848839698056],[6.087486437316171,43.141977690598985],[6.087471675819749,43.142030411655824],[6.087463912321608,43.14208527260721],[6.08746436669636,43.14214439884796],[6.087475882289359,43.142198887544495],[6.087511568563222,43.14231695389075],[6.087504916812445,43.14231669437474],[6.087490178891394,43.142316936546386],[6.087469286410859,43.14225029451868],[6.087447880822833,43.142169444963976],[6.087439793757452,43.14212160910732],[6.087439989101591,43.14208154724215],[6.087446745535441,43.14203544650859],[6.087466683529761,43.14196457434839],[6.08749670226029,43.14189602380934],[6.087514977103158,43.14184464232965],[6.087512370534242,43.14182806439819],[6.087504317719761,43.14181308271339],[6.087490992110966,43.14179834209414],[6.087445899780292,43.1417665086851],[6.087425358059878,43.14189050642715],[6.087407062409332,43.14197141310386],[6.087370239920312,43.14209668736343],[6.087340673139019,43.14218520805263],[6.087321469568887,43.14223301554985],[6.087269142444386,43.14233037948795],[6.087221163851916,43.142391793229464],[6.087184910613905,43.1424310876743],[6.087100511498487,43.14250335612959],[6.086966568706858,43.142603147654434],[6.086834482200775,43.142693974445855],[6.086604906032915,43.1428536634406],[6.086476733608262,43.14293033548531],[6.086390474650545,43.14297241188939],[6.086235895975785,43.143035707605904],[6.086216763971089,43.14304804729894],[6.08625469533506,43.14307468547473],[6.086260191069648,43.143097031629765],[6.086235618017534,43.14317091675607],[6.086228526596265,43.143196953869776],[6.08627077127364,43.14357137315337],[6.086291436541596,43.14367060708881],[6.086291793734491,43.143727935877145],[6.08628612714188,43.143753032063316],[6.086272395412142,43.14378132966324],[6.086275973298028,43.14383451559408],[6.086274749974526,43.14387145643192],[6.088488824614126,43.143927302316655],[6.08848817026633,43.14390355730041],[6.088850104563806,43.14391343845018],[6.089216777773935,43.14392228241731],[6.089216465834891,43.143937143718134],[6.089420278140014,43.143955515629806],[6.089672473489551,43.14397754099625],[6.089582092595703,43.14389191783784],[6.089460510488675,43.14379980782255],[6.089366032155478,43.14373410510915],[6.089342295119117,43.143713182071394],[6.089296106590015,43.14366778857776],[6.08924673537542,43.14358585048103],[6.089199604926575,43.14352743188448],[6.089133226970435,43.14346308391621],[6.089030410056767,43.14337934705864],[6.088990680329486,43.14334439002714],[6.088964701154856,43.14331831035609],[6.088886345620154,43.14321154878014],[6.088832221257556,43.143139558326446],[6.088753453282175,43.1430457705509],[6.088706019659272,43.14299546175883],[6.088684023852652,43.1429680076811],[6.088658675591758,43.14291922629319],[6.088628695078466,43.14282287012708],[6.088609437507157,43.142800648407366],[6.088585628571157,43.14278296780919],[6.088566063732967,43.14277569724381],[6.088531166396153,43.14276904608127],[6.088353050592954,43.14275758751188],[6.088118614140376,43.142738831003825],[6.088031076631454,43.142738548719215],[6.087985796894285,43.1427354353679],[6.087933110850728,43.14272254262489],[6.087910952115124,43.14271273585128],[6.087893833642307,43.14269603360517],[6.087883019234125,43.142650076171634],[6.08787094796079,43.14262890863904],[6.087853793791514,43.142609236944736],[6.087833854542535,43.142594955875765],[6.087804662613602,43.142575449029835],[6.087780626036288,43.14257190700838],[6.087736480083392,43.142606116941295],[6.08772022545697,43.14261018318859],[6.087693255486266,43.14260465486121],[6.087642502130297,43.14257271363158],[6.087574965686342,43.14251883966288],[6.087547558489684,43.14248902001359],[6.087522602693831,43.14242915543182],[6.087495376742604,43.14233830101449],[6.087509019647919,43.142338270239726],[6.087517635177647,43.1423384734985],[6.08752902332177,43.14239287583752],[6.087551143875423,43.14245489196347],[6.087577830563865,43.14249193338142],[6.087636823444407,43.14254695224705],[6.087700698823222,43.142587518960234],[6.087727885448317,43.142592500993665],[6.087767008804173,43.142558614988125],[6.08778441125896,43.14255532597569],[6.087809516157983,43.14256045764319],[6.087877142554735,43.14260910807688],[6.087899674690072,43.14263510670363],[6.087920180947134,43.1426968089744],[6.087938604190842,43.142710323338015],[6.087998021539997,43.1427226631586],[6.088148281792546,43.142725829027555],[6.088400050251011,43.142746879255796],[6.08852943571934,43.14275046274016],[6.088562415140471,43.1427557286373],[6.088589175561705,43.14276423322567],[6.088621585175913,43.14278643810203],[6.088642794278489,43.142810674219625],[6.088677998668601,43.14291507196882],[6.088707570198879,43.1429669728331],[6.088781916116104,43.14304702517205],[6.088835276057748,43.143109316012655],[6.088912120557425,43.14321081007628],[6.089001634740755,43.14332625324573],[6.089107005000074,43.143409466868945],[6.089168755532545,43.143467736495566],[6.089238949296746,43.143543676927564],[6.089265158852577,43.143578661353935],[6.089327067757094,43.14366978158302],[6.089345450130089,43.14368941787863],[6.089490456186773,43.143801199791305],[6.089598136034984,43.14388389673615],[6.089671585821423,43.1439471416008],[6.089719896327418,43.14397933203606],[6.08977463423865,43.1439937853996],[6.089966580250944,43.14403391988063],[6.09011859253686,43.14407897956672],[6.090363492007269,43.14415765152885],[6.090381454530728,43.144167128084476],[6.090477056227973,43.144171047909865],[6.090749014475782,43.14415343787372],[6.090923247128148,43.14414736117558],[6.091026726899046,43.14413539207961],[6.09104980994021,43.1441233882621],[6.091074564494258,43.14409207342008],[6.091122594204133,43.144017874291464],[6.091091085070905,43.14400104513493],[6.091077697798145,43.14398747684735],[6.091074170690825,43.14397209552856],[6.09107952888342,43.14395735952666],[6.091137613465506,43.143882691996126],[6.091140632533113,43.14386559268988],[6.091137227850289,43.14385479859675],[6.091127166112731,43.143848246076466],[6.091109824010903,43.143845772974856],[6.091048240429225,43.14384582890148],[6.091011390197194,43.14384175491949],[6.090982667659439,43.14383105681209],[6.09096013784031,43.14381433016476],[6.090941981770498,43.14378514611238],[6.090935491035992,43.14375112679703],[6.090949283285165,43.143684930755974],[6.090989974363075,43.14348042135567],[6.091015799541781,43.14334501925129],[6.09101596613089,43.143302167648756],[6.091009531161327,43.14326229582069],[6.090956839135585,43.143145888213084],[6.09091698119918,43.1430717793185],[6.090868678249683,43.1429684779263],[6.090859911741577,43.1429240822391],[6.090865429544257,43.142864064489615],[6.090876496440655,43.14281126877595],[6.090903130058109,43.14274614474584],[6.090901364647773,43.14273152304613],[6.090892439818239,43.142714046182576],[6.090874646552789,43.14269853392273],[6.090830704023814,43.142672159728804],[6.090791829947021,43.142644019910676],[6.09076669858427,43.14260162377765],[6.090754859889345,43.14257792946942],[6.090746711679451,43.14253819680224],[6.09074898264361,43.14248412311762],[6.090758307906786,43.142421745853035],[6.090803351610757,43.1423262091783],[6.090830390759062,43.1422755658528],[6.09085689882644,43.14224717127167],[6.090870859325435,43.142214005718586],[6.09088832532191,43.142159046197435],[6.090882365210892,43.14207748419319],[6.090857652592597,43.1420038411578],[6.09084129279337,43.14190250423871],[6.090845488290427,43.141856836721196],[6.090866412241203,43.1418044784748],[6.090937195237388,43.14171675495021],[6.090989402853001,43.1416494572625],[6.091023816761512,43.14157582879973],[6.091187968583466,43.14137452972219],[6.091245552434038,43.14129744619194],[6.091352287522271,43.141176376098535],[6.0913941118977,43.14111720727925],[6.091409654618738,43.141095248059926],[6.091416322943932,43.1408637203356],[6.091411509797974,43.140787526379995],[6.091408916610452,43.14061495360146],[6.091419371182448,43.140525449693634],[6.091443977755196,43.140406375263034],[6.091483320225072,43.14031001176782],[6.09157241788812,43.14019475825359],[6.091664812402549,43.140115865811936],[6.091745791151206,43.14006484510523],[6.091819260410255,43.14003429295051]]],[[[6.093174333238678,43.14370003911604],[6.093489984072129,43.14365362370408],[6.093604580069244,43.14368399990059],[6.093776314082614,43.143622091269464],[6.093913063441861,43.143641479561886],[6.094079136537349,43.14373788841629],[6.094250870839607,43.14381604159154],[6.094355924838514,43.143881706607914],[6.094561226840677,43.14410003839568],[6.094462310156449,43.14419262294923],[6.094524089069028,43.144189318950964],[6.094701052751662,43.14423194562402],[6.094825281994543,43.14425853341898],[6.094943670392443,43.14427475709073],[6.095061620833107,43.144282801883556],[6.095378943989408,43.144299703224824],[6.095548363427159,43.144309329812415],[6.095655852205378,43.14431254359568],[6.095780180346895,43.144311132921054],[6.095815721835782,43.14430453114447],[6.095863142479627,43.14429020694117],[6.095882335427897,43.144279033916426],[6.095903482426639,43.14425844323828],[6.095931035413003,43.144205983399104],[6.095910965621478,43.14416407299347],[6.095769491671275,43.143907364356274],[6.095714150132761,43.143849544302434],[6.095555200069877,43.143755363680455],[6.095337292561721,43.14362534001303],[6.095297193032279,43.143588145440525],[6.095288639721335,43.14356156674779],[6.095274907139961,43.143493370050265],[6.095294837266787,43.143204481135385],[6.094952703120259,43.14320620509699],[6.094585800052863,43.14320908922764],[6.094570238778052,43.14288404368489],[6.094425772129047,43.142706722466905],[6.093564146426186,43.14269212114854],[6.092714946396155,43.142677696484526],[6.09275357556373,43.14321577417762],[6.092798328476161,43.14373963413587],[6.092807816528281,43.1438388278386],[6.092907825986199,43.143798781971256],[6.093026860270817,43.143744417826255],[6.093174333238678,43.14370003911604]]],[[[6.095350745874141,43.14290798793101],[6.095344873937859,43.14293606106742],[6.095288381857323,43.14349478336179],[6.095297026719721,43.14354143266697],[6.095320628768476,43.14358045125179],[6.095338534244263,43.14360262068544],[6.095346820343841,43.143612734386885],[6.095636347433738,43.14378318787252],[6.095710804690463,43.14383298769435],[6.095764394102585,43.14388563722896],[6.095893588430918,43.144092110376945],[6.095931007838462,43.14413892329912],[6.095960683071049,43.144066419249896],[6.095968030374177,43.14405441628433],[6.096004567716682,43.14402969289848],[6.096809625998455,43.14403203842518],[6.096860182522753,43.144032656116956],[6.096945048965829,43.14405416148689],[6.097545291545866,43.144209830596495],[6.098267303779106,43.14438738028389],[6.098378341472569,43.14441092269161],[6.098417765302791,43.144414830183806],[6.098692482642553,43.14439595056504],[6.098963232906716,43.1444016683237],[6.099900666384277,43.14444249166555],[6.100394256608405,43.14446367003372],[6.100488759638071,43.14446770263676],[6.100918364288899,43.144489999142095],[6.101182919168433,43.1445062413042],[6.101236075641779,43.144509482595396],[6.101454135910415,43.14452292122606],[6.102060264328125,43.14455201542579],[6.102104886431034,43.14455199133998],[6.102167830540735,43.14455206999088],[6.102846426720546,43.1445617010861],[6.10320444187006,43.14458541936964],[6.103465614204063,43.14460274351892],[6.103616027745753,43.14461092442988],[6.103876232822494,43.144612522818235],[6.104093454105795,43.144610317689825],[6.104505099362449,43.14455453408645],[6.104612253908098,43.14455378793577],[6.10487817114677,43.14456332071479],[6.105236723948654,43.14457414463245],[6.105381914160078,43.14457662259393],[6.105879835397054,43.14455021320488],[6.106133251187165,43.14442778094775],[6.106190401756039,43.14440011953208],[6.106260103517222,43.144374976837796],[6.106300190928144,43.14437292134145],[6.106351679490961,43.144374857959356],[6.106647480523601,43.144412059856144],[6.107457875049868,43.144513458959956],[6.108238445644049,43.14461112137692],[6.108795549343739,43.144679398042484],[6.10917928876087,43.1447264786808],[6.10953032312524,43.14477801213609],[6.109893865990387,43.144849527006095],[6.110195653937849,43.144920212301],[6.110311744412087,43.14391832271031],[6.110056665433142,43.143166765346095],[6.108007063620215,43.142882572228295],[6.107744102844153,43.142845597560694],[6.106504160947747,43.14267205925162],[6.106128992914024,43.14268809313665],[6.105341423467785,43.14273185153715],[6.104824302789114,43.142768983627406],[6.104113256624967,43.14282997171674],[6.103802080687617,43.14284505453699],[6.103546159245143,43.14288644996989],[6.102878811639459,43.14282267114021],[6.10240863240009,43.14282747504078],[6.102264734087298,43.142823785831155],[6.101606293580213,43.142806820533224],[6.101551954700501,43.14280442363309],[6.101130184170712,43.142785865269715],[6.100263107201377,43.14272016586371],[6.099532574608752,43.14267915744513],[6.098737910779122,43.1425425021489],[6.098736546228527,43.14254227133784],[6.098340390817655,43.14246490625285],[6.098050721868399,43.14241337351138],[6.097724730639933,43.14235613290267],[6.097638373741125,43.14253153293783],[6.096418677103784,43.14245973440636],[6.096470713408404,43.1424099916118],[6.096301087143813,43.14227480235643],[6.095875815457444,43.14254644088489],[6.095639179735445,43.14269780123412],[6.095500028077367,43.14270467840745],[6.095415641896967,43.14284815476921],[6.095350745874141,43.14290798793101]]],[[[6.096898510163514,43.14408493352002],[6.096812580631977,43.14408488214498],[6.096797845644786,43.14411501035797],[6.098161739975032,43.14451409504667],[6.098201188425191,43.144440499217296],[6.098180474047986,43.14443704399892],[6.097231247780543,43.14417384829119],[6.096898510163514,43.14408493352002]]],[[[6.098886914794718,43.159397264755455],[6.098758264797066,43.15944020962497],[6.099185619669529,43.1601405810362],[6.100046708922759,43.15986755956284],[6.100447718523274,43.159739816996506],[6.100493535350843,43.15972517696789],[6.100809120294172,43.16022127019841],[6.101070402940134,43.160644841633264],[6.101286855730673,43.16098913788258],[6.100968471567727,43.16108939245779],[6.100720576309679,43.16116502472043],[6.100734369732116,43.161181461014344],[6.101425187391015,43.16191907592156],[6.101436893475602,43.16193098136869],[6.101364130132953,43.161954498401066],[6.101403944503477,43.16198377853443],[6.101569699866996,43.16193103149504],[6.101966408763275,43.16180313705945],[6.102277154042778,43.16170255925754],[6.102871560786983,43.16151919346178],[6.10301850320486,43.16147337674177],[6.103310694044853,43.16137540029655],[6.10366100763348,43.16126296749539],[6.103946394062805,43.161171126241825],[6.104215771151257,43.16106741295671],[6.104190399942855,43.161036907848356],[6.103984864872123,43.1608229160801],[6.103788603528149,43.16061900887389],[6.103400911763298,43.160211774675815],[6.103599853057677,43.16014744718029],[6.104030515928302,43.16001100601716],[6.104172172329371,43.15996759024567],[6.104852697957478,43.15972601337605],[6.104849652026289,43.15972196035558],[6.105032084260186,43.15966395666174],[6.105449459510322,43.1595297827332],[6.10607975676698,43.15932844174357],[6.105979295227749,43.15909738411715],[6.105979535937063,43.159097287165935],[6.105835110530104,43.158759746782984],[6.105822796551974,43.15872967609006],[6.106298212021226,43.15858428488623],[6.106474707628592,43.158525729590146],[6.106343547863442,43.15843724243172],[6.10614979540483,43.15831203172143],[6.106106314359359,43.15829231076918],[6.105877139513953,43.15822636062972],[6.105698950207725,43.158184775823884],[6.105513845290803,43.15811746532035],[6.105496207280849,43.15811644314398],[6.105469226044231,43.158124601703086],[6.105219111384447,43.15820435931346],[6.105205722336865,43.158190882499326],[6.104826582596728,43.15772759814653],[6.104669209674418,43.157535625565124],[6.104287329363895,43.15687699413945],[6.103996543653976,43.15696863199973],[6.103831844098216,43.157017842008635],[6.103636170589497,43.15708099581455],[6.103622014523217,43.15708527405211],[6.103380333416371,43.157159473646814],[6.103189060823394,43.1569451609526],[6.102854025720768,43.15662498663489],[6.102640803613576,43.15639339179377],[6.10282944956138,43.1563138791558],[6.102825458344108,43.15631282382899],[6.102801712274057,43.15631710794012],[6.102729926297763,43.15633807743126],[6.102587527847444,43.1563904243275],[6.102563489141024,43.15640299826254],[6.102486321152622,43.15646570979168],[6.102421755319838,43.15651581643508],[6.102281630214161,43.15661967655436],[6.10223930199059,43.156635117154885],[6.102209649098182,43.156643891873344],[6.10203078208725,43.156688015833005],[6.10198765117733,43.156695378006575],[6.101797873221448,43.1567286535732],[6.101740689596777,43.15673993060303],[6.101516784529966,43.15679255081163],[6.101489162643546,43.156690277419045],[6.101462107467105,43.15659626917844],[6.101485763467013,43.155511438967366],[6.101436438341056,43.155527080562564],[6.101399263570199,43.15553544136021],[6.101235838460021,43.15553276169416],[6.101136607896096,43.15551887344583],[6.101077430733067,43.155515894998636],[6.100986860921542,43.15552363128069],[6.10092828357909,43.15552495624985],[6.100906272553511,43.15552261889185],[6.100809144784864,43.15549750791371],[6.100784970887977,43.15548236050452],[6.100765800891804,43.15546193826436],[6.10074810568329,43.15540942802399],[6.100736226512138,43.15538510542481],[6.100703952881478,43.15534732700363],[6.100652896139344,43.15530549804104],[6.100635560230168,43.155282592606895],[6.100621967278204,43.15525840930904],[6.10061236668564,43.155198645015076],[6.100602395506773,43.15506552864064],[6.100618472386929,43.154989363077796],[6.100616972839466,43.154940797771715],[6.100534329395237,43.15481211208163],[6.100498569786526,43.15476435214672],[6.100435957056851,43.154695040673865],[6.100371815610848,43.15464764692856],[6.100376773434788,43.154639222902574],[6.100379394397872,43.154635366866344],[6.100432676719009,43.15467515155878],[6.100463446852069,43.15470325158297],[6.100526399411934,43.15477660396958],[6.100620762648608,43.154926646328],[6.100628694000808,43.15495072241593],[6.100629422776243,43.15499408898594],[6.100614096951695,43.15507050299538],[6.100626257695585,43.15519401473351],[6.100642366070751,43.15526736423653],[6.100659961972708,43.15529053223792],[6.10072896365185,43.15535515908696],[6.100758306379923,43.15540247345108],[6.100780074711746,43.155457566999246],[6.100813052986363,43.1554878538346],[6.100922146651055,43.155513700791126],[6.100980570103974,43.155514090549765],[6.101078823089044,43.155502892685874],[6.101190122500917,43.15551256311422],[6.101239719812226,43.155520317883244],[6.101402482829132,43.155522116433815],[6.101486046038624,43.15549837856046],[6.101588311535994,43.15546573106314],[6.101594757933054,43.15546671579254],[6.10192455379573,43.15552923901895],[6.10270320768109,43.15567795047343],[6.103046399560236,43.15574260522605],[6.103197581218497,43.155769128740566],[6.103337209506762,43.155784282590645],[6.103422790356867,43.1557500432822],[6.10345675173471,43.15574366462371],[6.103490886895241,43.15574052152045],[6.103514798211101,43.155732451829905],[6.103531790638772,43.15571918037841],[6.103548399637918,43.155685036295075],[6.103565503844563,43.15563035434848],[6.103582253505996,43.155587384662624],[6.103581230071372,43.155552307964605],[6.103577121689496,43.15552389123739],[6.103563464691499,43.15549853990697],[6.103530184266678,43.15546952279061],[6.103465253170161,43.15542809453315],[6.103371583863141,43.155405586743875],[6.10330724593559,43.155386645266375],[6.103270558517568,43.15538347066937],[6.103141151282183,43.15539835785487],[6.103078007757931,43.155399365360914],[6.102961370894473,43.15538417952244],[6.102735102016854,43.155335422674845],[6.102374057484972,43.1552565182404],[6.102208602168696,43.15522059268293],[6.102304015648661,43.155241250947945],[6.103470605096762,43.154811242452794],[6.102829772277612,43.1537441008342],[6.102147195986547,43.15391425215601],[6.10215256978003,43.1536525121561],[6.102074084573885,43.153605892301584],[6.102110020227162,43.15310500168728],[6.102257366214901,43.152682369037194],[6.10190531420855,43.152640111259906],[6.101123209245074,43.152749299255916],[6.101049967490347,43.152944669561926],[6.10089905665762,43.153342288597855],[6.100875105526585,43.153402297811006],[6.100978560201309,43.153426236408826],[6.101125191097931,43.15345973466944],[6.101279941722579,43.15352081393735],[6.10148332489258,43.15362667174815],[6.101126919640764,43.15348506932369],[6.100924883983614,43.15343408159256],[6.100868057094745,43.15341987356294],[6.100743295156664,43.15373203563761],[6.100650563698498,43.15395605122232],[6.100644540167005,43.15396981683043],[6.100542442029856,43.15394367848661],[6.100210148849589,43.1538046200292],[6.100046992684949,43.1537381099752],[6.099810818731214,43.1536397635841],[6.09969310997604,43.153590759361386],[6.099591678303629,43.1535472280062],[6.099573791048479,43.153571326392616],[6.099534824512083,43.15355543390514],[6.099265351643591,43.15343680019562],[6.099123817933038,43.15337452798551],[6.099101826426709,43.153363368214734],[6.098960519664545,43.153270934111404],[6.098787833760793,43.15319173401186],[6.098536152143917,43.15307465751694],[6.098454404917183,43.153038210645576],[6.09863500706745,43.15289592585204],[6.098979613656065,43.15262974555917],[6.099229160318297,43.15243425888551],[6.099209243135774,43.15231277068572],[6.099114493314717,43.152233310793235],[6.098975817595476,43.15217383686222],[6.098664554011714,43.1520392105172],[6.098920265260817,43.151834905929654],[6.099133703645551,43.15166539181905],[6.099409501493422,43.15144826644604],[6.099400768163644,43.151436725553594],[6.099408722758314,43.15143145597411],[6.099396768536765,43.15141487682076],[6.099383448722462,43.15141868039145],[6.099286970402818,43.1512863414493],[6.099209613002942,43.151182707656154],[6.098768763617162,43.15151331590475],[6.098191223199425,43.15199808667793],[6.09766286000722,43.152375223026894],[6.096917887415849,43.15289054248623],[6.096721555632776,43.153101867828454],[6.096774684131431,43.15312050498439],[6.096820129390295,43.15313801261494],[6.096814109557827,43.15314268632242],[6.096849791974892,43.15316155459759],[6.096853520266245,43.153155416461104],[6.096926473722746,43.15319067692173],[6.09716738731502,43.1532812419164],[6.097193727963604,43.15329326727845],[6.09724712211796,43.153326028991614],[6.097347117260539,43.15337491466484],[6.097437252532295,43.153405000310265],[6.097622039256025,43.153471432701],[6.09772271578443,43.1535123771136],[6.097847045504121,43.15358171666904],[6.097946348172994,43.153626841077326],[6.098070988858669,43.153695091274024],[6.098156248861674,43.153735128147915],[6.098272016549421,43.153784639891704],[6.098469219475445,43.1538647564592],[6.098537350323007,43.153888002437505],[6.098764824937204,43.15396400779542],[6.098813314104967,43.15398322744281],[6.098930057232804,43.15402568927255],[6.098926478220793,43.15403002288885],[6.098960089096702,43.15404462932404],[6.098960312451685,43.154037331648894],[6.099109773673778,43.154093795276964],[6.09922113933171,43.15416206582549],[6.09925688549434,43.15417751093871],[6.099371111805621,43.154223465268366],[6.099424430563254,43.154250197116674],[6.09956189303274,43.15430070406059],[6.09961824907723,43.15431987719731],[6.099696566369114,43.1543565119405],[6.099788532868885,43.15440463619246],[6.099895866148945,43.15445042815063],[6.100029278390527,43.1545010510032],[6.100321564233557,43.15461164570775],[6.100350633204369,43.15462179156857],[6.100347559774855,43.154626380741995],[6.100343971186876,43.154630534653684],[6.100274197746973,43.155035001109646],[6.099474583531346,43.154889485740675],[6.099421689123415,43.15487984464198],[6.09942106343728,43.1548819329897],[6.098633267291188,43.15477099775214],[6.098531335000989,43.154945137244326],[6.098476136151999,43.15503925981435],[6.098450967535041,43.15508121035115],[6.098353847735217,43.15524422946728],[6.098304082923618,43.155368621027336],[6.098279757429218,43.15542630001718],[6.098174767272594,43.155669569026465],[6.098167777857133,43.155685972704426],[6.098112916541224,43.15581393126346],[6.09804852853439,43.15596142692101],[6.098021983379161,43.15602358042002],[6.097948489689627,43.156191591220725],[6.097823055963353,43.15645264043728],[6.097809218555318,43.156481212959434],[6.097739408063025,43.156628504228074],[6.097710151782594,43.15669055554009],[6.097647807310332,43.156825750159534],[6.097596063205097,43.15694767790702],[6.097581043986095,43.1569840257078],[6.097562616604069,43.15703019312532],[6.09747530802588,43.15725936118178],[6.09744378159338,43.1573318294644],[6.098392216042943,43.15730565462713],[6.098345571217091,43.1573392208679],[6.098362841791007,43.15748472996826],[6.098326134565799,43.157490375762144],[6.098090826356226,43.15756203971594],[6.097937382342329,43.15758967338369],[6.098038843266424,43.15771160944825],[6.098194163887849,43.157877185467896],[6.098262328857707,43.15795372016484],[6.098500089242264,43.158241868374155],[6.098807880633343,43.15859083424273],[6.098630541193423,43.158640669488165],[6.098422295672455,43.15870804563123],[6.09841310973904,43.15871101011675],[6.098929913626091,43.15938304831239],[6.098886914794718,43.159397264755455]],[[6.099059564019189,43.159340182643525],[6.098929927283938,43.159383066072465],[6.098929913626091,43.15938304831239],[6.099059564019189,43.159340182643525]]],[[[6.099159910217352,43.16011746588626],[6.099121735734862,43.1600614031651],[6.09907604846046,43.16007846930338],[6.099115387967085,43.1601333283428],[6.099159910217352,43.16011746588626]]],[[[6.102957265082469,43.16360717504193],[6.102535306898054,43.163741380624344],[6.102482973090694,43.16375836941802],[6.102417610615935,43.1637800538788],[6.102598764881723,43.16386512732154],[6.103150515159605,43.164121187616985],[6.103515337264296,43.164292249755086],[6.103564743039646,43.164319182752195],[6.103526063964674,43.16435000158633],[6.103659682265868,43.164429150391],[6.103849389773433,43.1645634847293],[6.104071783399653,43.164733964525716],[6.104219812159656,43.16464643734171],[6.104218447065345,43.164646206595876],[6.104702897085925,43.16435446633257],[6.104799875628978,43.16429640351334],[6.104620709460923,43.16416374765372],[6.104710322057749,43.16394116687868],[6.104788937326962,43.16385032677846],[6.104764182855028,43.16383132603858],[6.10478870968524,43.163814056699266],[6.104810785720266,43.16379694794816],[6.104831424857985,43.16381030613648],[6.104959467016172,43.16389780539241],[6.105204060131141,43.16376518805609],[6.105322708234503,43.16374196712696],[6.105533428694689,43.16389657707524],[6.105427502369055,43.163978032543824],[6.105697759757306,43.16419015822938],[6.105540931829022,43.16431295739226],[6.105182026176924,43.164592984341404],[6.10484968886638,43.16435149937098],[6.104626196472907,43.16448323821375],[6.104225457408134,43.164719458219025],[6.10412584602061,43.1647766061254],[6.104327108674679,43.16493599170129],[6.10459706170723,43.165153890145156],[6.104877088647458,43.16537842918301],[6.105184976549773,43.1656225089485],[6.105448665501733,43.16583356467775],[6.105469204887171,43.16584962616375],[6.105720142721102,43.16594240663237],[6.106039372563781,43.166063374792365],[6.106031049081716,43.16607324636096],[6.106125367791734,43.166109776459194],[6.106242276098362,43.16615474736297],[6.106294750609983,43.166174659536736],[6.106447671918947,43.16623299534638],[6.106439463563337,43.16624043318089],[6.106429661863344,43.16625025735621],[6.106240731214256,43.166455357664724],[6.106272436706773,43.166480098997205],[6.106333796598263,43.166431972582814],[6.106649869946676,43.16610312642447],[6.107009256669913,43.165729103009],[6.107133868479468,43.16559948857952],[6.108664554091191,43.166392881878025],[6.108745981619225,43.166153249764704],[6.108780734766245,43.166051788955876],[6.108871794878625,43.16601630719388],[6.109262252800767,43.16586570181604],[6.109596894844261,43.16573596840136],[6.10982301337014,43.16564627106424],[6.110092769121284,43.16554253209977],[6.110381300714653,43.16543122947116],[6.110976701117009,43.16519981117619],[6.1111227360195,43.165143927662704],[6.111045999142697,43.165068547421406],[6.110979970031393,43.164997899111576],[6.110836857035497,43.164856831346505],[6.11063548076151,43.16464543099214],[6.110514358978563,43.16451993142541],[6.110461187609976,43.16446880561902],[6.110398752626862,43.164400933874],[6.11034014753551,43.16430369616968],[6.110298491322838,43.1642426063107],[6.110258846868515,43.16417776771955],[6.11023110196834,43.16411924708049],[6.11020979615958,43.164047848327385],[6.110200678946057,43.16398356935045],[6.110200599731003,43.16389301482131],[6.11019567522244,43.163842657508816],[6.110172386344652,43.16374584124978],[6.110155942929627,43.163698516735764],[6.110113022690927,43.16361621937925],[6.110064697827035,43.16354316960494],[6.109995514093326,43.1634115805644],[6.109877177827131,43.16308418285502],[6.109819869781925,43.16291048350849],[6.109806132467692,43.16291799106962],[6.10976710017294,43.16295359329876],[6.109666330900957,43.163043906000425],[6.10954009682195,43.163159167537266],[6.109311385607499,43.16336731100603],[6.109244143988008,43.16331289980972],[6.109193888096919,43.163272491407604],[6.109006602319873,43.16312162350042],[6.108851222367067,43.162996930284535],[6.108809938758497,43.16296328430062],[6.108700208033218,43.16287337122914],[6.108646106214263,43.16283460378466],[6.108598859906079,43.16280211984087],[6.108526780226049,43.16275603926483],[6.10850569785738,43.16274359472626],[6.108468862031799,43.16272404300287],[6.108446143003595,43.16271317592355],[6.108317288622061,43.16265405943976],[6.108259519710399,43.16263169053918],[6.108201782798564,43.162612201215666],[6.108172512277089,43.1626075540679],[6.108091748653506,43.16261033250029],[6.108021846628426,43.16262071920631],[6.107951926110454,43.16262390507815],[6.107883643161791,43.1626186721627],[6.107844121292018,43.16262233190985],[6.107781530789598,43.162633767923815],[6.10776611013853,43.16263970344423],[6.107740395594315,43.16265772785257],[6.107703700830373,43.162697942773924],[6.10768031711104,43.16271815039388],[6.107621142186836,43.16274965155615],[6.107610955522855,43.16275687645124],[6.10760974416053,43.16275493100465],[6.107586786305307,43.16271904604311],[6.107570819238154,43.16270339332327],[6.107542445768115,43.16268341734224],[6.107444547022192,43.16264654182446],[6.10739702022413,43.162615685764486],[6.10737939334133,43.162605751898575],[6.107340701815198,43.162585983241534],[6.107303691451688,43.16254717264024],[6.107278746258054,43.16252691775604],[6.107231950505774,43.16249135970532],[6.107125324468155,43.16240423620973],[6.107065585076032,43.16237265178866],[6.107033997478875,43.162361499914375],[6.106999035949352,43.162344774227435],[6.106983450036929,43.16233163090921],[6.106926312562493,43.162238670234636],[6.106879430532096,43.16214433380632],[6.10679030040937,43.16197551103166],[6.106746147958218,43.16187704518131],[6.106709540783489,43.1618159887532],[6.106562053662517,43.161632104441786],[6.106503825115724,43.16154169553367],[6.106119660183579,43.161653402687584],[6.105820746155928,43.16174978021627],[6.10566991307705,43.1617986834246],[6.105642561817394,43.161806852661925],[6.10515015611264,43.161968392741485],[6.105098556508553,43.16198527168523],[6.104199352657986,43.16228832641177],[6.103757561850548,43.162433099836214],[6.10344468246479,43.162535183616605],[6.103189303000427,43.162618058265906],[6.102856578309558,43.16272845290986],[6.102565684270521,43.16282324012528],[6.102957265082469,43.16360717504193]]],[[[6.102875578460752,43.15633487534547],[6.102848664234705,43.15631908711206],[6.102894291590335,43.156351349708714],[6.102875578460752,43.15633487534547]]],[[[6.10513024313351,43.14506788458644],[6.105946670768367,43.14518307382532],[6.106093473336116,43.14520179715368],[6.106074015462165,43.14515311961281],[6.106092004136854,43.14463240377948],[6.106096079028664,43.144509235697534],[6.106014192654941,43.14455012200196],[6.10592405077466,43.144588365660304],[6.105846645246407,43.144602838299456],[6.105629642249055,43.144613682120735],[6.105341965196403,43.1446270118498],[6.105227402672525,43.14462716201605],[6.105002315992333,43.14461339330926],[6.104694371668095,43.144594989776465],[6.104149543835066,43.14465442990921],[6.104034599989284,43.14466350127585],[6.103857775140897,43.144669403761],[6.103653529589925,43.14466601388806],[6.103199225755694,43.14463021698078],[6.103154542942727,43.14462682269649],[6.102989599950833,43.144615908921985],[6.102930886205201,43.14461219837534],[6.102684602623119,43.14460200558661],[6.102358651139841,43.144630561489365],[6.102314069268192,43.14511909569638],[6.102579516462126,43.14516105313789],[6.102848784345777,43.14519173808642],[6.103235900623378,43.145217049017226],[6.103299097850257,43.14521495938034],[6.103341065677418,43.14521357098062],[6.103507553334625,43.14509526822467],[6.103511835463643,43.14509946564389],[6.103861196722224,43.14508787510369],[6.103995879917266,43.145070944251195],[6.104557903908796,43.14501803084457],[6.104614782653935,43.14502647416218],[6.104878806826617,43.14508538980287],[6.104911080413085,43.14497221127147],[6.105107558632562,43.14505980665204],[6.10513024313351,43.14506788458644]]],[[[6.111621016527362,43.15279657959151],[6.111600216073401,43.15284182793686],[6.112989313130813,43.152981663276734],[6.116322357015783,43.15482214668097],[6.116160374723348,43.15519958690491],[6.116701184734369,43.15552898497841],[6.124246457349043,43.15874579298748],[6.124517413644583,43.15848112174589],[6.124692936837206,43.15830941296906],[6.124760767111759,43.15818583398424],[6.124805942640622,43.15812763381966],[6.124867642919344,43.1580771461807],[6.124973239078276,43.158017554597336],[6.12504219344975,43.15782156923595],[6.125068450508325,43.15773187135217],[6.125072998626417,43.15763182072144],[6.125014833842599,43.15742484763767],[6.124994852941792,43.15735323329719],[6.12448029897755,43.15714679662124],[6.123936361107754,43.15691987515561],[6.123596417413446,43.156704413691216],[6.123287774734937,43.15652432114547],[6.123275788320763,43.156507295190714],[6.123272866067089,43.156482805281875],[6.123267455264194,43.156228034623716],[6.123254796230657,43.15619401499767],[6.123227991231579,43.156166706386585],[6.122689445852731,43.155820890982625],[6.122662657656072,43.15578250971416],[6.122642931267221,43.15562681219541],[6.122624108875162,43.15564482065958],[6.122573615930331,43.15569336199577],[6.122502890427092,43.15576112281398],[6.122467293562333,43.155796360236515],[6.122269376762204,43.155685611269895],[6.122229879441239,43.15569872746799],[6.122194147533242,43.155713264876525],[6.122034193383706,43.155831768576036],[6.121439186571616,43.155521698814894],[6.120835002662914,43.15520550054291],[6.120651722298267,43.15511295849695],[6.120713707472525,43.15504725232863],[6.120842522571229,43.15492587149176],[6.121237439752153,43.15512831690677],[6.121401968409127,43.15502849545019],[6.121404423627086,43.155028424356814],[6.121457834478484,43.15505892367477],[6.121694865121063,43.154981126768334],[6.121789229793282,43.15469322155813],[6.121876952046338,43.154580500840645],[6.121386371225963,43.1543505824489],[6.121351704645792,43.15439848485921],[6.118835139454876,43.15310478638392],[6.118703932116818,43.15322740406194],[6.118583574232654,43.15333008413919],[6.118176650534608,43.15366114377666],[6.11800267455531,43.15380237087551],[6.117999253207131,43.15386656145984],[6.11799598164208,43.15427073943915],[6.117951350081095,43.154405164579615],[6.117969521963314,43.15426799413771],[6.117969294266196,43.154022256103985],[6.11796863587399,43.15378904284555],[6.118202680400525,43.153601250094695],[6.118484357471426,43.153368871006656],[6.118659243234918,43.15322176572775],[6.118803396045307,43.15308842168396],[6.11652860085398,43.15191901208163],[6.116419156910413,43.1520850154513],[6.116012526909832,43.152697448441586],[6.115202056531112,43.15232345263738],[6.115182569011319,43.15235651162675],[6.114277934766037,43.15198712087837],[6.114313649014068,43.15185592588188],[6.11428554428158,43.151788415722166],[6.114242134587676,43.15169470300394],[6.113706609144768,43.15154229382033],[6.113115352825377,43.1514416305149],[6.112963778817411,43.151300452248236],[6.112488763211909,43.15137655039328],[6.112478898673688,43.15138970750405],[6.111453235300885,43.150945655213725],[6.111337060944781,43.15095035882761],[6.111347707978892,43.1509288977904],[6.111334242468376,43.150950530197264],[6.110401101398068,43.152448859439325],[6.110946102388348,43.152651690636716],[6.111398964419255,43.15282153246008],[6.111439740269667,43.15276761240624],[6.111621016527362,43.15279657959151]],[[6.111439707074773,43.1527676071018],[6.111711150509324,43.1524087094616],[6.111439740269667,43.15276761240624],[6.111439707074773,43.1527676071018]]],[[[6.110913879347992,43.14355807630271],[6.110794348736293,43.14359150145296],[6.110417628292812,43.14467967677521],[6.110321902187506,43.14494987478037],[6.110345222863473,43.144967474902515],[6.110357219397721,43.144982521325105],[6.110362274808092,43.14501478095286],[6.110355620927185,43.14505331950285],[6.110213465170674,43.14523745243028],[6.110019637863485,43.14549166785517],[6.109995529040137,43.14552566918825],[6.109984015314057,43.14558127083787],[6.10997747385309,43.145850335479494],[6.110048571178725,43.14584198291668],[6.110667104303858,43.145779125691085],[6.110801778857699,43.14572320989771],[6.110833196587397,43.145671984505356],[6.111199547993576,43.145142471373624],[6.111018640394673,43.14496523215782],[6.111530830624203,43.14422888383467],[6.111387064477708,43.144145539308255],[6.111267924290701,43.14405608281195],[6.111230241721412,43.14401603360268],[6.111200101712562,43.14396766527962],[6.111173895983089,43.14391702301659],[6.11133023449268,43.14347584588489],[6.111159269945706,43.14345809730759],[6.110913879347992,43.14355807630271]]]]}}]}
