{"type": "FeatureCollection","name": "aoc_geojson","features": [{"type":"Feature","properties":{"dt":"Bordeaux","type_prod":"Vins","categorie":"Vin tranquille","type_denom":"appellation","signe":"AOC","id_app":585,"app":"Bordeaux supérieur","id_denom":1740,"denom":"Bordeaux supérieur","insee":"33231","cvi":"1B105D2, 1R105S2","nomcom":"LAROQUE","insee2011":"33231","nomcom2011":"LAROQUE","id_aire":1372,"crinao":null,"grp_name1":null,"grp_name2":null},"geometry":{"type":"MultiPolygon","coordinates":[[[[-0.322114634759921,44.66268395292456],[-0.322106406332801,44.66283341766887],[-0.322027948399496,44.66283253094622],[-0.321882594518151,44.662827706777804],[-0.321843538691903,44.66282698782129],[-0.32182986869412,44.66282640730578],[-0.321787022686466,44.662819224365805],[-0.321739234850902,44.66281173932806],[-0.321659891034912,44.66279583105783],[-0.321578817364679,44.66277628030075],[-0.321511567563307,44.66275991852808],[-0.321361062035122,44.66271911545387],[-0.321220663149453,44.6626826941944],[-0.32112975009488,44.662656860829046],[-0.320945970091744,44.66260417127864],[-0.320844620544917,44.66257477652222],[-0.320762149559634,44.662544364187994],[-0.320723741890498,44.66252893791504],[-0.320527726658158,44.662448591822056],[-0.320465293669292,44.66242397514907],[-0.320408201840492,44.66240000901967],[-0.320273482282337,44.66233782564578],[-0.320257902330242,44.6623305442584],[-0.320118188297625,44.662267159070744],[-0.320106519877498,44.662249127579024],[-0.319963883825455,44.66218114437759],[-0.319876943662375,44.662139151684976],[-0.319754094756332,44.662079134315356],[-0.319577909500574,44.66199458700615],[-0.319522917414097,44.661967673985664],[-0.319340133881536,44.661886838582085],[-0.319399622750152,44.6617651202883],[-0.319493308616289,44.6615681271492],[-0.319681028288584,44.66118007723635],[-0.31979579974813,44.66094244325557],[-0.319807952961629,44.6609172989362],[-0.319770682595899,44.660895440637724],[-0.31959162089911,44.66078773224924],[-0.319290495477195,44.66060754751808],[-0.319134262154746,44.66050798364442],[-0.318957914867426,44.66039487652694],[-0.319024390202073,44.659376204339765],[-0.319037576658287,44.65923361976314],[-0.318920201202834,44.65918280857033],[-0.318941589061734,44.6591729756678],[-0.318989346874632,44.65914144639936],[-0.319016160249675,44.659114420411626],[-0.319115067350142,44.658954665345306],[-0.319230676123086,44.658763412020605],[-0.319264877362186,44.658707510181486],[-0.319358361088549,44.65855215271597],[-0.31942597162628,44.65845262725872],[-0.319541917584315,44.65826713030318],[-0.319612839723117,44.65814669059833],[-0.31986145843709,44.658271593000904],[-0.32021574351359,44.65844783660714],[-0.320606310508485,44.6586420021094],[-0.320749896042168,44.658713379695364],[-0.320791324157476,44.658735112740544],[-0.320837070215267,44.65875941929525],[-0.320895619170789,44.6588210060312],[-0.321037878003134,44.65896622077164],[-0.321102768306749,44.659032572833624],[-0.321128341094198,44.65906802773835],[-0.321207192505581,44.659184870878036],[-0.321286991342266,44.65930492937137],[-0.321311764288899,44.659346085014406],[-0.321317415069677,44.65936483775504],[-0.32135475714665,44.659420032963276],[-0.321391161314448,44.65947859029722],[-0.321420735092287,44.65953050466563],[-0.321474944200508,44.65962123599703],[-0.321516101594392,44.659689742508874],[-0.321579664623087,44.65979136608987],[-0.3216356267259,44.6598797019218],[-0.321776738160385,44.66012740214666],[-0.321792467226954,44.66015648474023],[-0.321813689628321,44.660195223973766],[-0.321903811502415,44.660361827719825],[-0.321979162403361,44.66050274412966],[-0.322015577117283,44.660567878826],[-0.32202073875806,44.66058475399622],[-0.322035901150272,44.66064917558754],[-0.322066592430329,44.66075854461951],[-0.322075897918852,44.66081998842956],[-0.322100769976531,44.6609976532994],[-0.322104465368435,44.661047461631405],[-0.322112297626274,44.66117382685826],[-0.322127473033835,44.661398999235765],[-0.322141364329688,44.66162808482294],[-0.322153226770095,44.66178424457604],[-0.322155065018282,44.661828251754905],[-0.322143565457903,44.66208278960694],[-0.322132927576936,44.66226845969722],[-0.322124411869839,44.66249010891712],[-0.322114634759921,44.66268395292456]]],[[[-0.322087037654005,44.66332057853314],[-0.322043156067928,44.663443541620765],[-0.322038690263047,44.663457732512995],[-0.32198251170814,44.66355844809583],[-0.321826433340182,44.663731457208954],[-0.321769262523057,44.663789671872536],[-0.321757723983587,44.663805967469635],[-0.321523349498068,44.66402584107749],[-0.32133590498769,44.664206549651],[-0.321245995969147,44.66429413111592],[-0.321162550966032,44.66440782966706],[-0.321083517197113,44.664512835479684],[-0.321021552071378,44.664592549126965],[-0.320982914660907,44.66466318217746],[-0.320917397537094,44.66478544293585],[-0.320873768573496,44.664861361962345],[-0.320849889448921,44.664925334351146],[-0.320790519907248,44.665081200617195],[-0.320765884361203,44.66514519570331],[-0.320740875945526,44.66520929208833],[-0.320733135160986,44.66526430973616],[-0.32070257589068,44.66546553578994],[-0.320671042713984,44.665663096693],[-0.320655145622574,44.66577251371713],[-0.320660615431459,44.66592309887773],[-0.320667714089006,44.666120581011874],[-0.320677384463611,44.6663424050028],[-0.320655855567165,44.666439826685995],[-0.320602112554044,44.66668473011147],[-0.320564082217279,44.66685563417343],[-0.320558288126989,44.667027192189174],[-0.320549653000427,44.66720838689517],[-0.320544691374419,44.667329820282816],[-0.320522811193815,44.66733777597101],[-0.320490526808234,44.66733631247246],[-0.32030654958566,44.6673319247468],[-0.319920211593218,44.66731973556505],[-0.319612837971684,44.667310490982],[-0.319438587994961,44.66729761005944],[-0.31917786606579,44.667276511474164],[-0.31879049505296,44.667246778469135],[-0.318738401297932,44.66723698835411],[-0.318719257989189,44.6672271104255],[-0.318703820067904,44.66720297446372],[-0.318655070024334,44.667063509828196],[-0.318500281740748,44.66663518999277],[-0.318441524993439,44.66646088382406],[-0.31839027411586,44.66633681241153],[-0.318293361725568,44.66609994543675],[-0.318208781167566,44.66589235362831],[-0.318167100701727,44.66578926027158],[-0.318153232595456,44.66575318302092],[-0.318149958798442,44.66572976329818],[-0.318152770189054,44.665713189336365],[-0.318161663313604,44.66569697352607],[-0.3181725193836,44.66568835791856],[-0.318190625192028,44.66567420844934],[-0.318245581987876,44.665649041403476],[-0.318397300847742,44.66558177407502],[-0.318483745760519,44.6655445788087],[-0.318500662271858,44.66553596151062],[-0.318524907969647,44.66552315954877],[-0.31853537523045,44.665514375357425],[-0.318547877998315,44.66550156536573],[-0.318553244188813,44.66548978050644],[-0.318553373316397,44.66546625867117],[-0.318550309571089,44.665452834545604],[-0.318540296574778,44.66543718607514],[-0.318411466695976,44.6653207591873],[-0.318240375239325,44.665162078609946],[-0.318219930625764,44.66514295864405],[-0.318195538959182,44.665108278479536],[-0.318096840101872,44.66496319415088],[-0.318042903423078,44.66487065067364],[-0.317988316986445,44.664760645902206],[-0.317953151717794,44.66469096699205],[-0.317946983755682,44.66467628439553],[-0.31792113895977,44.66460407314187],[-0.317887909057281,44.66450937649377],[-0.317883423153568,44.66449752685223],[-0.31788372366297,44.66448976862832],[-0.317860735897106,44.66442747352993],[-0.317851714539877,44.664409362370314],[-0.317827707559543,44.664336194896414],[-0.317797569857322,44.66424897445326],[-0.317774601609945,44.66410341985403],[-0.317770336803005,44.66408246276645],[-0.317780157456777,44.66406270498839],[-0.317802463301018,44.66401698220369],[-0.317817975254106,44.66398452878093],[-0.31787079425562,44.66387166177791],[-0.317939799712582,44.66373136706272],[-0.317964272980433,44.66359385024601],[-0.317961198879113,44.66358024621758],[-0.317955801273848,44.6635722084366],[-0.317753874089831,44.6634236435716],[-0.317708503681453,44.66339932435452],[-0.317565360881087,44.663316305365065],[-0.317206808772743,44.66310657037955],[-0.317036055946687,44.66300491592894],[-0.316925047901711,44.66294012499214],[-0.316853595147678,44.662897395051026],[-0.316849671096297,44.66289507986928],[-0.317069446960034,44.66269079256401],[-0.317099964490363,44.66266230436028],[-0.317124377432882,44.66263949580186],[-0.317133699478764,44.66263056588417],[-0.317192603517649,44.66257599613988],[-0.317395075831692,44.66238664434759],[-0.317150318035023,44.66223747134038],[-0.317094876578354,44.66220291152862],[-0.317101726691577,44.66219702929683],[-0.317319766834796,44.66201477960442],[-0.317338220807422,44.6620258497663],[-0.317377482123178,44.66204936118877],[-0.317452149708158,44.66209523815695],[-0.317604573604813,44.662187980567296],[-0.317870357195675,44.66235328160695],[-0.318004363077684,44.66224266403097],[-0.318045164583368,44.66220873086116],[-0.31802504434903,44.66219509770739],[-0.318067374094847,44.66216138899154],[-0.317672951142788,44.66193417012876],[-0.31795232583681,44.66167438896241],[-0.318013843908127,44.66167065074662],[-0.318106381584996,44.66166625198333],[-0.318228346990994,44.66165988876058],[-0.318286084088238,44.661656263856266],[-0.318445764960336,44.6616793148264],[-0.318626053850149,44.661704990920875],[-0.318653502741635,44.66171443929907],[-0.318815669778808,44.66176039241618],[-0.31886777791621,44.661776939917516],[-0.318951843943356,44.66180874742669],[-0.319052645212117,44.66184816217481],[-0.319205714003051,44.66190682261218],[-0.319488776369279,44.662031053000426],[-0.319650812974779,44.662113322009255],[-0.320015088307864,44.66229800768266],[-0.320174320685264,44.662377656963116],[-0.320288721556975,44.662429277296695],[-0.320375679981737,44.662465141861034],[-0.320513069448129,44.66252120777324],[-0.320618788377884,44.66256047350171],[-0.320813303885033,44.66263464709966],[-0.320908066708685,44.66266153649253],[-0.321160149719114,44.66273560250144],[-0.321450564826113,44.662810949448506],[-0.321527836270762,44.66283025408425],[-0.321569323686775,44.66284009104263],[-0.321651271809935,44.66285520028951],[-0.321733502588027,44.66286867905665],[-0.321805370815597,44.66287985595634],[-0.321962585330043,44.66288026908544],[-0.322095617271338,44.66288167884588],[-0.32210292853361,44.66288362176236],[-0.322099280027769,44.6630079892204],[-0.322093122420396,44.66316045541025],[-0.322090186856197,44.663239117099536],[-0.322087037654005,44.66332057853314]],[[-0.317955702271457,44.66272826906816],[-0.318023657349272,44.66276948134119],[-0.318033496722149,44.66277576390493],[-0.318371430858643,44.66298269088973],[-0.318692792441702,44.66277976681991],[-0.318836559415965,44.6626869667575],[-0.318445106627102,44.662478133190326],[-0.318346172313092,44.662425416100284],[-0.317933276173659,44.662714074331156],[-0.317955702271457,44.66272826906816]]],[[[-0.318906562049896,44.658649244365144],[-0.318873328626363,44.658747287066866],[-0.31885404679111,44.65880571447687],[-0.318845787429758,44.65882623644778],[-0.318800312278884,44.65892221369048],[-0.318772311580886,44.65898693995222],[-0.318708412456143,44.65921376476138],[-0.318686688862039,44.65922432854961],[-0.318649154809933,44.659255821144065],[-0.318344140085884,44.65921514638816],[-0.317962459313188,44.65916532785702],[-0.31797001098147,44.658798456362625],[-0.317985772924811,44.6583973682512],[-0.317967777564115,44.65838763608501],[-0.317956959959164,44.65839688128356],[-0.31783300684831,44.658504403944434],[-0.317659517559229,44.6586582860425],[-0.317434680347844,44.65885993328912],[-0.317255835580543,44.65901938180235],[-0.317012714671461,44.65923860686454],[-0.316856386751728,44.65938170060043],[-0.316959020963386,44.65943304627129],[-0.317069643534631,44.659568582325406],[-0.317093762686075,44.65963084344628],[-0.317118177934796,44.65971742453448],[-0.317032968741554,44.65981405234956],[-0.316911673854753,44.659953932614144],[-0.316750750241992,44.660141226287564],[-0.316671697088022,44.66023307369206],[-0.316573279047376,44.660349830736],[-0.316481477523522,44.66045674779626],[-0.316386942250076,44.66056870264484],[-0.316297968761406,44.66067220076545],[-0.316108211137708,44.660890904444685],[-0.315930556588307,44.66080053876099],[-0.315844234760962,44.660756091647784],[-0.31564710479467,44.66065657803113],[-0.315590771969636,44.66061970151223],[-0.315380779787416,44.66048182721194],[-0.31516661910007,44.66034389731828],[-0.315110014700657,44.660308830855854],[-0.315149649616988,44.66026150785419],[-0.315676010154587,44.65961632924747],[-0.315994622905829,44.65922535243312],[-0.316143228752116,44.65904113255623],[-0.315839022856919,44.65889833575335],[-0.315449858011095,44.65935828686068],[-0.315395649275661,44.65942181565726],[-0.31534608543818,44.65948060970651],[-0.315307900023784,44.65952680804309],[-0.315314660940327,44.659532282051046],[-0.315290870235687,44.659559216456046],[-0.315003921686013,44.6594329300444],[-0.314965373910208,44.65940218795503],[-0.314976459106168,44.659391042801644],[-0.31498413716176,44.65939279495473],[-0.315197443352712,44.65913662369853],[-0.315420965271992,44.65886744062574],[-0.315517476851738,44.65875047151369],[-0.315298296920919,44.65865585378789],[-0.31473729720163,44.65904057922139],[-0.314544662981551,44.6589594010417],[-0.314412752603512,44.659124916598635],[-0.314231627250742,44.659039788618436],[-0.314229673352198,44.65903876590486],[-0.314025107143051,44.65894145497219],[-0.31436154701566,44.65849930890207],[-0.314532539642373,44.658277116106746],[-0.314307351963507,44.658151139300955],[-0.314282098999245,44.65817253069616],[-0.314113790512197,44.65831805195195],[-0.313966255713138,44.6584433070481],[-0.313870036777418,44.658378610908926],[-0.313661006161477,44.65823755128606],[-0.313544429725589,44.65816157091859],[-0.313494366859097,44.65812819995306],[-0.313312580546871,44.658269978929106],[-0.313132183922886,44.65840964349268],[-0.313109459180595,44.65839032076032],[-0.312947383005138,44.6582555119254],[-0.312912440844307,44.65822808520775],[-0.312777465792315,44.6581161621642],[-0.312704633806576,44.65805626086415],[-0.312245818166785,44.65827887354155],[-0.31206312316545,44.65836661364097],[-0.312075475595388,44.65838345397805],[-0.311783881967546,44.658519328688065],[-0.311766162378329,44.65848850234779],[-0.311771381235213,44.65847419930046],[-0.311777205578255,44.658463752699284],[-0.311788386417367,44.65845422693606],[-0.311886288445866,44.65840588076953],[-0.311910635627853,44.65838839166355],[-0.311946279590604,44.65833758516512],[-0.311980825922805,44.65826167180122],[-0.311954464650873,44.658122525942986],[-0.311916627121941,44.658026524462336],[-0.311741411121198,44.657777672280446],[-0.311627777425097,44.65760996353148],[-0.311505805699437,44.65742925876757],[-0.311421321670401,44.6572999632534],[-0.311219328418707,44.6571367026263],[-0.311009227797028,44.65697080105399],[-0.310792278382616,44.65679789569647],[-0.311126594467051,44.6566028957197],[-0.311435995669577,44.65691179550064],[-0.311764605916786,44.65681301796505],[-0.311829895187376,44.656873506136314],[-0.311996289259123,44.65677913622315],[-0.311897383619957,44.65668154006124],[-0.311830368290691,44.656636782172264],[-0.311824142060911,44.65662750748896],[-0.311791057468959,44.65636755008127],[-0.311640531152922,44.656332411936745],[-0.311564858276697,44.65631431442281],[-0.311476460739633,44.65625370729231],[-0.311408861965613,44.65620545250297],[-0.311327941294394,44.65613029440453],[-0.31110271387586,44.655971153668474],[-0.311021347157934,44.6558948373491],[-0.310845215926714,44.65573332479874],[-0.310778652211371,44.65565755621565],[-0.310713040394328,44.655585093033416],[-0.310482309804791,44.6554417944864],[-0.310484448690063,44.6554330802292],[-0.310315848609822,44.65534811209249],[-0.310368666154594,44.65526732716556],[-0.310496965768403,44.65507255019275],[-0.31045549930013,44.65505649137312],[-0.310584630687616,44.654882323747245],[-0.310685156107274,44.65474983074424],[-0.310783555507492,44.65461983417935],[-0.310793786730549,44.65460060546005],[-0.310955890512653,44.65447843253951],[-0.311157791579289,44.654324611525986],[-0.311256747047846,44.65424920232636],[-0.311374496184457,44.65419071078562],[-0.311579308759862,44.65408645037928],[-0.311737063602409,44.65400630598561],[-0.311762244342086,44.653990143513425],[-0.311946931656532,44.65386567065338],[-0.312140561478345,44.65373227934957],[-0.312239469757956,44.65366254733551],[-0.312312002578101,44.653614420017554],[-0.312388839038901,44.65356219902738],[-0.312525666499008,44.65346754256096],[-0.312596623189637,44.65341838099168],[-0.31267612655477,44.65336644030854],[-0.313013726912411,44.653131148198945],[-0.313298604285523,44.652933117220755],[-0.313525657774951,44.652775744519005],[-0.313690300554129,44.65292867637252],[-0.313991233979533,44.653196733632186],[-0.314195635946025,44.65338172233846],[-0.314391811597442,44.65355560391296],[-0.314596136788489,44.65373924268657],[-0.314788619181881,44.65391467608524],[-0.314900817790417,44.65401934984573],[-0.314946260564492,44.65407078977053],[-0.315436094575824,44.654620439403516],[-0.315222406472816,44.65475398759053],[-0.316374560612963,44.655675555477906],[-0.316985869760851,44.6562038046529],[-0.317466128888602,44.65665452658796],[-0.317674684148444,44.65656239695245],[-0.317698003913524,44.656553227160686],[-0.317729584910621,44.65660715453524],[-0.317763031288276,44.65667346066492],[-0.317788544138211,44.65672081210961],[-0.317821441895031,44.65675208314851],[-0.317852848635829,44.65678375934915],[-0.317872896136158,44.65680262082391],[-0.317904214062939,44.65686493598982],[-0.317921535699306,44.65688252765537],[-0.317994557468619,44.656926290800996],[-0.318123523343056,44.657000362916506],[-0.318180520254002,44.65703568629033],[-0.318266200298487,44.65709501828967],[-0.318322333650936,44.65711568010091],[-0.318375011480404,44.65713554452692],[-0.318427512653251,44.65715883829094],[-0.31845459531453,44.657174965532576],[-0.318515535721025,44.657219361287304],[-0.318544252580027,44.65723751191747],[-0.318607560502176,44.657270663318],[-0.318634747463523,44.65729498711228],[-0.318666741506227,44.657323762063974],[-0.318683749052302,44.657342444334425],[-0.318712741549263,44.65738455507593],[-0.318760223844895,44.65747693109052],[-0.318838789037463,44.65754404523198],[-0.318885139244795,44.657610774731204],[-0.318919748271045,44.657658213358275],[-0.318933363997543,44.657677177625956],[-0.319004599739991,44.657735591100064],[-0.319037436960078,44.65777866764685],[-0.319055144402353,44.657809222970755],[-0.319065112036629,44.65783054940879],[-0.319067076640278,44.657851034804935],[-0.319062108806317,44.65786956573879],[-0.319056877758414,44.657896484514765],[-0.319036997572011,44.657983313585376],[-0.319035503042493,44.65801579693084],[-0.319060420438917,44.658065869238186],[-0.319090625627111,44.658134975579074],[-0.319059943804915,44.658192754061666],[-0.319039252573894,44.658265821129426],[-0.318987985349776,44.658437031372706],[-0.318978531927874,44.6585401271254],[-0.318906562049896,44.658649244365144]]],[[[-0.318616012049648,44.66726850441757],[-0.318593802994009,44.667270882940365],[-0.318566704727273,44.66727385871655],[-0.318523868036539,44.667279739674306],[-0.318451029907698,44.667290755947775],[-0.317724154685374,44.66738149777887],[-0.317461003783822,44.66741561359763],[-0.317299674923883,44.66743559121892],[-0.31685416721051,44.66749283671435],[-0.316517308928534,44.66753609923568],[-0.316122855130019,44.66758550309694],[-0.315198735065309,44.66769755102342],[-0.315147372222877,44.66770017208194],[-0.315091030079434,44.66770186109974],[-0.314698184581958,44.66771426772237],[-0.314618627916579,44.66771412933334],[-0.314573613923175,44.66771520822272],[-0.314549600808432,44.667712684111095],[-0.314483627524368,44.66770520025388],[-0.314356282156514,44.66769117580473],[-0.314260922538213,44.66767997709273],[-0.314146986694177,44.667668524051],[-0.314063412863004,44.66765805324512],[-0.314040869990311,44.66765476410797],[-0.313980074284295,44.66764514243864],[-0.313909325350538,44.66763374654447],[-0.313731396657624,44.66760339602295],[-0.313647952384565,44.66758868599918],[-0.313624216941958,44.667584441337084],[-0.313605733048553,44.6675793184558],[-0.313549413978862,44.667562083538165],[-0.313438145590302,44.667525139691165],[-0.313379446685893,44.667506083751015],[-0.313318814814378,44.66748636484048],[-0.313183753165855,44.66744418657399],[-0.313121267802684,44.667425153839744],[-0.313083091731116,44.66741368261534],[-0.312955141296597,44.66738291482514],[-0.312904177538638,44.66737299802957],[-0.312835761459335,44.667362612862256],[-0.312749451443441,44.667350691237424],[-0.312728537707197,44.66734933538791],[-0.312636512736737,44.66731109344538],[-0.312569061554648,44.66728491050522],[-0.312523330814824,44.66726735791149],[-0.312449980251483,44.66723747701937],[-0.312450191583083,44.667228189679086],[-0.312203200326483,44.66713133410753],[-0.312145144887722,44.66711676361104],[-0.312039576922752,44.66709298349937],[-0.311983853833974,44.66707942434867],[-0.31194693428829,44.66706998757286],[-0.311905178390929,44.66706204723261],[-0.311829105030418,44.667050268865964],[-0.311767559380914,44.66704075858051],[-0.311703287491408,44.66702997830228],[-0.311652078374735,44.66702232096657],[-0.311461679788755,44.66699243043671],[-0.311440282305647,44.666989286697905],[-0.31142546643404,44.66698855896843],[-0.31135384626699,44.666988090499],[-0.311334492822861,44.66698749863106],[-0.311310607093938,44.666987132580346],[-0.311219543592222,44.66699742830047],[-0.311147658985076,44.66700534755002],[-0.311155687013663,44.66696149546963],[-0.311183843200058,44.66684765844781],[-0.310586299452275,44.666857439285586],[-0.310582213373668,44.66692324946363],[-0.310579370546843,44.666945771161664],[-0.310567201065176,44.666996505179206],[-0.310559685608233,44.66703619694612],[-0.310488298036397,44.66703968565058],[-0.310465620709946,44.667040544736956],[-0.310454234459743,44.66704016474183],[-0.310419927664019,44.66703650619115],[-0.310255779161954,44.66702141625993],[-0.310188630566968,44.667013244212924],[-0.309934442380975,44.66698075517552],[-0.309839415397344,44.66696873180132],[-0.309661950890683,44.666946200266125],[-0.30959810521737,44.666936216985306],[-0.309495640167688,44.66692009080521],[-0.30941462008482,44.66690791820191],[-0.309328290346835,44.66689563411632],[-0.309270494884246,44.666885469592145],[-0.309164404859128,44.666865667107395],[-0.308887544086749,44.66681475154347],[-0.308807846556957,44.666799295090065],[-0.308759377713383,44.666786688680084],[-0.308639419357108,44.666756487850634],[-0.308594417171749,44.666744858929675],[-0.308563931907773,44.66673531864708],[-0.308396550277942,44.666678062698765],[-0.308315388765833,44.66665057540538],[-0.30829567087831,44.66664377655284],[-0.308276209595299,44.66663489756672],[-0.308244950026747,44.6666186223641],[-0.308124110630283,44.66656051428822],[-0.308000756669149,44.66650473397635],[-0.307800580341882,44.66639214153497],[-0.307758390069493,44.66637033623495],[-0.3075872276553,44.666293819292335],[-0.30750674410605,44.66626495956063],[-0.307367713018237,44.66621955921221],[-0.307250186930549,44.66618558982504],[-0.307150760412635,44.66615666563313],[-0.307081128914956,44.666131986387896],[-0.306967844916986,44.66609284387964],[-0.306824137715116,44.666038752270346],[-0.306631834251177,44.66596340676003],[-0.306436092294404,44.665874647760695],[-0.306360579458925,44.665833654437975],[-0.306257684498353,44.66577789132643],[-0.306192108750984,44.66573840292269],[-0.3061449649539,44.66570962673016],[-0.306092469393133,44.6656800193503],[-0.306006705500984,44.665638611429735],[-0.305837877752489,44.66555661575022],[-0.305702939701986,44.66549054676841],[-0.305623943617451,44.66544181784161],[-0.305535619338876,44.66538904259307],[-0.305373331291986,44.665289370109065],[-0.30520914265981,44.66518957400246],[-0.305105987466044,44.66511642713207],[-0.304998567656442,44.6650416055056],[-0.304899431721803,44.66497239312713],[-0.304780309992773,44.6648917938032],[-0.304518488578702,44.66471607141505],[-0.304501910996743,44.66470467276072],[-0.304455423015606,44.664667676628625],[-0.304292595109711,44.664539364999214],[-0.304109901757783,44.664395247373555],[-0.304009761989143,44.66431534161545],[-0.303885722019875,44.664215425401906],[-0.303835221539176,44.664174584244996],[-0.303763441146048,44.664113203850555],[-0.303650538007106,44.66404169860201],[-0.303506267656325,44.66399077352398],[-0.303287024140033,44.66391442529603],[-0.303049774142609,44.663860420251325],[-0.302950241226271,44.663842488647006],[-0.302852373794199,44.66382712029236],[-0.302578838095418,44.66378086593589],[-0.302420054753142,44.663753710475824],[-0.302361539181895,44.66374410463223],[-0.302304252897739,44.66373608396019],[-0.302131092651623,44.66371566488313],[-0.302137120189396,44.663689263958815],[-0.302171294544997,44.66352920584186],[-0.302182734103468,44.663472367588824],[-0.302101942054739,44.663463967495694],[-0.30189959974928,44.66344324814177],[-0.301550977447882,44.663408334152464],[-0.301143988231495,44.663366331146094],[-0.301151200260927,44.66332782069672],[-0.30097862012933,44.66331080658656],[-0.300979265635734,44.66330889508637],[-0.300760911954718,44.66328639899792],[-0.300751686429128,44.66331640942734],[-0.300678392242412,44.663584590749494],[-0.300350158951051,44.66356149902618],[-0.300256221401664,44.66354853409311],[-0.300161515756741,44.66352892414782],[-0.300146059298991,44.663523708749544],[-0.300011803491468,44.663475543989406],[-0.299904852203279,44.66343440348274],[-0.299855131361837,44.66341327061141],[-0.299734864778046,44.663358200423055],[-0.299664715632137,44.66331163638963],[-0.299484045864335,44.6631759212574],[-0.299324187236701,44.663059228051964],[-0.299180537686574,44.66295412524618],[-0.299151224748221,44.66293220297782],[-0.299099780196604,44.66290102933682],[-0.299043719397769,44.662868641807506],[-0.299032879527943,44.6628646401198],[-0.298885315975213,44.662828494799015],[-0.298770556613114,44.66280921167003],[-0.298662323564263,44.662810818559095],[-0.298484660105336,44.66281044168646],[-0.29832910061467,44.66281237870498],[-0.298192950927673,44.662815899112175],[-0.29798085461409,44.662822585564726],[-0.297733127850413,44.662835290054005],[-0.297509904146407,44.66284600179873],[-0.297148815797857,44.66287623211055],[-0.296904503102583,44.66289550077678],[-0.296877715452519,44.66289729062569],[-0.296825489350477,44.6628980367919],[-0.296798522678935,44.66289676835506],[-0.296723609196194,44.66289170325212],[-0.296697277646674,44.66288834341748],[-0.296597444071067,44.662871676663976],[-0.296551737682647,44.66285438734602],[-0.296485744742631,44.66280111976036],[-0.296478533451155,44.66279439658067],[-0.296457807523746,44.6627703254149],[-0.296366417211736,44.66267141032134],[-0.296155181338482,44.662446855749174],[-0.295979183566994,44.66225486000576],[-0.295910941649565,44.66218255670505],[-0.295834485187972,44.662099325079154],[-0.295808486551355,44.662069283770435],[-0.295794010809417,44.66204845023536],[-0.295739106436161,44.661964576177155],[-0.295705432781635,44.66191340850446],[-0.295645683512549,44.66184382544225],[-0.295518611228273,44.66169172950347],[-0.295419733538315,44.661574835530715],[-0.29536676442332,44.66150459975125],[-0.295225547425093,44.661317873901766],[-0.295221597251313,44.661308620610725],[-0.295209394954353,44.661281321749776],[-0.295199482294868,44.66125431507839],[-0.295187578006621,44.66117384487576],[-0.295190351103982,44.661007607029134],[-0.295193690057387,44.66091577976395],[-0.295197499025574,44.66076077429355],[-0.295200925803017,44.660657500976235],[-0.295202062544023,44.66059277110347],[-0.295201510129741,44.660330849891665],[-0.295199175699831,44.660180893250576],[-0.295198727693062,44.65999844230356],[-0.295198332636492,44.65994637291158],[-0.295199686307405,44.659937141776325],[-0.29522054830662,44.659885880582756],[-0.295279047246951,44.65980466386039],[-0.295354433568894,44.65972078127037],[-0.295429952067095,44.65964563495034],[-0.295504829136707,44.659566002401206],[-0.295601902275915,44.65952265162474],[-0.295789085576006,44.65943994179681],[-0.295878119408052,44.659401606005076],[-0.296110931379772,44.65929609031181],[-0.296154056368992,44.65927579240828],[-0.296365660698694,44.65918974048642],[-0.296570009062598,44.659115618237394],[-0.29664606366134,44.65909496909398],[-0.296771624768077,44.65906599576427],[-0.296989659791046,44.65901218897928],[-0.297057606939222,44.65899538552985],[-0.297207950252895,44.65898216208936],[-0.297328792711232,44.658969637989586],[-0.297430683719457,44.65895686798003],[-0.297577171238542,44.65893600991337],[-0.297669200457495,44.658922993159095],[-0.29773044828531,44.6589146788345],[-0.297754408400359,44.6589099094556],[-0.297768176159863,44.65890571438013],[-0.298058382067025,44.658797311252776],[-0.298251399076057,44.658717306483375],[-0.298288552609193,44.65869853743237],[-0.298376626083253,44.6586503165506],[-0.298457792749128,44.65859410199778],[-0.298467698870863,44.658608043217484],[-0.298569350156067,44.65875287457168],[-0.298681432564722,44.65890766673686],[-0.298779176484751,44.65904396434545],[-0.298809997973867,44.659085214390466],[-0.298846508977358,44.65913954025959],[-0.299005211008982,44.65923022750126],[-0.29893321433178,44.65926841798821],[-0.299016176134766,44.659398038103035],[-0.298886499905951,44.65943434525007],[-0.298939534300011,44.65964144840858],[-0.299088472162679,44.659739995817404],[-0.299414009209686,44.659892022632285],[-0.299660385454329,44.65963021113221],[-0.29975662413182,44.65952741154256],[-0.299874272126673,44.65940216726364],[-0.300038136158005,44.65923184208552],[-0.300129459752095,44.65928435142638],[-0.300268494537988,44.659356070919706],[-0.300391485413879,44.65941898822064],[-0.300508200591079,44.65947821816294],[-0.300529817407963,44.65949162944718],[-0.300563372342719,44.65951486635633],[-0.300790213915184,44.65968245008189],[-0.300806017286457,44.65969360199797],[-0.300887079883101,44.65973902838245],[-0.300942387729992,44.65977152746245],[-0.300951347259307,44.65977576529203],[-0.301036738561284,44.65980457293194],[-0.3010081966036,44.65986687739002],[-0.301185105798772,44.65993854638204],[-0.301334433204962,44.65999842376501],[-0.30154525590852,44.660092957771425],[-0.301616343958802,44.66012327334317],[-0.301772941902769,44.66019086241229],[-0.301895432181043,44.66023225774401],[-0.301867695696456,44.660256603713336],[-0.301864909854261,44.66026722932303],[-0.302013120911728,44.660308036675346],[-0.302026985207346,44.6603119477399],[-0.302033203366104,44.66031464544284],[-0.302058051235389,44.660331474103764],[-0.302065430029911,44.66033458767525],[-0.30207236218256,44.66033654320448],[-0.302170779121753,44.66034847159626],[-0.302196596219743,44.66035599034704],[-0.302256339055304,44.66037366906265],[-0.30235997876538,44.66039715511324],[-0.302440008282804,44.660418462836574],[-0.302641057404059,44.660475442175674],[-0.302671469712202,44.66048381473494],[-0.302837014334547,44.6605166244703],[-0.302853636133059,44.66052234529739],[-0.302959370655509,44.66056216756084],[-0.302966570184964,44.66056222281856],[-0.302973312501721,44.66056094014031],[-0.302978955771928,44.6605538333881],[-0.303069879923098,44.660586529037765],[-0.303121127661403,44.66060788510909],[-0.303158741370819,44.660622800378725],[-0.303155539016071,44.660626320079984],[-0.303150454927283,44.660642961397095],[-0.3032155935895,44.66066867809085],[-0.303302527879596,44.66070437615187],[-0.303372511534012,44.66072228898592],[-0.303367752873895,44.66071864668953],[-0.303500334297778,44.66064791699962],[-0.30369862020937,44.66054152429523],[-0.303728862001892,44.66052115777122],[-0.303918997627575,44.66037914588046],[-0.304035405072476,44.66021996392375],[-0.304156243359197,44.6600588473045],[-0.304191615455162,44.659983903161496],[-0.304245254533489,44.65986525223288],[-0.30432551855461,44.65969687791939],[-0.304554982869687,44.65974111054705],[-0.304969220867089,44.65981667343157],[-0.305376297479528,44.659892809306385],[-0.305410443219424,44.65990025855064],[-0.305589379811317,44.65976758904906],[-0.305801065692475,44.65983154327583],[-0.305895075102216,44.659871623192274],[-0.306062485605241,44.65994266750333],[-0.306164993701525,44.66000492957337],[-0.306339141722338,44.660106858727744],[-0.306410801554714,44.660159770896186],[-0.306564609842872,44.66027005709264],[-0.306606260698945,44.66029566324607],[-0.306636019779859,44.66031225394474],[-0.306653115043954,44.66031958196618],[-0.306737074813043,44.660343292070145],[-0.306812923678328,44.66035787361708],[-0.306837417020489,44.66036218706236],[-0.306924509196347,44.66036183504744],[-0.307035114570847,44.6603555535507],[-0.307138861531358,44.66034857601018],[-0.307184261529715,44.660341271089166],[-0.307259499619707,44.66031964782449],[-0.30751455418858,44.66024488942277],[-0.307727530601881,44.66097567927737],[-0.307007156752306,44.66107922335615],[-0.306353866109218,44.66128032434352],[-0.30638364975493,44.661355393450236],[-0.306260736109065,44.661403671423244],[-0.305819566016923,44.66157932374975],[-0.305801104693395,44.66158744462004],[-0.305806590126142,44.66159701211308],[-0.305818177894454,44.66160729822945],[-0.305828812911358,44.661627164106],[-0.305763665770068,44.66166587519024],[-0.305591725193105,44.66176941160981],[-0.305257123732732,44.66196683515619],[-0.304986256110223,44.662127301336774],[-0.305299840929122,44.66237202814129],[-0.304974363534002,44.6625571938583],[-0.305131779637294,44.66269017134205],[-0.305205168396057,44.6629661361719],[-0.305284730654446,44.663076210778065],[-0.305336675640858,44.66313520957524],[-0.305280372026784,44.66316329374927],[-0.305266542405821,44.663172897985795],[-0.305448520187738,44.663401644930225],[-0.305541850554848,44.66352040858829],[-0.305615580215811,44.66361497885674],[-0.305846306731281,44.66391273122719],[-0.306110969455871,44.664252990032765],[-0.306282741332832,44.664372291319864],[-0.306477156468625,44.664515964918024],[-0.306703402014228,44.664672743002406],[-0.306966259959913,44.66486600019447],[-0.307194618523845,44.665020010990034],[-0.307274659045652,44.66508006100151],[-0.307343505803692,44.66511719825714],[-0.30751707009793,44.66524112975746],[-0.307690170265315,44.66535714551604],[-0.307907736324182,44.6655143612212],[-0.307902680360508,44.665518567261586],[-0.307967247207621,44.66555375973906],[-0.308056755940379,44.66560730865235],[-0.308177750365191,44.665693885776975],[-0.308264125883028,44.66575212371015],[-0.308410991262919,44.66585351507553],[-0.308411353534938,44.66585323391708],[-0.30847958095469,44.66590129196243],[-0.308492670134483,44.665876931979135],[-0.308739267771891,44.66593506134012],[-0.309007540595857,44.665994614027966],[-0.309435648396841,44.666099031570894],[-0.309712540341496,44.66615697305087],[-0.30996978642413,44.666202886954835],[-0.31045338721785,44.66629113244997],[-0.310473915957395,44.666169955040196],[-0.311090847880875,44.66617437158513],[-0.311537499677837,44.666278406124206],[-0.311504204092248,44.66639501024291],[-0.311439196392428,44.66662294484025],[-0.3118609979719,44.6666457251246],[-0.311881900194172,44.66659536014451],[-0.312079833783229,44.666624573699],[-0.312180477163409,44.66664192344181],[-0.312383546160684,44.66666827944202],[-0.313145262967892,44.66677061911232],[-0.313594687480231,44.66677355267988],[-0.313583377795088,44.666954736189126],[-0.313581649940339,44.666989749455645],[-0.313653127230089,44.66698778787754],[-0.313728161177296,44.66698833277706],[-0.313857149029691,44.66699167605258],[-0.314016823706125,44.66699509072821],[-0.314155555990332,44.667003097515945],[-0.314231563255175,44.66700730729084],[-0.31430965175334,44.66701469848855],[-0.314417467396993,44.66702516336463],[-0.314553022014831,44.66704353709526],[-0.314622381829607,44.66705064905844],[-0.314672580994558,44.66705401016917],[-0.314694134457834,44.66705336411989],[-0.314719672651383,44.667049625094926],[-0.314801212670196,44.667025555255464],[-0.314842912096815,44.66701322213155],[-0.314852772191296,44.667006979505445],[-0.314873298508504,44.66698888345183],[-0.314951554381437,44.66692832849946],[-0.315011139657335,44.66687878559689],[-0.315024883811754,44.66686774095643],[-0.315065750904587,44.66682840059371],[-0.315026431188303,44.666797501214],[-0.314923332856954,44.66662263048196],[-0.314898149954286,44.66647795269968],[-0.314902592349472,44.666398975920615],[-0.314916783161744,44.6662668141204],[-0.314874691351638,44.6662145523457],[-0.314867569658264,44.66620296181474],[-0.314832962413836,44.66612984117123],[-0.314780379762236,44.66601517939522],[-0.314450952741822,44.66622319889198],[-0.314385018269967,44.66621634461819],[-0.314232779142577,44.66617188924691],[-0.314129406988682,44.666101730388796],[-0.314055418945883,44.66605456916838],[-0.313859898968995,44.66593761282182],[-0.313724415472039,44.665849583564174],[-0.313438781854563,44.66566243038392],[-0.313275886844964,44.6655655805387],[-0.313189754471056,44.665640336835125],[-0.313004575077577,44.66580213023967],[-0.312998760367764,44.66579987156105],[-0.312899185874218,44.665762036324494],[-0.312814345248111,44.66572997697946],[-0.312739478751713,44.66570005165946],[-0.312770251239182,44.66566939452959],[-0.312688467545648,44.66563778415799],[-0.312605964735581,44.66560682601896],[-0.312690734918842,44.66548958057503],[-0.312759910146158,44.66540343857898],[-0.312711903688868,44.665463085754254],[-0.312542377073641,44.665401575221765],[-0.312352926859829,44.66534264358667],[-0.312273637550924,44.66532123039406],[-0.31221399741912,44.66530544597039],[-0.312061270717079,44.66526550769636],[-0.312025859534715,44.665255935704046],[-0.31193420088521,44.66523029730473],[-0.311893789564364,44.665219433318484],[-0.311823305849727,44.66520604591204],[-0.311752922665526,44.66519436748002],[-0.311700300524083,44.665181976880156],[-0.311570983549604,44.66514719381],[-0.311506805678211,44.6650155774897],[-0.311456475836258,44.664919769373356],[-0.311439587366057,44.6648966671441],[-0.311409023179162,44.66486000789505],[-0.311355531336273,44.66480060745976],[-0.311261813833545,44.66472060571364],[-0.310977144779112,44.664897539118904],[-0.310751018823885,44.66471724794099],[-0.310678212185997,44.66465788484748],[-0.310770676479753,44.664587716666794],[-0.310737849395164,44.664564100373966],[-0.310685064593498,44.664497379838],[-0.31051695416381,44.66428588642321],[-0.310450666457301,44.66420208934858],[-0.310323194674993,44.66404398373695],[-0.31021844594651,44.66396314005935],[-0.310230798016363,44.66388329620646],[-0.310231181842254,44.663857604314515],[-0.310229818288293,44.66380862710378],[-0.310220992990062,44.66376158529265],[-0.310213576725823,44.66373207210203],[-0.310182313823152,44.66366416647695],[-0.310087207747573,44.66351536395934],[-0.310163271604735,44.66347551252385],[-0.310076276578358,44.66340026455687],[-0.310032379899609,44.663362292073195],[-0.310006029233513,44.66333929269873],[-0.309813870332125,44.663176094651455],[-0.309688627646489,44.66306874190429],[-0.309465093172323,44.66317085521585],[-0.309222363849859,44.663287959554154],[-0.309129438026775,44.663330928030234],[-0.309041988229476,44.66315765693761],[-0.309005941409137,44.66308565919688],[-0.30880706937397,44.66269207770988],[-0.308718193139657,44.662533176088665],[-0.308626028397649,44.66236986749168],[-0.308596891161178,44.66230586261734],[-0.308547992456749,44.6621827083944],[-0.30848089718442,44.66201414428892],[-0.308468644325791,44.66196675444459],[-0.308488252586246,44.661965266685776],[-0.308122421981693,44.66199198067093],[-0.307751419151155,44.662020920608406],[-0.307163053525451,44.662063569077766],[-0.306828566920847,44.66208871053828],[-0.306564094946174,44.662106441050994],[-0.306479471874734,44.66176179146377],[-0.306395367406333,44.66139369871498],[-0.306656122702508,44.6613578781614],[-0.307119109169311,44.661295824842924],[-0.307418958151535,44.66125495863608],[-0.308013525283877,44.661176170546945],[-0.308147738356163,44.661159089781606],[-0.308570206371958,44.661123021816486],[-0.308810993593205,44.66110194031471],[-0.309551722102486,44.66103543970218],[-0.309572668957928,44.66108896677528],[-0.309607229283032,44.66116145928595],[-0.309660455110665,44.661280879255074],[-0.309696593943768,44.66136089345367],[-0.309729393459833,44.66144208887839],[-0.309887626733432,44.66180796083784],[-0.310324903422822,44.66276486851778],[-0.310460114347555,44.66270026895462],[-0.310640538837086,44.662605841833816],[-0.310902278430304,44.6624771720144],[-0.310958509815821,44.66244791565858],[-0.311429371018898,44.66220404365646],[-0.311422163193599,44.66217164089574],[-0.311424201707391,44.66216121758047],[-0.311427237015307,44.662148421640374],[-0.311431470079767,44.662136671110616],[-0.311442350259854,44.66212201831633],[-0.311462725135286,44.66209491677647],[-0.311482587069924,44.66207197550094],[-0.311509936907417,44.662047548479634],[-0.311550488325031,44.66200930018979],[-0.311656831342354,44.66197556915809],[-0.311699960776011,44.66196184272267],[-0.311704077535608,44.66196099857261],[-0.311749108010917,44.66194739539468],[-0.311740295154563,44.66191990648525],[-0.31191105681907,44.66186090819295],[-0.312020521868689,44.661822307633386],[-0.311961655031824,44.661626376786614],[-0.312070575187207,44.66160428201033],[-0.31200992627193,44.661403809146215],[-0.312234917144251,44.66133309401909],[-0.312285954158367,44.66131858982701],[-0.312245205062029,44.66119888731553],[-0.312233343419662,44.66116464166911],[-0.312172541689314,44.66100021616906],[-0.312005870851114,44.66090329798444],[-0.311895587328066,44.66068962446792],[-0.311954984111542,44.660675590875364],[-0.311981526920565,44.66066965975956],[-0.312053374136406,44.6606548026496],[-0.312123156319564,44.66063703382923],[-0.312126463904454,44.66063531283261],[-0.312118259574953,44.660631053255884],[-0.312104513406121,44.66062272466778],[-0.312417492846422,44.66021273494434],[-0.312464302697921,44.660152132565216],[-0.312471377720619,44.660143630800995],[-0.312598732727304,44.65997780367862],[-0.312655287374632,44.659902582308575],[-0.312820184988685,44.65991142823357],[-0.312996174052698,44.6599221041452],[-0.313105223668701,44.65992802755098],[-0.313144095059238,44.65993208900127],[-0.313305947003249,44.65994066504102],[-0.313364409970958,44.65994296795458],[-0.313391711353377,44.65994350143761],[-0.313434849910557,44.659942839474226],[-0.313711210658995,44.65994068477405],[-0.31395140472935,44.65993537833706],[-0.314006372675173,44.65994265142534],[-0.31366738257151,44.6602515148021],[-0.31360306026736,44.660310570088896],[-0.313627927465016,44.660327665995524],[-0.31382974912894,44.660442630910076],[-0.313866974552915,44.66046377162108],[-0.313684691792841,44.66064872713795],[-0.313944691084186,44.66078042026582],[-0.314378151048936,44.660364831252686],[-0.314552819512173,44.66054611643028],[-0.314581931538121,44.66057741186702],[-0.31460628725932,44.66061155308006],[-0.314610890873622,44.6606189840466],[-0.314614347385983,44.66063266676701],[-0.314618555571331,44.66065912211636],[-0.314616803775196,44.66076450945055],[-0.314608855430287,44.661015604996315],[-0.314608521260807,44.661042106408686],[-0.31461039132693,44.661054575193596],[-0.314631639431559,44.66111313840319],[-0.314695076979156,44.66128361102496],[-0.314715457094635,44.661327422733336],[-0.314869038110052,44.66162656871444],[-0.314893981240194,44.661657808868476],[-0.315165222074193,44.66185809412532],[-0.315048641472994,44.661936648300795],[-0.314991157538826,44.66197675718002],[-0.31492346797773,44.66202365967526],[-0.314907041245992,44.66203415399063],[-0.314887732668427,44.662047167582045],[-0.31480048327408,44.66210925368155],[-0.314718373772242,44.66204629756509],[-0.314611482029955,44.662115730341704],[-0.314471597179218,44.66199782873367],[-0.314392643637342,44.66204642012971],[-0.314358922604934,44.66206554235557],[-0.314332036058172,44.662078512666795],[-0.315013636701731,44.662667563222655],[-0.315042891110474,44.66268623937431],[-0.315185443688385,44.662600599082474],[-0.315204580774486,44.66259110474939],[-0.315215180373083,44.662584569585114],[-0.315230559802367,44.66256915074689],[-0.315247250429327,44.66255026853341],[-0.315266581516696,44.662518331762136],[-0.315298322658284,44.66254279023497],[-0.315329914890734,44.66251967673585],[-0.315367749481965,44.66249322232317],[-0.315381155553027,44.66250219148511],[-0.315422735774669,44.66253293272027],[-0.315461268286984,44.662505466172775],[-0.315478292403095,44.66249225065606],[-0.315537497572737,44.662449206490955],[-0.31558213995645,44.66241615028496],[-0.315589794109263,44.66241105500478],[-0.315647687669764,44.66246797863889],[-0.315823821940012,44.662628944267325],[-0.316067008686457,44.66285439774278],[-0.316398922634895,44.66268261143388],[-0.316494208196874,44.66275057763099],[-0.316620905443004,44.66284382271731],[-0.316677428577531,44.66287744927131],[-0.316814659036263,44.66295659185493],[-0.316944372177583,44.66303028303933],[-0.317375660954681,44.66327883538609],[-0.317416456772562,44.66330266122456],[-0.3175058331517,44.66335386379865],[-0.317679282313297,44.663456247659134],[-0.31780649216633,44.663538843510324],[-0.317834908094583,44.66355826498552],[-0.31786197929553,44.66358700782649],[-0.317880937289246,44.66360662296793],[-0.317884582123802,44.663617056127215],[-0.317887728512772,44.6636383170862],[-0.317872661105869,44.66371689198114],[-0.317868606014192,44.66372521339371],[-0.317831951168645,44.66379740766006],[-0.317778536798489,44.66390659811603],[-0.317689967356123,44.66407487224184],[-0.317695719573551,44.66410821947602],[-0.317709911294213,44.66418195177462],[-0.317717250161865,44.66421651290381],[-0.317727857673675,44.664255120887304],[-0.317754185759525,44.66434840271361],[-0.317771390410903,44.664408979094084],[-0.317840794160677,44.66465478123304],[-0.317858318824154,44.66471435683321],[-0.317864560953677,44.66473029870794],[-0.317874971064951,44.66475269334101],[-0.317890789493078,44.664783305657515],[-0.317940243317428,44.66487048717179],[-0.317973617230771,44.66492904656557],[-0.318049049489926,44.6650521221393],[-0.318079354710722,44.66509716741939],[-0.318149291051958,44.66518481555272],[-0.318342652397178,44.66534859484284],[-0.318459499123175,44.66544808084876],[-0.318466068438698,44.66545671420602],[-0.318468734659746,44.6654633922286],[-0.318466453526986,44.66546967807536],[-0.31846046009844,44.66547724671808],[-0.318453210408526,44.665482780596065],[-0.318302734072531,44.66554541526028],[-0.318022061146589,44.66566773266802],[-0.318034368379122,44.66574161164457],[-0.318042755943371,44.66574253136541],[-0.318098665416739,44.66582996970437],[-0.318119701931556,44.665865561546084],[-0.318356316292453,44.66641622463833],[-0.318403639152975,44.66655077626604],[-0.318602380814155,44.66708860900534],[-0.318649024566482,44.66721804486676],[-0.31865168379737,44.6672310306057],[-0.318650572316382,44.667244309718484],[-0.318641813396695,44.667256376616145],[-0.318628582297359,44.66726326139841],[-0.318616012049648,44.66726850441757]]],[[[-0.315598355683557,44.660697056080664],[-0.31514296379738,44.660984454932915],[-0.315546886587187,44.66125753207547],[-0.315001855568021,44.66166944247938],[-0.314947856463689,44.66162717933383],[-0.314769445503512,44.661292284549674],[-0.314741235778411,44.661237714536256],[-0.314677247609167,44.661057887341244],[-0.314669885349889,44.66103576155808],[-0.314668676167823,44.66102165104021],[-0.314667913893177,44.66100869851361],[-0.314673858604319,44.66068494684989],[-0.31466066387291,44.66062163690375],[-0.314650771520835,44.66060156931953],[-0.314639734326278,44.66058135584046],[-0.314633634241809,44.66057424005552],[-0.314618739824778,44.66055927828949],[-0.314431828689649,44.660363042039585],[-0.314688604415719,44.660182519993725],[-0.314812612040915,44.660236650981666],[-0.314896507150959,44.66027207081092],[-0.315022453248204,44.660326954423596],[-0.315083271698136,44.660356398073105],[-0.315240700530647,44.66045710297793],[-0.315466088949618,44.660605599016975],[-0.315598355683557,44.660697056080664]]],[[[-0.312851603620534,44.653117624618424],[-0.31274792820597,44.65319642059537],[-0.312675005205332,44.65325077725328],[-0.312405847766569,44.6534199520339],[-0.312366606209899,44.653448159658495],[-0.312061592174476,44.65368382508053],[-0.311985077849773,44.653741532672655],[-0.311908954547536,44.65379301115276],[-0.311844032173192,44.65383532362132],[-0.311758946632447,44.653888962694026],[-0.311678899709176,44.653938125664155],[-0.311562716471592,44.65399747170946],[-0.311442948193032,44.65406025894146],[-0.311341431513503,44.654111416303714],[-0.311249096117027,44.65415770316447],[-0.31117443353177,44.65420183874466],[-0.311093314963806,44.65425211463981],[-0.311072197250372,44.65426653335682],[-0.310995540994127,44.65432829926116],[-0.310896492484808,44.65440857674562],[-0.310684679049634,44.65458062524777],[-0.310639516511225,44.654617659735166],[-0.310609885751469,44.65464188454948],[-0.310580357984876,44.65467430595147],[-0.310504075813206,44.65475534305475],[-0.310488781804159,44.65477220035959],[-0.31026373210169,44.65440328531667],[-0.310207225467006,44.65412483653603],[-0.310213512923463,44.6540771622463],[-0.310342806587503,44.65409266391154],[-0.31033876221756,44.654062509275455],[-0.310341689066946,44.6540414268628],[-0.310354416273581,44.654000227614574],[-0.31037313930425,44.65395794777446],[-0.310391653417803,44.653918557589364],[-0.310431740188091,44.65384671392296],[-0.310486002330591,44.65375831675148],[-0.310529818994897,44.65369194795485],[-0.310550831046695,44.653662845172825],[-0.310572279268307,44.653634720495525],[-0.310591424791893,44.65361252167828],[-0.310611982024453,44.65358856856426],[-0.310647711170398,44.65355857453497],[-0.31069788254477,44.653523011957155],[-0.310741912640156,44.65349249900234],[-0.311052671379751,44.65324711405189],[-0.310500468226252,44.65265768541446],[-0.310466481900084,44.652672219036894],[-0.310473826352431,44.65262964915621],[-0.310511460530906,44.65241298798001],[-0.310535809422996,44.65228601995451],[-0.311107344717622,44.65202967193106],[-0.311018502447875,44.65192916097717],[-0.311189060076429,44.65173834372478],[-0.311783274039102,44.65150717327704],[-0.311921509869531,44.65166197975633],[-0.312166611900909,44.65193396658865],[-0.312100167245664,44.65186017776446],[-0.312141665651226,44.65184460760478],[-0.31228420538153,44.651782759177934],[-0.31254745348221,44.651661337797925],[-0.312576825791588,44.65165207782118],[-0.312608156993427,44.651643930523946],[-0.312629241928691,44.65164185704165],[-0.312657184260097,44.65164047914458],[-0.312673960306143,44.65164240933886],[-0.312696092219325,44.651645260322475],[-0.312710978128252,44.651647247147835],[-0.312775509202565,44.651714244871194],[-0.312871951876907,44.65181515748224],[-0.312898977877719,44.651843271774034],[-0.312908291469239,44.651853535129916],[-0.313009588383909,44.65195970856195],[-0.313019280044887,44.65196996058053],[-0.31321536632202,44.65217466296383],[-0.312739283726394,44.65244411083946],[-0.313156547803995,44.65288087769433],[-0.313127778049681,44.65290039188962],[-0.313062939833978,44.652950541855176],[-0.312851603620534,44.653117624618424]]],[[[-0.312644061940206,44.6596280032328],[-0.31245844977377,44.65984008837148],[-0.312259260477717,44.65982776383351],[-0.311900094421254,44.65980653460719],[-0.311835294005661,44.65979306731403],[-0.311765343261289,44.659782187123184],[-0.311690419293406,44.65977046466925],[-0.311662864155237,44.6597656132527],[-0.31165431892529,44.65976199460424],[-0.311630510191507,44.65975000265782],[-0.311609239679814,44.65974253012283],[-0.311576483910114,44.659732968689276],[-0.31153769469875,44.65972385826549],[-0.311486354745603,44.65971386222087],[-0.311251687136911,44.65967142155212],[-0.311133212607421,44.65965334387221],[-0.310872865003625,44.65961860963141],[-0.310740592021238,44.65960418854931],[-0.310526381263025,44.65958113749599],[-0.310439671124511,44.65957508338078],[-0.310373599446581,44.65957219577673],[-0.310278431351265,44.65957044955348],[-0.31026412768685,44.65957195905798],[-0.310210611571786,44.65959581753024],[-0.310180444096019,44.65961095750044],[-0.310130502330063,44.65964408000401],[-0.310109183997402,44.65966156812662],[-0.310086942849833,44.65968268813163],[-0.310067525473884,44.65970029955072],[-0.310053972395063,44.65971458168342],[-0.309999677677195,44.65978964386108],[-0.309988104837709,44.6598053985162],[-0.309976214833371,44.65981575627309],[-0.309926510631228,44.65985292636002],[-0.309894811960717,44.65987423932701],[-0.309824799321951,44.65992030708927],[-0.309763208298156,44.659935666714496],[-0.309283965982758,44.660049578713625],[-0.309173384556488,44.660075595088514],[-0.309104482733445,44.66008901057915],[-0.309043298722146,44.6600984105842],[-0.308948182115424,44.66011044794202],[-0.308783635101538,44.66012690567424],[-0.308696783904024,44.66006688061731],[-0.308719654518816,44.66005646474269],[-0.308771577733345,44.660024815422936],[-0.308803427781057,44.659999623683554],[-0.308890416824102,44.65992015970464],[-0.308901342412358,44.65989982911278],[-0.308926397389417,44.65987502089499],[-0.30906536508456,44.65974552396522],[-0.309112878124773,44.65970328378797],[-0.309138654504385,44.65968431084972],[-0.30919069340421,44.659654640200785],[-0.309208418580402,44.65964690119505],[-0.309267764945455,44.65962557192174],[-0.309323341015112,44.659604535671924],[-0.309385979043757,44.659581215578385],[-0.309412408179869,44.659566908573005],[-0.309461202646924,44.65954003809254],[-0.309486685315784,44.65952251556351],[-0.30953720664572,44.65947991483142],[-0.309598531220817,44.65942779984828],[-0.309818347528838,44.65928200550313],[-0.309891209584656,44.659232878920996],[-0.309939152230341,44.659204411799905],[-0.310041002061337,44.659145857231515],[-0.310091141543622,44.65912255045293],[-0.310143885244391,44.65909844483528],[-0.310608296878878,44.6588999123553],[-0.310867920002565,44.65878707429824],[-0.310955932547249,44.658757316746815],[-0.311003816050337,44.65874074497487],[-0.311212783542622,44.658661771206646],[-0.311336530887809,44.65878889996056],[-0.311453528051937,44.65874322616755],[-0.311876450142678,44.65921118763826],[-0.311837944580097,44.65923910264383],[-0.312187104716477,44.65938651062981],[-0.31220848624983,44.659395871964136],[-0.312578263238774,44.6595524828104],[-0.312644061940206,44.6596280032328]]],[[[-0.311229132895348,44.65826985879379],[-0.31111555505222,44.658315700288156],[-0.31109648486539,44.658294105167],[-0.310884806000511,44.6583655909835],[-0.310721467292073,44.65842184265181],[-0.310932246212582,44.65869585252116],[-0.310905910429455,44.65870529136068],[-0.310882551657656,44.658713830090775],[-0.31086031124435,44.65872206500807],[-0.310810764685064,44.65874256109538],[-0.31060299129393,44.65882897716861],[-0.310315011447703,44.65895554878864],[-0.310255153200881,44.65898103887552],[-0.310198330095165,44.65900661827611],[-0.310078935783328,44.65906308513595],[-0.310042819737837,44.6590801151771],[-0.310020029053421,44.65909188054524],[-0.309980108263489,44.65911506159986],[-0.309895494274956,44.65916399940124],[-0.309812019663048,44.65921299313453],[-0.309668069801201,44.65929632546097],[-0.309593367458214,44.65933992037062],[-0.309586847421102,44.65934498127979],[-0.309581456338338,44.65934991829013],[-0.30950626648046,44.65942389361591],[-0.309494733408235,44.65943388020991],[-0.309474417072289,44.65944908555213],[-0.309435217416024,44.659478101736234],[-0.309392221050719,44.65950696122276],[-0.309374691488196,44.65951802834477],[-0.309351569970224,44.65953061442792],[-0.309324908299754,44.65954096369307],[-0.309276576838557,44.659556376731054],[-0.309240568792769,44.659568807834006],[-0.309219462047742,44.659577008477406],[-0.309164522996648,44.659602440827],[-0.30912878441137,44.65961945925795],[-0.309090716301006,44.65964195378211],[-0.309080510481649,44.65964874688228],[-0.30906570665856,44.6596610839756],[-0.309018902224172,44.659702491967344],[-0.308927987290998,44.659786038226954],[-0.308888710236988,44.659820192590715],[-0.308822614533047,44.659881370472085],[-0.308733388651045,44.65996144196962],[-0.308714642381816,44.659977591351876],[-0.308705649969865,44.65998569970228],[-0.30869659943191,44.659992818620104],[-0.308657896256405,44.66001740443806],[-0.308642886173246,44.66002623349067],[-0.308622614597534,44.66003576061993],[-0.308601145353977,44.66004424230535],[-0.308582973195218,44.660050823199605],[-0.308566585783416,44.66005554855739],[-0.308548617339568,44.660059149836876],[-0.308527629494987,44.6600629315669],[-0.308469216486132,44.66006792322789],[-0.308393763208364,44.66007297418781],[-0.308150212117574,44.660092065143466],[-0.30803793883851,44.66010218214394],[-0.30790039716791,44.6601141362503],[-0.307695441394559,44.66014549741047],[-0.307647799515338,44.660153320143515],[-0.30762229567127,44.660157597216966],[-0.307561764096354,44.66017166241019],[-0.307453288628701,44.660201308402804],[-0.307254499171331,44.66025383949951],[-0.307222757913979,44.66026154687361],[-0.307155005504702,44.66027519707036],[-0.307129480442191,44.660279114236666],[-0.307068626449789,44.660287692306085],[-0.307016703935165,44.660293570343185],[-0.306988080220049,44.66029631866242],[-0.306919789035786,44.660300793973995],[-0.30688539894459,44.66030209280902],[-0.306865675037317,44.660301601416904],[-0.306849684473147,44.660300187411316],[-0.30683401390594,44.66029777266311],[-0.306807965995718,44.66029278485859],[-0.30677227051851,44.6602847516339],[-0.30675262369573,44.66027912185265],[-0.306727488267593,44.660270322272936],[-0.306696155594027,44.6602591850409],[-0.306675966997716,44.66025077815082],[-0.306661177237686,44.66024401193181],[-0.30663143930809,44.66022778103416],[-0.306593013846598,44.66020550248024],[-0.306541581398066,44.66016811458161],[-0.306404091295235,44.66006481923439],[-0.306326299827941,44.66001713637309],[-0.30615965779118,44.659920479263214],[-0.306325236649842,44.65940543619233],[-0.306304803454514,44.659141224696114],[-0.306336425956559,44.65912505113009],[-0.306354159828655,44.65911100488713],[-0.306395695838502,44.65907660370049],[-0.306417834622761,44.65906017306665],[-0.306458568978007,44.659031472525776],[-0.306485165465078,44.659013556979595],[-0.306506270289716,44.658998869266924],[-0.306530923550242,44.65898011075683],[-0.306543911283551,44.65896908981553],[-0.306553348455512,44.65895565207448],[-0.306601571313952,44.65888032277475],[-0.306653223141182,44.658805341437784],[-0.306696627921103,44.65873826575149],[-0.306727586646795,44.658652730044075],[-0.30675617233788,44.6585848360317],[-0.306801643464292,44.65849490160253],[-0.306847461993573,44.65842378898524],[-0.30692876516044,44.65829908307005],[-0.306994028564988,44.6581979240479],[-0.307007066673449,44.65818131494856],[-0.307066368549095,44.65810763640209],[-0.307127770955944,44.65805038445082],[-0.307153145869087,44.658024575911746],[-0.307203488053341,44.65797891802548],[-0.307282735242452,44.657896623299344],[-0.307327363894919,44.65785041540502],[-0.307502884362965,44.65763395577293],[-0.307696724110695,44.65747794978853],[-0.307737570630104,44.657444740068065],[-0.307797060937281,44.65737429928966],[-0.307846236883337,44.65731525013557],[-0.307953564695336,44.65718877364096],[-0.308074806647459,44.657105762515535],[-0.308297134529752,44.65696413102114],[-0.308418861548066,44.65688939476615],[-0.308734216931068,44.65670028590758],[-0.308799786651085,44.656675346541036],[-0.30882331451248,44.656656801375284],[-0.308870930808395,44.65661636031614],[-0.308890379199392,44.65659928881708],[-0.308928205680965,44.656553373906206],[-0.308968477736143,44.65650396174851],[-0.309005611377441,44.6564591488207],[-0.309046197948057,44.65640864594318],[-0.309088270265984,44.656357648050566],[-0.309140466040953,44.656292020237814],[-0.30931178148846,44.65608154027944],[-0.309372496044449,44.65606422469993],[-0.309490548946573,44.656030145029895],[-0.309522922074123,44.65602034557649],[-0.309562861632848,44.65601040972903],[-0.309573510672908,44.656011172240355],[-0.309594988444141,44.65601575549785],[-0.309625798576922,44.65602447460718],[-0.309674670599727,44.65604409654348],[-0.309783758348247,44.65611525886095],[-0.309846166015767,44.6561589844662],[-0.309969657180604,44.65624323139349],[-0.310028977228268,44.65628596806406],[-0.310134359294065,44.65635850249906],[-0.310190406663271,44.65639710207021],[-0.310205235372536,44.65641098503081],[-0.31023114138734,44.656432916238394],[-0.310446443102968,44.65661650447239],[-0.310556087887381,44.65670999582579],[-0.310626258837088,44.65676979785535],[-0.310696506648855,44.65682446147677],[-0.310721093814239,44.656843278349456],[-0.311008590360484,44.65706948673439],[-0.311084864153979,44.65713000681696],[-0.311314720246469,44.65730982377498],[-0.311327862706951,44.657320783592034],[-0.311338311116663,44.65733101313342],[-0.311348508374061,44.65734341275188],[-0.311254933000222,44.65737513939918],[-0.31117065056438,44.65740388446994],[-0.311087869735946,44.65743240429303],[-0.311045542053474,44.65744682740802],[-0.310907359605699,44.65749286489474],[-0.311222369506507,44.65787133997825],[-0.311463510956146,44.65815930707983],[-0.311468772233623,44.65815860886658],[-0.311506127624304,44.65820776952345],[-0.311502756703841,44.65820841112207],[-0.311435782422133,44.658215913485066],[-0.311398681126282,44.65822261124789],[-0.311329483345676,44.658237388660154],[-0.31126405304571,44.65825827055072],[-0.311229132895348,44.65826985879379]]],[[[-0.309256536015272,44.65238216780128],[-0.309281141035927,44.65242711516356],[-0.309134207960413,44.6529299809141],[-0.308419546309346,44.65260671315734],[-0.307802520448996,44.65232728498126],[-0.307798460178638,44.65232263083638],[-0.307802150163284,44.65215330106751],[-0.307802426355037,44.65213220796357],[-0.307806312362084,44.65208875063494],[-0.307812895145098,44.652039626038125],[-0.307823652105897,44.65199064686869],[-0.307847957799758,44.65193378350765],[-0.307873785377121,44.65188993999725],[-0.30788079139063,44.65188026922787],[-0.307905893803223,44.65184987322307],[-0.3079299941474,44.651821759848836],[-0.307975000771092,44.65177563043728],[-0.308072327697838,44.65169829054611],[-0.308093664779414,44.65168116266138],[-0.30819305285969,44.65161313202208],[-0.308305267245356,44.65154426693619],[-0.308393725411568,44.65149647663983],[-0.308459506441438,44.65146234019557],[-0.308584625952452,44.651393989672925],[-0.308639319527338,44.651364510028124],[-0.30867053548134,44.65134149979042],[-0.308822015157938,44.651225504865515],[-0.309028406919712,44.65093549302645],[-0.309492525543183,44.651171374690165],[-0.309496422054195,44.651173240382455],[-0.309505386144267,44.6511775674534],[-0.309624896085563,44.65123291924358],[-0.309629900259619,44.651234301240635],[-0.309419302364437,44.65185233672845],[-0.309391402531161,44.65192534697715],[-0.309247054761333,44.652033830609575],[-0.30923562178515,44.652097066973084],[-0.309256536015272,44.65238216780128]]],[[[-0.308326419775657,44.65528971012145],[-0.30828505941356,44.65517227775577],[-0.30826880745422,44.65514059611162],[-0.308237535141909,44.655085305531614],[-0.308210148384445,44.65504458600535],[-0.308147433618471,44.65495689690002],[-0.308008978213781,44.654798307685326],[-0.307828929158063,44.654615012166644],[-0.307772106476866,44.6545567014567],[-0.307493305551766,44.65427174658036],[-0.307290195575516,44.65406327972934],[-0.307171204941703,44.65393942900905],[-0.307155571831242,44.65391827115761],[-0.307126343730043,44.65387841745718],[-0.307098648968657,44.65383887830959],[-0.307094282360413,44.65382900713958],[-0.307091507140481,44.653820439959894],[-0.307131118744976,44.653759784995565],[-0.307520221920557,44.65347890784112],[-0.307582300144103,44.653433259054154],[-0.307597134345603,44.65342146187764],[-0.307612346581712,44.65340965338925],[-0.307621965189133,44.65339287619291],[-0.307706197080622,44.65321500951165],[-0.307845977333201,44.653286606747564],[-0.307845982615162,44.65328669669573],[-0.30811499900925,44.65342443937784],[-0.308160789254641,44.653378736979846],[-0.308234626637243,44.653417255580415],[-0.308245118998258,44.653421807353226],[-0.30893448889999,44.65377854215412],[-0.308815866969892,44.65399627492948],[-0.309361987344759,44.654241598012256],[-0.309319675147125,44.654488314097755],[-0.309211362476713,44.65512004762772],[-0.308808383677242,44.65530015668745],[-0.308369932171131,44.65546312420236],[-0.308333831623368,44.655312735760425],[-0.308326419775657,44.65528971012145]]],[[[-0.307723798436281,44.65252156640974],[-0.307721663611504,44.652588398949945],[-0.307714462481766,44.65271728600753],[-0.307716622455463,44.652844361194546],[-0.30770382558048,44.65291664878658],[-0.307687528077603,44.65303895993447],[-0.307603774779607,44.653218524294914],[-0.30757821045996,44.65326686517325],[-0.307550740050992,44.65331499275088],[-0.307518616082626,44.6533741623878],[-0.307466771384194,44.65341995552352],[-0.307428886362244,44.65344550766114],[-0.307399672920339,44.65346395230194],[-0.30734706755199,44.653496792843505],[-0.307154068017975,44.653615289056894],[-0.306910309769369,44.65376584915165],[-0.306854229663006,44.65380401953541],[-0.306798260367838,44.65384407880418],[-0.306750185543539,44.65387669343198],[-0.306648303821339,44.65394750042778],[-0.305884406496358,44.65448881537635],[-0.305869870520124,44.654499251799436],[-0.305856392747305,44.654501907451],[-0.30584547685073,44.654503044800535],[-0.30583144154609,44.65450265351077],[-0.305822109718458,44.654498517337075],[-0.305807194878682,44.654489592259495],[-0.305789714116545,44.654469210316044],[-0.305601534300784,44.65425047253011],[-0.305408581884098,44.654027822398035],[-0.305365500569152,44.653977749915654],[-0.305048089314842,44.65363474401728],[-0.304838385996046,44.653410521384075],[-0.304597009260676,44.65315633877915],[-0.304421303816802,44.652975791878696],[-0.304407500746061,44.65295998534933],[-0.304403108295047,44.6529496643348],[-0.304402744221092,44.652943457901024],[-0.304408013786538,44.652936452343845],[-0.304422475759921,44.65292475684264],[-0.304438140436014,44.65291419677029],[-0.304677919230008,44.65277322234248],[-0.304742522397022,44.65273831245711],[-0.30483395170226,44.65268944515309],[-0.305028389799279,44.65258253375436],[-0.305077600565266,44.65255637356375],[-0.305095995704993,44.65254717346285],[-0.305124865003433,44.65253576800464],[-0.305322021449006,44.652462294247364],[-0.305406886651904,44.652430652737614],[-0.305433278482382,44.65242220466043],[-0.305488340882895,44.65240542056749],[-0.305626128698998,44.652365708921636],[-0.305760839264129,44.652325188051655],[-0.306204450021967,44.6521923519226],[-0.30649634533033,44.65210712226973],[-0.306534334411177,44.65209625463119],[-0.306674338252681,44.652062061940335],[-0.306782195526522,44.65203504791454],[-0.306822611100068,44.65202681077958],[-0.307138723165929,44.65196707591461],[-0.307290368263293,44.65193767023924],[-0.307331603126798,44.65193048967863],[-0.307414408603984,44.651915397616925],[-0.307545559716895,44.65189813827216],[-0.307633057476313,44.65192426438011],[-0.307714938335078,44.6519837175353],[-0.307692061273874,44.652148755604955],[-0.30769490198756,44.652210032903604],[-0.307703962495359,44.65228049515563],[-0.307721053651284,44.65240387977599],[-0.307724520683231,44.65246937333212],[-0.307723798436281,44.65252156640974]]],[[[-0.307856669596561,44.65717689511262],[-0.307829203565293,44.6572122275512],[-0.307731628191317,44.657343548220254],[-0.307687964651488,44.65739972922108],[-0.307609114294314,44.65745651229811],[-0.307552115569028,44.65750489248925],[-0.30748030784439,44.65756551957493],[-0.307417687609623,44.65762136646598],[-0.30739491944045,44.657652863899706],[-0.30734848648766,44.657719940356706],[-0.307316332068751,44.65775928747199],[-0.307270859748918,44.657810476445725],[-0.307245405764649,44.6578349357845],[-0.307118474436997,44.657950103856976],[-0.307006473194152,44.6580550937414],[-0.306984678243556,44.65807737113069],[-0.306890067072528,44.658226984029504],[-0.306775853753059,44.65841043232011],[-0.306695461504833,44.65854421160953],[-0.306664025412877,44.65861516435651],[-0.306615731095629,44.658727980052966],[-0.306547158749095,44.65883085970107],[-0.306497235562729,44.65890948364973],[-0.306472996288526,44.658941745721236],[-0.306406532563052,44.65899022810483],[-0.306355031383052,44.65902907217664],[-0.306303929331262,44.65906826471327],[-0.306277573559901,44.659083830251454],[-0.306253018410902,44.65909781013325],[-0.306189289694598,44.659128369544625],[-0.3061504783566,44.65914466791547],[-0.306084383959615,44.65916718843185],[-0.305993436546889,44.659192164027175],[-0.305944819381761,44.65920271839108],[-0.305846318773215,44.65922161225529],[-0.305768174341475,44.65923241860774],[-0.30570345600331,44.659239669784284],[-0.305624280851711,44.65924582132171],[-0.305558983802166,44.659249665675006],[-0.305490807915113,44.65924963137594],[-0.305348315145093,44.659241726770595],[-0.305227494397716,44.659235246593745],[-0.305142442143921,44.65923805932275],[-0.305066214347324,44.65924925841413],[-0.304959508353964,44.65927677662924],[-0.305092582475991,44.65922098782255],[-0.305045820293937,44.65916633950737],[-0.305073572645565,44.65914875018992],[-0.305005835310842,44.659104550418675],[-0.304953721636527,44.659029698018834],[-0.304938891605108,44.65900932674782],[-0.30482968241249,44.6590587253806],[-0.304548708355576,44.65918227888833],[-0.304620087520857,44.65923691251954],[-0.304482098532697,44.659331593312984],[-0.304551429096675,44.65938358503212],[-0.304370994781874,44.65951656787694],[-0.30436411200386,44.6595219096232],[-0.304347483510639,44.65952898431611],[-0.304340363266083,44.659530278376444],[-0.30432345509042,44.659532585792896],[-0.304310915043279,44.65953187926878],[-0.304300075441274,44.6595278781022],[-0.304285738114767,44.659522359548454],[-0.304225218016031,44.6594849719039],[-0.30418685549237,44.659457284309305],[-0.304072884735519,44.65936743011447],[-0.303962538675919,44.65928125196686],[-0.303938362442104,44.659262961968615],[-0.303871999333861,44.65922926288705],[-0.303806914796497,44.65920444607938],[-0.303762675799526,44.659192792632574],[-0.303624576158494,44.65917583404082],[-0.303464011602248,44.65915684327543],[-0.303329251556623,44.659138703269946],[-0.303227730987583,44.659119029452576],[-0.303110865746063,44.6590960294872],[-0.302986692193068,44.65907757281511],[-0.302934378346412,44.659070305144844],[-0.302906252756721,44.65906862233754],[-0.302784829460199,44.65906477059069],[-0.302663348163741,44.659059929275884],[-0.302466428614952,44.659053916996214],[-0.302288402546327,44.659047159880195],[-0.3021145580921,44.65904712566183],[-0.301772535108562,44.659046797106484],[-0.301494256256707,44.65904843873735],[-0.301439338248928,44.659041968973135],[-0.301201671402605,44.65901923998533],[-0.300947253271497,44.658995028255006],[-0.301014228425571,44.65881948447503],[-0.301082542989194,44.658647414801266],[-0.30113394189735,44.658652007461704],[-0.301187997898685,44.65865670097935],[-0.301194804859094,44.65861775214062],[-0.301202575844432,44.65856940348893],[-0.301337188473996,44.65857214228385],[-0.301493944366647,44.65861665969779],[-0.301532889363614,44.65862847209845],[-0.301768841434814,44.658667200310326],[-0.301873237657458,44.658684266578284],[-0.302014274728528,44.658673837428864],[-0.302145024563661,44.658662363736326],[-0.302267447306863,44.65867681882949],[-0.302364018848608,44.65867024021084],[-0.302462090486775,44.65865694884923],[-0.302518895325768,44.65865038645811],[-0.302554912845985,44.658651022679514],[-0.302609654598557,44.65866740882047],[-0.302670475874783,44.658658293517384],[-0.302716977675829,44.65865041686334],[-0.302767796540427,44.65864511441966],[-0.302810109506845,44.658643309854575],[-0.302867599978706,44.65864844060073],[-0.302899629133842,44.65865856688801],[-0.302947882085523,44.65868055306656],[-0.302966993353197,44.65868998394866],[-0.303159948227387,44.658660702021976],[-0.303227826265507,44.65864921304575],[-0.303308033044562,44.65865420555127],[-0.303465650644333,44.658616517653584],[-0.303505823492121,44.65864279978132],[-0.303776035327734,44.65854885501982],[-0.304372405764684,44.65833982852711],[-0.30459942156573,44.6582714111762],[-0.304835656438691,44.65819875311606],[-0.304957711748853,44.65816176554714],[-0.305114390705624,44.65810166683854],[-0.305162452873015,44.658081668256145],[-0.305299401046686,44.6580145000498],[-0.305447101830237,44.65794340596345],[-0.305609471108798,44.657864123992105],[-0.305821527988947,44.65776028897925],[-0.305991103700267,44.65790704778303],[-0.306056475093133,44.65779480306614],[-0.306112498917267,44.65769752513591],[-0.306194930655769,44.65755332311248],[-0.306258222896984,44.65744438426419],[-0.306322024568502,44.657434456927895],[-0.306393322033686,44.65744899451652],[-0.306627954389767,44.65737493870132],[-0.306757624036904,44.657332224868846],[-0.306892596986967,44.65728953247644],[-0.306973300239726,44.65724494896456],[-0.307180364394431,44.65712711386847],[-0.307360504973602,44.65702161734404],[-0.307534167191775,44.65692190090049],[-0.307762184756541,44.656786858277144],[-0.307854104740243,44.65673337841804],[-0.308075724627664,44.65699886893415],[-0.308018624115335,44.65703905275209],[-0.30794569158165,44.65709340637186],[-0.307897265263274,44.65713297017913],[-0.307856669596561,44.65717689511262]]],[[[-0.305305546353978,44.654853481533856],[-0.305107240439565,44.65499141531834],[-0.304872293127365,44.65516324263],[-0.304718447257943,44.65527795089519],[-0.304609492010436,44.65536383483607],[-0.304460654759624,44.65548001492607],[-0.304223597080908,44.65566758230837],[-0.304158336207613,44.65571071113061],[-0.304037595979911,44.65577649257841],[-0.303907560492837,44.65583876719786],[-0.303708248735701,44.65593383787834],[-0.303570526501908,44.656000666860365],[-0.30336501341713,44.65609979674702],[-0.303233543323364,44.656163464990875],[-0.303111710903831,44.65621711368919],[-0.303007928531425,44.656262113472906],[-0.302927242951752,44.65630056628332],[-0.302850569944284,44.656342863832656],[-0.302810243720205,44.65636560382699],[-0.302764162150751,44.656387074032075],[-0.302639488892007,44.656443960760214],[-0.302483602960207,44.65651754820534],[-0.302345248285384,44.656586557026515],[-0.302288770967649,44.65661374388695],[-0.302047575293215,44.65652849873772],[-0.301726964171915,44.656415078718815],[-0.301570790659686,44.65643208685984],[-0.301521850293364,44.65622387160037],[-0.301483216009172,44.65607517897814],[-0.301495824133016,44.6559672159443],[-0.301318257283915,44.65552225852885],[-0.301260484009943,44.655415315795786],[-0.301221652717241,44.655431252620325],[-0.301227235622939,44.65525510900073],[-0.301171514987339,44.65514441061286],[-0.300933458784044,44.65499842829318],[-0.301026097308043,44.65471804608079],[-0.300951773536568,44.65469701781545],[-0.300958401567486,44.65468087117928],[-0.300984342657112,44.65464531578441],[-0.30099819579807,44.654629674274986],[-0.301013441369866,44.65461840637982],[-0.301031742964193,44.65460758787393],[-0.301054392867369,44.654599883349036],[-0.301095754015794,44.65458188870667],[-0.301123253805328,44.65456647046326],[-0.301129141486308,44.654550616238865],[-0.301389238010053,44.65444589597997],[-0.301518219532665,44.65439149503008],[-0.301643326972335,44.65434207533512],[-0.301764685347563,44.654293308090566],[-0.301788571310577,44.654338999319855],[-0.301830050469298,44.654419937197126],[-0.301930812324142,44.65440097919989],[-0.301975010788601,44.65439263092292],[-0.302264784190859,44.65429675365846],[-0.302344025874181,44.6544145881683],[-0.302475052359956,44.654601789234015],[-0.302593972444687,44.65473105323732],[-0.302835590540135,44.65458894685956],[-0.303155177164347,44.65439441158858],[-0.303132872431544,44.65437570518086],[-0.303086119596353,44.65433403130049],[-0.303038005888907,44.654288523501705],[-0.302620170806537,44.653898952863905],[-0.302837331799658,44.653772534589265],[-0.3029350101625,44.65371393101723],[-0.30304167697419,44.65365361712162],[-0.303237653335156,44.653540535868075],[-0.303454737712858,44.65341285712131],[-0.303573615002318,44.65334767253999],[-0.303708619375479,44.653273355739266],[-0.303816633145374,44.65321020752091],[-0.303953757386568,44.65313330408907],[-0.304005798243142,44.65310372590128],[-0.304068434696769,44.65307401124638],[-0.304273096864916,44.65297995116907],[-0.304296644207239,44.65297465199272],[-0.304310919975756,44.65297269352195],[-0.30432155254189,44.65297318669299],[-0.304331082650483,44.65297425344921],[-0.304343007622998,44.65297741117151],[-0.304352376024743,44.65298217710581],[-0.304361529956964,44.65298974273609],[-0.304372044892506,44.65300114224666],[-0.304704143091745,44.65335578497579],[-0.304826642182982,44.653487913111725],[-0.304991091735732,44.653663750028244],[-0.305179991060546,44.6538625537187],[-0.305296501702911,44.65399585161783],[-0.305457907414201,44.65418430371088],[-0.305692585358826,44.65446616744567],[-0.305744665362441,44.65452759446268],[-0.305751458443038,44.65454009631609],[-0.305751571316675,44.65454847281218],[-0.305748659799239,44.65455693973725],[-0.305737874616229,44.654573210999004],[-0.305714476560517,44.65458751661979],[-0.305543090606883,44.654700137464886],[-0.305305546353978,44.654853481533856]]],[[[-0.304466631471094,44.655575438880724],[-0.304627882952994,44.65544492128609],[-0.304717273010556,44.65537412922079],[-0.305298237061082,44.65578737992327],[-0.305223906208577,44.65580501018298],[-0.305113711240644,44.655837498741256],[-0.305031212707197,44.655864383642964],[-0.30492780864962,44.65590288633549],[-0.304663074167059,44.65571553940341],[-0.304466631471094,44.655575438880724]]],[[[-0.304763979722828,44.65677054977172],[-0.304846449424304,44.65687224747601],[-0.304909352610817,44.65695029143315],[-0.304950614075455,44.657001589983935],[-0.3049011407662,44.657023342689186],[-0.304727780705419,44.657096013969785],[-0.304650900261863,44.65712831720227],[-0.304549610872408,44.657170630843716],[-0.304517190604543,44.65718610689818],[-0.304429327062149,44.65724423827128],[-0.304310739892856,44.65732094857173],[-0.304268057297625,44.65734871536277],[-0.304080912872332,44.65744468449324],[-0.30392961714452,44.657486779865565],[-0.303813128140691,44.65752179786574],[-0.303520129827187,44.65760813388437],[-0.303308982051032,44.65766940711592],[-0.303172990864653,44.65770771025363],[-0.303058537270402,44.65773870195754],[-0.302968969540927,44.65775489357201],[-0.302939690992403,44.657759372451864],[-0.302867569106695,44.65776305871253],[-0.302726483660681,44.65775970422973],[-0.302679446300806,44.65776489372136],[-0.302628833909708,44.65777370411674],[-0.302543709576247,44.65779462838705],[-0.302335140004573,44.657841766152934],[-0.301679934570248,44.65802920098471],[-0.301639657561381,44.65800111922769],[-0.30159041732574,44.65792996408988],[-0.301563308151605,44.65789392020237],[-0.301540356932908,44.657831891716185],[-0.301537892558175,44.65780277094207],[-0.301535779895748,44.65777318913589],[-0.301541335434723,44.65770643487733],[-0.30155636248969,44.65767850382196],[-0.301570784748043,44.65764671626388],[-0.301567698228803,44.65760698155641],[-0.30156635378126,44.657584044660794],[-0.301558409697691,44.6575648189688],[-0.301525515218481,44.65753345313618],[-0.301510707052663,44.65748758080413],[-0.301451401218927,44.657438531855036],[-0.301384112350568,44.657382512760556],[-0.30132656528119,44.65733115858769],[-0.301274933347405,44.657290260285784],[-0.301246188156478,44.65723921748774],[-0.301205468386755,44.65717771949315],[-0.301173626559865,44.65708676207142],[-0.301264452962949,44.65706620922828],[-0.301475670767901,44.6570125968325],[-0.301648059659802,44.656968523378914],[-0.301691250968878,44.656955880254316],[-0.301733858563482,44.65693974040819],[-0.301790973421714,44.656919112547016],[-0.301889748217677,44.65687264159518],[-0.302034311378234,44.65680615113831],[-0.30213466131119,44.65676071418879],[-0.302221857939361,44.65671702158292],[-0.302319817890316,44.65666958339979],[-0.302450245659236,44.65660747923168],[-0.302638074033015,44.656516718611556],[-0.302813601486819,44.65643578625199],[-0.303382877078421,44.65615900335618],[-0.30355520378503,44.65607519189563],[-0.303728511162224,44.65598873777408],[-0.304025266748276,44.65585038759965],[-0.304255034892655,44.65574512519012],[-0.304279355335686,44.65574007326009],[-0.30429223566026,44.65574013884921],[-0.304363821587951,44.655817743317044],[-0.304517980720973,44.655979471817105],[-0.304552057627828,44.65601161237856],[-0.304567345453578,44.65602043638255],[-0.304598627856694,44.65603076466381],[-0.304638747018055,44.656075519678126],[-0.30479353565157,44.65624795167174],[-0.304923040184459,44.65639608975538],[-0.30488314559531,44.65641971868908],[-0.304827384848917,44.656450489712725],[-0.30478103146392,44.65647377102741],[-0.304685519826542,44.65651771424631],[-0.30459787347496,44.65656016081234],[-0.304763979722828,44.65677054977172]]],[[[-0.301343193051497,44.6598441708732],[-0.301280358600486,44.65980603980635],[-0.301117942760736,44.659710240374025],[-0.300933805077453,44.65959923053089],[-0.30074673682046,44.659412348475016],[-0.3006931943003,44.659358261268515],[-0.300866384604991,44.659036908939726],[-0.301447787942425,44.65908920258657],[-0.301692174711659,44.65910380105915],[-0.30176715059049,44.65910354453016],[-0.301673420199517,44.65926844429759],[-0.301575920520415,44.659440124380865],[-0.301469059313675,44.65962010333687],[-0.301393075287113,44.65975825208971],[-0.301343193051497,44.6598441708732]]],[[[-0.300519045162455,44.65837706895978],[-0.300557964857961,44.65839491955038],[-0.300396682851632,44.65856399711389],[-0.300317609134972,44.65864943513271],[-0.300301696867271,44.65864288182031],[-0.300271426000904,44.65867568288462],[-0.300168650267974,44.65862162328748],[-0.300126823680352,44.65866405013471],[-0.300071645826202,44.65871777827911],[-0.30001484148469,44.658653245748155],[-0.299867864800683,44.65848471888173],[-0.299760149638072,44.65835926219346],[-0.299644552030072,44.65822854418975],[-0.299529354108747,44.65809817458429],[-0.299508209868236,44.658002302077314],[-0.299506598827242,44.65798126535867],[-0.29950807826617,44.657948332534836],[-0.299519680056698,44.657907168319156],[-0.299526854255842,44.657887401235634],[-0.299534255022305,44.65787150194664],[-0.299545142741175,44.657856940294884],[-0.299562760677177,44.657834428685746],[-0.299586890129638,44.657813164449905],[-0.299659516815906,44.65775990699336],[-0.299798895872495,44.65766302836974],[-0.299850196149021,44.6576271669605],[-0.299920838489579,44.657578834266296],[-0.299998271517274,44.65753651615966],[-0.300217971287083,44.65742723791373],[-0.300423162706454,44.65732244705802],[-0.300550479929948,44.657258906270485],[-0.300575450655252,44.65724554601874],[-0.300971849051356,44.65813513278634],[-0.300964839605484,44.65813831555053],[-0.300777146901311,44.65823798959071],[-0.300519045162455,44.65837706895978]]],[[[-0.299915875774571,44.65750059019239],[-0.299760148047904,44.657583449828046],[-0.299513053019346,44.657722919193],[-0.299445653430255,44.657761964039544],[-0.299397950370043,44.65780105182842],[-0.299341683303516,44.657842647795576],[-0.299213808530652,44.65794197582237],[-0.299073338208087,44.65805258233237],[-0.298969057425184,44.658134446361665],[-0.298962229777025,44.65812780202407],[-0.29890237233331,44.65806930707777],[-0.298835929724632,44.65800830539798],[-0.298797061081612,44.65797837851124],[-0.298699345646356,44.6579007391298],[-0.298600606883868,44.65782502242589],[-0.298478030514447,44.65773028358633],[-0.298277765740617,44.65757650003733],[-0.298159496697757,44.65748415536005],[-0.298007517412383,44.65736587444109],[-0.297789688081001,44.65719666529222],[-0.297904897534098,44.65706212492828],[-0.298001127505515,44.656946261841824],[-0.298088049917109,44.65684608440433],[-0.29818531949395,44.656793264232476],[-0.298239346621413,44.65676516145603],[-0.298178272911063,44.656705260802326],[-0.298256219374849,44.65662643574547],[-0.298380474904886,44.65649766208567],[-0.298435442131443,44.65647268486507],[-0.298540000470217,44.65642793665551],[-0.298618494595074,44.65639081400055],[-0.298706996128848,44.65634996869213],[-0.29881637523138,44.65630994209865],[-0.298928700887263,44.65627496351085],[-0.299278514011739,44.65616288606368],[-0.299400081535881,44.65634388534704],[-0.29953860381591,44.65631001660581],[-0.299781642284477,44.656314747495095],[-0.30004594202836,44.65634623546415],[-0.300169277626053,44.65653150631334],[-0.300342692026725,44.65678934932867],[-0.300444346259325,44.65694066644758],[-0.300106834290607,44.65705589451388],[-0.299994697521834,44.65709411246032],[-0.299906330068805,44.65712432229966],[-0.300091207205226,44.6574032688944],[-0.299915875774571,44.65750059019239]]],[[[-0.297971603258107,44.6583501810795],[-0.297849224208091,44.658426997256164],[-0.297890241101545,44.6584612755891],[-0.297857362299934,44.65848189933547],[-0.297683904602813,44.658585468446795],[-0.297681131670499,44.65858338860734],[-0.297481820691911,44.65864645995339],[-0.297348328614536,44.65868873599098],[-0.297554430435738,44.6588839761732],[-0.297427854888096,44.65890207785339],[-0.297303080142139,44.65891859388447],[-0.297233104815818,44.65892662759381],[-0.297139672714625,44.65893509041576],[-0.297022841743243,44.65894497172853],[-0.296946014522531,44.65895888623754],[-0.296907913666398,44.65896795163402],[-0.296834405864336,44.65898681301551],[-0.296760562050974,44.65900640521233],[-0.296667667716195,44.65903053001534],[-0.296467496885575,44.65908542546793],[-0.296429087168609,44.65910215890066],[-0.296402443984591,44.65907402923622],[-0.296379456236642,44.659050115668755],[-0.296217519773065,44.65889113090168],[-0.296130128429454,44.65880218859636],[-0.295879227384935,44.65859206227961],[-0.295858094482668,44.658573950208016],[-0.295885991520763,44.65855879182004],[-0.295968213034913,44.6584428976777],[-0.296055113564331,44.65840696805077],[-0.29630051960506,44.6583096364869],[-0.296502878772965,44.65822746407254],[-0.296679452609696,44.65813182336725],[-0.296777394676635,44.65805807990897],[-0.296890982924043,44.657973417546756],[-0.29710280061272,44.657813470927145],[-0.297078900003168,44.657793369189534],[-0.297144130818801,44.657743127278096],[-0.297198231019922,44.65770330910427],[-0.297469362601688,44.65792904810562],[-0.297667045276625,44.6580969666375],[-0.297723528201029,44.658143128250146],[-0.297895078568518,44.65828515448834],[-0.297971603258107,44.6583501810795]]],[[[-0.29626444674337,44.66305830152617],[-0.296143895785105,44.66315362291585],[-0.295967731784251,44.663295384494],[-0.295807489645701,44.66343739206669],[-0.295786604064337,44.66347531843595],[-0.295732596343471,44.663588028785114],[-0.295428871382785,44.663543557797034],[-0.294959940839226,44.663478598961404],[-0.295001244734786,44.663394741059776],[-0.295018895437044,44.66335330701109],[-0.295080788580098,44.663168187232955],[-0.295133261001536,44.662990376415074],[-0.295157260822645,44.662908565903],[-0.295180395452707,44.662837864196824],[-0.295198533770643,44.662623502335784],[-0.295202742329153,44.66259832747629],[-0.29524030869752,44.66245060566644],[-0.295288750754346,44.662262192293205],[-0.295316585674855,44.66215530812742],[-0.295399007841541,44.66187442455925],[-0.295439731245737,44.66174183650118],[-0.295449781199269,44.66173234618274],[-0.295457190554599,44.66172951229133],[-0.295469237931409,44.661734739808686],[-0.295482488865371,44.661747590456166],[-0.295616264277342,44.661917147416645],[-0.295715429795441,44.66205836127799],[-0.295744785655867,44.66210046684288],[-0.296004595770946,44.66237196110111],[-0.296157829444667,44.66253093577299],[-0.296342556701649,44.66272321170232],[-0.296518307813988,44.662898004092455],[-0.296441751688011,44.66293605842919],[-0.296332184661967,44.66301195012377],[-0.29626444674337,44.66305830152617]]],[[[-0.295511374466972,44.65950309366839],[-0.295497039687279,44.65951054916388],[-0.2954246261828,44.659554606591584],[-0.29532354783084,44.659652500487255],[-0.295237299484276,44.65975788163288],[-0.295181959634333,44.6598218840808],[-0.295162874342232,44.659845249620034],[-0.295145953107517,44.6598732361669],[-0.295112880469081,44.65995531699763],[-0.295113777878898,44.66016487639435],[-0.295117417132226,44.66033714039097],[-0.295116783403283,44.660436365798105],[-0.295117469408002,44.660506357588964],[-0.295117317249155,44.660678554382855],[-0.295106037777875,44.66115257696941],[-0.295113904722014,44.66124172754679],[-0.29513502372192,44.66131138077012],[-0.295159589001897,44.66134930413253],[-0.295228603355302,44.661441317981954],[-0.295287754183861,44.66152010986486],[-0.295394380158001,44.661659389602704],[-0.29539876276946,44.66168250630975],[-0.295400592595192,44.66170083337812],[-0.295398002674515,44.66173424974392],[-0.295362192004442,44.66184722850097],[-0.295334421632905,44.661922844003314],[-0.294962444854161,44.66185103152787],[-0.293842150249454,44.661470192407634],[-0.293808783615517,44.6614760520572],[-0.293741569410464,44.66135001387981],[-0.29365779205875,44.661271053737806],[-0.293597296309622,44.661214557256606],[-0.293393806531194,44.660986163067655],[-0.293283863994619,44.6608613072183],[-0.293114166928377,44.66073147299001],[-0.293102544845159,44.660720555902806],[-0.293068839195527,44.66068822059883],[-0.293027259789792,44.66063134069981],[-0.292948811662838,44.660455628045206],[-0.292910050013814,44.66036919962755],[-0.292870501289201,44.66028874161969],[-0.292548480325823,44.65970417405927],[-0.292492137597248,44.65960205005395],[-0.292440647566718,44.65950518787272],[-0.292409116333287,44.65939340457228],[-0.29265912985957,44.65932288576726],[-0.292988464901007,44.659229279755216],[-0.293591035501536,44.659060765757246],[-0.293685333070629,44.65903470955794],[-0.29394811399149,44.65896236574267],[-0.293992185705948,44.65895177191519],[-0.294150429066218,44.65890524849086],[-0.294296436821707,44.65885674663147],[-0.294438903384575,44.65879303210677],[-0.294770983368754,44.65864933014519],[-0.295090530680611,44.65857628313414],[-0.295363827889432,44.658521913925036],[-0.295459920569257,44.658584827182416],[-0.295531662982205,44.65863936544714],[-0.29559106577338,44.65869661421364],[-0.295653832724496,44.658778992304796],[-0.295668361064883,44.658807212914006],[-0.295695196678366,44.65886453128365],[-0.295768031809804,44.65891831600158],[-0.295855857001197,44.65903409718773],[-0.295880719135519,44.65905768466753],[-0.295961812895618,44.65913609230876],[-0.296029457297492,44.65920471885889],[-0.296053227442808,44.659229059704124],[-0.296077491493198,44.659255368150326],[-0.295900327983978,44.65933453600969],[-0.295711926736029,44.65941584064732],[-0.295511374466972,44.65950309366839]]],[[[-0.29135271510973,44.665672336105885],[-0.291337415096816,44.6658318282906],[-0.291307604431508,44.665898582925095],[-0.291260349339281,44.66600388141143],[-0.29125631643674,44.66601265160232],[-0.291189599552349,44.666147903794545],[-0.291134690713256,44.66622594773279],[-0.291034734548445,44.66636281981068],[-0.291000137974953,44.66641250657166],[-0.290922216383735,44.66651808679795],[-0.290883124384222,44.666575115767905],[-0.290856341578525,44.66660943216827],[-0.290822190856114,44.66665378935642],[-0.290737267721374,44.666756243880556],[-0.290734767950668,44.666758841231335],[-0.290728775916504,44.66676649832454],[-0.290710861140827,44.66675162332419],[-0.290696890642019,44.66673942423145],[-0.290662557617138,44.66670287174941],[-0.290628376773516,44.66666244017931],[-0.290615225371307,44.666644810354335],[-0.290576159037576,44.666572626683475],[-0.29056497553594,44.66651736416759],[-0.29056508508728,44.66649979027194],[-0.290575936993588,44.66641323608696],[-0.290597281653687,44.66631826015098],[-0.290619786632274,44.666217212594965],[-0.290621602031261,44.66617697138015],[-0.290608579640924,44.66610320180004],[-0.290584885860573,44.66603479569185],[-0.290558204713055,44.665986572070224],[-0.290523415008602,44.66594219395597],[-0.290498630911169,44.66591995445211],[-0.290474256493807,44.66589824338795],[-0.290631266040852,44.66558387770882],[-0.29068727110627,44.66547273259313],[-0.290947919381343,44.66501976319938],[-0.291606535792741,44.665199835034215],[-0.291566820968207,44.66526562306982],[-0.291499211643234,44.6653790964122],[-0.291473911114525,44.66541931583913],[-0.291359142530285,44.66565916956142],[-0.29135271510973,44.665672336105885]]]]}}]}
