{"type": "FeatureCollection","name": "aoc_geojson","features": [{"type":"Feature","properties":{"dt":"Bordeaux","type_prod":"Vins","categorie":"Vin tranquille","type_denom":"dénomination géographique complémentaire","signe":"AOC","id_app":685,"app":"Côtes de Bordeaux","id_denom":2077,"denom":"Côtes de Bordeaux Cadillac","insee":"33231","cvi":"1R167S","nomcom":"LAROQUE","insee2011":"33231","nomcom2011":"LAROQUE","id_aire":1452,"crinao":null,"grp_name1":null,"grp_name2":null},"geometry":{"type":"MultiPolygon","coordinates":[[[[-0.322114629454305,44.66268386297676],[-0.322106401027183,44.66283332772106],[-0.322027943094005,44.6628324409984],[-0.321882589212891,44.662827616829986],[-0.321843538691903,44.66282698782129],[-0.32182986869412,44.66282640730578],[-0.321787017381361,44.662819134417994],[-0.321739234850902,44.66281173932806],[-0.321659891034912,44.66279583105783],[-0.321578812059909,44.662776190352915],[-0.321511562258646,44.66275982858024],[-0.321361062035122,44.66271911545387],[-0.321220657845264,44.662682604246555],[-0.32112975009488,44.662656860829046],[-0.320945970091744,44.66260417127864],[-0.320844615241338,44.66257468657436],[-0.320762149559634,44.662544364187994],[-0.320723736587116,44.66252884796718],[-0.320527726658158,44.662448591822056],[-0.320465288366333,44.66242388520121],[-0.320408196537626,44.6623999190718],[-0.320273476979693,44.662337735697896],[-0.320257902330242,44.6623305442584],[-0.320118188297625,44.662267159070744],[-0.320106519877498,44.662249127579024],[-0.319963878523319,44.66218105442971],[-0.319876938360382,44.662139061737086],[-0.319754094756332,44.662079134315356],[-0.319577904199072,44.66199449705825],[-0.319522917414097,44.661967673985664],[-0.319340133881536,44.661886838582085],[-0.319399622750152,44.6617651202883],[-0.319493308616289,44.6615681271492],[-0.319681028288584,44.66118007723635],[-0.319795794446379,44.660942353307725],[-0.319807952961629,44.6609172989362],[-0.319770682595899,44.660895440637724],[-0.319591615597699,44.66078764230139],[-0.319290490176282,44.660607457570215],[-0.319134262154746,44.66050798364442],[-0.318957914867426,44.66039487652694],[-0.319024390202073,44.659376204339765],[-0.319037576658287,44.65923361976314],[-0.318920201202834,44.65918280857033],[-0.318941589061734,44.6591729756678],[-0.318989341574338,44.659141356451535],[-0.31901615494934,44.659114330463794],[-0.319115067350142,44.658954665345306],[-0.319230676123086,44.658763412020605],[-0.319264877362186,44.658707510181486],[-0.319358361088549,44.65855215271597],[-0.31942597162628,44.65845262725872],[-0.319541917584315,44.65826713030318],[-0.319612839723117,44.65814669059833],[-0.31986145843709,44.658271593000904],[-0.32021574351359,44.65844783660714],[-0.320606305205657,44.658641912161656],[-0.320749890739104,44.65871328974764],[-0.320791324157476,44.658735112740544],[-0.32083706491206,44.65875932934752],[-0.320895619170789,44.6588210060312],[-0.321037878003134,44.65896622077164],[-0.321102763003092,44.659032482885905],[-0.321128335790496,44.659067937790624],[-0.321207187201743,44.65918478093031],[-0.32128698603829,44.65930483942364],[-0.321311764288899,44.659346085014406],[-0.321317409765647,44.659364747807324],[-0.32135475714665,44.659420032963276],[-0.321391156010289,44.65947850034951],[-0.321420735092287,44.65953050466563],[-0.321474944200508,44.65962123599703],[-0.321516101594392,44.659689742508874],[-0.321579659318597,44.659791276142144],[-0.3216356267259,44.6598797019218],[-0.321776732855549,44.66012731219892],[-0.321792467226954,44.66015648474023],[-0.32181368432342,44.660195134026026],[-0.321903811502415,44.660361827719825],[-0.321979157098167,44.66050265418192],[-0.322015577117283,44.660567878826],[-0.322020733452792,44.6605846640485],[-0.322035895844973,44.660649085639804],[-0.322066587124972,44.660758454671786],[-0.322075897918852,44.66081998842956],[-0.322100769976531,44.6609976532994],[-0.322104465368435,44.661047461631405],[-0.322112297626274,44.66117382685826],[-0.32212746772832,44.66139890928801],[-0.322141359024129,44.66162799487518],[-0.322153221464503,44.661784154628265],[-0.322155065018282,44.661828251754905],[-0.322143565457903,44.66208278960694],[-0.322132922271329,44.66226836974942],[-0.322124406564225,44.662490018969315],[-0.322114629454305,44.66268386297676]]],[[[-0.322087032348373,44.663320488585306],[-0.322043150762354,44.66344345167292],[-0.32203868495748,44.66345764256517],[-0.32198251170814,44.66355844809583],[-0.321826433340182,44.663731457208954],[-0.321769257217888,44.663789581924675],[-0.321757723983587,44.663805967469635],[-0.321523349498068,44.66402584107749],[-0.321335899683174,44.6642064597031],[-0.321245990664766,44.66429404116804],[-0.321162550966032,44.66440782966706],[-0.321083511892971,44.66451274553176],[-0.321021552071378,44.664592549126965],[-0.320982909356911,44.664663092229546],[-0.320917397537094,44.66478544293585],[-0.320873768573496,44.664861361962345],[-0.320849884145113,44.66492524440321],[-0.320790519907248,44.665081200617195],[-0.320765879057508,44.66514510575536],[-0.320740875945526,44.66520929208833],[-0.320733129857332,44.6652642197882],[-0.320702570587056,44.66546544584197],[-0.320671042713984,44.665663096693],[-0.320655145622574,44.66577251371713],[-0.320660615431459,44.66592309887773],[-0.320667714089006,44.666120581011874],[-0.320677379159945,44.666342315054806],[-0.320655850263524,44.666439736738],[-0.320602107250466,44.66668464016347],[-0.320564076913746,44.66685554422543],[-0.320558282823449,44.66702710224116],[-0.320549653000427,44.66720838689517],[-0.320544686070872,44.667329730334764],[-0.320522811193815,44.66733777597101],[-0.320490521504773,44.66733622252443],[-0.32030654958566,44.6673319247468],[-0.319920211593218,44.66731973556505],[-0.319612832669626,44.667310401033916],[-0.319438582693182,44.66729752011135],[-0.31917786606579,44.667276511474164],[-0.318790489752221,44.66724668852102],[-0.318738395997277,44.667236898405996],[-0.318719257989189,44.6672271104255],[-0.318703820067904,44.66720297446372],[-0.318655070024334,44.667063509828196],[-0.318500281740748,44.66663518999277],[-0.318441519693331,44.666460793875956],[-0.31839027411586,44.66633681241153],[-0.318293361725568,44.66609994543675],[-0.318208781167566,44.66589235362831],[-0.318167100701727,44.66578926027158],[-0.318153227295874,44.665753093072816],[-0.318149958798442,44.66572976329818],[-0.318152764889476,44.66571309938826],[-0.318161663313604,44.66569697352607],[-0.3181725193836,44.66568835791856],[-0.318190619892394,44.665674118501244],[-0.318245581987876,44.665649041403476],[-0.318397300847742,44.66558177407502],[-0.318483740460429,44.66554448886062],[-0.318500662271858,44.66553596151062],[-0.318524907969647,44.66552315954877],[-0.31853537523045,44.665514375357425],[-0.318547877998315,44.66550156536573],[-0.318553238888618,44.66548969055837],[-0.318553368016203,44.66546616872311],[-0.318550304270902,44.665452744597545],[-0.318540291274607,44.665437096127064],[-0.318411466695976,44.6653207591873],[-0.318240369939659,44.66516198866188],[-0.318219925326134,44.66514286869598],[-0.318195533659593,44.66510818853147],[-0.318096840101872,44.66496319415088],[-0.318042898123756,44.66487056072556],[-0.31798831168722,44.66476055595413],[-0.317953151717794,44.66469096699205],[-0.317946983755682,44.66467628439553],[-0.31792113895977,44.66460407314187],[-0.317887909057281,44.66450937649377],[-0.317883423153568,44.66449752685223],[-0.31788372366297,44.66448976862832],[-0.317860735897106,44.66442747352993],[-0.317851714539877,44.664409362370314],[-0.317827702260614,44.66433610494834],[-0.317797564558449,44.66424888450519],[-0.317774596311123,44.66410332990598],[-0.317770336803005,44.66408246276645],[-0.31778015215795,44.66406261504034],[-0.317802463301018,44.66401698220369],[-0.317817969955226,44.66398443883288],[-0.31787079425562,44.66387166177791],[-0.317939799712582,44.66373136706272],[-0.317964267681356,44.663593760297964],[-0.317961198879113,44.66358024621758],[-0.317955795974786,44.663572118488574],[-0.317753868791105,44.66342355362356],[-0.317708503681453,44.66339932435452],[-0.317565355582672,44.66331621541701],[-0.317206808772743,44.66310657037955],[-0.317036055946687,44.66300491592894],[-0.316925047901711,44.66294012499214],[-0.316853595147678,44.662897395051026],[-0.316849671096297,44.66289507986928],[-0.31706944166247,44.66269070261597],[-0.317099964490363,44.66266230436028],[-0.317124377432882,44.66263949580186],[-0.317133699478764,44.66263056588417],[-0.317192598219899,44.66257590619185],[-0.317395070533637,44.662386554399575],[-0.317150312737373,44.662237381392366],[-0.317094876578354,44.66220291152862],[-0.317101721394008,44.66219693934882],[-0.317319761536897,44.66201468965642],[-0.317338220807422,44.6620258497663],[-0.317377482123178,44.66204936118877],[-0.317452149708158,44.66209523815695],[-0.317604573604813,44.662187980567296],[-0.317870357195675,44.66235328160695],[-0.318004363077684,44.66224266403097],[-0.318045159284293,44.66220864091318],[-0.31802504434903,44.66219509770739],[-0.318067374094847,44.66216138899154],[-0.317672945844332,44.66193408018078],[-0.31795232583681,44.66167438896241],[-0.318013838609152,44.661670560798655],[-0.318106376285874,44.661666162035374],[-0.318228341691677,44.66165979881263],[-0.318286084088238,44.661656263856266],[-0.31844575966067,44.66167922487846],[-0.318626053850149,44.661704990920875],[-0.318653497441635,44.661714349351136],[-0.318815669778808,44.66176039241618],[-0.318867772615862,44.661776849969584],[-0.318951843943356,44.66180874742669],[-0.319052639911468,44.661848072226896],[-0.31920570870215,44.66190673266426],[-0.319488776369279,44.662031053000426],[-0.319650812974779,44.662113322009255],[-0.320015088307864,44.66229800768266],[-0.320174320685264,44.662377656963116],[-0.320288716254298,44.66242918734881],[-0.320375679981737,44.662465141861034],[-0.320513064145085,44.66252111782537],[-0.320618788377884,44.66256047350171],[-0.320813303885033,44.66263464709966],[-0.320908061404997,44.66266144654467],[-0.321160149719114,44.66273560250144],[-0.321450559521545,44.66281085950067],[-0.321527830966069,44.662830164136416],[-0.321569323686775,44.66284009104263],[-0.321651266505042,44.662855110341695],[-0.321733502588027,44.66286867905665],[-0.321805370815597,44.66287985595634],[-0.321962585330043,44.66288026908544],[-0.322095617271338,44.66288167884588],[-0.32210292853361,44.66288362176236],[-0.322099274722147,44.66300789927257],[-0.322093122420396,44.66316045541025],[-0.322090181550568,44.66323902715172],[-0.322087032348373,44.663320488585306]],[[-0.317955696972475,44.66272817912016],[-0.318023652050177,44.662769391393184],[-0.318033496722149,44.66277576390493],[-0.318371430858643,44.66298269088973],[-0.318692792441702,44.66277976681991],[-0.318836554115581,44.66268687680953],[-0.318445106627102,44.662478133190326],[-0.318346172313092,44.662425416100284],[-0.317933270874714,44.66271398438316],[-0.317955696972475,44.66272817912016]]],[[[-0.318906556749781,44.65864915441733],[-0.318873328626363,44.658747287066866],[-0.31885404679111,44.65880571447687],[-0.318845782129722,44.65882614649995],[-0.318800306978911,44.65892212374264],[-0.318772311580886,44.65898693995222],[-0.318708412456143,44.65921376476138],[-0.318686688862039,44.65922432854961],[-0.318649154809933,44.659255821144065],[-0.318344140085884,44.65921514638816],[-0.317962459313188,44.65916532785702],[-0.317970005682834,44.65879836641475],[-0.317985767626188,44.658397278303354],[-0.317967772265523,44.65838754613716],[-0.317956954660586,44.65839679133569],[-0.31783300684831,44.658504403944434],[-0.317659517559229,44.6586582860425],[-0.317434675050057,44.65885984334123],[-0.317255830283027,44.659019291854435],[-0.317012709374312,44.659238516916616],[-0.316856381454815,44.6593816106525],[-0.316959020963386,44.65943304627129],[-0.31706963823736,44.65956849237748],[-0.31709375738876,44.659630753498355],[-0.317118177934796,44.65971742453448],[-0.317032963444319,44.65981396240162],[-0.316911673854753,44.659953932614144],[-0.316750744945177,44.6601411363396],[-0.316671691791325,44.66023298374409],[-0.316573273750824,44.660349740788014],[-0.316481477523522,44.66045674779626],[-0.316386942250076,44.66056870264484],[-0.316297963465263,44.66067211081743],[-0.316108205841848,44.66089081449666],[-0.315930551292738,44.66080044881294],[-0.315844229465536,44.66075600169975],[-0.315647099499568,44.66065648808309],[-0.315590771969636,44.66061970151223],[-0.315380774492755,44.660481737263886],[-0.315166613805764,44.66034380737022],[-0.315110009406444,44.66030874090779],[-0.315149649616988,44.66026150785419],[-0.315676004859537,44.65961623929947],[-0.315994617610307,44.65922526248514],[-0.316143228752116,44.65904113255623],[-0.315839022856919,44.65889833575335],[-0.315449858011095,44.65935828686068],[-0.315395649275661,44.65942181565726],[-0.31534608543818,44.65948060970651],[-0.315307894729329,44.65952671809506],[-0.31531465564586,44.659532192103015],[-0.315290864941257,44.659559126508036],[-0.315003916392051,44.659432840096365],[-0.314965368616311,44.65940209800699],[-0.314976453812256,44.65939095285361],[-0.31498413716176,44.65939279495473],[-0.315197443352712,44.65913662369853],[-0.315420965271992,44.65886744062574],[-0.315517476851738,44.65875047151369],[-0.315298291626561,44.658655763839896],[-0.31473729720163,44.65904057922139],[-0.314544662981551,44.6589594010417],[-0.314412747310523,44.65912482665056],[-0.314231621958051,44.659039698670384],[-0.314229668059509,44.65903867595679],[-0.314025107143051,44.65894145497219],[-0.31436154701566,44.65849930890207],[-0.314532534349272,44.65827702615873],[-0.314307346670778,44.65815104935293],[-0.314282098999245,44.65817253069616],[-0.314113790512197,44.65831805195195],[-0.313966250420927,44.658443217100064],[-0.313870031485365,44.658378520960866],[-0.313661006161477,44.65823755128606],[-0.313544424434077,44.65816148097053],[-0.313494361567668,44.658128110005],[-0.313312580546871,44.658269978929106],[-0.313132183922886,44.65840964349268],[-0.313109459180595,44.65839032076032],[-0.312947383005138,44.6582555119254],[-0.312912440844307,44.65822808520775],[-0.312777460502031,44.6581160722161],[-0.312704633806576,44.65805626086415],[-0.312245818166785,44.65827887354155],[-0.31206312316545,44.65836661364097],[-0.312075475595388,44.65838345397805],[-0.311783881967546,44.658519328688065],[-0.311766162378329,44.65848850234779],[-0.311771375946502,44.65847410935231],[-0.311777205578255,44.658463752699284],[-0.311788386417367,44.65845422693606],[-0.311886288445866,44.65840588076953],[-0.311910635627853,44.65838839166355],[-0.311946279590604,44.65833758516512],[-0.311980820633778,44.65826158185308],[-0.311954464650873,44.658122525942986],[-0.311916627121941,44.658026524462336],[-0.311741411121198,44.657777672280446],[-0.311627772136695,44.65760987358334],[-0.311505800411247,44.65742916881943],[-0.311421321670401,44.6572999632534],[-0.311219323131001,44.65713661267816],[-0.311009222509673,44.65697071110585],[-0.310792278382616,44.65679789569647],[-0.311126594467051,44.6566028957197],[-0.311435990381547,44.656911705552524],[-0.311764600628241,44.65681292801696],[-0.311829889898721,44.65687341618821],[-0.311996289259123,44.65677913622315],[-0.311897383619957,44.65668154006124],[-0.311830368290691,44.656636782172264],[-0.311824142060911,44.65662750748896],[-0.311791052180414,44.65636746013318],[-0.311640531152922,44.656332411936745],[-0.311564852988517,44.65631422447471],[-0.311476455451601,44.65625361734422],[-0.311408856677693,44.65620536255487],[-0.311327941294394,44.65613029440453],[-0.31110271387586,44.655971153668474],[-0.311021341870661,44.655894747401014],[-0.310845210639738,44.65573323485062],[-0.310778652211371,44.65565755621565],[-0.310713035107577,44.65558500308532],[-0.310482309804791,44.6554417944864],[-0.310484448690063,44.6554330802292],[-0.310315848609822,44.65534811209249],[-0.310368666154594,44.65526732716556],[-0.310496960482045,44.65507246024466],[-0.31045549401384,44.65505640142503],[-0.310584625401135,44.65488223379915],[-0.310685156107274,44.65474983074424],[-0.310783555507492,44.65461983417935],[-0.310793786730549,44.65460060546005],[-0.310955890512653,44.65447843253951],[-0.311157791579289,44.654324611525986],[-0.311256747047846,44.65424920232636],[-0.311374496184457,44.65419071078562],[-0.311579303471868,44.65408636043128],[-0.311737058314172,44.6540062160376],[-0.31176223905381,44.653990053565416],[-0.311946926367973,44.65386558070539],[-0.312140556189489,44.65373218940158],[-0.312239469757956,44.65366254733551],[-0.312312002578101,44.653614420017554],[-0.312388839038901,44.65356219902738],[-0.312525666499008,44.65346754256096],[-0.312596623189637,44.65341838099168],[-0.312676121265093,44.653366350360585],[-0.313013721622219,44.65313105825104],[-0.313298598994895,44.652933027272894],[-0.313525657774951,44.652775744519005],[-0.313690300554129,44.65292867637252],[-0.313991228687774,44.653196643684325],[-0.314195635946025,44.65338172233846],[-0.31439180630501,44.65355551396511],[-0.314596131495714,44.65373915273872],[-0.314788619181881,44.65391467608524],[-0.314900812497128,44.65401925989788],[-0.314946260564492,44.65407078977053],[-0.315436089281626,44.654620349455676],[-0.315222406472816,44.65475398759053],[-0.316374560612963,44.655675555477906],[-0.316985869760851,44.6562038046529],[-0.317466128888602,44.65665452658796],[-0.317674684148444,44.65656239695245],[-0.317697998615535,44.65655313721288],[-0.317729579612575,44.65660706458743],[-0.317763025990172,44.656673370717115],[-0.317788538840061,44.65672072216181],[-0.317821441895031,44.65675208314851],[-0.31785284333757,44.656783669401364],[-0.317872890837865,44.656802530876114],[-0.317904208764591,44.65686484604201],[-0.317921535699306,44.65688252765537],[-0.317994557468619,44.656926290800996],[-0.318123523343056,44.657000362916506],[-0.318180520254002,44.65703568629033],[-0.318266200298487,44.65709501828967],[-0.318322328351897,44.657115590153126],[-0.318375011480404,44.65713554452692],[-0.318427512653251,44.65715883829094],[-0.318454590015274,44.65717487558478],[-0.318515535721025,44.657219361287304],[-0.318544252580027,44.65723751191747],[-0.318607560502176,44.657270663318],[-0.318634742163968,44.6572948971645],[-0.318666736206617,44.657323672116185],[-0.318683749052302,44.657342444334425],[-0.318712736249576,44.657384465128146],[-0.318760218545123,44.65747684114273],[-0.31883878373756,44.65754395528421],[-0.318885133944811,44.65761068478343],[-0.318919748271045,44.657658213358275],[-0.318933363997543,44.657677177625956],[-0.319004599739991,44.657735591100064],[-0.319037431659835,44.657778577699084],[-0.319055144402353,44.657809222970755],[-0.319065112036629,44.65783054940879],[-0.319067071339981,44.65785094485715],[-0.319062103506026,44.65786947579103],[-0.31905687245813,44.65789639456697],[-0.31903699227175,44.657983223637586],[-0.319035503042493,44.65801579693084],[-0.319060420438917,44.658065869238186],[-0.31909062032675,44.658134885631284],[-0.319059943804915,44.658192754061666],[-0.319039252573894,44.658265821129426],[-0.31898798004955,44.6584369414249],[-0.318978531927874,44.6585401271254],[-0.318906556749781,44.65864915441733]]],[[[-0.318616012049648,44.66726850441757],[-0.318593802994009,44.667270882940365],[-0.318566704727273,44.66727385871655],[-0.318523868036539,44.667279739674306],[-0.318451029907698,44.667290755947775],[-0.317724149386324,44.66738140783071],[-0.317460998485189,44.66741552364943],[-0.317299674923883,44.66743559121892],[-0.31685416721051,44.66749283671435],[-0.316517303631396,44.66753600928743],[-0.316122855130019,44.66758550309694],[-0.31519872977026,44.667697461075136],[-0.315147366927911,44.66770008213363],[-0.315091024784557,44.66770177115143],[-0.314698184581958,44.66771426772237],[-0.314618622622456,44.667714039385004],[-0.314573613923175,44.66771520822272],[-0.314549600808432,44.667712684111095],[-0.314483622230461,44.66770511030554],[-0.314356276862812,44.66769108585639],[-0.314260917244663,44.667679887144395],[-0.31414698140081,44.66766843410266],[-0.314063412863004,44.66765805324512],[-0.314040869990311,44.66765476410797],[-0.313980068991196,44.66764505249027],[-0.313909320057553,44.66763365659611],[-0.313731391364927,44.66760330607457],[-0.313647952384565,44.66758868599918],[-0.313624211649434,44.66758435138872],[-0.313605727756059,44.66757922850742],[-0.313549413978862,44.667562083538165],[-0.31343814029808,44.66752504974279],[-0.313379441393767,44.667505993802635],[-0.313318814814378,44.66748636484048],[-0.313183753165855,44.66744418657399],[-0.313121267802684,44.667425153839744],[-0.313083091731116,44.66741368261534],[-0.312955141296597,44.66738291482514],[-0.312904172247284,44.667372908081184],[-0.31283575616809,44.66736252291384],[-0.312749451443441,44.667350691237424],[-0.312728537707197,44.66734933538791],[-0.312636512736737,44.66731109344538],[-0.312569061554648,44.66728491050522],[-0.312523330814824,44.66726735791149],[-0.312449980251483,44.66723747701937],[-0.312450186292467,44.66722809973065],[-0.312203200326483,44.66713133410753],[-0.312145139597603,44.667116673662626],[-0.312039576922752,44.66709298349937],[-0.311983848544116,44.66707933440024],[-0.311946928998491,44.66706989762443],[-0.311905178390929,44.66706204723261],[-0.311829105030418,44.667050268865964],[-0.311767554091404,44.66704066863207],[-0.311703282202002,44.66702988835383],[-0.31165207308541,44.667022231018116],[-0.311461679788755,44.66699243043671],[-0.311440282305647,44.666989286697905],[-0.311425461145081,44.66698846901996],[-0.31135384626699,44.666988090499],[-0.311334487534048,44.66698740868259],[-0.311310601805163,44.66698704263189],[-0.311219538303592,44.666997338352],[-0.311147658985076,44.66700534755002],[-0.311155681725137,44.66696140552115],[-0.311183837911498,44.66684756849935],[-0.310586294164669,44.6668573493371],[-0.310582213373668,44.66692324946363],[-0.310579365259239,44.66694568121317],[-0.310567201065176,44.666996505179206],[-0.310559685608233,44.66703619694612],[-0.310488298036397,44.66703968565058],[-0.310465615422514,44.66704045478844],[-0.310454234459743,44.66704016474183],[-0.310419922376661,44.66703641624265],[-0.31025577387486,44.667021326311435],[-0.310188630566968,44.667013244212924],[-0.309934437094397,44.66698066522699],[-0.309839415397344,44.66696873180132],[-0.309661945604544,44.666946110317596],[-0.309598099931333,44.666936127036756],[-0.309495640167688,44.66692009080521],[-0.30941462008482,44.66690791820191],[-0.309328285061233,44.666895544167765],[-0.309270489598737,44.66688537964358],[-0.30916439957379,44.66686557715885],[-0.308887538801858,44.66681466159489],[-0.308807841272195,44.6667992051415],[-0.308759372428699,44.6667865987315],[-0.308639419357108,44.666756487850634],[-0.308594417171749,44.666744858929675],[-0.308563931907773,44.66673531864708],[-0.308396544993846,44.66667797275017],[-0.308315388765833,44.66665057540538],[-0.308295665594379,44.66664368660423],[-0.308276209595299,44.66663489756672],[-0.308244950026747,44.6666186223641],[-0.308124110630283,44.66656051428822],[-0.308000751385702,44.66650464402777],[-0.307800580341882,44.66639214153497],[-0.307758390069493,44.66637033623495],[-0.3075872276553,44.666293819292335],[-0.30750674410605,44.66626495956063],[-0.307367707735828,44.666219469263574],[-0.307250186930549,44.66618558982504],[-0.307150760412635,44.66615666563313],[-0.307081128914956,44.666131986387896],[-0.306967844916986,44.66609284387964],[-0.306824132433591,44.6660386623217],[-0.306631828969966,44.66596331681139],[-0.306436087013514,44.66587455781204],[-0.306360574178159,44.6658335644893],[-0.306257684498353,44.66577789132643],[-0.306192103470495,44.665738312974035],[-0.3061449649539,44.66570962673016],[-0.306092469393133,44.6656800193503],[-0.306006705500984,44.665638611429735],[-0.305837877752489,44.66555661575022],[-0.305702939701986,44.66549054676841],[-0.305623938337898,44.66544172789294],[-0.305535614059468,44.66538895264438],[-0.305373331291986,44.665289370109065],[-0.30520914265981,44.66518957400246],[-0.305105987466044,44.66511642713207],[-0.304998567656442,44.6650416055056],[-0.304899431721803,44.66497239312713],[-0.304780304714618,44.66489170385449],[-0.304518488578702,44.66471607141505],[-0.304501910996743,44.66470467276072],[-0.304455423015606,44.664667676628625],[-0.304292595109711,44.664539364999214],[-0.304109901757783,44.664395247373555],[-0.304009761989143,44.66431534161545],[-0.303885722019875,44.664215425401906],[-0.303835221539176,44.664174584244996],[-0.303763441146048,44.664113203850555],[-0.303650538007106,44.66404169860201],[-0.303506262380288,44.66399068357526],[-0.303287024140033,44.66391442529603],[-0.303049774142609,44.663860420251325],[-0.302950235951135,44.66384239869826],[-0.302852373794199,44.66382712029236],[-0.302578838095418,44.66378086593589],[-0.302420054753142,44.663753710475824],[-0.302361533907709,44.66374401468344],[-0.302304247623645,44.663735994011404],[-0.302131092651623,44.66371566488313],[-0.302137120189396,44.663689263958815],[-0.302171294544997,44.66352920584186],[-0.302182728829592,44.66347227764005],[-0.302101936780992,44.6634638775469],[-0.301899594475859,44.66344315819296],[-0.301550977447882,44.663408334152464],[-0.301143982959288,44.66336624119728],[-0.301151200260927,44.66332782069672],[-0.30097862012933,44.66331080658656],[-0.300979265635734,44.66330889508637],[-0.300760911954718,44.66328639899792],[-0.300751686429128,44.66331640942734],[-0.300678392242412,44.663584590749494],[-0.300350158951051,44.66356149902618],[-0.300256221401664,44.66354853409311],[-0.300161510486086,44.66352883419892],[-0.300146059298991,44.663523708749544],[-0.300011798221057,44.66347545404051],[-0.299904846933042,44.66343431353385],[-0.299855131361837,44.66341327061141],[-0.299734864778046,44.663358200423055],[-0.299664715632137,44.66331163638963],[-0.299484045864335,44.6631759212574],[-0.299324181967427,44.663059138103065],[-0.299180537686574,44.66295412524618],[-0.299151224748221,44.66293220297782],[-0.299099774927702,44.66290093938791],[-0.29904371412896,44.66286855185859],[-0.299032874259152,44.662864550170895],[-0.298885310706661,44.662828404850096],[-0.298770551344747,44.66280912172111],[-0.298662318296068,44.66281072861018],[-0.298484654837425,44.66281035173753],[-0.29832910061467,44.66281237870498],[-0.298192950927673,44.662815899112175],[-0.29798085461409,44.662822585564726],[-0.297733122583698,44.66283520010504],[-0.297509904146407,44.66284600179873],[-0.297148810532072,44.662876142161544],[-0.296904503102583,44.66289550077678],[-0.296877715452519,44.66289729062569],[-0.296825484085206,44.66289794684289],[-0.296798522678935,44.66289676835506],[-0.296723609196194,44.66289170325212],[-0.296697272381609,44.662888253468466],[-0.296597444071067,44.662871676663976],[-0.296551737682647,44.66285438734602],[-0.296485739477911,44.662801029811334],[-0.296478533451155,44.66279439658067],[-0.296457802259074,44.66277023546588],[-0.296366417211736,44.66267141032134],[-0.296155181338482,44.662446855749174],[-0.295979183566994,44.66225486000576],[-0.295910941649565,44.66218255670505],[-0.295834479924358,44.662099235130135],[-0.295808481287784,44.6620691938214],[-0.295794010809417,44.66204845023536],[-0.295739101172711,44.661964486228115],[-0.295705427518244,44.66191331855543],[-0.295645678249259,44.661843735493214],[-0.295518611228273,44.66169172950347],[-0.295419728275412,44.66157474558169],[-0.29536676442332,44.66150459975125],[-0.295225542162523,44.661317783952725],[-0.295221597251313,44.661308620610725],[-0.295209389691813,44.661281231800736],[-0.295199477032347,44.66125422512937],[-0.295187572744125,44.66117375492673],[-0.295190351103982,44.661007607029134],[-0.295193684794906,44.66091568981493],[-0.2951974937631,44.660760684344524],[-0.295200925803017,44.660657500976235],[-0.295202062544023,44.66059277110347],[-0.295201504867302,44.66033075994265],[-0.295199175699831,44.660180893250576],[-0.295198722430658,44.65999835235456],[-0.295198332636492,44.65994637291158],[-0.295199686307405,44.659937141776325],[-0.295220543044192,44.65988579063377],[-0.295279041984437,44.65980457391141],[-0.295354428306267,44.65972069132139],[-0.295429952067095,44.65964563495034],[-0.295504823873855,44.65956591245224],[-0.295601902275915,44.65952265162474],[-0.295789085576006,44.65943994179681],[-0.295878119408052,44.659401606005076],[-0.296110931379772,44.65929609031181],[-0.296154051105131,44.65927570245937],[-0.296365660698694,44.65918974048642],[-0.296570009062598,44.659115618237394],[-0.29664606366134,44.65909496909398],[-0.29677161950325,44.659065905815396],[-0.296989659791046,44.65901218897928],[-0.297057606939222,44.65899538552985],[-0.29720794498738,44.65898207214051],[-0.297328787445525,44.65896954804074],[-0.297430678453588,44.65895677803117],[-0.297577165972442,44.65893591996451],[-0.297669195191248,44.65892290321025],[-0.297730443018967,44.65891458888566],[-0.297754408400359,44.6589099094556],[-0.297768176159863,44.65890571438013],[-0.298058376800169,44.65879722130395],[-0.298251399076057,44.658717306483375],[-0.298288547341979,44.65869844748355],[-0.298376626083253,44.6586503165506],[-0.298457792749128,44.65859410199778],[-0.298467698870863,44.658608043217484],[-0.2985693448884,44.658752784622905],[-0.298681432564722,44.65890766673686],[-0.298779171216722,44.65904387439666],[-0.298809992705783,44.65908512444165],[-0.298846508977358,44.65913954025959],[-0.299005205740575,44.65923013755247],[-0.29893321433178,44.65926841798821],[-0.299016170866326,44.65939794815423],[-0.298886494637714,44.659434255301264],[-0.298939529031671,44.65964135845977],[-0.299088472162679,44.659739995817404],[-0.299414009209686,44.659892022632285],[-0.299660380184838,44.659630121183426],[-0.29975662413182,44.65952741154256],[-0.299874266856862,44.6594020773149],[-0.300038130887948,44.65923175213676],[-0.300129459752095,44.65928435142638],[-0.300268489267553,44.65935598097097],[-0.300391485413879,44.65941898822064],[-0.300508200591079,44.65947821816294],[-0.300529817407963,44.65949162944718],[-0.300563372342719,44.65951486635633],[-0.300790208643886,44.65968236013316],[-0.300806017286457,44.65969360199797],[-0.300887074611642,44.65973893843375],[-0.300942387729992,44.65977152746245],[-0.300951341987742,44.659775675343326],[-0.301036738561284,44.65980457293194],[-0.3010081966036,44.65986687739002],[-0.301185105798772,44.65993854638204],[-0.301334433204962,44.65999842376501],[-0.301545250635978,44.66009286782273],[-0.301616338686143,44.660123183394454],[-0.301772941902769,44.66019086241229],[-0.301895426907928,44.66023216779532],[-0.301867695696456,44.660256603713336],[-0.301864904581192,44.66026713937433],[-0.302013120911728,44.660308036675346],[-0.302026985207346,44.6603119477399],[-0.302033198092762,44.66031455549416],[-0.302058051235389,44.660331474103764],[-0.302065430029911,44.66033458767525],[-0.30207236218256,44.66033654320448],[-0.302170779121753,44.66034847159626],[-0.302196596219743,44.66035599034704],[-0.302256339055304,44.66037366906265],[-0.30235997876538,44.66039715511324],[-0.302440008282804,44.660418462836574],[-0.302641052129733,44.66047535222701],[-0.302671469712202,44.66048381473494],[-0.302837009059904,44.66051653452166],[-0.302853630858388,44.66052225534874],[-0.302959365380666,44.66056207761219],[-0.302966564910109,44.66056213286993],[-0.302973312501721,44.66056094014031],[-0.302978955771928,44.6605538333881],[-0.303069879923098,44.660586529037765],[-0.303121122386299,44.660607795160445],[-0.303158741370819,44.660622800378725],[-0.30315553374091,44.66062623013135],[-0.303150449652127,44.66064287144845],[-0.3032155935895,44.66066867809085],[-0.303302522604192,44.660704286203234],[-0.303372506258494,44.660722199037295],[-0.303367747598386,44.660718556740896],[-0.303500329022064,44.660647827051],[-0.30369862020937,44.66054152429523],[-0.303728862001892,44.66052115777122],[-0.303918997627575,44.66037914588046],[-0.304035405072476,44.66021996392375],[-0.304156243359197,44.6600588473045],[-0.304191615455162,44.659983903161496],[-0.304245249256659,44.65986516228433],[-0.304325513277667,44.65969678797084],[-0.304554982869687,44.65974111054705],[-0.304969220867089,44.65981667343157],[-0.305376292200891,44.65989271935786],[-0.305410443219424,44.65990025855064],[-0.305589379811317,44.65976758904906],[-0.305801065692475,44.65983154327583],[-0.305895069822752,44.659871533243816],[-0.306062485605241,44.65994266750333],[-0.306164993701525,44.66000492957337],[-0.306339141722338,44.660106858727744],[-0.306410801554714,44.660159770896186],[-0.306564604562302,44.660269967144174],[-0.306606260698945,44.66029566324607],[-0.306636014499172,44.66031216399628],[-0.306653115043954,44.66031958196618],[-0.306737069532191,44.66034320212169],[-0.306812923678328,44.66035787361708],[-0.306837417020489,44.66036218706236],[-0.306924509196347,44.66036183504744],[-0.307035114570847,44.6603555535507],[-0.307138856249865,44.66034848606175],[-0.30718425624815,44.66034118114073],[-0.307259499619707,44.66031964782449],[-0.307514548906496,44.66024479947435],[-0.307727530601881,44.66097567927737],[-0.307007156752306,44.66107922335615],[-0.30635386082889,44.66128023439501],[-0.30638364975493,44.661355393450236],[-0.306260730828874,44.66140358147473],[-0.305819566016923,44.66157932374975],[-0.305801104693395,44.66158744462004],[-0.305806590126142,44.66159701211308],[-0.305818177894454,44.66160729822945],[-0.305828812911358,44.661627164106],[-0.305763665770068,44.66166587519024],[-0.305591725193105,44.66176941160981],[-0.305257123732732,44.66196683515619],[-0.304986250831998,44.662127211388174],[-0.305299835650374,44.662371938192685],[-0.304974363534002,44.6625571938583],[-0.305131779637294,44.66269017134205],[-0.305205168396057,44.6629661361719],[-0.305284730654446,44.663076210778065],[-0.305336675640858,44.66313520957524],[-0.305280372026784,44.66316329374927],[-0.305266542405821,44.663172897985795],[-0.305448520187738,44.663401644930225],[-0.305541850554848,44.66352040858829],[-0.305615574936443,44.66361488890813],[-0.305846301451516,44.663912641278564],[-0.306110964175652,44.66425290008416],[-0.306282741332832,44.664372291319864],[-0.306477156468625,44.664515964918024],[-0.306703402014228,44.664672743002406],[-0.306966259959913,44.66486600019447],[-0.307194618523845,44.665020010990034],[-0.307274659045652,44.66508006100151],[-0.307343505803692,44.66511719825714],[-0.30751707009793,44.66524112975746],[-0.307690170265315,44.66535714551604],[-0.307907736324182,44.6655143612212],[-0.307902680360508,44.665518567261586],[-0.307967247207621,44.66555375973906],[-0.308056755940379,44.66560730865235],[-0.308177750365191,44.665693885776975],[-0.308264120599232,44.665752033761564],[-0.308410991262919,44.66585351507553],[-0.308411353534938,44.66585323391708],[-0.30847958095469,44.66590129196243],[-0.308492664850311,44.665876842030585],[-0.308739267771891,44.66593506134012],[-0.309007540595857,44.665994614027966],[-0.309435648396841,44.666099031570894],[-0.30971253505535,44.66615688310234],[-0.30996978642413,44.666202886954835],[-0.31045338721785,44.66629113244997],[-0.310473915957395,44.666169955040196],[-0.311090847880875,44.66617437158513],[-0.311537499677837,44.666278406124206],[-0.31150419880322,44.666394920294486],[-0.311439191103482,44.666622854891806],[-0.311860992682278,44.666645635176174],[-0.311881894904521,44.66659527019608],[-0.31207982849326,44.66662448375059],[-0.312180477163409,44.66664192344181],[-0.312383546160684,44.66666827944202],[-0.313145262967892,44.66677061911232],[-0.313594682187829,44.66677346273153],[-0.313583372502688,44.66695464624077],[-0.313581649940339,44.666989749455645],[-0.313653121937574,44.6669876979292],[-0.313728161177296,44.66698833277706],[-0.313857143736851,44.666991586104245],[-0.314016823706125,44.66699509072821],[-0.314155555990332,44.667003097515945],[-0.314231563255175,44.66700730729084],[-0.31430965175334,44.66701469848855],[-0.314417462103255,44.6670250734163],[-0.314553016720875,44.66704344714694],[-0.31462237653554,44.66705055911014],[-0.31467257570041,44.66705392022086],[-0.314694129163652,44.66705327417159],[-0.31471966735716,44.6670495351466],[-0.314801212670196,44.667025555255464],[-0.314842906802399,44.66701313218325],[-0.314852766896865,44.66700688955716],[-0.314873298508504,44.66698888345183],[-0.314951549086855,44.66692823855118],[-0.315011139657335,44.66687878559689],[-0.315024878517061,44.66686765100815],[-0.315065750904587,44.66682840059371],[-0.315026431188303,44.666797501214],[-0.314923327562446,44.66662254053368],[-0.314898144659831,44.66647786275141],[-0.314902592349472,44.666398975920615],[-0.314916777867281,44.66626672417215],[-0.314874691351638,44.6662145523457],[-0.314867569658264,44.66620296181474],[-0.314832962413836,44.66612984117123],[-0.314780379762236,44.66601517939522],[-0.314450947448106,44.66622310894369],[-0.314385018269967,44.66621634461819],[-0.314232773849214,44.66617179929862],[-0.314129406988682,44.666101730388796],[-0.314055418945883,44.66605456916838],[-0.313859893676248,44.66593752287349],[-0.313724415472039,44.665849583564174],[-0.313438781854563,44.66566243038392],[-0.313275881553186,44.66556549059038],[-0.313189749179408,44.66564024688679],[-0.313004569786209,44.66580204029132],[-0.312998755076406,44.66579978161272],[-0.312899180583022,44.66576194637615],[-0.312814339957054,44.66572988703111],[-0.312739478751713,44.66570005165946],[-0.312770251239182,44.66566939452959],[-0.312688467545648,44.66563778415799],[-0.312605964735581,44.66560682601896],[-0.312690729628005,44.66548949062667],[-0.312759904855218,44.66540334863064],[-0.312711903688868,44.665463085754254],[-0.312542377073641,44.665401575221765],[-0.312352921569544,44.6653425536383],[-0.312273632260768,44.66532114044569],[-0.31221399741912,44.66530544597039],[-0.312061270717079,44.66526550769636],[-0.312025859534715,44.665255935704046],[-0.311934195595605,44.66523020735634],[-0.311893789564364,44.665219433318484],[-0.311823300560301,44.66520595596364],[-0.311752917376213,44.66519427753164],[-0.311700300524083,44.665181976880156],[-0.311570983549604,44.66514719381],[-0.311506805678211,44.6650155774897],[-0.311456475836258,44.664919769373356],[-0.311439582077272,44.664896577195705],[-0.31140901789043,44.66485991794667],[-0.311355531336273,44.66480060745976],[-0.31126180854506,44.66472051576525],[-0.310977144779112,44.664897539118904],[-0.310751018823885,44.66471724794099],[-0.310678212185997,44.66465788484748],[-0.310770671192064,44.66458762671838],[-0.310737849395164,44.664564100373966],[-0.310685064593498,44.664497379838],[-0.31051695416381,44.66428588642321],[-0.31045066117016,44.66420199940017],[-0.310323194674993,44.66404398373695],[-0.31021844594651,44.66396314005935],[-0.310230798016363,44.66388329620646],[-0.310231181842254,44.663857604314515],[-0.310229813001541,44.663808537155376],[-0.310220992990062,44.66376158529265],[-0.310213576725823,44.66373207210203],[-0.310182313823152,44.66366416647695],[-0.310087207747573,44.66351536395934],[-0.310163271604735,44.66347551252385],[-0.310076276578358,44.66340026455687],[-0.310032374613214,44.663362202124794],[-0.310006029233513,44.66333929269873],[-0.309813865046096,44.66317600470305],[-0.309688627646489,44.66306874190429],[-0.309465087886852,44.663170765267424],[-0.309222363849859,44.663287959554154],[-0.309129438026775,44.663330928030234],[-0.309041988229476,44.66315765693761],[-0.309005936124406,44.66308556924843],[-0.308807064089594,44.66269198776144],[-0.308718193139657,44.662533176088665],[-0.308626023113592,44.66236977754323],[-0.308596885877173,44.6623057726689],[-0.308547992456749,44.6621827083944],[-0.308480891900629,44.66201405434048],[-0.308468644325791,44.66196675444459],[-0.308488247302447,44.66196517673736],[-0.308122421981693,44.66199198067093],[-0.307751419151155,44.662020920608406],[-0.307163048243758,44.66206347912927],[-0.306828566920847,44.66208871053828],[-0.306564094946174,44.662106441050994],[-0.306479466594161,44.66176170151525],[-0.306395362125927,44.66139360876647],[-0.306656122702508,44.6613578781614],[-0.307119103887759,44.661295734894445],[-0.30741895286951,44.66125486868761],[-0.308013525283877,44.661176170546945],[-0.308147733072983,44.6611589998332],[-0.308570206371958,44.661123021816486],[-0.308810988308971,44.66110185036632],[-0.309551716817077,44.66103534975383],[-0.309572668957928,44.66108896677528],[-0.309607229283032,44.66116145928595],[-0.309660449825059,44.66128078930674],[-0.309696588658097,44.66136080350533],[-0.309729388174102,44.66144199893003],[-0.309887626733432,44.66180796083784],[-0.310324903422822,44.66276486851778],[-0.310460114347555,44.66270026895462],[-0.310640533549791,44.66260575188547],[-0.310902278430304,44.6624771720144],[-0.310958509815821,44.66244791565858],[-0.311429371018898,44.66220404365646],[-0.311422163193599,44.66217164089574],[-0.311424196418887,44.66216112763218],[-0.3114272317268,44.66214833169209],[-0.311431464791255,44.66213658116233],[-0.311442344971326,44.66212192836803],[-0.311462725135286,44.66209491677647],[-0.311482587069924,44.66207197550094],[-0.311509931618787,44.662047458531354],[-0.311550483036341,44.6620092102415],[-0.311656826053497,44.66197547920981],[-0.311699960776011,44.66196184272267],[-0.311704077535608,44.66196099857261],[-0.311749108010917,44.66194739539468],[-0.311740295154563,44.66191990648525],[-0.31191105681907,44.66186090819295],[-0.312020521868689,44.661822307633386],[-0.311961655031824,44.661626376786614],[-0.312070575187207,44.66160428201033],[-0.31200992627193,44.661403809146215],[-0.312234917144251,44.66133309401909],[-0.312285954158367,44.66131858982701],[-0.312245205062029,44.66119888731553],[-0.312233338129961,44.66116455172088],[-0.312172536399726,44.661000126220834],[-0.312005870851114,44.66090329798444],[-0.311895587328066,44.66068962446792],[-0.311954984111542,44.660675590875364],[-0.311981521631313,44.66066956981136],[-0.312053374136406,44.6606548026496],[-0.312123151030088,44.66063694388101],[-0.312126463904454,44.66063531283261],[-0.312118259574953,44.660631053255884],[-0.312104508116676,44.66062263471957],[-0.312417487556515,44.66021264499617],[-0.312464302697921,44.660152132565216],[-0.312471377720619,44.660143630800995],[-0.312598727437131,44.659977713730456],[-0.312655287374632,44.659902582308575],[-0.312820179698164,44.65991133828542],[-0.312996174052698,44.6599221041452],[-0.313105218377724,44.65992793760284],[-0.313144095059238,44.65993208900127],[-0.31330594171195,44.65994057509289],[-0.313364409970958,44.65994296795458],[-0.31339170606194,44.65994341148949],[-0.313434849910557,44.659942839474226],[-0.31371120536705,44.65994059482595],[-0.313951399437022,44.659935288388986],[-0.314006372675173,44.65994265142534],[-0.313667377279605,44.66025142485396],[-0.31360306026736,44.660310570088896],[-0.313627927465016,44.660327665995524],[-0.31382974912894,44.660442630910076],[-0.313866974552915,44.66046377162108],[-0.313684691792841,44.66064872713795],[-0.313944691084186,44.66078042026582],[-0.314378145755887,44.6603647413046],[-0.314552814218828,44.66054602648218],[-0.314581931538121,44.66057741186702],[-0.314606281965883,44.660611463131964],[-0.314610885580177,44.66061889409852],[-0.314614342092532,44.66063257681892],[-0.314618555571331,44.66065912211636],[-0.314616803775196,44.66076450945055],[-0.314608855430287,44.661015604996315],[-0.314608521260807,44.661042106408686],[-0.31461039132693,44.661054575193596],[-0.314631639431559,44.66111313840319],[-0.314695071685514,44.66128352107687],[-0.314715457094635,44.661327422733336],[-0.3148690328161,44.66162647876633],[-0.314893981240194,44.661657808868476],[-0.315165222074193,44.66185809412532],[-0.315048636178727,44.661936558352686],[-0.314991157538826,44.66197675718002],[-0.31492346797773,44.66202365967526],[-0.314907035951941,44.6620340640425],[-0.314887727374407,44.66204707763393],[-0.314800477980192,44.66210916373342],[-0.314718368478491,44.66204620761693],[-0.314611476736369,44.66211564039356],[-0.314471597179218,44.66199782873367],[-0.314392643637342,44.66204642012971],[-0.314358922604934,44.66206554235557],[-0.314332036058172,44.662078512666795],[-0.315013631407451,44.6626674732745],[-0.315042891110474,44.66268623937431],[-0.315185443688385,44.662600599082474],[-0.315204580774486,44.66259110474939],[-0.315215180373083,44.662584569585114],[-0.315230559802367,44.66256915074689],[-0.315247250429327,44.66255026853341],[-0.315266581516696,44.662518331762136],[-0.315298322658284,44.66254279023497],[-0.315329914890734,44.66251967673585],[-0.315367749481965,44.66249322232317],[-0.315381150258175,44.66250210153699],[-0.315422735774669,44.66253293272027],[-0.315461262992005,44.662505376224665],[-0.31547828710809,44.66249216070795],[-0.315537497572737,44.662449206490955],[-0.315582134661285,44.66241606033685],[-0.315589788814087,44.66241096505667],[-0.31564768237449,44.6624678886908],[-0.315823816644442,44.66262885431923],[-0.316067008686457,44.66285439774278],[-0.316398922634895,44.66268261143388],[-0.316494208196874,44.66275057763099],[-0.316620905443004,44.66284382271731],[-0.316677423280575,44.662877359323225],[-0.31681465373908,44.662956501906855],[-0.316944372177583,44.66303028303933],[-0.317375660954681,44.66327883538609],[-0.317416456772562,44.66330266122456],[-0.3175058331517,44.66335386379865],[-0.317679282313297,44.663456247659134],[-0.317806486867509,44.66353875356228],[-0.317834908094583,44.66355826498552],[-0.31786197929553,44.66358700782649],[-0.317880937289246,44.66360662296793],[-0.317884576824851,44.66361696617918],[-0.317887728512772,44.6636383170862],[-0.317872655806927,44.6637168020331],[-0.317868606014192,44.66372521339371],[-0.317831951168645,44.66379740766006],[-0.317778536798489,44.66390659811603],[-0.317689962057439,44.66407478229378],[-0.317695714274855,44.66410812952794],[-0.317709911294213,44.66418195177462],[-0.317717250161865,44.66421651290381],[-0.317727857673675,44.664255120887304],[-0.317754185759525,44.66434840271361],[-0.317771390410903,44.664408979094084],[-0.317840788861698,44.66465469128495],[-0.317858318824154,44.66471435683321],[-0.317864555654651,44.66473020875987],[-0.317874965765907,44.66475260339295],[-0.317890784194007,44.66478321570944],[-0.317940243317428,44.66487048717179],[-0.317973617230771,44.66492904656557],[-0.318049049489926,44.6650521221393],[-0.318079349411321,44.66509707747133],[-0.318149291051958,44.66518481555272],[-0.318342652397178,44.66534859484284],[-0.318459499123175,44.66544808084876],[-0.318466063138644,44.665456624257935],[-0.318468734659746,44.6654633922286],[-0.318466448226932,44.6654695881273],[-0.31846046009844,44.66547724671808],[-0.318453205108492,44.665482690648],[-0.318302728772731,44.66554532531221],[-0.318022061146589,44.66566773266802],[-0.318034363079731,44.66574152169648],[-0.318042755943371,44.66574253136541],[-0.318098660117237,44.66582987975626],[-0.318119696632018,44.66586547159799],[-0.318356316292453,44.66641622463833],[-0.318403639152975,44.66655077626604],[-0.318602375513731,44.667088519057216],[-0.318649019265971,44.66721795491863],[-0.31865168379737,44.6672310306057],[-0.318650572316382,44.667244309718484],[-0.318641808096191,44.66725628666803],[-0.318628582297359,44.66726326139841],[-0.318616012049648,44.66726850441757]]],[[[-0.315598355683557,44.660697056080664],[-0.31514296379738,44.660984454932915],[-0.315546881292188,44.66125744212739],[-0.315001855568021,44.66166944247938],[-0.314947856463689,44.66162717933383],[-0.314769445503512,44.661292284549674],[-0.314741235778411,44.661237714536256],[-0.314677247609167,44.661057887341244],[-0.314669885349889,44.66103576155808],[-0.314668670874248,44.66102156109211],[-0.314667908599604,44.6610086085655],[-0.314673853310767,44.66068485690182],[-0.31466066387291,44.66062163690375],[-0.314650766227329,44.66060147937144],[-0.31463972903279,44.6605812658924],[-0.314633628948331,44.660574150107415],[-0.314618734531326,44.6605591883414],[-0.314431828689649,44.660363042039585],[-0.314688599122191,44.66018243004566],[-0.314812606747184,44.66023656103361],[-0.314896507150959,44.66027207081092],[-0.315022453248204,44.660326954423596],[-0.315083271698136,44.660356398073105],[-0.315240700530647,44.66045710297793],[-0.315466088949618,44.660605599016975],[-0.315598355683557,44.660697056080664]]],[[[-0.312851598330601,44.6531175346705],[-0.31274792820597,44.65319642059537],[-0.312674999915667,44.653250687305324],[-0.312405842477319,44.65341986208595],[-0.312366600920708,44.65344806971053],[-0.312061586885751,44.653683735132546],[-0.311985077849773,44.653741532672655],[-0.311908954547536,44.65379301115276],[-0.311844032173192,44.65383532362132],[-0.311758946632447,44.653888962694026],[-0.311678899709176,44.653938125664155],[-0.311562716471592,44.65399747170946],[-0.311442942905259,44.654060168993446],[-0.311341426225887,44.65411132635569],[-0.311249096117027,44.65415770316447],[-0.311174428244413,44.65420174879663],[-0.311093314963806,44.65425211463981],[-0.311072191963171,44.65426644340877],[-0.310995535707042,44.65432820931311],[-0.310896487197874,44.654408486797564],[-0.310684673763021,44.65458053529971],[-0.310639511224682,44.654617569787106],[-0.310609885751469,44.65464188454948],[-0.310580352698422,44.6546742160034],[-0.310504075813206,44.65475534305475],[-0.310488776517841,44.6547721104115],[-0.31026373210169,44.65440328531667],[-0.310207220181198,44.65412474658795],[-0.310213512923463,44.6540771622463],[-0.310342801301482,44.654092573963474],[-0.310338756931548,44.654062419327396],[-0.310341689066946,44.6540414268628],[-0.310354416273581,44.654000227614574],[-0.31037313930425,44.65395794777446],[-0.310391653417803,44.653918557589364],[-0.310431734901951,44.653846623974914],[-0.310486002330591,44.65375831675148],[-0.310529818994897,44.65369194795485],[-0.310550831046695,44.653662845172825],[-0.310572279268307,44.653634720495525],[-0.310591424791893,44.65361252167828],[-0.310611982024453,44.65358856856426],[-0.31064770588394,44.65355848458692],[-0.310697877258236,44.653522922009124],[-0.310741907353555,44.65349240905431],[-0.311052671379751,44.65324711405189],[-0.310500468226252,44.65265768541446],[-0.310466481900084,44.652672219036894],[-0.310473826352431,44.65262964915621],[-0.310511460530906,44.65241298798001],[-0.310535804136837,44.6522859300065],[-0.311107339430574,44.65202958198309],[-0.311018502447875,44.65192916097717],[-0.311189060076429,44.65173834372478],[-0.311783274039102,44.65150717327704],[-0.311921509869531,44.65166197975633],[-0.312166611900909,44.65193396658865],[-0.312100161957048,44.65186008781656],[-0.312141665651226,44.65184460760478],[-0.312284200092628,44.65178266923003],[-0.312547448192899,44.65166124785003],[-0.312576825791588,44.65165207782118],[-0.312608156993427,44.651643930523946],[-0.312629241928691,44.65164185704165],[-0.312657178970613,44.651640389196714],[-0.312673955016632,44.651642319390994],[-0.312696086929779,44.65164517037461],[-0.312710972838681,44.65164715719995],[-0.312775503912885,44.651714154923326],[-0.312871951876907,44.65181515748224],[-0.312898972587831,44.65184318182616],[-0.312908291469239,44.651853535129916],[-0.313009588383909,44.65195970856195],[-0.313019274754793,44.651969870632655],[-0.31321536632202,44.65217466296383],[-0.312739278436703,44.65244402089155],[-0.313156547803995,44.65288087769433],[-0.313127772759328,44.652900301941706],[-0.313062939833978,44.652950541855176],[-0.312851598330601,44.6531175346705]]],[[[-0.312644056649993,44.659627913284645],[-0.312458444483834,44.65983999842332],[-0.312259260477717,44.65982776383351],[-0.311900089132212,44.659806444659],[-0.311835288716724,44.65979297736583],[-0.311765343261289,44.659782187123184],[-0.311690419293406,44.65977046466925],[-0.311662864155237,44.6597656132527],[-0.311654313636644,44.65976190465605],[-0.3116305049029,44.65974991270963],[-0.311609239679814,44.65974253012283],[-0.311576478621594,44.65973287874106],[-0.311537689410294,44.659723768317285],[-0.311486354745603,44.65971386222087],[-0.311251687136911,44.65967142155212],[-0.311133212607421,44.65965334387221],[-0.310872865003625,44.65961860963141],[-0.310740592021238,44.65960418854931],[-0.310526375976196,44.659581047547746],[-0.310439665837821,44.659574993432535],[-0.310373594159997,44.659572105828474],[-0.310278426064833,44.659570359605226],[-0.31026412768685,44.65957195905798],[-0.310210611571786,44.65959581753024],[-0.31018043880974,44.65961086755217],[-0.310130502330063,44.65964408000401],[-0.310109183997402,44.65966156812662],[-0.310086942849833,44.65968268813163],[-0.310067520187777,44.65970020960245],[-0.310053972395063,44.65971458168342],[-0.309999677677195,44.65978964386108],[-0.309988099551718,44.6598053085679],[-0.309976214833371,44.65981575627309],[-0.309926510631228,44.65985292636002],[-0.309894811960717,44.65987423932701],[-0.309824799321951,44.65992030708927],[-0.309763208298156,44.659935666714496],[-0.309283965982758,44.660049578713625],[-0.309173384556488,44.660075595088514],[-0.309104482733445,44.66008901057915],[-0.309043298722146,44.6600984105842],[-0.308948182115424,44.66011044794202],[-0.30878362981744,44.660126815725896],[-0.308696783904024,44.66006688061731],[-0.308719654518816,44.66005646474269],[-0.308771572449276,44.660024725474585],[-0.308803427781057,44.659999623683554],[-0.308890416824102,44.65992015970464],[-0.308901342412358,44.65989982911278],[-0.308926392105115,44.65987493094666],[-0.30906536508456,44.65974552396522],[-0.309112878124773,44.65970328378797],[-0.309138649219762,44.65968422090142],[-0.309190688119506,44.65965455025246],[-0.309208418580402,44.65964690119505],[-0.309267764945455,44.65962557192174],[-0.309323341015112,44.659604535671924],[-0.309385973758749,44.65958112563009],[-0.30941240289482,44.65956681862471],[-0.309461197361798,44.659539948144236],[-0.309486680030621,44.6595224256152],[-0.30953720136048,44.65947982488313],[-0.309598525935483,44.65942770989999],[-0.309818342243168,44.659281915554864],[-0.309891209584656,44.659232878920996],[-0.309939152230341,44.659204411799905],[-0.310040996775325,44.659145767283256],[-0.310091141543622,44.65912255045293],[-0.310143879958219,44.65909835488702],[-0.310608296878878,44.6588999123553],[-0.310867920002565,44.65878707429824],[-0.310955927259812,44.658757226798606],[-0.311003810762826,44.65874065502668],[-0.311212783542622,44.658661771206646],[-0.311336530887809,44.65878889996056],[-0.311453528051937,44.65874322616755],[-0.311876450142678,44.65921118763826],[-0.311837939291207,44.65923901269564],[-0.312187099427016,44.65938642068164],[-0.312208480960335,44.65939578201598],[-0.312578263238774,44.6595524828104],[-0.312644056649993,44.659627913284645]]],[[[-0.311229132895348,44.65826985879379],[-0.31111554976457,44.65831561033997],[-0.311096479577772,44.658294015218814],[-0.310884800713224,44.6583655010353],[-0.310721462005043,44.65842175270361],[-0.310932240925188,44.65869576257297],[-0.310905905142103,44.658705201412474],[-0.310882551657656,44.658713830090775],[-0.31086031124435,44.65872206500807],[-0.310810764685064,44.65874256109538],[-0.31060298600705,44.65882888722038],[-0.310315011447703,44.65895554878864],[-0.310255147914542,44.65898094892728],[-0.310198330095165,44.65900661827611],[-0.310078930497262,44.6590629951877],[-0.310042814451827,44.65908002522885],[-0.310020023767446,44.659091790596975],[-0.309980108263489,44.65911506159986],[-0.309895494274956,44.65916399940124],[-0.309812019663048,44.65921299313453],[-0.309668069801201,44.65929632546097],[-0.309593367458214,44.65933992037062],[-0.309586847421102,44.65934498127979],[-0.309581451053039,44.65934982834183],[-0.30950626648046,44.65942389361591],[-0.309494733408235,44.65943388020991],[-0.309474417072289,44.65944908555213],[-0.309435212130946,44.65947801178793],[-0.309392215765708,44.65950687127446],[-0.309374691488196,44.65951802834477],[-0.309351564685275,44.65953052447962],[-0.309324908299754,44.65954096369307],[-0.309276571553725,44.65955628678274],[-0.309240563507994,44.65956871788568],[-0.309219456763,44.6595769185291],[-0.309164517711991,44.659602350878686],[-0.30912878441137,44.65961945925795],[-0.309090711016463,44.65964186383378],[-0.309080505197122,44.65964865693396],[-0.309065701374055,44.65966099402726],[-0.309018896939739,44.65970240201903],[-0.308927987290998,44.659786038226954],[-0.308888710236988,44.659820192590715],[-0.308822609248909,44.659881280523734],[-0.308733388651045,44.65996144196962],[-0.308714637097842,44.659977501403525],[-0.308705649969865,44.65998569970228],[-0.30869659943191,44.659992818620104],[-0.308657896256405,44.66001740443806],[-0.308642880889382,44.66002614354232],[-0.308622614597534,44.66003576061993],[-0.308601140070177,44.66004415235699],[-0.308582973195218,44.660050823199605],[-0.308566580499671,44.66005545860903],[-0.308548617339568,44.660059149836876],[-0.308527624211303,44.66006284161854],[-0.308469216486132,44.66006792322789],[-0.308393763208364,44.66007297418781],[-0.308150212117574,44.660092065143466],[-0.308037933555604,44.66010209219554],[-0.30790039716791,44.6601141362503],[-0.307695441394559,44.66014549741047],[-0.30764779423305,44.66015323019511],[-0.307622290389023,44.66015750726856],[-0.307561764096354,44.66017166241019],[-0.30745328334672,44.660201218454404],[-0.307254499171331,44.66025383949951],[-0.307222757913979,44.66026154687361],[-0.307155005504702,44.66027519707036],[-0.30712947516072,44.660279024288236],[-0.307068626449789,44.660287692306085],[-0.307016698653872,44.66029348039474],[-0.306988074938801,44.660296228713975],[-0.306919789035786,44.660300793973995],[-0.306885393663505,44.66030200286057],[-0.306865669756263,44.66030151146846],[-0.306849684473147,44.660300187411316],[-0.30683401390594,44.66029777266311],[-0.306807965995718,44.66029278485859],[-0.30677227051851,44.6602847516339],[-0.30675262369573,44.66027912185265],[-0.306727482986763,44.660270232324486],[-0.306696155594027,44.6602591850409],[-0.30667596171697,44.66025068820236],[-0.306661177237686,44.66024401193181],[-0.306631434027417,44.66022769108571],[-0.306593013846598,44.66020550248024],[-0.306541581398066,44.66016811458161],[-0.306404086014941,44.66006472928593],[-0.306326294547775,44.66001704642463],[-0.306159652511289,44.65992038931474],[-0.306325236649842,44.65940543619233],[-0.306304803454514,44.659141224696114],[-0.306336425956559,44.65912505113009],[-0.306354159828655,44.65911100488713],[-0.306395695838502,44.65907660370049],[-0.306417829342538,44.65906008311823],[-0.306458568978007,44.659031472525776],[-0.306485165465078,44.659013556979595],[-0.306506265009359,44.658998779318516],[-0.306530923550242,44.65898011075683],[-0.306543911283551,44.65896908981553],[-0.306553348455512,44.65895565207448],[-0.306601571313952,44.65888032277475],[-0.306653223141182,44.658805341437784],[-0.306696622640465,44.65873817580308],[-0.306727586646795,44.658652730044075],[-0.306756167057162,44.65858474608331],[-0.306801643464292,44.65849490160253],[-0.306847461993573,44.65842378898524],[-0.30692876516044,44.65829908307005],[-0.306994023283927,44.65819783409952],[-0.307007061392369,44.658181225000206],[-0.307066363267927,44.65810754645373],[-0.307127765674684,44.658050294502466],[-0.307153145869087,44.658024575911746],[-0.307203488053341,44.65797891802548],[-0.307282735242452,44.657896623299344],[-0.307327363894919,44.65785041540502],[-0.307502879081144,44.65763386582459],[-0.307696724110695,44.65747794978853],[-0.307737565347927,44.657444650119764],[-0.307797055655015,44.65737420934134],[-0.307846236883337,44.65731525013557],[-0.307953559412838,44.657188683692674],[-0.308074806647459,44.657105762515535],[-0.308297129246727,44.656964041072875],[-0.308418861548066,44.65688939476615],[-0.308734216931068,44.65670028590758],[-0.308799786651085,44.656675346541036],[-0.30882331451248,44.656656801375284],[-0.308870930808395,44.65661636031614],[-0.308890373915453,44.65659919886884],[-0.308928205680965,44.656553373906206],[-0.30896847245209,44.65650387180031],[-0.309005611377441,44.6564591488207],[-0.309046192663889,44.65640855599497],[-0.309088264981753,44.65635755810236],[-0.309140460756644,44.65629193028962],[-0.30931178148846,44.65608154027944],[-0.309372490759792,44.65606413475176],[-0.309490548946573,44.656030145029895],[-0.309522922074123,44.65602034557649],[-0.309562856347892,44.65601031978084],[-0.309573505387935,44.65601108229219],[-0.309594988444141,44.65601575549785],[-0.309625793291865,44.656024384659005],[-0.309674670599727,44.65604409654348],[-0.309783758348247,44.65611525886095],[-0.309846160730345,44.65615889451804],[-0.309969657180604,44.65624323139349],[-0.310028977228268,44.65628596806406],[-0.310134359294065,44.65635850249906],[-0.310190401377276,44.65639701212204],[-0.310205235372536,44.65641098503081],[-0.31023114138734,44.656432916238394],[-0.310446437816546,44.65661641452425],[-0.310556082600775,44.65670990587764],[-0.310626253550364,44.656769707907195],[-0.310696506648855,44.65682446147677],[-0.310721093814239,44.656843278349456],[-0.311008585073121,44.65706939678625],[-0.311084864153979,44.65713000681696],[-0.311314720246469,44.65730982377498],[-0.311327862706951,44.657320783592034],[-0.31133830582875,44.65733092318528],[-0.311348508374061,44.65734341275188],[-0.311254927712437,44.65737504945105],[-0.31117065056438,44.65740388446994],[-0.311087869735946,44.65743240429303],[-0.311045536766017,44.65744673745987],[-0.310907359605699,44.65749286489474],[-0.311222364218728,44.657871250030084],[-0.311463505667955,44.65815921713168],[-0.311468766945424,44.658158518918434],[-0.311506122336041,44.65820767957529],[-0.311502751415583,44.65820832117389],[-0.311435782422133,44.658215913485066],[-0.311398681126282,44.65822261124789],[-0.311329478057692,44.658237298711995],[-0.311264047757828,44.65825818060255],[-0.311229132895348,44.65826985879379]]],[[[-0.309256530731145,44.65238207785321],[-0.309281135751757,44.65242702521551],[-0.309134207960413,44.6529299809141],[-0.308419541026534,44.65260662320923],[-0.307802515167194,44.652327195033145],[-0.307798460178638,44.65232263083638],[-0.307802150163284,44.65215330106751],[-0.307802426355037,44.65213220796357],[-0.307806307080299,44.65208866068681],[-0.307812889863307,44.65203953609],[-0.307823652105897,44.65199064686869],[-0.307847957799758,44.65193378350765],[-0.307873780095247,44.65188985004913],[-0.307880786108746,44.65188017927974],[-0.307905893803223,44.65184987322307],[-0.307929988865444,44.65182166990073],[-0.307975000771092,44.65177563043728],[-0.308072327697838,44.65169829054611],[-0.308093659497208,44.65168107271329],[-0.30819305285969,44.65161313202208],[-0.308305267245356,44.65154426693619],[-0.308393720128901,44.65149638669177],[-0.308459506441438,44.65146234019557],[-0.308584620669489,44.65139389972485],[-0.308639319527338,44.651364510028124],[-0.30867053548134,44.65134149979042],[-0.308822009874612,44.65122541491748],[-0.309028401636084,44.65093540307842],[-0.309492525543183,44.651171374690165],[-0.309496422054195,44.651173240382455],[-0.309505386144267,44.6511775674534],[-0.309624896085563,44.65123291924358],[-0.309629900259619,44.651234301240635],[-0.3094192970801,44.65185224678042],[-0.309391402531161,44.65192534697715],[-0.309247054761333,44.652033830609575],[-0.30923562178515,44.652097066973084],[-0.309256530731145,44.65238207785321]]],[[[-0.308326419775657,44.65528971012145],[-0.308285054130722,44.655172187807565],[-0.30826880745422,44.65514059611162],[-0.308237529859155,44.65508521558342],[-0.308210148384445,44.65504458600535],[-0.308147428335872,44.654956806951795],[-0.308008972931418,44.654798217737124],[-0.307828923876005,44.654614922218414],[-0.307772101194904,44.654556611508504],[-0.307493305551766,44.65427174658036],[-0.307290195575516,44.65406327972934],[-0.307171199660758,44.65393933906083],[-0.307155566550324,44.6539181812094],[-0.307126343730043,44.65387841745718],[-0.307098643687836,44.65383878836138],[-0.307094282360413,44.65382900713958],[-0.307091507140481,44.653820439959894],[-0.307131118744976,44.653759784995565],[-0.307520216639099,44.65347881789293],[-0.307582300144103,44.653433259054154],[-0.307597134345603,44.65342146187764],[-0.307612341300113,44.65340956344105],[-0.30762195990752,44.65339278624474],[-0.307706197080622,44.65321500951165],[-0.307845977333201,44.653286606747564],[-0.30811499900925,44.65342443937784],[-0.308160789254641,44.653378736979846],[-0.30823462135465,44.65341716563227],[-0.308245113715648,44.65342171740509],[-0.308934483616246,44.653778452206],[-0.308815866969892,44.65399627492948],[-0.309361987344759,44.654241598012256],[-0.309319675147125,44.654488314097755],[-0.309211362476713,44.65512004762772],[-0.308808383677242,44.65530015668745],[-0.308369932171131,44.65546312420236],[-0.308333831623368,44.655312735760425],[-0.308326419775657,44.65528971012145]]],[[[-0.307723793154588,44.652521476461594],[-0.307721663611504,44.652588398949945],[-0.307714457200069,44.65271719605937],[-0.307716622455463,44.652844361194546],[-0.30770382558048,44.65291664878658],[-0.307687522795918,44.6530388699863],[-0.307603774779607,44.653218524294914],[-0.307578205178428,44.65326677522508],[-0.3075507347695,44.65331490280271],[-0.307518616082626,44.6533741623878],[-0.307466766102827,44.65341986557533],[-0.307428886362244,44.65344550766114],[-0.307399672920339,44.65346395230194],[-0.307347062270806,44.653496702895296],[-0.307154068017975,44.653615289056894],[-0.306910309769369,44.65376584915165],[-0.30685422438258,44.65380392958719],[-0.306798255087497,44.65384398885594],[-0.306750185543539,44.65387669343198],[-0.306648298541227,44.65394741047954],[-0.305884401217415,44.654488725428024],[-0.305869870520124,44.654499251799436],[-0.305856392747305,44.654501907451],[-0.30584547685073,44.654503044800535],[-0.30583144154609,44.65450265351077],[-0.305822109718458,44.654498517337075],[-0.305807194878682,44.654489592259495],[-0.305789708837756,44.654469120367736],[-0.305601534300784,44.65425047253011],[-0.305408576605958,44.65402773244974],[-0.305365495291085,44.65397765996736],[-0.305048084037314,44.65363465406897],[-0.304838385996046,44.653410521384075],[-0.304597009260676,44.65315633877915],[-0.304421303816802,44.652975791878696],[-0.304407495469619,44.65295989540102],[-0.304403108295047,44.6529496643348],[-0.304402744221092,44.652943457901024],[-0.304408008510097,44.652936362395536],[-0.304422475759921,44.65292475684264],[-0.304438140436014,44.65291419677029],[-0.304677913953151,44.652773132394195],[-0.304742517120065,44.65273822250883],[-0.30483395170226,44.65268944515309],[-0.305028389799279,44.65258253375436],[-0.305077595287792,44.65255628361549],[-0.30509599042749,44.65254708351459],[-0.305124865003433,44.65253576800464],[-0.305322021449006,44.652462294247364],[-0.305406886651904,44.652430652737614],[-0.305433278482382,44.65242220466043],[-0.30548833560478,44.65240533061925],[-0.305626128698998,44.652365708921636],[-0.305760839264129,44.652325188051655],[-0.306204444742728,44.6521922619744],[-0.30649634533033,44.65210712226973],[-0.306534329131422,44.652096164683016],[-0.306674332972705,44.65206197199217],[-0.306782190246376,44.652034957966364],[-0.306822605819859,44.65202672083143],[-0.307138717885221,44.65196698596645],[-0.307290362982345,44.651937580291104],[-0.307331597845785,44.651930399730475],[-0.307414408603984,44.651915397616925],[-0.307545554435543,44.65189804832403],[-0.307633057476313,44.65192426438011],[-0.307714938335078,44.6519837175353],[-0.307692061273874,44.652148755604955],[-0.30769490198756,44.652210032903604],[-0.307703957213719,44.65228040520748],[-0.307721053651284,44.65240387977599],[-0.307724520683231,44.65246937333212],[-0.307723793154588,44.652521476461594]]],[[[-0.307856669596561,44.65717689511262],[-0.307829198282992,44.65721213760289],[-0.307731628191317,44.657343548220254],[-0.307687959369394,44.65739963927277],[-0.307609114294314,44.65745651229811],[-0.307552110287141,44.657504802540934],[-0.30748030784439,44.65756551957493],[-0.30741768232794,44.657621276517645],[-0.3073949141588,44.65765277395136],[-0.30734848648766,44.657719940356706],[-0.307316332068751,44.65775928747199],[-0.307270859748918,44.657810476445725],[-0.307245405764649,44.6578349357845],[-0.307118474436997,44.657950103856976],[-0.307006467913085,44.65805500379304],[-0.306984678243556,44.65807737113069],[-0.30689006179163,44.658226894081146],[-0.306775848472327,44.65841034237171],[-0.306695456224217,44.65854412166113],[-0.306664025412877,44.65861516435651],[-0.306615725815122,44.65872789010456],[-0.306547153468687,44.65883076975264],[-0.306497235562729,44.65890948364973],[-0.306472991008226,44.65894165577281],[-0.306406527282854,44.6589901381564],[-0.306355026102933,44.6590289822282],[-0.306303929331262,44.65906826471327],[-0.3062775682799,44.659083740303025],[-0.306253018410902,44.65909781013325],[-0.306189289694598,44.659128369544625],[-0.306150473076795,44.65914457796701],[-0.306084383959615,44.65916718843185],[-0.305993436546889,44.659192164027175],[-0.305944814102281,44.65920262844262],[-0.30584631349389,44.65922152230681],[-0.305768174341475,44.65923241860774],[-0.30570345600331,44.659239669784284],[-0.305624280851711,44.65924582132171],[-0.305558978523297,44.65924957572653],[-0.305490807915113,44.65924963137594],[-0.305348315145093,44.659241726770595],[-0.305227489119377,44.65923515664525],[-0.305142442143921,44.65923805932275],[-0.305066209069242,44.65924916846564],[-0.304959503076049,44.65927668668074],[-0.305092582475991,44.65922098782255],[-0.305045820293937,44.65916633950737],[-0.30507356736748,44.65914866024142],[-0.305005830032869,44.659104460470175],[-0.304953721636527,44.659029698018834],[-0.304938891605108,44.65900932674782],[-0.30482968241249,44.6590587253806],[-0.304548708355576,44.65918227888833],[-0.304620087520857,44.65923691251954],[-0.304482093255539,44.65933150336445],[-0.304551423819401,44.65938349508358],[-0.304370989504875,44.65951647792841],[-0.30436411200386,44.6595219096232],[-0.304347483510639,44.65952898431611],[-0.304340363266083,44.659530278376444],[-0.304323449813495,44.65953249584435],[-0.304310909766375,44.65953178932025],[-0.304300070164388,44.65952778815365],[-0.304285732837905,44.659522269599925],[-0.304225212739269,44.65948488195534],[-0.30418685549237,44.659457284309305],[-0.304072884735519,44.65936743011447],[-0.303962538675919,44.65928125196686],[-0.30393835716582,44.659262872020086],[-0.303871994057687,44.659229172938495],[-0.303806914796497,44.65920444607938],[-0.30376267052353,44.65919270268402],[-0.303624576158494,44.65917583404082],[-0.303464011602248,44.65915684327543],[-0.303329251556623,44.659138703269946],[-0.303227725712447,44.659118939504],[-0.303110865746063,44.6590960294872],[-0.302986692193068,44.65907757281511],[-0.302934378346412,44.659070305144844],[-0.302906247482103,44.65906853238895],[-0.302784829460199,44.65906477059069],[-0.302663342889511,44.659059839327256],[-0.302466423341037,44.65905382704761],[-0.302288402546327,44.659047159880195],[-0.302114552818747,44.6590470357132],[-0.301772535108562,44.659046797106484],[-0.301494256256707,44.65904843873735],[-0.301439338248928,44.659041968973135],[-0.301201666130711,44.65901915003665],[-0.300947253271497,44.658995028255006],[-0.301014228425571,44.65881948447503],[-0.301082542989194,44.658647414801266],[-0.3011339366256,44.65865191751304],[-0.301187997898685,44.65865670097935],[-0.301194799587249,44.65861766219196],[-0.301202570572579,44.65856931354028],[-0.301337183201928,44.658572052335195],[-0.301493939094325,44.65861656974915],[-0.301532889363614,44.65862847209845],[-0.301768841434814,44.658667200310326],[-0.301873237657458,44.658684266578284],[-0.302014269455369,44.65867374748023],[-0.302145019290296,44.65866227378772],[-0.302267447306863,44.65867681882949],[-0.302364018848608,44.65867024021084],[-0.302462090486775,44.65865694884923],[-0.302518895325768,44.65865038645811],[-0.302554912845985,44.658651022679514],[-0.302609649324449,44.658667318871885],[-0.302670475874783,44.658658293517384],[-0.302716972401552,44.65865032691475],[-0.302767791266069,44.65864502447107],[-0.302810109506845,44.658643309854575],[-0.302867599978706,44.65864844060073],[-0.302899629133842,44.65865856688801],[-0.302947876810874,44.65868046311796],[-0.302966993353197,44.65868998394866],[-0.303159942952401,44.6586606120734],[-0.303227826265507,44.65864921304575],[-0.303308033044562,44.65865420555127],[-0.303465650644333,44.658616517653584],[-0.303505818216585,44.658642709832755],[-0.303776035327734,44.65854885501982],[-0.304372405764684,44.65833982852711],[-0.30459942156573,44.6582714111762],[-0.304835656438691,44.65819875311606],[-0.304957706471046,44.65816167559869],[-0.305114385427572,44.65810157689008],[-0.305162452873015,44.658081668256145],[-0.305299395768346,44.658014410101366],[-0.305447101830237,44.65794340596345],[-0.305609465829978,44.6578640340437],[-0.305821527988947,44.65776028897925],[-0.305991103700267,44.65790704778303],[-0.306056469813606,44.657794713117745],[-0.306112498917267,44.65769752513591],[-0.306194925376044,44.657553233164094],[-0.306258222896984,44.65744438426419],[-0.306322024568502,44.657434456927895],[-0.306393322033686,44.65744899451652],[-0.306627954389767,44.65737493870132],[-0.306757624036904,44.657332224868846],[-0.306892596986967,44.65728953247644],[-0.306973300239726,44.65724494896456],[-0.307180364394431,44.65712711386847],[-0.307360504973602,44.65702161734404],[-0.307534167191775,44.65692190090049],[-0.307762184756541,44.656786858277144],[-0.307854104740243,44.65673337841804],[-0.308075719344989,44.65699877898587],[-0.308018624115335,44.65703905275209],[-0.30794569158165,44.65709340637186],[-0.307897265263274,44.65713297017913],[-0.307856669596561,44.65717689511262]]],[[[-0.305305541075925,44.654853391585505],[-0.305107240439565,44.65499141531834],[-0.304872293127365,44.65516324263],[-0.304718447257943,44.65527795089519],[-0.304609486733446,44.65536374488769],[-0.304460654759624,44.65548001492607],[-0.304223597080908,44.65566758230837],[-0.304158336207613,44.65571071113061],[-0.304037595979911,44.65577649257841],[-0.303907560492837,44.65583876719786],[-0.303708248735701,44.65593383787834],[-0.303570526501908,44.656000666860365],[-0.303365008142057,44.65609970679856],[-0.303233538048496,44.6561633750424],[-0.303111710903831,44.65621711368919],[-0.303007923256907,44.65626202352441],[-0.302927242951752,44.65630056628332],[-0.302850569944284,44.656342863832656],[-0.302810238445993,44.65636551387849],[-0.302764162150751,44.656387074032075],[-0.30263948361806,44.656443870811685],[-0.302483602960207,44.65651754820534],[-0.302345248285384,44.656586557026515],[-0.302288770967649,44.65661374388695],[-0.302047575293215,44.65652849873772],[-0.301726964171915,44.656415078718815],[-0.301570785387445,44.656431996911266],[-0.301521850293364,44.65622387160037],[-0.301483210737104,44.656075089029564],[-0.301495818860939,44.65596712599575],[-0.301318257283915,44.65552225852885],[-0.301260484009943,44.655415315795786],[-0.301221647445651,44.65543116267175],[-0.301227230351357,44.655255019052184],[-0.301171514987339,44.65514441061286],[-0.300933453512955,44.654998338344626],[-0.301026097308043,44.65471804608079],[-0.300951773536568,44.65469701781545],[-0.300958396296388,44.654680781230745],[-0.300984342657112,44.65464531578441],[-0.300998190526912,44.65462958432645],[-0.301013441369866,44.65461840637982],[-0.301031737692984,44.654607497925404],[-0.301054392867369,44.654599883349036],[-0.301095754015794,44.65458188870667],[-0.301123253805328,44.65456647046326],[-0.301129136214948,44.654550526290336],[-0.301389238010053,44.65444589597997],[-0.301518219532665,44.65439149503008],[-0.301643326972335,44.65434207533512],[-0.301764685347563,44.654293308090566],[-0.301788571310577,44.654338999319855],[-0.301830050469298,44.654419937197126],[-0.301930807051518,44.65440088925141],[-0.301975005515906,44.65439254097445],[-0.302264784190859,44.65429675365846],[-0.302344020600896,44.65441449821984],[-0.302475052359956,44.654601789234015],[-0.302593972444687,44.65473105323732],[-0.302835590540135,44.65458894685956],[-0.303155171889768,44.65439432164015],[-0.303132872431544,44.65437570518086],[-0.30308611432189,44.65433394135205],[-0.303038005888907,44.654288523501705],[-0.302620170806537,44.653898952863905],[-0.302837331799658,44.653772534589265],[-0.3029350101625,44.65371393101723],[-0.303041671699863,44.65365352717321],[-0.303237653335156,44.653540535868075],[-0.303454737712858,44.65341285712131],[-0.303573615002318,44.65334767253999],[-0.303708614100122,44.65327326579089],[-0.303816633145374,44.65321020752091],[-0.303953752110833,44.65313321414073],[-0.304005798243142,44.65310372590128],[-0.304068434696769,44.65307401124638],[-0.304273091588685,44.65297986122076],[-0.304296644207239,44.65297465199272],[-0.304310919975756,44.65297269352195],[-0.30432155254189,44.65297318669299],[-0.304331082650483,44.65297425344921],[-0.304343007622998,44.65297741117151],[-0.304352376024743,44.65298217710581],[-0.304361524680592,44.65298965278777],[-0.304372044892506,44.65300114224666],[-0.304704137814793,44.65335569502747],[-0.304826642182982,44.653487913111725],[-0.304991086458291,44.653663660079935],[-0.305179991060546,44.6538625537187],[-0.305296501702911,44.65399585161783],[-0.305457907414201,44.65418430371088],[-0.305692580080191,44.65446607749736],[-0.305744660083717,44.65452750451438],[-0.305751458443038,44.65454009631609],[-0.305751566037939,44.65454838286389],[-0.305748659799239,44.65455693973725],[-0.305737869337512,44.654573121050696],[-0.305714476560517,44.65458751661979],[-0.305543085328465,44.65470004751656],[-0.305305541075925,44.654853391585505]]],[[[-0.304466626194313,44.65557534893232],[-0.304627877675967,44.655444831337704],[-0.304717267733393,44.65537403927241],[-0.305298237061082,44.65578737992327],[-0.305223900930566,44.655804920234615],[-0.305113705962804,44.65583740879285],[-0.305031212707197,44.655864383642964],[-0.30492780864962,44.65590288633549],[-0.30466306888995,44.65571544945501],[-0.304466626194313,44.65557534893232]]],[[[-0.304763974445459,44.6567704598233],[-0.304846449424304,44.65687224747601],[-0.3049093473332,44.65695020148472],[-0.304950614075455,44.657001589983935],[-0.3049011407662,44.657023342689186],[-0.304727775428078,44.65709592402135],[-0.304650894984642,44.65712822725383],[-0.304549610872408,44.657170630843716],[-0.304517190604543,44.65718610689818],[-0.304429327062149,44.65724423827128],[-0.304310734616159,44.65732085862326],[-0.304268057297625,44.65734871536277],[-0.304080912872332,44.65744468449324],[-0.30392961714452,44.657486779865565],[-0.303813128140691,44.65752179786574],[-0.303520124551725,44.65760804393585],[-0.303308982051032,44.65766940711592],[-0.303172985589736,44.65770762030509],[-0.303058531995665,44.65773861200899],[-0.302968964266331,44.65775480362346],[-0.302939690992403,44.657759372451864],[-0.302867569106695,44.65776305871253],[-0.302726483660681,44.65775970422973],[-0.302679446300806,44.65776489372136],[-0.302628828635654,44.657773614168185],[-0.302543704302326,44.65779453843848],[-0.302335140004573,44.657841766152934],[-0.301679934570248,44.65802920098471],[-0.301639652288884,44.65800102927908],[-0.30159041732574,44.65792996408988],[-0.301563308151605,44.65789392020237],[-0.301540356932908,44.657831891716185],[-0.301537892558175,44.65780277094207],[-0.301535779895748,44.65777318913589],[-0.301541335434723,44.65770643487733],[-0.30155636248969,44.65767850382196],[-0.301570784748043,44.65764671626388],[-0.301567692956459,44.657606891607806],[-0.30156635378126,44.657584044660794],[-0.301558409697691,44.6575648189688],[-0.301525515218481,44.65753345313618],[-0.30151070178042,44.65748749085551],[-0.301451395946783,44.65743844190641],[-0.301384112350568,44.657382512760556],[-0.30132656528119,44.65733115858769],[-0.301274928075556,44.65729017033716],[-0.30124618288468,44.657239127539135],[-0.301205463115028,44.65717762954454],[-0.301173621288197,44.657086672122816],[-0.301264447691138,44.657066119279676],[-0.301475665495758,44.657012506883895],[-0.301648059659802,44.656968523378914],[-0.301691245696396,44.65695579030574],[-0.301733853290934,44.656939650459606],[-0.301790968149077,44.65691902259845],[-0.301889748217677,44.65687264159518],[-0.302034311378234,44.65680615113831],[-0.302134656038018,44.656760624240235],[-0.302221852666054,44.656716931634385],[-0.302319817890316,44.65666958339979],[-0.302450240385576,44.65660738928315],[-0.302638074033015,44.656516718611556],[-0.302813596212595,44.65643569630347],[-0.303382871803314,44.65615891340771],[-0.30355520378503,44.65607519189563],[-0.303728511162224,44.65598873777408],[-0.304025266748276,44.65585038759965],[-0.304255034892655,44.65574512519012],[-0.304279355335686,44.65574007326009],[-0.304292230383742,44.6557400489008],[-0.30436381631131,44.65581765336862],[-0.304517980720973,44.655979471817105],[-0.304552052350869,44.656011522430134],[-0.304567345453578,44.65602043638255],[-0.304598622579659,44.6560306747154],[-0.304638741740951,44.656075429729704],[-0.30479353565157,44.65624795167174],[-0.304923040184459,44.65639608975538],[-0.30488314559531,44.65641971868908],[-0.304827379571478,44.6564503997643],[-0.304781026186552,44.65647368107899],[-0.304685519826542,44.65651771424631],[-0.30459787347496,44.65656016081234],[-0.304763974445459,44.6567704598233]]],[[[-0.301343193051497,44.6598441708732],[-0.301280358600486,44.65980603980635],[-0.301117942760736,44.659710240374025],[-0.300933799805932,44.65959914058218],[-0.300746731549256,44.65941225852631],[-0.300693189029186,44.659358171319795],[-0.300866384604991,44.659036908939726],[-0.301447782670132,44.65908911263789],[-0.301692174711659,44.65910380105915],[-0.30176715059049,44.65910354453016],[-0.301673414926847,44.65926835434893],[-0.301575920520415,44.659440124380865],[-0.301469059313675,44.65962010333687],[-0.301393075287113,44.65975825208971],[-0.301343193051497,44.6598441708732]]],[[[-0.300519045162455,44.65837706895978],[-0.300557964857961,44.65839491955038],[-0.300396682851632,44.65856399711389],[-0.300317609134972,44.65864943513271],[-0.300301696867271,44.65864288182031],[-0.300271426000904,44.65867568288462],[-0.300168650267974,44.65862162328748],[-0.300126823680352,44.65866405013471],[-0.300071640556141,44.658717688330405],[-0.30001484148469,44.658653245748155],[-0.299867864800683,44.65848471888173],[-0.299760149638072,44.65835926219346],[-0.299644546760738,44.65822845424103],[-0.299529348839608,44.65809808463557],[-0.299508209868236,44.658002302077314],[-0.299506598827242,44.65798126535867],[-0.29950807826617,44.657948332534836],[-0.299519680056698,44.657907168319156],[-0.299526848986727,44.65788731128692],[-0.29953424975318,44.65787141199792],[-0.299545142741175,44.657856940294884],[-0.299562755408011,44.657834338737025],[-0.299586884860434,44.6578130745012],[-0.299659511546592,44.65775981704466],[-0.299798890602967,44.65766293842103],[-0.299850196149021,44.6576271669605],[-0.299920833219864,44.65757874431759],[-0.29999826624744,44.65753642621098],[-0.300217966016908,44.65742714796507],[-0.300423162706454,44.65732244705802],[-0.300550474659258,44.65725881632183],[-0.300575450655252,44.65724554601874],[-0.300971843779912,44.65813504283769],[-0.300964839605484,44.65813831555053],[-0.300777146901311,44.65823798959071],[-0.300519045162455,44.65837706895978]]],[[[-0.299915870504871,44.6575005002437],[-0.299760148047904,44.657583449828046],[-0.299513047750269,44.65772282924429],[-0.299445653430255,44.657761964039544],[-0.299397950370043,44.65780105182842],[-0.299341678034702,44.657842557846855],[-0.299213808530652,44.65794197582237],[-0.299073332939681,44.65805249238362],[-0.298969057425184,44.658134446361665],[-0.298962229777025,44.65812780202407],[-0.298902367065176,44.65806921712902],[-0.298835929724632,44.65800830539798],[-0.298797055813654,44.65797828856249],[-0.298699340378561,44.65790064918105],[-0.298600606883868,44.65782502242589],[-0.298478030514447,44.65773028358633],[-0.298277760473525,44.65757641008855],[-0.298159496697757,44.65748415536005],[-0.298007517412383,44.65736587444109],[-0.297789688081001,44.65719666529222],[-0.297904892267649,44.65706203497952],[-0.298001122238923,44.65694617189307],[-0.298088049917109,44.65684608440433],[-0.29818531949395,44.656793264232476],[-0.298239346621413,44.65676516145603],[-0.298178267644211,44.65670517085358],[-0.298256219374849,44.65662643574547],[-0.298380474904886,44.65649766208567],[-0.298435436864203,44.65647259491636],[-0.298539995202814,44.65642784670682],[-0.298618494595074,44.65639081400055],[-0.298706990861186,44.65634987874343],[-0.298816369963547,44.65630985214994],[-0.298928700887263,44.65627496351085],[-0.299278508743182,44.65616279611502],[-0.299400076267113,44.65634379539836],[-0.299538598546924,44.65630992665714],[-0.299781642284477,44.656314747495095],[-0.300045936758562,44.656346145515506],[-0.300169277626053,44.65653150631334],[-0.300342686756412,44.65678925938003],[-0.300444346259325,44.65694066644758],[-0.300106829020644,44.65705580456522],[-0.299994697521834,44.65709411246032],[-0.299906330068805,44.65712432229966],[-0.300091207205226,44.6574032688944],[-0.299915870504871,44.6575005002437]]],[[[-0.297971603258107,44.6583501810795],[-0.297849218941604,44.65842690730735],[-0.297890241101545,44.6584612755891],[-0.297857357033429,44.65848180938665],[-0.297683899336575,44.65858537849797],[-0.297681131670499,44.65858338860734],[-0.297481820691911,44.65864645995339],[-0.297348323348823,44.65868864604212],[-0.297554430435738,44.6588839761732],[-0.297427849622237,44.65890198790454],[-0.297303080142139,44.65891859388447],[-0.297233104815818,44.65892662759381],[-0.297139672714625,44.65893509041576],[-0.297022836478026,44.658944881779654],[-0.296946009257436,44.65895879628866],[-0.296907913666398,44.65896795163402],[-0.296834400599417,44.65898672306664],[-0.296760562050974,44.65900640521233],[-0.296667667716195,44.65903053001534],[-0.296467496885575,44.65908542546793],[-0.296429081904325,44.65910206895173],[-0.296402443984591,44.65907402923622],[-0.296379450972442,44.65905002571985],[-0.296217514509139,44.65889104095277],[-0.296130128429454,44.65880218859636],[-0.295879227384935,44.65859206227961],[-0.295858094482668,44.658573950208016],[-0.295885986257397,44.65855870187113],[-0.295968213034913,44.6584428976777],[-0.296055113564331,44.65840696805077],[-0.296300514341056,44.65830954653802],[-0.296502878772965,44.65822746407254],[-0.296679447345103,44.658131733418394],[-0.296777389411893,44.65805798996012],[-0.296890982924043,44.657973417546756],[-0.29710280061272,44.657813470927145],[-0.297078894737969,44.65779327924071],[-0.297144130818801,44.657743127278096],[-0.297198225754541,44.65770321915544],[-0.297469362601688,44.65792904810562],[-0.297667040010458,44.65809687668868],[-0.297723522934768,44.65814303830135],[-0.297895078568518,44.65828515448834],[-0.297971603258107,44.6583501810795]]],[[[-0.29626444674337,44.66305830152617],[-0.296143895785105,44.66315362291585],[-0.295967731784251,44.663295384494],[-0.295807489645701,44.66343739206669],[-0.295786604064337,44.66347531843595],[-0.295732591079879,44.66358793883602],[-0.295428866119682,44.66354346784794],[-0.294959935576877,44.66347850901227],[-0.295001244734786,44.663394741059776],[-0.295018895437044,44.66335330701109],[-0.295080788580098,44.663168187232955],[-0.295133255738957,44.66299028646597],[-0.295157255560035,44.6629084759539],[-0.295180390190067,44.66283777424773],[-0.295198528507995,44.66262341238671],[-0.295202742329153,44.66259832747629],[-0.295240303434821,44.66245051571737],[-0.295288750754346,44.662262192293205],[-0.295316580412061,44.66215521817835],[-0.295399002578642,44.66187433461021],[-0.295439725982786,44.66174174655213],[-0.295449775936302,44.6617322562337],[-0.295457190554599,44.66172951229133],[-0.295469237931409,44.661734739808686],[-0.295482483602351,44.66174750050714],[-0.295616259014092,44.66191705746761],[-0.295715429795441,44.66205836127799],[-0.295744785655867,44.66210046684288],[-0.296004595770946,44.66237196110111],[-0.296157829444667,44.66253093577299],[-0.296342551437165,44.66272312175328],[-0.296518302549207,44.66289791414342],[-0.296441751688011,44.66293605842919],[-0.296332184661967,44.66301195012377],[-0.29626444674337,44.66305830152617]]],[[[-0.295511369204115,44.65950300371943],[-0.295497034424445,44.659510459214914],[-0.295424620920077,44.65955451664262],[-0.295323542568268,44.65965241053827],[-0.295237299484276,44.65975788163288],[-0.295181959634333,44.6598218840808],[-0.295162874342232,44.659845249620034],[-0.295145953107517,44.6598732361669],[-0.295112880469081,44.65995531699763],[-0.295113777878898,44.66016487639435],[-0.295117411869921,44.66033705044196],[-0.295116778140969,44.660436275849094],[-0.29511746414568,44.66050626763994],[-0.295117317249155,44.660678554382855],[-0.295106037777875,44.66115257696941],[-0.295113899459629,44.66124163759774],[-0.295135018459495,44.66131129082108],[-0.295159583739429,44.66134921418348],[-0.295228603355302,44.661441317981954],[-0.295287754183861,44.66152010986486],[-0.295394374895129,44.66165929965366],[-0.295398757506579,44.66168241636069],[-0.295400587332306,44.66170074342908],[-0.295398002674515,44.66173424974392],[-0.295362192004442,44.66184722850097],[-0.295334416370105,44.66192275405425],[-0.294962444854161,44.66185103152787],[-0.293842150249454,44.661470192407634],[-0.293808783615517,44.6614760520572],[-0.293741569410464,44.66135001387981],[-0.293657786798687,44.661270963788695],[-0.293597296309622,44.661214557256606],[-0.293393806531194,44.660986163067655],[-0.293283863994619,44.6608613072183],[-0.293114161669232,44.6607313830409],[-0.293102544845159,44.660720555902806],[-0.293068839195527,44.66068822059883],[-0.293027254530795,44.66063125075068],[-0.292948811662838,44.660455628045206],[-0.292910050013814,44.66036919962755],[-0.292870501289201,44.66028874161969],[-0.292548480325823,44.65970417405927],[-0.292492137597248,44.65960205005395],[-0.292440647566718,44.65950518787272],[-0.292409116333287,44.65939340457228],[-0.29265912985957,44.65932288576726],[-0.292988459642203,44.65922918980615],[-0.293591030241784,44.659060675808206],[-0.293685327810731,44.65903461960891],[-0.29394811399149,44.65896236574267],[-0.293992185705948,44.65895177191519],[-0.294150429066218,44.65890524849086],[-0.294296436821707,44.65885674663147],[-0.294438903384575,44.65879303210677],[-0.294770978107159,44.658649240196226],[-0.295090530680611,44.65857628313414],[-0.295363822626902,44.658521823976095],[-0.295459920569257,44.658584827182416],[-0.295531662982205,44.65863936544714],[-0.29559106577338,44.65869661421364],[-0.295653832724496,44.658778992304796],[-0.295668361064883,44.658807212914006],[-0.295695191415276,44.65886444133471],[-0.295768031809804,44.65891831600158],[-0.295855857001197,44.65903409718773],[-0.295880719135519,44.65905768466753],[-0.295961807632077,44.659136002359844],[-0.296029457297492,44.65920471885889],[-0.296053222179112,44.65922896975519],[-0.296077486229461,44.65925527820139],[-0.295900327983978,44.65933453600969],[-0.295711926736029,44.65941584064732],[-0.295511369204115,44.65950300371943]]],[[[-0.291352709852935,44.6656722461565],[-0.291337415096816,44.6658318282906],[-0.291307599174764,44.6658984929757],[-0.291260349339281,44.66600388141143],[-0.29125631643674,44.66601265160232],[-0.291189599552349,44.666147903794545],[-0.291134685456758,44.66622585778338],[-0.291034734548445,44.66636281981068],[-0.291000137974953,44.66641250657166],[-0.290922216383735,44.66651808679795],[-0.290883119128092,44.66657502581849],[-0.290856336322436,44.666609342218834],[-0.290822190856114,44.66665378935642],[-0.29073726246546,44.666756153931125],[-0.290734767950668,44.666758841231335],[-0.290728775916504,44.66676649832454],[-0.290710855884956,44.66675153337475],[-0.290696890642019,44.66673942423145],[-0.290662557617138,44.66670287174941],[-0.290628376773516,44.66666244017931],[-0.290615225371307,44.666644810354335],[-0.290576153781937,44.66657253673404],[-0.29056497553594,44.66651736416759],[-0.29056508508728,44.66649979027194],[-0.290575936993588,44.66641323608696],[-0.290597281653687,44.66631826015098],[-0.290619781376599,44.666217122645534],[-0.290621602031261,44.66617697138015],[-0.290608574385277,44.66610311185063],[-0.290584885860573,44.66603479569185],[-0.290558204713055,44.665986572070224],[-0.290523415008602,44.66594219395597],[-0.290498625655714,44.6659198645027],[-0.290474256493807,44.66589824338795],[-0.290631266040852,44.66558387770882],[-0.29068727110627,44.66547273259313],[-0.290947919381343,44.66501976319938],[-0.291606530535585,44.66519974508487],[-0.291566820968207,44.66526562306982],[-0.291499211643234,44.6653790964122],[-0.291473911114525,44.66541931583913],[-0.291359137273481,44.66565907961206],[-0.291352709852935,44.6656722461565]]]]}}]}
