{"type": "FeatureCollection","name": "aoc_geojson","features": [{"type":"Feature","properties":{"dt":"Mâcon","type_prod":"Vins","categorie":"Vin primeur, Vin tranquille","type_denom":"dénomination géographique complémentaire","signe":"AOC","id_app":583,"app":"Mâcon","id_denom":1726,"denom":"Mâcon Lugny","insee":"71156","cvi":"1B370 48, 1B370 49, 1R371 57, 1S371 57","nomcom":"CRUZILLE","insee2011":"71156","nomcom2011":null,"id_aire":1356,"crinao":null,"grp_name1":null,"grp_name2":null},"geometry":{"type":"MultiPolygon","coordinates":[[[[4.789655037964993,46.48909775583901],[4.789655578096682,46.489364529629704],[4.789631029292483,46.48944696618574],[4.789598202704809,46.48957915995347],[4.789578555924659,46.48976725989548],[4.789570609392203,46.48982313656606],[4.789594334938355,46.4898785173752],[4.789635925021246,46.48994181469653],[4.789671556645429,46.49005798530011],[4.789790590638257,46.49016843667732],[4.789810952368697,46.490212701648666],[4.789919319019388,46.490371596520276],[4.789992002890044,46.490456473546786],[4.790115516622083,46.490576221551954],[4.790152246306378,46.49060662982449],[4.790173423678483,46.49060422659607],[4.790220651526841,46.49051747174507],[4.790250517226331,46.49043414118428],[4.790257137852758,46.49031406654546],[4.790267472306589,46.490124401023294],[4.790323188732812,46.48988313612132],[4.790371950568663,46.489708090232014],[4.790374124137904,46.48963528100675],[4.790370066414125,46.48958715802618],[4.790328824277726,46.48925247973407],[4.790279762768471,46.48887424076101],[4.790239111333808,46.4885376617276],[4.789961774912832,46.488606043659274],[4.789594028284233,46.488693043497065],[4.789589311396978,46.488946659569905],[4.789655037964993,46.48909775583901]]],[[[4.789409332050282,46.48938702894349],[4.78894047530125,46.489516500364545],[4.788567387225319,46.489619792646096],[4.788245673141039,46.48970705844806],[4.78794411360401,46.4897886039823],[4.787696881892032,46.48985668950243],[4.787348960153079,46.48995210847365],[4.787005377244,46.49004466642033],[4.787030361619064,46.49012659815928],[4.787045225058302,46.49013447192584],[4.787074432168872,46.490138338576976],[4.787083893060738,46.49016440051062],[4.787111033316957,46.49025242316524],[4.787122431626961,46.49027791439629],[4.787185258578606,46.490408341617936],[4.787237073550012,46.49050516540943],[4.787258036403827,46.49053600124204],[4.787334440560895,46.49063901550199],[4.787410114082493,46.49075951436922],[4.787442222418933,46.490804136460326],[4.787452421378505,46.49082883580088],[4.787469818075242,46.490858286270225],[4.787480859604914,46.49087288479449],[4.787501572884309,46.49088814268901],[4.787557861738809,46.490938421191025],[4.788018470800161,46.49079557449304],[4.788384181212235,46.49068177154111],[4.78887730070978,46.49052832502194],[4.789332250646605,46.49038808338793],[4.789757601832123,46.49025595915343],[4.789742407369203,46.490234040266195],[4.789705462140439,46.49020102326265],[4.789677886557236,46.49016740920758],[4.789646615271319,46.49012052290484],[4.789614169059821,46.49006167590951],[4.789602654746183,46.49002871105845],[4.789581784403562,46.48997688828076],[4.789528526146407,46.48987990794517],[4.78952467369343,46.489830070437215],[4.789517396670761,46.48978316872703],[4.789518991306096,46.48977215543327],[4.789524423594949,46.48974297833654],[4.789536577983558,46.48970405869504],[4.789551544331828,46.489655457722975],[4.789564269362354,46.489594192211804],[4.789567619513569,46.489561174773705],[4.789574589895472,46.489523236969696],[4.789591734845745,46.48945757897698],[4.789607459571388,46.489372488468156],[4.789618183410433,46.48932971827476],[4.789409332050282,46.48938702894349]]],[[[4.790419001102408,46.48960008192874],[4.790418419933708,46.489649898798774],[4.79040484062616,46.4897407202001],[4.790372314267882,46.48988200640491],[4.790368966009696,46.48989520881891],[4.790378349765918,46.48990298785042],[4.790358651401872,46.49006163643501],[4.790342503430882,46.49023707217071],[4.790347509394571,46.490322018223],[4.790614183691057,46.49008357345625],[4.790723931276316,46.48999457802091],[4.790833175142422,46.489902167769635],[4.79086545361571,46.48986851692177],[4.790994950929931,46.48970589617963],[4.791156916620301,46.489535290830126],[4.791038896373034,46.48924135580019],[4.790758300459842,46.48855537849304],[4.790292215225167,46.48859816650677],[4.790338635253563,46.48896347702732],[4.790375414024976,46.48924562535373],[4.790419001102408,46.48960008192874]]],[[[4.791549138327671,46.48848245995217],[4.791379886494031,46.488498622882396],[4.791294872493301,46.488506800403115],[4.791028088400298,46.48853115629928],[4.790870684884535,46.4885467725439],[4.790965397267362,46.48877829532574],[4.791096865463865,46.48910453437282],[4.791247984512956,46.48946523170368],[4.791281316775436,46.48943588749351],[4.791312604801025,46.48941179927156],[4.791517187499804,46.48931987569385],[4.791601226091615,46.48929387978741],[4.791774762000689,46.48924927788898],[4.791926466064537,46.489210962488535],[4.79207233701362,46.48918165510152],[4.792491269202473,46.4891006898141],[4.792619144213456,46.48907535672935],[4.7927029714286,46.48905485748293],[4.792830179969086,46.489021158253365],[4.793054254958486,46.488959008958275],[4.79325888571056,46.48890040673071],[4.793302974876784,46.4888849438124],[4.7934105495285,46.488845067034035],[4.793555551037358,46.48879730734676],[4.793668498632724,46.488762209704596],[4.793843349282898,46.48872199732945],[4.794108877253408,46.4886515395524],[4.794266194254587,46.488609530153944],[4.794649306556616,46.48854587183338],[4.795067098346778,46.48845428679191],[4.795553453214646,46.48835793037108],[4.795781560300682,46.488315437283795],[4.795866795227666,46.48829815602602],[4.795978718876492,46.48827955467467],[4.796231712962103,46.4882325264878],[4.79643417028874,46.48819917180022],[4.796643611816743,46.48816012272418],[4.796736002701439,46.488142368055435],[4.796822469198087,46.48812290507273],[4.79699999907312,46.48808102444644],[4.797035733721813,46.488073257158106],[4.797069498528433,46.48806507048614],[4.797183728296132,46.48803733476536],[4.797297211554082,46.488010691488675],[4.797369875326652,46.48801162046434],[4.797441424992653,46.4880064422556],[4.797553798091794,46.48799359665995],[4.797625246817688,46.48798535759372],[4.79772818515367,46.4879671660267],[4.797946647513263,46.48792887333893],[4.798303629012016,46.48784021432964],[4.798526777923112,46.48778194163873],[4.798576667610575,46.487768456951024],[4.798612561854713,46.487761587336685],[4.798694865669466,46.48774642164063],[4.798778167228814,46.487725926139014],[4.798905267945317,46.48768915940082],[4.799070691044647,46.48764008042749],[4.799180309404559,46.487607011149144],[4.799300025206655,46.48757171123503],[4.799434071044923,46.487532042442325],[4.799532181912686,46.48750590912329],[4.799791895457401,46.48742165890544],[4.799942611113379,46.487381366742625],[4.799973824883836,46.48737493067368],[4.80004173695587,46.48735044335957],[4.800077331026079,46.487338444095855],[4.800187267839839,46.48730320716994],[4.800293874031887,46.48725793491357],[4.800424378930687,46.487194002186634],[4.80054014928379,46.48712219524295],[4.800621558923364,46.48707209560462],[4.80071693366203,46.48701448033829],[4.800889197881621,46.48691206034585],[4.801027439847685,46.486813959062594],[4.801088862004359,46.486774621978235],[4.801141858722706,46.48674865771564],[4.800659573006548,46.48574334504356],[4.800570401067271,46.48575970123567],[4.800479058087984,46.4857774425862],[4.800286816421003,46.48581181461683],[4.800053379875049,46.48585440086453],[4.7999981930178,46.48586535766707],[4.799505596869705,46.48595345539525],[4.799137798783645,46.48602211331275],[4.799108673911193,46.48602860635363],[4.798936908518095,46.48587341970916],[4.798803798918422,46.48572789227624],[4.798729646667226,46.485634307126354],[4.798669433310073,46.48557193650766],[4.798543607194564,46.485445568840994],[4.798258896050665,46.48516300013938],[4.798096152596088,46.48518636636931],[4.797986175803425,46.485200525929145],[4.797911410557123,46.4852108890298],[4.79781666108247,46.48522417841313],[4.797753571732406,46.48523273651885],[4.79767739951471,46.485243932212136],[4.797516004130181,46.4848809724093],[4.797235298139199,46.48423698325418],[4.79701466995335,46.483738230123635],[4.796947004474084,46.48359203191946],[4.796867052248508,46.4836071594876],[4.796577309730952,46.48368584076881],[4.796111999185615,46.48381411612654],[4.795889476773163,46.48386327759175],[4.795788615810935,46.48387702163009],[4.795842045346661,46.48397904037428],[4.796053968652894,46.48441965805541],[4.796517774775099,46.48540132109822],[4.796355459993888,46.48544170103689],[4.796174517231145,46.48548660670232],[4.79603119993805,46.485521823924806],[4.795917170402504,46.48555153693985],[4.795827523589435,46.4855733009867],[4.795518006769449,46.48565373115725],[4.795426022624363,46.48567580180691],[4.795235958413531,46.485724902325714],[4.795237643920305,46.48573253167241],[4.794891292938631,46.48581903283245],[4.794710599486681,46.48586366201885],[4.794797344680352,46.48618555560976],[4.794835245079614,46.48632285527197],[4.794949643567668,46.4867400572711],[4.795029770341844,46.486987568007144],[4.794773072334242,46.48701699836313],[4.794774944861912,46.48707389221788],[4.794773379220207,46.48722045816123],[4.794821147577291,46.48741984015871],[4.794864279582295,46.48752193095561],[4.794922869186545,46.48772915907509],[4.794949020086737,46.48785016066876],[4.794975277730102,46.48797044003206],[4.794974718173024,46.48799305599699],[4.794875857633632,46.488004425903405],[4.794073763145597,46.48809952101786],[4.793926187103157,46.48811651841507],[4.793672371252226,46.48814653144566],[4.793324385937257,46.4881878388585],[4.792566211785936,46.48827439827181],[4.792467089566673,46.488285770182664],[4.792493851969166,46.48838982980308],[4.792382199687617,46.48840085772223],[4.792270031941589,46.488412073750865],[4.791856201359894,46.48845368853975],[4.791549138327671,46.48848245995217]]]]}}]}
