{"type": "FeatureCollection","name": "aoc_geojson","features": [{"type":"Feature","properties":{"dt":"Bordeaux","type_prod":"Vins","categorie":"Vin tranquille","type_denom":"appellation","signe":"AOC","id_app":685,"app":"Côtes de Bordeaux","id_denom":1849,"denom":"Côtes de Bordeaux","insee":"33234","cvi":"1R120S","nomcom":"LATRESNE","insee2011":"33234","nomcom2011":"LATRESNE","id_aire":1451,"crinao":null,"grp_name1":null,"grp_name2":null},"geometry":{"type":"MultiPolygon","coordinates":[[[[-0.500921500446017,44.800929589114716],[-0.500834439490245,44.80100110099164],[-0.500794206950877,44.801029858517914],[-0.500796025623741,44.80095950709592],[-0.500803135948188,44.80089079094416],[-0.500740149917843,44.800771748589455],[-0.50059910976095,44.800647331027164],[-0.500400872778281,44.80078931339014],[-0.499859641561016,44.80119401334652],[-0.499791899802349,44.801195701812006],[-0.499602801778331,44.8011959049944],[-0.49959684738377,44.80119582264166],[-0.499511007125459,44.80119348624722],[-0.499435374803284,44.80118839423771],[-0.499302102792027,44.80117647043662],[-0.499135327264147,44.801148931932524],[-0.498938436359996,44.80110936655728],[-0.498882241132989,44.80109320660253],[-0.498855492360949,44.80107629729663],[-0.499397623516817,44.800683920530496],[-0.499151581365814,44.80051973889357],[-0.498633898529432,44.800898185119166],[-0.498508257644397,44.80079535842014],[-0.498413256995945,44.80072517935565],[-0.498395353538084,44.80071411893843],[-0.498445778788744,44.80067828156185],[-0.49849558352447,44.80064264398806],[-0.498533528702893,44.80061576193651],[-0.498587213469396,44.800577388353354],[-0.498619939198323,44.80055409560061],[-0.498639817201205,44.80053995007043],[-0.498944401443245,44.80032305815019],[-0.498879654954628,44.80027526557075],[-0.499443879276596,44.7998678618339],[-0.499345653027613,44.79980075942053],[-0.499704404061762,44.79955133384247],[-0.499996192755077,44.799348631268515],[-0.50065864129995,44.798874493993786],[-0.500770265276199,44.79902660619429],[-0.50081992072598,44.79909425022793],[-0.500857411033369,44.799149481407284],[-0.500900606630684,44.79924751980901],[-0.500979000681956,44.79949197352044],[-0.500999088333059,44.799554333181426],[-0.501084826699292,44.79977647536347],[-0.501095544743328,44.799804254375665],[-0.501134669852754,44.7999100815593],[-0.501241586473063,44.80014299997575],[-0.501244791708478,44.80014974787838],[-0.501285640204873,44.80023650517286],[-0.501310038728613,44.80028881537596],[-0.501371457771803,44.800419262094096],[-0.501162679505935,44.800532199625486],[-0.500943866392739,44.80065068070279],[-0.500986702891253,44.80073277917875],[-0.501039141469544,44.800832868794465],[-0.500921500446017,44.800929589114716]]],[[[-0.500220917264741,44.79768142686839],[-0.500217860588269,44.79770144000361],[-0.500228935486409,44.797765436167225],[-0.500250569707272,44.79784045400819],[-0.500337335302847,44.79801822479816],[-0.500350798160033,44.79804537643143],[-0.500351940794774,44.79806778031604],[-0.500344058838407,44.798085512606065],[-0.50032929066121,44.79810445370763],[-0.500311038862449,44.79812233326503],[-0.500287324517326,44.798137861970595],[-0.500260073066213,44.79815350238106],[-0.500146657420269,44.798189978194145],[-0.500121560042606,44.79819752982775],[-0.500007389326886,44.79823204669132],[-0.499781376939167,44.798283613279516],[-0.499762278910667,44.798287911289734],[-0.499295256800435,44.79839007456272],[-0.498763397532388,44.79851005371535],[-0.498284803299416,44.79861140637688],[-0.498215527485068,44.79862296550685],[-0.497981282249736,44.79865009523592],[-0.497791568980282,44.798670772317436],[-0.49767773904023,44.798517645588696],[-0.497431584712775,44.798566959096036],[-0.497488663164492,44.798719353618814],[-0.497380616796684,44.798728260524875],[-0.497361608719943,44.79872994178624],[-0.497328959145089,44.79873818168708],[-0.497222566748315,44.79877569448022],[-0.497044869152429,44.79885114469269],[-0.496847117032571,44.79892163989839],[-0.496781358469913,44.798930744013305],[-0.496661148206567,44.798937420493274],[-0.496584339113109,44.79893777098633],[-0.496528545043337,44.798938179402576],[-0.496367414331534,44.798925959599146],[-0.4963550263021,44.79892418751643],[-0.496214662009285,44.798905995288585],[-0.4959700447407,44.79886207271428],[-0.495650753823351,44.798797884714396],[-0.495470501552306,44.79875499503596],[-0.495429789332693,44.79874961015197],[-0.495365103928158,44.79874137651288],[-0.49528825118488,44.79873695112582],[-0.495120433113398,44.798731158727165],[-0.495120881262739,44.7983680506189],[-0.49513526601271,44.79819438612064],[-0.495167882688826,44.797786825705465],[-0.49528622918427,44.79779498925132],[-0.495540154784403,44.79697139375984],[-0.496120196874116,44.79702176901155],[-0.496138088198105,44.79695739956752],[-0.496195972881001,44.796748567604695],[-0.496268218485784,44.796510173768176],[-0.496587254499691,44.79653588629703],[-0.496479960749971,44.796994107706524],[-0.496596553285551,44.797006650907925],[-0.496594305948357,44.797015283225534],[-0.496585297382174,44.79704746997789],[-0.496674859046127,44.79717072238903],[-0.496682065956674,44.79718076870509],[-0.49686261832195,44.79741767552636],[-0.497127621296723,44.79777700420332],[-0.497173256505176,44.79754629841885],[-0.497222378417434,44.797296377116936],[-0.4973597204986,44.79709323799445],[-0.497611120067584,44.797146586088125],[-0.497951575134264,44.79726417233639],[-0.498011869502925,44.79707788332276],[-0.498055795489038,44.79692347275186],[-0.498083251852947,44.7968033770861],[-0.498081408353766,44.79676360213664],[-0.498078870484347,44.79671267419763],[-0.498171699168113,44.796345568371194],[-0.497638538817576,44.796308143686986],[-0.497243605395951,44.79631159495575],[-0.497223537532096,44.79640604330764],[-0.496232368206978,44.79632457586319],[-0.495299981613189,44.796248004746055],[-0.495299505160062,44.796244414970275],[-0.495304452524901,44.79599841141862],[-0.495300766961052,44.79557090803101],[-0.495289722220543,44.79537912045058],[-0.49521993321954,44.795126011467794],[-0.495167564609744,44.7949291286851],[-0.495227331251189,44.79493364226025],[-0.495620755042032,44.79496304918314],[-0.496303481000356,44.79501234674755],[-0.496465066575184,44.795023921081906],[-0.496659614860599,44.7950384204463],[-0.496665332754813,44.79503878075811],[-0.496750615870493,44.79504248843062],[-0.497486846292736,44.79507495038328],[-0.497954963616273,44.79509649448482],[-0.497915732298632,44.79526733888963],[-0.498085252643146,44.79529046619667],[-0.498217752987721,44.795334948731025],[-0.498775085552221,44.795516790875524],[-0.49875080100161,44.79561461701858],[-0.498808236572354,44.79588046081837],[-0.49923110929646,44.79633176973276],[-0.499261688682195,44.796641899381854],[-0.499274468780721,44.796767844487604],[-0.499309331529835,44.7968419040316],[-0.499361846404489,44.79691081007094],[-0.499452806500039,44.79699138936321],[-0.49975866627862,44.79713060994561],[-0.500090667665577,44.797069748100014],[-0.500202860139799,44.79703195911365],[-0.500255684178811,44.79701641225421],[-0.500433339924811,44.79699530051379],[-0.500381448573017,44.797098955697734],[-0.500360547735141,44.79718198582471],[-0.500346140485528,44.79742207086865],[-0.50033404337158,44.79750013668283],[-0.500298226461708,44.79770944592021],[-0.500220917264741,44.79768142686839]]],[[[-0.499707727244413,44.8015960611637],[-0.499684171681142,44.80154507580411],[-0.499598204364589,44.80156509334122],[-0.499611191701094,44.80131027327433],[-0.499615196733976,44.80123435553172],[-0.499713398224631,44.801233958401696],[-0.499973607883361,44.801225201055026],[-0.5001628399516,44.801208861448146],[-0.500468002492296,44.801186156575746],[-0.500601330249116,44.80173528545985],[-0.50010606649113,44.80186204506],[-0.499867304896729,44.80191644728679],[-0.499707727244413,44.8015960611637]]],[[[-0.497769767814992,44.798739411033225],[-0.497798438675455,44.79885431073109],[-0.497769641488752,44.79873941502003],[-0.497769767814992,44.798739411033225]]],[[[-0.497492692820198,44.801494480798745],[-0.496906858372624,44.801650759523255],[-0.49684939149634,44.80166500920041],[-0.496973097506954,44.80188929088762],[-0.49683639809954,44.801930102483574],[-0.496747047840922,44.801956803274926],[-0.496258133974048,44.80226304489633],[-0.49625634541503,44.80229329161309],[-0.496250524765057,44.80238485719892],[-0.496062231908631,44.802381784489725],[-0.495849090343187,44.802380126039964],[-0.495589186777961,44.802359304424485],[-0.495542673285191,44.80236041087065],[-0.495525273096319,44.802318783345854],[-0.49550723525208,44.802319802811034],[-0.495502566473806,44.8023200401712],[-0.495473427985614,44.802321680073426],[-0.495390807624613,44.80232635839473],[-0.495176961452797,44.80229912673281],[-0.495188008735631,44.802232539989],[-0.495301091760881,44.801549647610834],[-0.495358375409602,44.801178438329636],[-0.495082563783339,44.80027511980524],[-0.494641862438881,44.80033074183181],[-0.494565727025595,44.801088799937375],[-0.494548213870288,44.801456411595424],[-0.494706173650272,44.80148063011461],[-0.494477927337545,44.80206027001274],[-0.494040370985182,44.80217076337599],[-0.49336179289935,44.80234220282816],[-0.492770449270501,44.80202739465037],[-0.492030078215129,44.80173827690741],[-0.492300935831447,44.80135096825518],[-0.492216611209777,44.80130784419369],[-0.491425627940233,44.801057537124336],[-0.491144022656561,44.80096844717162],[-0.490895402876276,44.800894809575055],[-0.490459682457004,44.80130578109722],[-0.48952017369623,44.80163537347101],[-0.489513209874482,44.80163126695911],[-0.489509263451141,44.8016288678477],[-0.4892362575723,44.801574288588604],[-0.489165151320572,44.80156868662341],[-0.489153444875743,44.801567703346265],[-0.489133344580324,44.80156608310746],[-0.489031994080777,44.801544310359894],[-0.488937322558136,44.801522056920355],[-0.48891253251772,44.80151625851192],[-0.489071464371894,44.801234136832946],[-0.489111829288991,44.80108308688119],[-0.489187231466505,44.800803234029345],[-0.489263930148833,44.80046070699179],[-0.489287590901537,44.80035253920368],[-0.489298479783797,44.80030163914431],[-0.489550980733275,44.8003196441049],[-0.48967412202975,44.800333610740545],[-0.489744745961856,44.80034166075337],[-0.489736976064662,44.80037552012259],[-0.489715769592879,44.80046612749697],[-0.489705756713239,44.80050870899778],[-0.48961678105581,44.80090623563646],[-0.489685434319299,44.80092534238728],[-0.489876501215729,44.80096501722195],[-0.489947751735893,44.80098314083652],[-0.490047609924352,44.80077713650954],[-0.490091269960457,44.80066491418346],[-0.490095185554225,44.800648479176736],[-0.490103371198847,44.80061316476318],[-0.490123008939182,44.800509539300954],[-0.490127375602062,44.80043108757816],[-0.490124161487393,44.8002632052483],[-0.49014951893515,44.80014570144849],[-0.49020772014043,44.79996804471437],[-0.490333843471425,44.799695876063005],[-0.490368149058331,44.79969389451148],[-0.490711227158483,44.799741667660044],[-0.49103675158025,44.79980026635137],[-0.491224197846492,44.79984690191922],[-0.491415807740675,44.79988313234287],[-0.491433930947687,44.79988553539171],[-0.491536281092658,44.799898983337314],[-0.491816282778658,44.79993179763475],[-0.492081072536294,44.79994183956373],[-0.492276371134502,44.79994983486046],[-0.492353126794298,44.79994453247755],[-0.492414853639432,44.799933665566186],[-0.492437184765113,44.799926383135976],[-0.492840777430088,44.800006849026325],[-0.492948800988581,44.80003417562157],[-0.493487125430498,44.80018672473537],[-0.493646448196986,44.800234963731754],[-0.493255815776357,44.80078439208929],[-0.493713360583284,44.800869282770165],[-0.494173840367262,44.80023609194615],[-0.494239192976811,44.80020618448328],[-0.494375104338566,44.800077443635104],[-0.494477825494542,44.79995641796071],[-0.494495238517662,44.79988431355555],[-0.494485570258574,44.799859114392],[-0.494465601318949,44.79983721396424],[-0.49444613354034,44.799821335781],[-0.494396543977789,44.79979126711297],[-0.494194555815114,44.79971030892663],[-0.494134237865007,44.7996888694304],[-0.493948936352554,44.799945425253895],[-0.493690655859033,44.79986705179867],[-0.493774397154717,44.799737973574715],[-0.493810307075952,44.799682409047364],[-0.493282742673832,44.799501314933316],[-0.493308115670106,44.79946356598411],[-0.493269396137794,44.79944748332214],[-0.493331386251132,44.79936757561699],[-0.493440179988784,44.79921391633846],[-0.493738607136535,44.79899552101073],[-0.493981901233621,44.798810585190104],[-0.494039266689675,44.79877642360407],[-0.494253746757889,44.79867161107759],[-0.494311369756666,44.79867619285966],[-0.49442634075315,44.79868500452515],[-0.494529869686787,44.79869300528393],[-0.49461164452189,44.79871755301696],[-0.494803618128952,44.798790174578826],[-0.494922199337272,44.798838704994],[-0.495006006708517,44.798877607576294],[-0.495065071793432,44.79891350530568],[-0.495179688919807,44.79899190011609],[-0.495386020394212,44.79915896446034],[-0.495654130029398,44.79928343579636],[-0.495864370772792,44.7993851290312],[-0.49605538242942,44.799472738860324],[-0.496320801271649,44.79957629555899],[-0.496330630216595,44.79960203023682],[-0.496308621174721,44.79961651292694],[-0.496294952261859,44.79964704427607],[-0.496132390757809,44.799619999367],[-0.496101274101964,44.799724078432256],[-0.495844013816141,44.79997948296747],[-0.495873205962803,44.8000682318047],[-0.496423675242838,44.79987882816913],[-0.49642078712621,44.79997886261584],[-0.496425532579574,44.8003561364704],[-0.496430156306953,44.800576875334755],[-0.496448793420627,44.800713630665385],[-0.496456888655657,44.800778622354784],[-0.496516271961425,44.800750433881795],[-0.497433806124237,44.800302515217304],[-0.497512829837909,44.80034787542049],[-0.497699303690676,44.80044382677569],[-0.497925941146406,44.800548513640926],[-0.498025240065966,44.800594224943225],[-0.498204432049439,44.80068094269582],[-0.498368638469887,44.80078922134536],[-0.498468518158527,44.80086050813089],[-0.498586375117028,44.800958263483125],[-0.498694572183558,44.801057405101744],[-0.498785942624104,44.801154644554195],[-0.498263177454189,44.80129100575089],[-0.497903581034757,44.80138481509231],[-0.497492692820198,44.801494480798745]]],[[[-0.497668007311661,44.79874559647297],[-0.497721107520596,44.798771046887765],[-0.49766775465914,44.79874560444635],[-0.497668007311661,44.79874559647297]]],[[[-0.497153969692356,44.79978441206366],[-0.49697261327865,44.7999089128304],[-0.496906337895066,44.79986702522936],[-0.496733391398118,44.79974838618064],[-0.496526886070231,44.79960710398459],[-0.496491909705982,44.79957999977857],[-0.496440131631405,44.79953918661478],[-0.496172709870422,44.79942785292555],[-0.495945119138088,44.79932805932194],[-0.4957115510862,44.79922169479618],[-0.495693311215237,44.79921334819616],[-0.495452274022321,44.79910694837907],[-0.495400155633848,44.79907488716165],[-0.495388052303847,44.79906751854248],[-0.495286173745661,44.79899043447866],[-0.495214625740455,44.79892275763594],[-0.495168761391661,44.79885490163791],[-0.495144581190195,44.7987958244143],[-0.49532565748146,44.798790924956876],[-0.495404525930281,44.798795196628724],[-0.495514473799688,44.798810744370726],[-0.49553988698511,44.79881435874478],[-0.495610474609578,44.79882997622275],[-0.495809983212709,44.798881270324905],[-0.495904069350225,44.79890227460568],[-0.49597441572597,44.79891807970911],[-0.496037831758005,44.798930318331394],[-0.49622249203496,44.798960631482736],[-0.496402866090338,44.79897494803508],[-0.496524320764168,44.79899436743967],[-0.49668302334576,44.7989919740341],[-0.49668466559525,44.798991922221745],[-0.496808686680274,44.79899359678637],[-0.496863325585076,44.799001065137304],[-0.496851353465026,44.79901207705838],[-0.496821004587392,44.799010511229234],[-0.496783003503651,44.79908326564576],[-0.496797736751379,44.79909424607238],[-0.496739099050992,44.79919946400712],[-0.496871863367287,44.79924195749213],[-0.497086126449592,44.79931062767483],[-0.497139484694809,44.79922837654397],[-0.497176668592861,44.7991709682175],[-0.497228968010696,44.79909001213282],[-0.49733085963826,44.79912455733247],[-0.497364384683169,44.79907140992496],[-0.497480660878348,44.79913776412514],[-0.497786076909006,44.79908270514946],[-0.497786082508553,44.799082795093014],[-0.497851872888884,44.799068101921],[-0.49808230386253,44.79922160384697],[-0.4981294938674,44.79918667979025],[-0.498237087487834,44.79927619783659],[-0.498231084552558,44.799318022890105],[-0.49817779092874,44.799356564209816],[-0.498292387778054,44.7994365787861],[-0.498178736398643,44.79953641449683],[-0.498103116579779,44.79959044018106],[-0.497934314869757,44.79971121189436],[-0.497580602702613,44.799496803609735],[-0.497153969692356,44.79978441206366]]],[[[-0.494439035498316,44.79699241977203],[-0.494082863375966,44.79691298872065],[-0.493683121199681,44.7972971555629],[-0.493240071099583,44.79705202618012],[-0.493357006755376,44.79689910165936],[-0.493311498821921,44.79688170101673],[-0.49334654579907,44.796836707888275],[-0.49304527066285,44.79672003591828],[-0.493040984609478,44.79671827848684],[-0.492976364178352,44.79669679386315],[-0.492985139373829,44.79668525229675],[-0.493193967888382,44.796412275736834],[-0.493212703022917,44.79638789354326],[-0.493349967220547,44.79601434544922],[-0.493372618715151,44.79601020688758],[-0.49349049077967,44.79599044998492],[-0.493537554656401,44.795990137966946],[-0.493551598586349,44.795990055741235],[-0.493575174775432,44.79599264698584],[-0.493748567676971,44.796010882506295],[-0.49391868427293,44.79603138392872],[-0.494311709584281,44.79609090837198],[-0.49454077606471,44.79613532448772],[-0.494551883961996,44.79614705031755],[-0.494601079169177,44.79615658384976],[-0.494628158348055,44.796148340133804],[-0.494698870144406,44.79617008231084],[-0.494629055232075,44.79628078829208],[-0.494551867393317,44.79625870954791],[-0.494499004618529,44.796342836218145],[-0.494401113281114,44.7964986762567],[-0.494532558757592,44.796552659073924],[-0.494595601017279,44.79646532756477],[-0.49464076451372,44.796479223859485],[-0.4944715111338,44.796694450270735],[-0.494697716172508,44.79678032147818],[-0.494868553409395,44.796572254354054],[-0.49497842513751,44.796529677439636],[-0.495002644071574,44.79650800582631],[-0.495024101835042,44.79646839727263],[-0.495083671669677,44.7964819291911],[-0.495098929929264,44.79644846405591],[-0.495036677044515,44.796432493398385],[-0.495024073767344,44.796429286054384],[-0.495108426906076,44.79627558464582],[-0.49517390285399,44.79631488482501],[-0.495187754043448,44.79632391059897],[-0.495256273505486,44.7964406180039],[-0.495249546510227,44.79655221856308],[-0.495236137994155,44.79666628284788],[-0.495220893562618,44.79679356256499],[-0.495217263628496,44.796967158192416],[-0.495209403904989,44.79716431844758],[-0.494439035498316,44.79699241977203]]],[[[-0.493586693394405,44.79022181791607],[-0.493526086244732,44.79023219988871],[-0.493516565165899,44.79023376172602],[-0.493465445491862,44.79010361818196],[-0.493439094334132,44.79010724262369],[-0.493357461803946,44.7898873103582],[-0.493347436921383,44.789860410218154],[-0.493222749339309,44.78952603129874],[-0.493511515401423,44.7895052124176],[-0.493651867751861,44.78949511000928],[-0.494059526296486,44.78947117208649],[-0.494143859918759,44.790157839313565],[-0.494103518967356,44.79016442838739],[-0.493833598845631,44.790191233273866],[-0.493735144308756,44.79020352959422],[-0.493635673677729,44.79021576774035],[-0.493635174040222,44.79021587361216],[-0.493586693394405,44.79022181791607]]],[[[-0.493571364233231,44.79902341301915],[-0.493551387127966,44.79903801133443],[-0.493373876437963,44.79919798220857],[-0.493247540035559,44.79936264826042],[-0.493195296586594,44.79942016930854],[-0.493021668845066,44.79959173279399],[-0.492986550012781,44.79961320673152],[-0.492975692613903,44.79961976719472],[-0.492815666049588,44.7996986187535],[-0.49264584688477,44.79977876998155],[-0.492534100060854,44.79982185406368],[-0.492472556810859,44.79983974462253],[-0.492414114637011,44.79985050806744],[-0.492337510065843,44.79985823897643],[-0.492267116779019,44.799860006437974],[-0.492051876348709,44.7998488544099],[-0.491686378093914,44.79981918483549],[-0.491465882449995,44.799798824761524],[-0.491232593270834,44.799751831261624],[-0.491103438408798,44.79972255517488],[-0.49108520907953,44.79971844313783],[-0.490989552590236,44.799702711196545],[-0.491130342569848,44.799409982807276],[-0.490423868354615,44.79915439425818],[-0.490467196061576,44.799067415821334],[-0.49050376825787,44.79890837396156],[-0.49054033725726,44.79878799362879],[-0.490565305823388,44.798698889759365],[-0.490886506947731,44.79881431026331],[-0.491003346502278,44.79875745931164],[-0.491112115671698,44.79879684016528],[-0.491100500153444,44.79881360787328],[-0.491128035948619,44.79882490670264],[-0.491141830333397,44.79880653831916],[-0.49116751372306,44.79881654368999],[-0.4911735592433,44.79885068895081],[-0.491181415841954,44.79888342536403],[-0.491201652505747,44.798915771804296],[-0.491221662338298,44.79893631967533],[-0.491463582966025,44.79902449634474],[-0.4915578689298,44.79905892584881],[-0.491782098267429,44.79880132815749],[-0.491663535501752,44.798757119650155],[-0.491661716620329,44.79875636587331],[-0.491247484559342,44.798604315506864],[-0.491145138171969,44.79856644475955],[-0.49088485725328,44.79845162958031],[-0.490807808940473,44.79841755782481],[-0.490719720569221,44.79835247201468],[-0.490679279032636,44.79831679660191],[-0.490709172850499,44.79822140942341],[-0.49079186783995,44.7980081946401],[-0.490825467077507,44.79792152246832],[-0.490891902878113,44.797744056600074],[-0.490906049806358,44.79768043696045],[-0.490904772404398,44.79765172895354],[-0.491006912400461,44.79768834467608],[-0.491217439172793,44.79738341623014],[-0.491401013896278,44.797463607653064],[-0.491555272247456,44.797316448651486],[-0.491717296828726,44.79705801701095],[-0.491751154608943,44.79700404990371],[-0.491751494449437,44.79700340835732],[-0.491825600155134,44.79702477508277],[-0.491987416633509,44.79707257703497],[-0.492132921218492,44.79715117303802],[-0.492220119384984,44.79720601206932],[-0.492324858945133,44.79727426688069],[-0.492456463496358,44.79736339393566],[-0.492492262624766,44.79738749940323],[-0.492594399152695,44.79745051893582],[-0.49270532682942,44.79749613854056],[-0.492786479933751,44.79752701552113],[-0.492921979254999,44.79760547529058],[-0.49302682665548,44.7976754383796],[-0.493184353690324,44.7977804198391],[-0.493275028024691,44.797862635154125],[-0.493430758210554,44.79799570026329],[-0.493498746368502,44.798050963658376],[-0.493638257157286,44.79813893903466],[-0.493935711556674,44.798293760840984],[-0.494303452486768,44.798557033366976],[-0.494197448574515,44.79861913373592],[-0.494161544872709,44.79864018221625],[-0.493955764502383,44.79874444994283],[-0.493723787970588,44.79891190613409],[-0.493615187501194,44.79899130069513],[-0.493571364233231,44.79902341301915]]],[[[-0.49283878545361,44.79452644616005],[-0.492709514595235,44.794511414944026],[-0.492595920575635,44.79449814251932],[-0.49257970584687,44.794546777539296],[-0.492503314009316,44.79454152481201],[-0.492459713277095,44.794538482976606],[-0.492351030055301,44.79453091333339],[-0.492347869992954,44.794539123703586],[-0.492341505142395,44.79455482489424],[-0.492074921878202,44.79453384629629],[-0.491175587313853,44.7944753055715],[-0.490512778984228,44.79442859377375],[-0.490490945709601,44.794401073954965],[-0.49044384193576,44.79434163657759],[-0.490401258711283,44.794287734352395],[-0.490387531937274,44.7942705032108],[-0.490694113231179,44.79429157774618],[-0.490696028813979,44.79424907099795],[-0.490658495931664,44.79412570769322],[-0.490644559347106,44.7940867643294],[-0.490544100928321,44.793806141402584],[-0.49048545546607,44.793660732885705],[-0.490481043829292,44.793638612261525],[-0.490410299006113,44.79340436628024],[-0.490859559222462,44.7933875118673],[-0.491096388085453,44.79337987124475],[-0.491106231191215,44.79355051835804],[-0.491125590825578,44.793807110314525],[-0.491241531727592,44.79381337102955],[-0.491563885772076,44.793835748589856],[-0.491817108471858,44.79385156184452],[-0.491813452139598,44.793888445933526],[-0.491805162500544,44.793972969152996],[-0.491806695060398,44.79397319122407],[-0.492034123200973,44.793995494294826],[-0.492042530974478,44.79390880444858],[-0.492045773583231,44.79387544805687],[-0.492053274828176,44.793798609838106],[-0.492056897458153,44.79376118608022],[-0.492073839154,44.7935878024197],[-0.492076262426779,44.79356366406892],[-0.492141572282379,44.79312182138396],[-0.492378912961248,44.79311632472971],[-0.492389276298502,44.79311608825922],[-0.492521998745222,44.793111364838055],[-0.492661415808779,44.79310643026651],[-0.492738668583823,44.79310723981503],[-0.492689143719188,44.7936604242433],[-0.49267813163484,44.79382533015544],[-0.492639771747649,44.793878087666016],[-0.492612449850997,44.79402494290287],[-0.493225481329116,44.79408330450893],[-0.4936574262482,44.7941278156385],[-0.493626478451874,44.794340482943625],[-0.493605305652335,44.794478312922735],[-0.49357842617936,44.794650568369796],[-0.49322830781853,44.794617356055895],[-0.492827007771408,44.79457926713365],[-0.49283878545361,44.79452644616005]]],[[[-0.490727512099798,44.78068670756179],[-0.490699895205153,44.78071470357714],[-0.490629973095218,44.78070329847191],[-0.490260635623197,44.78064238776481],[-0.490015683255588,44.78060189007007],[-0.489407794967252,44.780497573149034],[-0.489228109528107,44.78046889658274],[-0.488697447920827,44.7803488962477],[-0.488522933107646,44.78030158131313],[-0.488114579364406,44.780172590418324],[-0.488091224927508,44.78016530506377],[-0.487861944600951,44.780106105261865],[-0.487777984553043,44.780084596375275],[-0.487710043218306,44.78007042354498],[-0.487385220506994,44.780002875303694],[-0.486969602973812,44.77991376141129],[-0.48669745299395,44.779854917166226],[-0.486598959313586,44.77982755644749],[-0.486389021000192,44.77973539226431],[-0.486061636022254,44.77958771490699],[-0.485782193937403,44.7794357345913],[-0.485388891992237,44.77923299375344],[-0.485137062487329,44.77909978923547],[-0.485097528704274,44.77907643031977],[-0.484939806210774,44.778983522262855],[-0.484693840945893,44.77883670463135],[-0.484525718405177,44.77874745754335],[-0.484540688510345,44.778715445076685],[-0.484217513736894,44.77857835440528],[-0.484073599883766,44.77852853841538],[-0.483988737081599,44.778500566615406],[-0.483707351299785,44.77841298750803],[-0.484099414918854,44.77775297409734],[-0.484287002070485,44.77778276187511],[-0.484312444063619,44.777787008400914],[-0.484344008842404,44.777792053669344],[-0.484393849152227,44.77780003879984],[-0.484665114873828,44.77784278478828],[-0.485052146586925,44.777909915640905],[-0.485311876901935,44.77805431668939],[-0.485403322766868,44.77810479036281],[-0.485425292291675,44.7780836422038],[-0.485576536892827,44.77797011039501],[-0.485599997800069,44.77795261015787],[-0.485603141641726,44.77795025827414],[-0.485757442121123,44.77783500791755],[-0.486023344471793,44.77763622014554],[-0.486032051683571,44.77762972796014],[-0.486048528386413,44.77761794464005],[-0.486052953242924,44.77761176743631],[-0.486135566801112,44.777222016641474],[-0.486142613024858,44.77720710552383],[-0.486233075818944,44.7770846710208],[-0.48624183667389,44.77707700558155],[-0.486270013932312,44.777060077730845],[-0.486276966324979,44.77705589371906],[-0.486323800239719,44.777027654608546],[-0.486411864067749,44.77697874243597],[-0.486785938667245,44.77690641009315],[-0.487054362218863,44.7768544343542],[-0.487791826588748,44.77671911222726],[-0.487905420468491,44.77669832331589],[-0.487931339574559,44.77675103805108],[-0.487952179665779,44.77678715053416],[-0.487955446855635,44.77679290541431],[-0.4879564480129,44.776794766395824],[-0.487961697291867,44.77680595613834],[-0.488026180433187,44.77694388095386],[-0.488086078799797,44.77708131926168],[-0.488121220344514,44.77718069566769],[-0.488138730284635,44.7772569258636],[-0.488155309142874,44.77737319826335],[-0.488156047333476,44.77738101538518],[-0.48815276093767,44.7775400889857],[-0.488953581100267,44.777569214653575],[-0.489433025389849,44.77758610748143],[-0.489450271969742,44.77758673583346],[-0.490333690102902,44.77761748563989],[-0.490343358966465,44.77761222447359],[-0.490344196050184,44.77760940440569],[-0.49032763285839,44.77767886742906],[-0.490342103554478,44.777728517841794],[-0.490379505086344,44.777858102560415],[-0.490481933070468,44.7782116577308],[-0.4906240703857,44.778699320973566],[-0.490672397951557,44.778847937089516],[-0.490747201297959,44.779078538669374],[-0.490772734854262,44.779157579886785],[-0.490764814671047,44.77938249686718],[-0.490761643809812,44.77947812324436],[-0.490761968048841,44.779540385476494],[-0.490762644935905,44.779634809196466],[-0.490762557440072,44.77965580975496],[-0.490764229330096,44.77987015095268],[-0.490765882820012,44.780118828213084],[-0.490826553381208,44.78010556164099],[-0.490924822510229,44.78023926659003],[-0.49099348031899,44.78033217922231],[-0.491036293780472,44.78038994852563],[-0.491169034423312,44.780512293534905],[-0.491116898344921,44.78053259103691],[-0.491108926637599,44.78053869997972],[-0.491111720436333,44.780553121166776],[-0.491122644600799,44.78056602449925],[-0.491081611653407,44.780689699520764],[-0.490727512099798,44.78068670756179]]],[[[-0.490651170031807,44.79811698492382],[-0.490577696561165,44.79836658795268],[-0.490532938465467,44.798518137324315],[-0.49052635452914,44.7985405141737],[-0.49049528670424,44.79873110487966],[-0.49048633202641,44.79878663039244],[-0.490388166544402,44.79906666038631],[-0.490286388813871,44.79926614673252],[-0.490202968755826,44.7994881255747],[-0.490189130419967,44.7995017188599],[-0.490177843443912,44.79950748148788],[-0.490222642092006,44.799590873575774],[-0.490240981090127,44.79963139074076],[-0.490243315000069,44.799646547508196],[-0.490230783859404,44.7996913712423],[-0.490162429520024,44.79987673754099],[-0.490140455583258,44.79993663828565],[-0.490130821427317,44.79996289619983],[-0.490074243616302,44.80012797509791],[-0.489679872336215,44.800059375077744],[-0.489671933579253,44.80009459155427],[-0.489333880753061,44.80004215094243],[-0.489311961353074,44.80016612501267],[-0.489287927331825,44.80030088991943],[-0.488924735055608,44.800271679314775],[-0.488377843353713,44.800227611979835],[-0.488358466772989,44.80017036490276],[-0.488353143988998,44.800153950381876],[-0.488349506491813,44.800109635791536],[-0.487678460975423,44.80009029026009],[-0.487715970977408,44.79970357743934],[-0.487777955998672,44.79968666697944],[-0.487855625315209,44.799661422486345],[-0.487970354889266,44.79959905383846],[-0.4879557843492,44.799551929130246],[-0.487908349424392,44.79945456051177],[-0.487531349401225,44.798682832815764],[-0.487238489463168,44.79884444034841],[-0.486949392547926,44.79895861581778],[-0.487202442162506,44.79972991961274],[-0.487156891700268,44.79973630936965],[-0.487099428645894,44.799738387682325],[-0.486915983886271,44.7997459615784],[-0.486879978694931,44.7996573350674],[-0.486785437771493,44.79942500672781],[-0.486642947002889,44.79907676081958],[-0.486615230180334,44.79904825373062],[-0.486472165124498,44.79890081245523],[-0.486394368790156,44.79883017262925],[-0.486361093818983,44.798801840328196],[-0.486098737316736,44.798577944550594],[-0.486274293909897,44.79846166533433],[-0.486869429203384,44.798067865052275],[-0.486906869032358,44.7980205458514],[-0.486698570377929,44.79787840164007],[-0.486483151892368,44.79773368734495],[-0.486231969376902,44.79756333213685],[-0.486212150097311,44.79754989690565],[-0.485965301249427,44.79740040270905],[-0.485845372778448,44.797327933636076],[-0.485796752404869,44.79729909255328],[-0.485549541065662,44.797141678389984],[-0.485493676378861,44.797118472195415],[-0.485227678624619,44.797025452860154],[-0.48518316653906,44.797001619150905],[-0.485173801469386,44.796995515162386],[-0.485262311059622,44.79690837986594],[-0.485654712351411,44.796521321847585],[-0.48573440071054,44.79644095219117],[-0.485820024480648,44.79648277818777],[-0.486068536749759,44.79624912177316],[-0.4861824891135,44.796149830302035],[-0.486241929948188,44.795967541060385],[-0.486246552085109,44.79597063996743],[-0.4865709633005,44.79613003960689],[-0.486592390852808,44.79614288344046],[-0.486831383962358,44.796316775276885],[-0.486681235596781,44.79643649180341],[-0.486741338922023,44.79647497449379],[-0.486893277131527,44.79672469211972],[-0.486955217511386,44.79683151773383],[-0.486934246236313,44.79685254459193],[-0.486822175120028,44.796965836335254],[-0.486534448776966,44.7972630909307],[-0.486382312825671,44.79742017905239],[-0.486896203594719,44.79773448103909],[-0.487074597891869,44.79755998397632],[-0.487184385318076,44.79745271173132],[-0.487438287291757,44.79761585982157],[-0.487914859058718,44.79790384512933],[-0.487959538889855,44.79785287314396],[-0.487993690451061,44.79781376780943],[-0.488061179563893,44.79771836985415],[-0.48814583097558,44.79749166795846],[-0.488153526840662,44.79747087844345],[-0.488210701139604,44.797343902641884],[-0.488290173012123,44.7972152336824],[-0.488600652384203,44.79677495895319],[-0.488612043505142,44.79675864919106],[-0.48868201042083,44.79682142309097],[-0.488875173768626,44.79696440050296],[-0.489015650749208,44.79707217728251],[-0.489036386164491,44.79708405114878],[-0.489123234905764,44.797133316089734],[-0.489285617432849,44.79720453524745],[-0.489382097654993,44.797245836582526],[-0.489516128362416,44.797290551647706],[-0.48966723748565,44.79733716204399],[-0.489819152322357,44.79736617350753],[-0.490315431214894,44.79744147623949],[-0.490683071452626,44.79750181320849],[-0.490754861235077,44.7975144218564],[-0.490781278222268,44.79753828264588],[-0.490806078754699,44.79756057218621],[-0.490828477679165,44.79760735985311],[-0.490830659165835,44.79765469419768],[-0.490816294216562,44.797714806016415],[-0.490733269194735,44.79790640243642],[-0.490651170031807,44.79811698492382]]],[[[-0.489997415741359,44.79561665184286],[-0.48984269640392,44.79558520574614],[-0.489608112593749,44.79553743917931],[-0.489435491105497,44.79550304155358],[-0.489490680940127,44.79534215236345],[-0.489504524506199,44.795344960785854],[-0.489680420843362,44.795381147683614],[-0.489795488350115,44.795116537534646],[-0.489949434314227,44.79476265594594],[-0.490099811071614,44.794416546707055],[-0.490211966491429,44.79444131217942],[-0.490438390508855,44.79448410737549],[-0.490543945405187,44.794618575929746],[-0.490692319821074,44.7947801735438],[-0.49075964611768,44.79484933764519],[-0.490684119603349,44.79495580493653],[-0.490342198990814,44.79566986888398],[-0.490176256752671,44.795647247956474],[-0.490085682583813,44.79563171590658],[-0.489997415741359,44.79561665184286]]],[[[-0.488245449533292,44.780972333681866],[-0.488089579059142,44.780940021645215],[-0.487885678666401,44.78095545254847],[-0.487568082645522,44.78102483858094],[-0.487536000793136,44.78103188640744],[-0.487168439113908,44.78107094182591],[-0.486917142379915,44.78109948801664],[-0.486718908172158,44.78110428460199],[-0.486480287248645,44.78110260145134],[-0.486340904440157,44.781101490090414],[-0.486315167124646,44.78109454969157],[-0.486282957185516,44.78108321687525],[-0.486213238714832,44.78101592872562],[-0.48540308472341,44.7811900235516],[-0.484847543845386,44.78130951285781],[-0.482424439370257,44.781869457288494],[-0.482115889061163,44.78194205768116],[-0.481798122454215,44.78200683610453],[-0.481684348464627,44.78203104856735],[-0.480468741505461,44.78226840311527],[-0.480015568330712,44.78236572698443],[-0.479928014970527,44.78238632037236],[-0.479280717627822,44.78253858233045],[-0.477750790242479,44.782841649699044],[-0.477739545351299,44.78280307134085],[-0.47773112991445,44.78277954412556],[-0.477730216319896,44.78277704947548],[-0.477728849771431,44.78277132476697],[-0.477719230402992,44.7827262969559],[-0.477662275091008,44.78252567788881],[-0.477656421980017,44.78251288449908],[-0.477654084075785,44.78250782110955],[-0.477626271200147,44.78246732955617],[-0.477581340097222,44.78240376416297],[-0.477491461076028,44.78228249158113],[-0.477364415888176,44.78211065723683],[-0.477354412280789,44.781938754320585],[-0.477353911416191,44.78193065935542],[-0.477352754740851,44.781899694818705],[-0.477348814223975,44.78181555749185],[-0.477347849355953,44.781777467558534],[-0.477347497972272,44.7817308872132],[-0.47734675493208,44.78165548117408],[-0.47735148782102,44.781515198048176],[-0.477352917272477,44.78149739980101],[-0.477374752350118,44.781234739454504],[-0.477386758044264,44.78109134428892],[-0.477402477841187,44.7809241313441],[-0.477408430097967,44.78087104486126],[-0.477419662042443,44.78076831751538],[-0.477432818649916,44.78065579694622],[-0.477441570569441,44.78058865419982],[-0.477494246526533,44.780272306488214],[-0.477510086522935,44.78013158467373],[-0.477497264867015,44.78013090567876],[-0.477497871453647,44.78011412456791],[-0.47749930149048,44.779871390123255],[-0.477499760661137,44.779676358938325],[-0.477500767488682,44.77964559687641],[-0.477500407466776,44.77964182319297],[-0.477631736662347,44.77960282517716],[-0.478089814811544,44.77944398577732],[-0.47815881370307,44.77942010111747],[-0.478313542378239,44.77936666964391],[-0.478468638477939,44.779313046173186],[-0.478861782302411,44.7791845393795],[-0.479283800678291,44.77905034809487],[-0.479796940328326,44.77888382441249],[-0.479953056886801,44.77883241970589],[-0.480167945114595,44.77876159552353],[-0.480350318206236,44.77872351412398],[-0.480493173583048,44.77870929366471],[-0.481163612654411,44.77865767987156],[-0.481556449196592,44.7787184224016],[-0.481640024026543,44.778719490981096],[-0.481657798343774,44.77873272060645],[-0.481683273965765,44.77873137931973],[-0.48171329575404,44.778729895161774],[-0.481753096884469,44.77871062061747],[-0.482249741183435,44.77869257882336],[-0.482309871757532,44.77867672045816],[-0.482442094277816,44.77864201420924],[-0.482729443831898,44.7785583633966],[-0.482835551738495,44.778535111595524],[-0.482911155252048,44.77851984791694],[-0.482922723327612,44.77873306603627],[-0.48341243909062,44.77872776336616],[-0.483618333277714,44.778726246230356],[-0.48424514154829,44.778721946252155],[-0.484274978241121,44.77873380482602],[-0.484283190515982,44.77873769203339],[-0.484434148382865,44.778809275273254],[-0.484658950973478,44.778920891705866],[-0.484881837063776,44.779048519060474],[-0.485003298077538,44.77911778508592],[-0.485202677464884,44.77923155197002],[-0.485558633955747,44.77940951404853],[-0.485795279838221,44.779538599332746],[-0.485959783569257,44.77962858935114],[-0.485986499499612,44.77964315913754],[-0.486256627958541,44.77977551574078],[-0.486399698061525,44.77984428064243],[-0.486520918452603,44.77988309244797],[-0.486605739962271,44.779910342774706],[-0.486618389275378,44.77991436054905],[-0.486749579419337,44.77995682361671],[-0.48688420203589,44.77998322742381],[-0.487108630528946,44.78002951462489],[-0.487377882154615,44.78008241114875],[-0.487459453791441,44.78010417575094],[-0.487664174394587,44.78014279123114],[-0.487755043193904,44.78016552463029],[-0.487843046577781,44.78018897899529],[-0.487884475145735,44.78020002114253],[-0.488005823613625,44.78023882735373],[-0.488358246757018,44.7803453375572],[-0.488557893199878,44.780397989557194],[-0.488696474585433,44.78043309826583],[-0.488836599490885,44.78046860879963],[-0.489058480867399,44.780522722635304],[-0.489136288847214,44.78054090967844],[-0.489173657880362,44.78054973610145],[-0.489177617417508,44.78055033236219],[-0.488998019430034,44.78072892697018],[-0.488929850393672,44.78075594652333],[-0.488681625631659,44.78085433258755],[-0.488323602168011,44.78095121847041],[-0.488245449533292,44.780972333681866]]],[[[-0.489157980489795,44.79654941766182],[-0.488862421898864,44.796443098697665],[-0.488870176026516,44.79638860250991],[-0.48879512101301,44.79636618232313],[-0.488976235579266,44.79594214489499],[-0.488994226845737,44.79584460966647],[-0.489015657456734,44.79584934217237],[-0.489080842264023,44.795696519686956],[-0.489152524476843,44.795528082125564],[-0.489368506579353,44.7955453440158],[-0.489470150581963,44.79556386252302],[-0.489734162218287,44.79561674076599],[-0.490068026502802,44.79568571295718],[-0.490132115125005,44.79569459917466],[-0.490230041717824,44.79570827748383],[-0.490292339562758,44.79571685952838],[-0.490782441915382,44.79577649312317],[-0.490845018294419,44.79578344393238],[-0.490541450774062,44.796318313882445],[-0.490801287901938,44.79639763621311],[-0.490941917757084,44.796440609617356],[-0.49127137152671,44.795837603447694],[-0.491363075422052,44.79585093608454],[-0.49136601990941,44.795851474162454],[-0.491550137700236,44.79586919497343],[-0.491823574099947,44.79588833695361],[-0.49186855761723,44.79590953971916],[-0.492016098014161,44.795984286565194],[-0.492056013178182,44.79600132320449],[-0.492088916993514,44.79601551667997],[-0.492125057101856,44.796030869849076],[-0.492126639125607,44.79605632392971],[-0.492054280121424,44.79625650723231],[-0.491977488706961,44.79636094257144],[-0.491829265226339,44.79654405016657],[-0.491723515098769,44.796657057905335],[-0.491702749123148,44.796673212779694],[-0.491682334154064,44.796688905991715],[-0.491567522935555,44.7967783172737],[-0.491408618039893,44.796883266347606],[-0.491205055532724,44.79702116391469],[-0.491034994556377,44.79715232825144],[-0.490939586158022,44.79722607763481],[-0.49073524149461,44.79740031722299],[-0.490709384078205,44.79741194602851],[-0.490691649474652,44.79741782167733],[-0.490673958558486,44.79741828875538],[-0.490591793605725,44.79740573647159],[-0.490319171101348,44.797373317976],[-0.490312029925204,44.79737246143479],[-0.490057912452262,44.79734045084586],[-0.490041569829375,44.79733817177006],[-0.490024452505137,44.79733564672806],[-0.489937114136893,44.797323347000436],[-0.489852179371751,44.79730898888266],[-0.489576176078581,44.79724657503253],[-0.489573736829147,44.79724602099698],[-0.489475395622394,44.79722163082027],[-0.489308848437637,44.79715468856124],[-0.489206197932641,44.79710574100926],[-0.489112030151327,44.79705886942768],[-0.489099613993438,44.79705051869792],[-0.488987812885792,44.79697446262921],[-0.488933943762586,44.79693650277574],[-0.489157980489795,44.79654941766182]]],[[[-0.488933941988185,44.79693650584148],[-0.488842744720005,44.796872237543],[-0.488933943762586,44.79693650277574],[-0.488933941988185,44.79693650584148]]],[[[-0.483823541397227,44.797305533004774],[-0.48336164318943,44.79711088418147],[-0.482660392963063,44.79681597236631],[-0.482644151006628,44.796809183079674],[-0.48273742913013,44.79671928660744],[-0.482797936341875,44.79666223205955],[-0.48292336785067,44.79654383854788],[-0.483037065030812,44.796464835387944],[-0.483152253528795,44.79638335200794],[-0.483477861314881,44.796172241775544],[-0.483666729484209,44.796050231258214],[-0.483769682279672,44.79598373115988],[-0.48404969675698,44.796166162216146],[-0.484338215979952,44.7963550842122],[-0.484595333682784,44.79652336416682],[-0.4846185836029,44.79654110764975],[-0.484670162650598,44.79658094087707],[-0.484718739906445,44.79662339181519],[-0.484737083663723,44.79663957726859],[-0.484829076710872,44.79673716798907],[-0.485037081885502,44.79696043221154],[-0.485081571179855,44.79700634598716],[-0.485115433422897,44.797036011927304],[-0.483999520006369,44.79737975686859],[-0.483884499532568,44.797331283499915],[-0.483823541397227,44.797305533004774]]],[[[-0.48222104965286,44.795386064722784],[-0.482032566672674,44.795322324604676],[-0.481927735702773,44.79527479094947],[-0.481688238691632,44.79516597121768],[-0.481570206005868,44.79509533084699],[-0.481530766484136,44.79507160678625],[-0.481384082072074,44.79498384245558],[-0.481382230013159,44.79498254884559],[-0.48116170184628,44.79483257849019],[-0.480986459691283,44.794721018036014],[-0.480703640514351,44.79485669889409],[-0.480678869375056,44.7948307114648],[-0.480534838704867,44.79467950888578],[-0.480200577857908,44.794344308774306],[-0.479912371154222,44.79407011430782],[-0.479873566766544,44.79403618629538],[-0.479772790754058,44.79394778954643],[-0.47974843084125,44.79392638511057],[-0.479531633248074,44.79373637189505],[-0.479383203638805,44.79354673516992],[-0.47931341560202,44.793457995990444],[-0.479279404641705,44.79342175444845],[-0.479135253254114,44.793268481405],[-0.478975977225353,44.79314073613533],[-0.478735898811074,44.79291189014737],[-0.478732611114375,44.79290784787107],[-0.478713423612351,44.79288411801689],[-0.478546818041817,44.79267882950008],[-0.478528884875218,44.79261198331582],[-0.478519712133029,44.7925782963375],[-0.47850159146862,44.79251046472841],[-0.478489922709933,44.792467123234445],[-0.47899094227581,44.79238696051066],[-0.479161397323279,44.792219034311636],[-0.479112605585673,44.79193587982654],[-0.478954353777416,44.79179395384983],[-0.47949644007358,44.79171898799479],[-0.479763213148211,44.791682043676985],[-0.480022139896673,44.79225202728683],[-0.4805862313644,44.79220331079896],[-0.480752085793385,44.79217980733509],[-0.480485377355617,44.79154968977927],[-0.48117502805784,44.79138897359125],[-0.481255203401493,44.79160859880644],[-0.481287316107492,44.79167139440739],[-0.481825375889906,44.791509037746756],[-0.481909049353102,44.79148279749678],[-0.481921712316641,44.791511508137354],[-0.482120690159102,44.7919817165241],[-0.482138984119106,44.79205431853731],[-0.48214900419786,44.792093475926094],[-0.482190880547535,44.792225987199025],[-0.482207911278499,44.79228024457278],[-0.482208830800077,44.792282829138195],[-0.482222607095469,44.79233358400299],[-0.482293420875277,44.79259198381053],[-0.482320674784504,44.792696837338895],[-0.481661573218953,44.7927462044529],[-0.481475993928651,44.792761857701706],[-0.481374807175285,44.792540188976034],[-0.480730880540795,44.792626112866074],[-0.48086489116244,44.79290983457682],[-0.480911377955282,44.792979929087245],[-0.480830068464234,44.792993297330646],[-0.480470223540969,44.7930520020658],[-0.480393724834857,44.793071527238396],[-0.480216309377363,44.793116841520856],[-0.479997840365702,44.79320021331726],[-0.480210629620603,44.79352985599376],[-0.480597651726269,44.79338883084959],[-0.481152812966667,44.79394959853176],[-0.481611732519249,44.794417410379474],[-0.481777014418235,44.79426406160218],[-0.481915696034695,44.79426763498052],[-0.482150839581547,44.79427358446621],[-0.482423748373854,44.79428032937556],[-0.482415033719665,44.79434801249461],[-0.483079261525268,44.794411670280915],[-0.483418314129732,44.79444210804914],[-0.483414533059487,44.79452198257266],[-0.48340740929987,44.794527523532935],[-0.483216770680692,44.794790355845336],[-0.482673774280285,44.795539190489514],[-0.482465506191546,44.79546868302643],[-0.48222104965286,44.795386064722784]]]]}}]}
