{"type": "FeatureCollection","name": "aoc_geojson","features": [{"type":"Feature","properties":{"dt":"Bordeaux","type_prod":"Vins","categorie":"Vin tranquille","type_denom":"appellation","signe":"AOC","id_app":685,"app":"Côtes de Bordeaux","id_denom":1849,"denom":"Côtes de Bordeaux","insee":"33096","cvi":"1R120S","nomcom":"CARBON-BLANC","insee2011":"33096","nomcom2011":"CARBON-BLANC","id_aire":1451,"crinao":null,"grp_name1":null,"grp_name2":null},"geometry":{"type":"MultiPolygon","coordinates":[[[[-0.503034204470478,44.91538356015636],[-0.503008859818146,44.91544483273578],[-0.503002475656413,44.91546242802233],[-0.502615833004596,44.915386662073985],[-0.502318170055607,44.91532818638084],[-0.502030659888565,44.91527182310019],[-0.50199722002771,44.91534362480506],[-0.501701325357133,44.915276890458784],[-0.501500187238162,44.91570789582493],[-0.501213039292827,44.91564719302308],[-0.500896777498262,44.91555288985258],[-0.500908738762675,44.91552709787938],[-0.500960376648926,44.915415609140815],[-0.500744301298516,44.915369788200024],[-0.500408086423796,44.91529512879919],[-0.500304321523285,44.91552046430046],[-0.500256317705708,44.915509359948956],[-0.500204230372108,44.91548973239648],[-0.500184289030419,44.91548522383459],[-0.500210713818751,44.91542698216158],[-0.50021989247717,44.91540740638886],[-0.500411016593472,44.91499870948911],[-0.500414260875143,44.91499175782537],[-0.499935721851245,44.9149005841345],[-0.499592687458217,44.91481820643029],[-0.499424006085476,44.91477773894888],[-0.499091015393974,44.91469774697404],[-0.49884404513643,44.914638476115265],[-0.498582711017678,44.91443843345733],[-0.498451397694483,44.91433820697399],[-0.498396004664554,44.91429606173643],[-0.498365903357431,44.91427303708057],[-0.498185996303685,44.91413594840278],[-0.49800594670924,44.913998593586086],[-0.497825495795765,44.91386089065696],[-0.497645051378798,44.91372327738746],[-0.497371327091469,44.91390601676927],[-0.497352342744836,44.91391887143916],[-0.497283994976744,44.913904891727675],[-0.496885393957741,44.91382416575881],[-0.496878572739612,44.913822578075155],[-0.496827650801934,44.91381345679605],[-0.496776011064468,44.913807061802125],[-0.496723636692051,44.91380312325157],[-0.496671430603275,44.91380188308425],[-0.496618996207043,44.91380308341651],[-0.496592486192698,44.91380508970765],[-0.49667636139379,44.91354739920222],[-0.496695511882796,44.91348839616825],[-0.49669234726591,44.913488495811364],[-0.496036269064367,44.9135133873495],[-0.496192925171108,44.9129725812455],[-0.496261584643997,44.91273528745771],[-0.497519403177473,44.91282320506778],[-0.497666826118811,44.91237659602705],[-0.497320282636694,44.912312887933204],[-0.497002765721687,44.912252951162095],[-0.496846710611235,44.912223618307976],[-0.496184607021302,44.91209467989472],[-0.496291342943051,44.91181716389211],[-0.49629712634463,44.91180211143536],[-0.496439081882507,44.91143246171374],[-0.496507260618365,44.911252591576485],[-0.496911477213262,44.91133215005454],[-0.496945143413332,44.91122934049074],[-0.497091927776022,44.91097381433748],[-0.497738243312822,44.911150739329635],[-0.497864780879232,44.91141649340008],[-0.49787659152171,44.911522467161284],[-0.497909774990174,44.91162542450155],[-0.498069569924186,44.911621202179276],[-0.498296415619318,44.91161630938366],[-0.49873450462983,44.91133817532033],[-0.498897839803453,44.9116041208916],[-0.499068613050613,44.91187541959163],[-0.499465706223894,44.91191995515955],[-0.499864307771385,44.91196426154363],[-0.500298779379192,44.91201428530138],[-0.500164747307897,44.912309339002235],[-0.499656990576395,44.913405834265454],[-0.499540625034163,44.91366500191243],[-0.499572598841581,44.9136753499275],[-0.499861156835496,44.91376899739533],[-0.499886109891715,44.91377659250088],[-0.500052789762483,44.913829739585054],[-0.500171484897106,44.91386799629436],[-0.500391241944154,44.91393632314237],[-0.500754305683501,44.914049069416514],[-0.500842432062735,44.91406900256815],[-0.501282964644642,44.9141589370716],[-0.501269092178171,44.91422723764806],[-0.501828391843837,44.91432198733309],[-0.502123731789196,44.914371795379914],[-0.502425359268647,44.91442275622217],[-0.502718036339585,44.9144725565817],[-0.503019130456965,44.91452308205101],[-0.503373123605948,44.914581851598534],[-0.503177588201775,44.91504341590178],[-0.503089451662268,44.91524870448004],[-0.503034204470478,44.91538356015636]]],[[[-0.498025383864512,44.91649774106818],[-0.498794034232162,44.91666846586437],[-0.4991105130542,44.916739786744294],[-0.499275861845747,44.91677351050225],[-0.499407681922726,44.91680044972333],[-0.499457017435007,44.91681052115257],[-0.499622129369485,44.91638930708291],[-0.499628646901978,44.91637179794338],[-0.499643204664897,44.91633069338824],[-0.49964319905067,44.916330603441395],[-0.49974893598491,44.91635016288324],[-0.499885992012933,44.91636549079131],[-0.499889562683902,44.916337349771446],[-0.500674199756379,44.9164186957765],[-0.500987811277147,44.91645423242929],[-0.500875856438806,44.916790138301074],[-0.500738280457733,44.91720327667852],[-0.501172481469314,44.91725033284543],[-0.501260209032433,44.91725973392817],[-0.501278094923909,44.91726178365353],[-0.501787885900139,44.91731681862972],[-0.502142513301309,44.91735502441088],[-0.502062240919494,44.91752590713493],[-0.501949061896079,44.917760914143656],[-0.501931192675081,44.91775913436629],[-0.501026887907273,44.917673187429],[-0.500881044577387,44.91809613980396],[-0.500365971325964,44.91805208180403],[-0.499993563360996,44.918019657762976],[-0.499863476671624,44.91800834604864],[-0.499553549231774,44.91798521707855],[-0.499346440702045,44.91796939215824],[-0.499023322888388,44.91794424398378],[-0.498712729498999,44.917920592929676],[-0.498212113134944,44.91788048568949],[-0.498043221525746,44.91783677798388],[-0.498020947842165,44.917829458510994],[-0.497988474324256,44.91781723311157],[-0.497958588823732,44.91780582742907],[-0.497932847277565,44.91779375048117],[-0.49789683296727,44.91777559828619],[-0.497449508970762,44.91753851117829],[-0.497414060620032,44.917519259531396],[-0.497470085778712,44.91736816029154],[-0.497493443762338,44.91730136405292],[-0.497513998419177,44.917242496851436],[-0.497513866215185,44.91724241089112],[-0.497565726949683,44.917093695836606],[-0.497616270985814,44.9169442111097],[-0.49770528415859,44.916679418247135],[-0.497784382097365,44.91644497797765],[-0.498025383864512,44.91649774106818]]],[[[-0.497784392057577,44.916444948456224],[-0.497784382097365,44.91644497797765],[-0.497784265466309,44.916444952443186],[-0.497748804433795,44.916437687775115],[-0.497748816560799,44.91643765997292],[-0.497748931025049,44.916437683788175],[-0.497784392057577,44.916444948456224]]],[[[-0.4974304764686,44.91635903122528],[-0.496625437728193,44.91623720846621],[-0.496201446101771,44.91617467275507],[-0.496035896612968,44.916149873094504],[-0.496227758674974,44.915703669699894],[-0.496211285976603,44.915699862347495],[-0.496349486521501,44.91536746175188],[-0.496359184869595,44.91534399466587],[-0.497067277602947,44.91547959637362],[-0.49690233428824,44.91590377478094],[-0.497345783756624,44.91597732097437],[-0.497520547774644,44.915566260939784],[-0.497875598012255,44.91563384687111],[-0.4980833720748,44.91567065208776],[-0.497748816560799,44.91643765997292],[-0.497426890537807,44.91637067997963],[-0.4974304764686,44.91635903122528]]]]}}]}
