{"type": "FeatureCollection","name": "aoc_geojson","features": [{"type":"Feature","properties":{"dt":"Dijon","type_prod":"Vins","categorie":"Vin primeur, Vin tranquille","type_denom":"appellation","signe":"AOC","id_app":1027,"app":"Coteaux Bourguignons ou Bourgogne grand ordinaire ou Bourgogne ordinaire","id_denom":2338,"denom":"Coteaux Bourguignons ou Bourgogne grand ordinaire ou Bourgogne ordinaire","insee":"71164","cvi":"1B320, 1B320 02, 1R320, 1S320","nomcom":"CURTIL-SOUS-BURNAND","insee2011":"71164","nomcom2011":"CURTIL-SOUS-BURNAND","id_aire":1685,"crinao":null,"grp_name1":null,"grp_name2":null},"geometry":{"type":"MultiPolygon","coordinates":[[[[4.611041400512129,46.57848583243356],[4.611070000274019,46.57850335244217],[4.611419969234893,46.57873934462237],[4.611758368108545,46.579105008441495],[4.612024864027578,46.57935361175987],[4.612043429906653,46.579349837935034],[4.612181970510155,46.579322039400516],[4.612348289830111,46.5792575543538],[4.612550005958886,46.57919311092659],[4.61271638821695,46.57912195982251],[4.61295274046313,46.57886438416509],[4.613237183094702,46.5787487893961],[4.61330607090506,46.57893577919045],[4.614261916294148,46.57865040838483],[4.615047219386042,46.57841057512708],[4.615007174870495,46.578394748588735],[4.61482415447075,46.578362745973244],[4.61474499994189,46.57835818837308],[4.614503750315317,46.57834456863183],[4.614487414816118,46.578344258599806],[4.614433961411942,46.57834312100476],[4.614377894223568,46.57834193017598],[4.614300788860882,46.57834040550277],[4.614233744310225,46.57833900912351],[4.614191532065006,46.578338163244155],[4.614155495748517,46.57833416815669],[4.614016860568683,46.578319010645934],[4.61389198452821,46.57830537021495],[4.613884137838135,46.57830503050519],[4.613575575072781,46.57828974579076],[4.613475128777398,46.57826747487204],[4.61335864539236,46.578241737281225],[4.613210343585774,46.57820888263581],[4.613169063709005,46.57819982755695],[4.612923577777762,46.57815339137706],[4.612582436683108,46.57806119925362],[4.612459340785666,46.57801943270534],[4.612395957368855,46.57800933769754],[4.612274961689497,46.57798996693631],[4.61218349293488,46.577975313854694],[4.611487309260847,46.57795206154476],[4.611411089105181,46.57794953178859],[4.611404553361154,46.57794935358461],[4.611367353169854,46.577945734256],[4.611242657162849,46.57793370954688],[4.611002361555515,46.577903677674556],[4.610832008945199,46.57787590355082],[4.610585519532655,46.57781308515696],[4.610331920694369,46.577677685839475],[4.610328957886116,46.57767907844669],[4.610306153318724,46.57768966629881],[4.610364157833371,46.5777872887391],[4.610510451248087,46.57795986213377],[4.610730143034131,46.57827352134508],[4.610845324515102,46.57836565593059],[4.611041400512129,46.57848583243356]]],[[[4.610962243100894,46.57854737809485],[4.610960601761796,46.578558118618965],[4.610960492516762,46.57855884065555],[4.610949533367813,46.57862987399022],[4.610826609304896,46.57943261869645],[4.61073728571207,46.580015858645176],[4.611239568542524,46.58000059599685],[4.612063099280835,46.579912631442454],[4.612352397573639,46.57987694609292],[4.612272292831227,46.57974775370448],[4.612050996292322,46.57948626608605],[4.611965105852124,46.579373366190055],[4.61172812980695,46.57916010199939],[4.611367496084222,46.57877133477675],[4.611029106687552,46.578538241632096],[4.611026881900218,46.57853809281093],[4.610964094937424,46.578534923422616],[4.610962243100894,46.57854737809485]]],[[[4.611481204620057,46.58167730981847],[4.611591824390944,46.58169889898767],[4.611662611293395,46.58168538399928],[4.611766225180359,46.58162034151159],[4.611872991456684,46.581595602509935],[4.611887150519628,46.58178705599948],[4.611901290237115,46.58191168344896],[4.611904629303441,46.581940636538995],[4.611873472806202,46.58198241377464],[4.611784100285059,46.58201672473057],[4.611704991777138,46.58206683218969],[4.611872772189401,46.58223225674032],[4.612087584588194,46.582442050116455],[4.612232575237563,46.582517102167486],[4.612439430043151,46.58256399399441],[4.613293002480286,46.582725971660395],[4.613341505799447,46.582705384484925],[4.613553435315368,46.582742746265914],[4.613602544681648,46.5827514207289],[4.613911231922753,46.58250570300768],[4.614167444168887,46.581794290685025],[4.614160036480025,46.58179115286242],[4.613610660111587,46.58155779889045],[4.613459166854001,46.58150571606937],[4.613321564459345,46.58145956158056],[4.612746430992456,46.58130447046198],[4.612509587455706,46.58121071878994],[4.611930170218391,46.58093725187511],[4.611339306816284,46.580744639096956],[4.610625900709945,46.58059517582476],[4.610571532691231,46.58069122658939],[4.610548431476952,46.580881673240334],[4.610548103711457,46.58088383934799],[4.610576223399292,46.58102637283971],[4.61061472114792,46.581210639354744],[4.610620543051812,46.58122199538633],[4.610635091163354,46.581250160401574],[4.610475722320273,46.58139974407754],[4.610789778512998,46.58160895447408],[4.610815230319288,46.58162597846729],[4.611006312616078,46.58144901947895],[4.611199207980261,46.58151430248905],[4.611306547279992,46.58158835440405],[4.611374285978624,46.5816351342321],[4.611481204620057,46.58167730981847]]],[[[4.612223915116303,46.584606311175335],[4.612617549769404,46.58398663302587],[4.613287787683003,46.58414993185987],[4.61340823588568,46.583850668652836],[4.613509729625183,46.58363029685559],[4.613700909993154,46.5831835050138],[4.613807114851681,46.58295910375099],[4.613792368588905,46.58295516870538],[4.613382130788571,46.58284648028512],[4.61326925251724,46.5827928624047],[4.613239274924518,46.582777433765706],[4.613018152345041,46.582733986598356],[4.61290687173892,46.58271222795721],[4.612754742510039,46.582687261924555],[4.61234902865956,46.58261209941493],[4.612318583702294,46.58279697590253],[4.612457749272039,46.58328828804516],[4.612498161137244,46.583629505752064],[4.612434945957147,46.58381493375751],[4.612243445713703,46.58421606613382],[4.612226126036314,46.58456187930032],[4.612223915116303,46.584606311175335]]],[[[4.612951615797322,46.57979627644466],[4.612990417232861,46.580338806502354],[4.612469351080612,46.58029769203139],[4.612248090445757,46.580280093372],[4.612020219722822,46.58029068682884],[4.611790333925124,46.58078026018601],[4.611777922814263,46.58080664305541],[4.61195687085652,46.58088617084364],[4.612144982842411,46.58097079295537],[4.612564771678064,46.58115995698422],[4.612779648273373,46.58124411108004],[4.61297287243101,46.581298398875944],[4.613356630767099,46.58140872259272],[4.613461903514437,46.58144380460412],[4.613648377509591,46.58150827338839],[4.614183699727792,46.581725794183036],[4.6141908382729,46.58172866561086],[4.614294711379331,46.58144341440575],[4.614400859281092,46.58116443537588],[4.614410958211903,46.581077742946725],[4.614427883464419,46.5809878020805],[4.61448660916555,46.58079667203386],[4.614503362505538,46.580731770944105],[4.614525739945353,46.58038966826216],[4.614519818913492,46.580159191762306],[4.614342032710349,46.58010567962897],[4.613888838254251,46.579965986955834],[4.613735643677582,46.5799092452741],[4.613596301878319,46.57984834542238],[4.613312767515081,46.57973471919197],[4.613170119171111,46.57972529109489],[4.612951615797322,46.57979627644466]]],[[[4.614305421738196,46.583134816447725],[4.61411179020307,46.5834899603742],[4.614013691489596,46.58366174124904],[4.6137956125936,46.58406478209003],[4.613738899315641,46.58416537049589],[4.613617305867814,46.58439070895436],[4.613601805918392,46.58446712016282],[4.613597220696739,46.58448429663086],[4.613592717819036,46.584495437757475],[4.613498668268192,46.58478631359818],[4.613487062209418,46.584822231901065],[4.614560926042395,46.58466767920929],[4.615678106496367,46.58451160456605],[4.615616656390863,46.584487704406115],[4.615595247462544,46.58447936046687],[4.615389567782838,46.584318348522444],[4.615142900903882,46.58396896334137],[4.615079174208938,46.58388151092746],[4.614881705524307,46.58360086942922],[4.614615209559568,46.58325212304937],[4.614384232921764,46.58311875498622],[4.614305421738196,46.583134816447725]]],[[[4.614950435739988,46.58341230004046],[4.615033591738316,46.58337537243237],[4.615090450304827,46.58303764682178],[4.615274807553534,46.582555103463356],[4.615343875696585,46.5823604047467],[4.615618867800222,46.58218999952884],[4.614949452674482,46.58204066259571],[4.614789866107931,46.582301482604834],[4.614615636751322,46.58257511757566],[4.614438130707643,46.582892478727956],[4.614427212186537,46.58291190603235],[4.614582049515837,46.58301491582088],[4.61461136437574,46.583034406270016],[4.61463483317727,46.583099010370574],[4.614830220364813,46.58338004188222],[4.614950435739988,46.58341230004046]]],[[[4.615261469258472,46.577206028247396],[4.615094418755783,46.577267555937524],[4.614941416604909,46.577322760973814],[4.614701059773071,46.577409548860885],[4.614437178977753,46.57750468349916],[4.614667511411038,46.577982639638286],[4.614828650443513,46.57829855803729],[4.614831835676455,46.57831787655925],[4.614823988978713,46.5783175369139],[4.614828844154281,46.57832710512956],[4.615272942591531,46.57844233521653],[4.615586975214277,46.57850545147232],[4.615874173596857,46.57851815030224],[4.615880581539625,46.578518420118456],[4.615967083045334,46.57847126739903],[4.616100420608801,46.57819793687338],[4.616443530778609,46.57752041598519],[4.61669079994775,46.57687919149886],[4.616675347101255,46.57688220163795],[4.615812667796092,46.57704874685754],[4.615745138410991,46.57706176823987],[4.615712442173707,46.57706907440138],[4.615511852482423,46.57711387405436],[4.615453584866697,46.57713532052317],[4.615261469258472,46.577206028247396]]],[[[4.615500241544992,46.58244889168488],[4.615322458134124,46.58286676792391],[4.615214699842166,46.58311343802734],[4.615166433787216,46.58335332473995],[4.615087489756913,46.583717119737386],[4.615361882960655,46.58408971026789],[4.615540603738254,46.5843282861238],[4.615735754463739,46.58444261389319],[4.615866338191749,46.584472022952426],[4.616177402119996,46.584464751063216],[4.616386059235746,46.58443559773749],[4.616399848905777,46.584433691899044],[4.616404911745275,46.5844326297457],[4.616503034805925,46.58441143086916],[4.616608516547572,46.584378509961404],[4.616696725027469,46.58434015889117],[4.616706139004864,46.58433606323128],[4.616908913898714,46.58384064844242],[4.61712108830138,46.58388601581394],[4.617292268903499,46.58349245678893],[4.617272752741187,46.58349066099315],[4.617178177689081,46.58348172957723],[4.617188753491741,46.58345519190301],[4.617306628885837,46.583158032004796],[4.617343968663541,46.583135439293805],[4.617409792636971,46.58308236335529],[4.617372109066949,46.583080193753744],[4.617018173577267,46.58305988486147],[4.616719101911719,46.58302646170921],[4.616731276737184,46.583000982250205],[4.616890035934616,46.58266857145756],[4.616936746803823,46.58261846754608],[4.616931638885555,46.58254324741501],[4.616929967809739,46.58253975857421],[4.616862789407678,46.58240210097076],[4.616597757983582,46.58238440813424],[4.616390071268538,46.5823623927701],[4.616208643995896,46.5823361337032],[4.615924888840242,46.58228610097256],[4.615786362145957,46.58229255893342],[4.615662865572724,46.582321320274914],[4.615500241544992,46.58244889168488]]],[[[4.616268216813176,46.57950327672764],[4.616190665065271,46.57997512833651],[4.616218823368235,46.58009208236341],[4.616266501894052,46.580382581536206],[4.616254932216758,46.580494422391254],[4.616256259208416,46.58049512416025],[4.61818724915216,46.58151347722623],[4.618230347787031,46.58134192939672],[4.618241574288123,46.58122306827561],[4.61824902935536,46.5810959746948],[4.618243587364947,46.581005178473184],[4.618219590239078,46.580857004438634],[4.618131008845618,46.58052664590096],[4.618094239792962,46.58026076041063],[4.618088761049749,46.58012916634181],[4.618109582031413,46.57998594278427],[4.618166047711854,46.57983789247194],[4.618229670987661,46.579636243784485],[4.618238881793527,46.57940564342466],[4.61821146116671,46.5792960645302],[4.618189126060339,46.57919938277021],[4.618110932538795,46.57894597092887],[4.618080142826372,46.578907589069445],[4.618189624014387,46.57890415052064],[4.618187370186164,46.57888544935181],[4.618024090004474,46.57752700082502],[4.617933027303539,46.576875603797085],[4.617924478495789,46.57662309890557],[4.617525516557923,46.57670799112641],[4.617503970664848,46.5767125284612],[4.617497518975306,46.5767239674982],[4.617368007375693,46.57694987289414],[4.617246429985697,46.57718350149461],[4.617139302031656,46.57735838516146],[4.617006121599252,46.57766314667195],[4.616817052106291,46.578104691728704],[4.616512846396314,46.5787287976877],[4.616438756101691,46.57889042524782],[4.616347017702551,46.57906914358284],[4.61633677479985,46.57908928206708],[4.616335043216224,46.57909254876337],[4.616268216813176,46.57950327672764]]],[[[4.618263753171038,46.58148582757536],[4.621608284569892,46.58056679449489],[4.621504134770006,46.57999069761923],[4.62260846319139,46.57961759443701],[4.62224263855519,46.578833828863445],[4.620967564443069,46.57929742743887],[4.620842317373421,46.579332883936026],[4.620641545924074,46.579367337864454],[4.620634138952499,46.57936861351845],[4.620635872567907,46.57937858593526],[4.620638713049,46.579395027196384],[4.620133451756407,46.57947674949983],[4.619355587912272,46.57958006760615],[4.618276560043287,46.5797372617576],[4.618183344008354,46.57999354637076],[4.618166797531545,46.58005646377298],[4.618164105061617,46.580066949083815],[4.618156203378147,46.58013947107035],[4.618162775931035,46.58025952166958],[4.61822445825451,46.58058575722884],[4.618301890593676,46.58084422321505],[4.618332120319481,46.5810746263373],[4.618332293701624,46.581076064887924],[4.618323381994506,46.581228846896735],[4.618263753171038,46.58148582757536]]],[[[4.624253647563189,46.584046967894515],[4.623853088330685,46.58412361830033],[4.623670682550817,46.58414809007368],[4.623465928730303,46.58417657096608],[4.623329248434539,46.58441591377986],[4.623328741310101,46.58446023178239],[4.623529984738761,46.58476512271986],[4.623453563714249,46.58479124360239],[4.623476640451278,46.58481604390601],[4.623474188300261,46.584860839796114],[4.623509544033026,46.58492068049363],[4.623447284544663,46.584952995034065],[4.623503704878277,46.585035863312484],[4.62364671400688,46.58500429513986],[4.623847490439408,46.58514014461116],[4.624029974117853,46.585240768498316],[4.624185423390326,46.58528026277157],[4.62425187434236,46.585292109132766],[4.624326076945472,46.58529231748271],[4.624402804514212,46.58527645881698],[4.624639515603638,46.585250675108306],[4.624801655932852,46.58523423477947],[4.625023165187239,46.585233072949684],[4.625116532916327,46.58524516727245],[4.625163856434373,46.585246386975264],[4.625248007482787,46.58522979194469],[4.625215663545453,46.58500401358954],[4.625189983858074,46.58495331252016],[4.625135359474681,46.58486942885853],[4.625058216814287,46.584779470289824],[4.625037830055555,46.58478354223559],[4.624970832066918,46.58471397393209],[4.624942533096725,46.5846411545637],[4.624870369646329,46.5843416394581],[4.624813698918047,46.58401848817475],[4.624790664903059,46.583995128529374],[4.624432246364188,46.58401750568078],[4.624253647563189,46.584046967894515]]],[[[4.625606297602885,46.581830423238614],[4.625652013154845,46.58187849814562],[4.62565686669512,46.58188356281383],[4.625669049581854,46.581915362117016],[4.625681111162669,46.582052446468815],[4.62568267723575,46.58206989640326],[4.625767705576686,46.58210471427058],[4.625775508359175,46.58210793580528],[4.625805924936987,46.582238545204106],[4.625835670220851,46.58239915501215],[4.625891681661997,46.58261261892235],[4.625880695382449,46.58272148062108],[4.625856375183726,46.58293932740302],[4.625795628143599,46.58322334708465],[4.62565985797277,46.583470875687375],[4.625639845992291,46.58353996769721],[4.625641788478098,46.583570021061504],[4.625648109612402,46.583602353892985],[4.62565302712059,46.58362705132179],[4.62566814345061,46.583625846026756],[4.625704757815353,46.58362280445163],[4.625762088311623,46.58361361466737],[4.625638420290305,46.58384214828304],[4.62563789623171,46.58388583612908],[4.625277412699004,46.584018391918256],[4.624906860444293,46.58404562603338],[4.62486468674547,46.584068109709165],[4.624918083757345,46.5842990832523],[4.624962415538886,46.58447578755758],[4.625019495609938,46.5846419537263],[4.625055161965918,46.58471214676965],[4.625132309901208,46.58480228539063],[4.625182100122475,46.584864262372164],[4.625200645315718,46.584890387530386],[4.625233266343255,46.58495044666035],[4.625285468718295,46.58507570341623],[4.625303752294363,46.585171810960624],[4.625313331022326,46.585260746977916],[4.625320364562453,46.585286315005774],[4.625325773654072,46.58530560170365],[4.625381421542242,46.5853362437176],[4.625409918909377,46.58535880520019],[4.625429183688299,46.5853740225268],[4.625420247007949,46.585551572817465],[4.625408041845999,46.58561091722667],[4.625437731752023,46.5857302791318],[4.625637672622088,46.58570231342998],[4.625923722453375,46.58568393229487],[4.626057094594149,46.58566645766692],[4.626829099703542,46.5854563640971],[4.627559728110773,46.5854222954918],[4.627823808721023,46.585390081980606],[4.628550782916084,46.58529940951606],[4.628907415806165,46.58523894843612],[4.629952415228693,46.58506376696096],[4.630175034537249,46.585038622655645],[4.630512266994009,46.584984737103355],[4.630798960153308,46.584940036215485],[4.630491171972817,46.58391851383156],[4.630227893326387,46.58300019933521],[4.63015600395131,46.58300734707199],[4.629411239586941,46.58313097618697],[4.628709519054984,46.5831958976842],[4.627513195569995,46.583367905528476],[4.627426225253546,46.58306725129356],[4.627265831268565,46.58259129757987],[4.627197272167148,46.58259623462873],[4.626992360619277,46.582024816194476],[4.626727365557649,46.58090252649902],[4.626666363234125,46.580863045019555],[4.626295261814692,46.580818691865005],[4.626181108810597,46.58084075739307],[4.626071186887737,46.58088203614913],[4.625992504285443,46.58091530591494],[4.625842206653317,46.581017319711485],[4.625740405316622,46.58110747696681],[4.625685356749799,46.5811711223426],[4.625671008458933,46.58120239770125],[4.625641029879904,46.581344492010544],[4.625618890216407,46.58145603381179],[4.625573535994034,46.581595014059836],[4.625604639796729,46.581818648556975],[4.625606297602885,46.581830423238614]]],[[[4.630566807485708,46.5850262900021],[4.630201161471612,46.585082291409115],[4.629968614347123,46.585103073938576],[4.629828214350908,46.585125696703344],[4.629562494434681,46.58517288862002],[4.629232551797406,46.58523036019945],[4.629045895316152,46.58526561845497],[4.628559451114336,46.58534900086928],[4.627941743821493,46.58542866346654],[4.627842617838251,46.585455560384545],[4.627791068642815,46.58545719379772],[4.627680557223401,46.58546155661379],[4.627776426313468,46.585915460887605],[4.62781330313147,46.586043456167864],[4.627853781001742,46.58621760241232],[4.627881575887848,46.58639571157053],[4.627830386499741,46.58651424125681],[4.627772942821595,46.58658089364158],[4.627701290445129,46.586674766765],[4.627598287331362,46.586816728592986],[4.627464009029422,46.58691320282992],[4.627347873736889,46.586996089799804],[4.627206090532677,46.58702944637152],[4.627135429830562,46.58703855604524],[4.627077398739335,46.587041902343614],[4.626840152557877,46.5870368971579],[4.626738794698449,46.58702419719778],[4.62676922598308,46.58707645156194],[4.62634412721875,46.586983870990586],[4.62608540254602,46.58692891432344],[4.625852518337187,46.5868906120452],[4.625546037268889,46.58684182601641],[4.625471078282065,46.58685135592808],[4.625564110622304,46.587127698458076],[4.625577906153286,46.5871872141536],[4.625575499068043,46.58725533567291],[4.625529483817043,46.587280485895896],[4.625524486226683,46.58732747946575],[4.625530681779374,46.587377466342964],[4.625559380806469,46.58743298785495],[4.625640394942215,46.58760430776177],[4.62589366896086,46.58777408264613],[4.626212718342479,46.587989755525776],[4.626541268400526,46.58816917748398],[4.626817450875568,46.588314127965596],[4.626849439797176,46.58833105562324],[4.627265655446769,46.588571823678684],[4.627437764162138,46.5887005992294],[4.627669149182129,46.58882826185744],[4.627730858472068,46.5888735869024],[4.627870655156801,46.58893527409798],[4.627895548956126,46.58891150394343],[4.627989712543169,46.588941236981874],[4.628022994413297,46.58891401523649],[4.628094474414256,46.58887544291272],[4.628229353869081,46.588737800840455],[4.628294199520847,46.58870454634736],[4.628324236825795,46.58868241415164],[4.628353900823166,46.58861723729821],[4.628407589187338,46.58859530915515],[4.628420299747912,46.588583510330196],[4.628535118930218,46.5885046037976],[4.628421998583321,46.58831717083554],[4.628325031436624,46.588250462263716],[4.628694324968579,46.58804491127048],[4.628585337613456,46.58794757243167],[4.6285138893677,46.5879216597545],[4.628493180468645,46.587853866854886],[4.628638479491235,46.58779389021849],[4.628734416921504,46.587725789313346],[4.628763516898957,46.5876417972448],[4.628853597253058,46.58760061822221],[4.628999915049105,46.58757908339411],[4.62906320741461,46.587576922161695],[4.629103035394342,46.58759824081602],[4.62915507800543,46.58759993214204],[4.629212393245664,46.58759011046709],[4.629241640708436,46.58756780912348],[4.629299341240918,46.58757086089073],[4.629378435657176,46.58759909597964],[4.629449841536593,46.587649775968735],[4.629458833749178,46.58764469456916],[4.62941970699227,46.587624987187674],[4.629581613566203,46.587530729315006],[4.629889847039466,46.587406559263236],[4.630326918623177,46.58723561289043],[4.630724823350569,46.58705243364606],[4.631343254103281,46.58677848055784],[4.631618352343235,46.58669530600286],[4.631963010875634,46.586588173465756],[4.632774338936644,46.58630443836759],[4.632679219491454,46.58625148669671],[4.632802453885384,46.5862270337806],[4.63281855596205,46.58622383211298],[4.632798807819233,46.58621870992616],[4.6306459771106,46.58566325747635],[4.630566807485708,46.5850262900021]]],[[[4.633425370316388,46.58666477173444],[4.633708654155225,46.58680221934812],[4.633993554228782,46.58686290967955],[4.634146366532701,46.58687072609583],[4.634633470876996,46.58689178353436],[4.635208369129119,46.58687835209374],[4.635126662920207,46.58655015888332],[4.634782956487249,46.58520124098895],[4.634108931857629,46.58432707450153],[4.63400637602031,46.58421343761805],[4.633736871699661,46.58433013182306],[4.633712130035777,46.58431094117286],[4.633664120848358,46.58427379970619],[4.633662325297582,46.584274906077205],[4.633627328252985,46.58429702045213],[4.63354117407932,46.584351206492414],[4.633516027258621,46.58433157126624],[4.633426014467749,46.58426152550331],[4.633424599815296,46.58426226618569],[4.633225987998852,46.58436470865406],[4.633131698406803,46.58441333645177],[4.633071131364995,46.58438429937248],[4.63296484811634,46.584333578620054],[4.6329531038894,46.584351398418434],[4.632928445265081,46.58433932138431],[4.632914972158298,46.5843517620614],[4.632784301699381,46.584280584386676],[4.63269359375327,46.58434411118356],[4.632675260196266,46.58432951221474],[4.632668300471324,46.5843239374868],[4.632593089784954,46.584263947200775],[4.632592708876598,46.58426431288291],[4.632481016352558,46.58435551779524],[4.632351016225158,46.584424287734834],[4.632119792353582,46.58453700997761],[4.631706451259858,46.584744821472555],[4.6316988582335,46.5847486222443],[4.631893886187253,46.584853288000936],[4.631910879941218,46.58486241235446],[4.63281855596205,46.58622383211298],[4.63291157631455,46.58628518944425],[4.632964429756929,46.58631829938655],[4.633099181662831,46.5864339097293],[4.633299697877061,46.58657316910102],[4.633425370316388,46.58666477173444]]],[[[4.633326819903294,46.58044625483008],[4.633342614080989,46.58045026248718],[4.633593193476415,46.580478299822374],[4.633629401018619,46.58048354726997],[4.633972690612458,46.58054547562419],[4.633976427247134,46.58053506506207],[4.63408836989146,46.58022626280967],[4.634148612389301,46.580044466562086],[4.634137254633232,46.57997068696883],[4.634097691583784,46.57981012896455],[4.634085842023794,46.57978958359501],[4.634065206932185,46.579741784465206],[4.633997549711331,46.57965043546942],[4.633871122469293,46.57953317638238],[4.63352741324498,46.579230695630564],[4.633326270809337,46.57905226838209],[4.633209656069382,46.57895288120611],[4.633101666492274,46.57886670021108],[4.632983483888993,46.578789040347615],[4.632890430218898,46.578739211699876],[4.632810918494443,46.5786923420651],[4.63253549701239,46.578562976272295],[4.63238368968822,46.57850948178863],[4.632175550467714,46.578445982590786],[4.632038961438728,46.578416497648135],[4.631827207751027,46.57838925464729],[4.631447830410599,46.57836034699621],[4.630832955103954,46.578318131013724],[4.629903773025435,46.57825651979135],[4.629696184704018,46.57825055848154],[4.629351515755989,46.57827716899438],[4.629128534943616,46.57831114342517],[4.628254310752032,46.578462456004345],[4.628159842298578,46.57846560065272],[4.628055531006392,46.57846717398675],[4.627569115801617,46.578414107543175],[4.627100458371388,46.578365199772385],[4.626792690116091,46.57832859443696],[4.626772898240329,46.57832626382068],[4.626803710061932,46.578356447398875],[4.627048567591271,46.57852561855641],[4.627266442052489,46.57867905145465],[4.627327679086584,46.578735190888914],[4.627467113497719,46.578886135730116],[4.627514046683236,46.57887448094977],[4.62779592295876,46.57965690249218],[4.627961005232464,46.58099297887609],[4.628209309856707,46.58105852645308],[4.628336838192671,46.581094989638686],[4.628631957938444,46.581179774427014],[4.62880169900099,46.581225723716166],[4.629261794880537,46.5813717443522],[4.629529637758941,46.58144844907676],[4.629923535780246,46.58153848945092],[4.629964360718413,46.581549616480984],[4.630345050190162,46.58163470986567],[4.630358708445089,46.58161100899144],[4.630359494520077,46.58161108786175],[4.63037470185631,46.58161294277646],[4.630392856670541,46.58160854138442],[4.630389588273419,46.58157355347581],[4.630462246038524,46.5815746804035],[4.630559709220971,46.58157104097263],[4.630577455007757,46.5815704280152],[4.630617249766956,46.581568960685814],[4.630650652329073,46.58156776450011],[4.630680399125125,46.58156662036761],[4.630744107367846,46.581569855951834],[4.630762682376266,46.58157076222451],[4.630889097185112,46.58154815723057],[4.630970931595921,46.58154167791324],[4.631069051288629,46.58153379574178],[4.63109459307003,46.58153181077185],[4.631117656851521,46.58152995115855],[4.631229850318708,46.58152096773618],[4.631244185260771,46.58151986288918],[4.631206027481095,46.581414672683465],[4.631261542411739,46.58128833416708],[4.631287532856871,46.58120978931932],[4.631291569988817,46.581174517220056],[4.6313348667405,46.58106762618067],[4.631451061466547,46.58096555056509],[4.63164134887826,46.580807930987255],[4.631779197105282,46.58069185689461],[4.63180613185932,46.580675351782276],[4.631961534343307,46.580674307793444],[4.632418432038219,46.580500097696145],[4.632590070243042,46.580448115954965],[4.632747846186499,46.58039993414053],[4.632823846006442,46.580373182448554],[4.632858255413201,46.58036638734823],[4.633132040540095,46.580397337018105],[4.633326819903294,46.58044625483008]],[[4.633956313695924,46.58053075887809],[4.633941737725856,46.58052817492795],[4.633613674313468,46.580468731136534],[4.633956313695924,46.58053075887809]]],[[[4.633787563197808,46.56949810290724],[4.63330274206505,46.56946089015023],[4.63315222465965,46.56948005947751],[4.632657833862929,46.569554838899705],[4.632046271098829,46.569641643933345],[4.631625373075485,46.569706815095174],[4.629758054537453,46.56998577082208],[4.629502094470471,46.57001625324632],[4.62926204821745,46.570028676132594],[4.628749297417944,46.57006191058523],[4.628352839590975,46.57007556610261],[4.627438605843598,46.57011603573304],[4.627017361511048,46.57013931546361],[4.627019838325137,46.57018287073679],[4.627005883025372,46.57018784241046],[4.627005907235787,46.57018865263306],[4.62701321670005,46.57022349317873],[4.627067872471439,46.57048362878296],[4.627115186638502,46.57072531573321],[4.627168460113841,46.57097412299295],[4.627275813189052,46.57148118257428],[4.62741559304223,46.571862773717065],[4.627443607048676,46.57198296976586],[4.627481407705937,46.57209852353443],[4.627436303508459,46.5721580658835],[4.627432910764584,46.572162527196866],[4.627343011350869,46.572165246127206],[4.627326571307948,46.572165750004174],[4.627342222417808,46.57247966704486],[4.627368591851373,46.57276767371274],[4.627389600916132,46.57293750394062],[4.627389937343894,46.57294002092025],[4.627452596078221,46.57297839765436],[4.627462968749789,46.57308074181079],[4.627463158493366,46.57308272049783],[4.628084587548024,46.573005527145554],[4.628178793123601,46.57339569101324],[4.630096986824466,46.57318043366578],[4.630459658796012,46.573136812311034],[4.631504387078347,46.572977918152745],[4.631485215576844,46.57329260135481],[4.631497971039273,46.573291158699696],[4.635268250004741,46.572861264114636],[4.63524420978388,46.57259132809209],[4.635195338441822,46.57229905081859],[4.635136212910667,46.57201754742267],[4.635087778707639,46.57188764765867],[4.634952493323961,46.57154445788553],[4.634897636084874,46.57132674815735],[4.634839525450257,46.57120509215757],[4.63481192325231,46.5711991819055],[4.634741393627183,46.57102924923833],[4.634710738644228,46.57089990600257],[4.634669132212549,46.57077116944968],[4.634625321452182,46.57065165079596],[4.634575273238185,46.57054185794115],[4.634443635413648,46.57037216715533],[4.634346061363566,46.57028007466116],[4.634158517588835,46.57001418368388],[4.633999393249412,46.56972483060971],[4.633959463472948,46.56965623205031],[4.633893627023606,46.569498930793124],[4.633787563197808,46.56949810290724]]],[[[4.637732214886142,46.56941733104594],[4.638210184150896,46.56942202024414],[4.638488817278525,46.56943352345375],[4.63871684583617,46.56945583747374],[4.638889938119108,46.56943615748994],[4.638985092196078,46.56943029203721],[4.639184355167754,46.569421044506065],[4.639732489314662,46.56942265119527],[4.640271185666565,46.56944042175447],[4.640250831997032,46.5694887171192],[4.640386570354923,46.56952522918633],[4.640624160598873,46.569561452285264],[4.640754900016809,46.56957506942197],[4.641388807393253,46.56957579907926],[4.641913282618903,46.56955062551068],[4.642060411619514,46.569527440378025],[4.642229775898345,46.56947943885512],[4.642276014781237,46.569419153600506],[4.642374636206398,46.56909963502604],[4.642403435524604,46.56890279368448],[4.642387806258435,46.56855348205119],[4.642340445336806,46.56842933372206],[4.642209107590253,46.56835250253615],[4.641628394440166,46.5684524261261],[4.641492616238352,46.568475177795925],[4.640801839411488,46.56859324697871],[4.640499878439623,46.56867421851855],[4.640440369509789,46.56867552161392],[4.64013156553751,46.568724437629484],[4.639600900135894,46.56880399996299],[4.638982386709801,46.5688935537229],[4.638686999403246,46.568928403971896],[4.638651626351481,46.56894196949078],[4.638133513715553,46.56898748149345],[4.637537153093287,46.56904086520958],[4.637514221157161,46.56939865418806],[4.637732214886142,46.56941733104594]]],[[[4.639934142019481,46.57060274368737],[4.639917268209627,46.571048438272655],[4.639945741650443,46.57104857077215],[4.640009621295116,46.57128767424439],[4.639953481088274,46.57147896223943],[4.639950638295405,46.57148863972977],[4.639836909793321,46.57148495510035],[4.639835862773711,46.5714848800346],[4.639790320292086,46.57164215235121],[4.639814642584297,46.57189470153993],[4.639924581259563,46.57189393732946],[4.639928564065819,46.57193945227566],[4.639937735566925,46.57235235089],[4.639937857198812,46.57236072502815],[4.639824224088565,46.572364604305385],[4.639817310857025,46.57236488345427],[4.639863328279956,46.57258325807895],[4.639918906219211,46.5727938403595],[4.639901786597621,46.5729105373311],[4.639947304350586,46.573159990877976],[4.639984535382292,46.573229706865426],[4.639988546188738,46.5732371246583],[4.639808484769397,46.57323393982312],[4.639802343838382,46.57323384765478],[4.639775120015667,46.57364816808953],[4.640039532971135,46.573620423816834],[4.640132050448744,46.57361783756402],[4.640345499547776,46.57415263700814],[4.640332025180689,46.574529024075325],[4.640297532402818,46.57487536094896],[4.640267389019059,46.57521001731882],[4.640369947251716,46.57547990833553],[4.640433934459219,46.57565299361308],[4.640472412716143,46.57590272787567],[4.640522620107079,46.576173278775954],[4.640541189366059,46.5762607342362],[4.640662902114211,46.57633833582661],[4.640825821223655,46.576400756522055],[4.641101823985442,46.57651010019502],[4.641218606869874,46.576549765208036],[4.641150699700619,46.57677967923381],[4.641082279918031,46.57694061215406],[4.641075972699233,46.57717765877485],[4.641131925165943,46.57725737325611],[4.641351384960502,46.57727593258635],[4.641353544914851,46.57726959719937],[4.641535600249075,46.57672336575901],[4.641610117474623,46.5763098979631],[4.641675114424906,46.575753996515346],[4.641710143165402,46.57554697928195],[4.641869624165648,46.57504069851727],[4.64196001610274,46.57464276369816],[4.641967397041115,46.5745973560331],[4.642038403984659,46.57420627373014],[4.64204726040098,46.57402358849795],[4.642002092660274,46.57369514518353],[4.642173376088543,46.57371034085314],[4.642269444600984,46.57343580094121],[4.642258237117053,46.57314217532293],[4.642144951148932,46.57313596481585],[4.6421894165973,46.57303409589019],[4.64231168029578,46.57303054079299],[4.642313250501178,46.572831478425336],[4.642288776551455,46.57283408108997],[4.642270182740284,46.572654941764945],[4.642244274889747,46.57255804506476],[4.642185556269289,46.5723258936405],[4.64212211860216,46.57233562979261],[4.642053523146944,46.57210506098505],[4.642022988431988,46.571984634016815],[4.642014928392248,46.571916571712975],[4.642175644226571,46.57191498697485],[4.642229633395677,46.57133654653271],[4.64226732484592,46.57119199462056],[4.642293253838469,46.5709951945826],[4.642283730441114,46.5708699630719],[4.642145270177593,46.570565824078386],[4.642072985367379,46.57030378599588],[4.64207139440242,46.570251031712516],[4.641836506729451,46.57025259939612],[4.64164243253356,46.570217465949575],[4.641551855018131,46.570301532981865],[4.64145702956285,46.57042663964776],[4.641426531657613,46.57045031326681],[4.641402191985528,46.570453003895885],[4.641126964200035,46.57046802754865],[4.640836843979892,46.57048722677621],[4.640732751146463,46.570504209574764],[4.640476544565116,46.570535080368984],[4.639936222467841,46.570602443695],[4.639934142019481,46.57060274368737]]],[[[4.642239822961653,46.59125809442809],[4.642454840831893,46.59162976289048],[4.642628395122071,46.59192177959088],[4.642888732265162,46.5922971202714],[4.642886420256181,46.592436931135545],[4.642943181215411,46.59248222911272],[4.643095589053128,46.592484725912676],[4.643144872662729,46.59248573003283],[4.643511299111543,46.59248893813579],[4.643560846628713,46.59249002835288],[4.643677032396779,46.59249574608349],[4.643811884230653,46.59250092559297],[4.644663570384417,46.59255741613257],[4.644839759286848,46.59254272732477],[4.644871530460679,46.59253488585458],[4.644901356396749,46.59252752262915],[4.644964848498191,46.592069270782005],[4.64498960249546,46.59190274898303],[4.644980547348648,46.591546950027364],[4.64498767417768,46.59122946558787],[4.644978793010397,46.590788644590205],[4.64497230128854,46.59059113954951],[4.644948396189839,46.59057824364871],[4.644938966914232,46.590573155430484],[4.644928593642194,46.59057573612808],[4.64478168645809,46.59061243032036],[4.644329314383323,46.59073474747194],[4.643510685305186,46.590967332964205],[4.643333583271131,46.5910208500495],[4.643115360346403,46.59106676111023],[4.642964707262546,46.59110062466068],[4.642622496992693,46.591176593208694],[4.6425780866449,46.59118551597401],[4.642239822961653,46.59125809442809]]],[[[4.643557613334634,46.59254303177592],[4.64303640088669,46.59253213760768],[4.64302937898028,46.59253322903856],[4.642931224589822,46.592549227343895],[4.643005068255688,46.59268002015838],[4.643134196931785,46.59284181198031],[4.643585201493406,46.5933311370402],[4.643678304226674,46.5934766035015],[4.643963804978134,46.5939103017354],[4.644103439920093,46.59417317245321],[4.645361923858705,46.59411925465657],[4.645408313507047,46.594556024070634],[4.646110137537732,46.59443840394612],[4.646121603958187,46.59461016938692],[4.646501836479183,46.59462442757246],[4.646690095975563,46.594632798739475],[4.646651103631457,46.594898594877236],[4.646777831688975,46.59488983795199],[4.64691123108352,46.59488566823133],[4.646953521878459,46.59488433959683],[4.64695400509645,46.59485713362165],[4.646954206011432,46.59484650329826],[4.647245526487541,46.594841142938165],[4.647500780872507,46.59483125711357],[4.647545408681225,46.59482944432734],[4.64776586797842,46.59487427637525],[4.648099292846633,46.59313135220152],[4.648100984544428,46.5931225016774],[4.648046900629931,46.59311400345944],[4.647839985583561,46.59301142686759],[4.6475868628422,46.592879973982335],[4.647200306969658,46.59270387715647],[4.647039096990787,46.5926307228409],[4.646885158644914,46.5926035760152],[4.646738566115177,46.59257740411837],[4.646486840886889,46.59253085820412],[4.646271586654358,46.592519542514104],[4.645966680572483,46.592507263351095],[4.645741131588631,46.59248384605205],[4.645722604327164,46.5924846526649],[4.645539287791269,46.59249260045969],[4.64502027950634,46.592584895845256],[4.644932153743347,46.592595528170385],[4.644805019917814,46.592612304563865],[4.644786174288936,46.59261122427391],[4.643803571806949,46.59255445224232],[4.643557613334634,46.59254303177592]]],[[[4.647220353527715,46.57445471145193],[4.647299241830072,46.574709536492456],[4.647415375825675,46.57498670163853],[4.647489133742824,46.57513235351125],[4.647553124868177,46.5752659873327],[4.647743323522352,46.57565565621079],[4.647881896252791,46.57581964856865],[4.648014953070057,46.57615087775642],[4.648729244333926,46.5759656007388],[4.650115959464161,46.57561031687341],[4.650520617569124,46.575448043769384],[4.650743960706623,46.57537511467645],[4.65057281787453,46.57524419818449],[4.650026949715178,46.574754826378545],[4.649846779410293,46.57457585501025],[4.649778577256364,46.574514603997436],[4.649711697853513,46.57446252035489],[4.649369011345483,46.57421293854659],[4.649084326742503,46.573950812049354],[4.649007919316655,46.57390318829637],[4.648844060942855,46.57370632802937],[4.648886902794523,46.573693552447246],[4.648880832036518,46.57368715531476],[4.648492412794138,46.57328124909145],[4.64817130610201,46.57294597297755],[4.647661844143611,46.5724152674677],[4.64761742523477,46.57236727249802],[4.647611488038343,46.572360963442115],[4.647436024650668,46.572177327451826],[4.647206508262315,46.571933676141796],[4.647150502357636,46.57195591704696],[4.647122198165676,46.57191822745561],[4.647160274050913,46.57189903650557],[4.646219647219101,46.572281015555774],[4.646331201078348,46.57244161555976],[4.646493576231578,46.5727582849127],[4.646496766528148,46.57276445340362],[4.646523330671955,46.57281801932381],[4.646640437385254,46.57306283849962],[4.646653146106742,46.573059863744504],[4.646839594295327,46.573023768370135],[4.647526080054067,46.57407015482055],[4.647528954972129,46.57407452655474],[4.647039029502176,46.57421135709467],[4.647220353527715,46.57445471145193]]],[[[4.64815186608033,46.59490195562046],[4.648216665713114,46.5949061567034],[4.648568061593163,46.594925866580155],[4.648604576527425,46.59492795280612],[4.648780632426149,46.594938837857676],[4.648782867744917,46.59496087112406],[4.649157927730275,46.5949983412047],[4.649337051470227,46.5950242217618],[4.649544769316385,46.59507103516308],[4.649764130768684,46.59516145112284],[4.649932704255165,46.595244402587056],[4.650172574031628,46.595287239227716],[4.650473097213683,46.59540431394486],[4.651708683145006,46.59588229921127],[4.651714236508304,46.59588447070249],[4.651718477892785,46.59588215795899],[4.651742394551817,46.595869474403464],[4.651894991092283,46.59590798215523],[4.652019185051901,46.595962029986794],[4.652140084854651,46.59601945753953],[4.652256356251126,46.59609226246488],[4.652453581866655,46.59624081322312],[4.652579119536871,46.59628313287212],[4.652764160310069,46.59635737672827],[4.652902243114211,46.59642986626931],[4.653064028854411,46.596495529005054],[4.653174218065216,46.596492767786295],[4.653229184165252,46.59647855499705],[4.653240850475037,46.59647550458145],[4.653292358806662,46.596446391193425],[4.653324509898498,46.5964080105163],[4.653335227830664,46.59639524696307],[4.653413440914568,46.59616139478118],[4.653427489337488,46.596030330243295],[4.65353202670934,46.59585878187047],[4.653578992521054,46.595723189221324],[4.653581471759563,46.59571018433431],[4.653587381149518,46.59562516947043],[4.653577619726864,46.595544703885594],[4.653561239725811,46.595487209894564],[4.653572564438067,46.595171915427045],[4.653444736546353,46.59486493433573],[4.653462279832988,46.59474570763673],[4.653528695611918,46.59452787668993],[4.653264598026833,46.5946207617418],[4.653093612493704,46.59478111051334],[4.653000606943253,46.59479461140304],[4.653001327885505,46.59475812542304],[4.653062089051327,46.594736894182866],[4.653217628228998,46.59458847663139],[4.653504074948118,46.594487253406896],[4.653564350055537,46.59442423959978],[4.653698948900907,46.594244601573024],[4.653941749985338,46.59388093284078],[4.653741333168501,46.59373900533187],[4.653523211518589,46.59349592195782],[4.653519018244796,46.59349120915016],[4.65324677544864,46.593449117085484],[4.653110072200363,46.59345622395301],[4.652989103209322,46.593486700115896],[4.652856827351554,46.59351914059171],[4.652734291421849,46.59351523496638],[4.652629430512858,46.59350395917373],[4.652463594638983,46.59345519616882],[4.652279524375345,46.593399671067516],[4.6521713470938,46.593386731504644],[4.651931940526792,46.593380458088056],[4.651677075690889,46.59337710899982],[4.6511425470463,46.593366893936256],[4.650574312084893,46.59330069258651],[4.650212419969816,46.593292127936536],[4.650112669417087,46.59328131659748],[4.649752290763499,46.59321923121089],[4.649248634470464,46.59320162776431],[4.648949746099938,46.5931725180885],[4.648606263779916,46.59313765508973],[4.648507395239373,46.59312574890782],[4.648207440851008,46.5931347493262],[4.648206652127004,46.59313890357787],[4.648060006935932,46.59395239193716],[4.64797392325415,46.59439295813675],[4.647867808794196,46.59474591090367],[4.64782055229492,46.594885287873815],[4.64790123309728,46.594896195496084],[4.647940196817449,46.59490148896845],[4.647942739067195,46.59487326266234],[4.647944103985812,46.59485793230877],[4.648108577784798,46.59487465900844],[4.64815186608033,46.59490195562046]]],[[[4.650600464290932,46.579955646160094],[4.650657713730779,46.579849266599545],[4.650718145472994,46.57974446226666],[4.650729588549188,46.57972124107297],[4.650838998072137,46.57941822158626],[4.650907743195956,46.57930762327744],[4.650995447036706,46.57920629826653],[4.651080975771864,46.57911509164561],[4.651295453903559,46.578869998311596],[4.651489084141494,46.578553424718265],[4.651574870455692,46.5782296702667],[4.651576183118038,46.578221275435126],[4.651595107721582,46.578087348354074],[4.651597666371314,46.578081277197256],[4.651624794361812,46.578015409774196],[4.652181265461655,46.577901466606306],[4.652429814414178,46.57787554401198],[4.652513109580816,46.57783138158199],[4.652537459198892,46.577764383197454],[4.652474395316068,46.577640285348934],[4.652417028120515,46.57744567564159],[4.652370433636639,46.57728324320879],[4.652324316338219,46.57726562588351],[4.651728888473072,46.57738679656123],[4.651564851408006,46.57740429354834],[4.651328578104451,46.57737843090774],[4.651161710287265,46.57728537027417],[4.650966495906599,46.577062936782276],[4.650885613208766,46.57701006501514],[4.650800934007102,46.57700858407493],[4.650716155385886,46.57706843768501],[4.65066670660862,46.57717353408901],[4.650564387366242,46.577593984108624],[4.650514627984522,46.57780517957477],[4.650483957380461,46.57792225379052],[4.650435069588748,46.578045895029426],[4.650327613714323,46.5781634455685],[4.650116454087592,46.5782595244621],[4.649970738293576,46.57828260918874],[4.649676155523891,46.57828514275364],[4.649426143803121,46.57825857346074],[4.649224535002719,46.57826039689171],[4.649008733532096,46.578293856482645],[4.648843795170901,46.57834639713635],[4.648810616466852,46.57836353665058],[4.648517034684462,46.57937395144397],[4.64858394899719,46.57938820871087],[4.648556445540946,46.579476326377254],[4.648518128326503,46.57961710663699],[4.648451964495226,46.5798476305871],[4.648368418204369,46.58014252979097],[4.648336748568772,46.58033896343598],[4.64831611460842,46.580464178261664],[4.648280969580131,46.580593294566555],[4.648252994850211,46.580730593460444],[4.648230064426737,46.58084899650451],[4.648211011764742,46.58095311372308],[4.648150221882129,46.58095137691958],[4.64813060150666,46.58107126336465],[4.647672188011208,46.58124573872024],[4.647751763952391,46.58177317486435],[4.647818158809745,46.582231902225935],[4.647852404523981,46.58237506027275],[4.64788096036389,46.582476961164346],[4.647895141106856,46.582492338024764],[4.648019621806175,46.58269075709152],[4.648130427878038,46.58286460546197],[4.648146188334205,46.582910581057554],[4.648229853355594,46.58299043371042],[4.648325322597727,46.58317540031324],[4.648546855033043,46.583403853798586],[4.648660117401633,46.58349480813066],[4.649006787622959,46.58378783558609],[4.649015500874969,46.58379518535731],[4.65067108709057,46.583331552407266],[4.650699571973599,46.5833275392486],[4.650698921403361,46.583323315652144],[4.650681365895442,46.58332591037188],[4.650643411497384,46.58306932678832],[4.650525202075974,46.582854068268134],[4.650305718359399,46.58244780401636],[4.650298440079802,46.58231974883491],[4.65027566630762,46.58206402708223],[4.65028082502599,46.581997215821254],[4.650329814226216,46.58160104174733],[4.650371779802427,46.5813135852152],[4.650408407355906,46.581043948062394],[4.650408855909749,46.58104150988716],[4.650413460645206,46.58101244312334],[4.650413667181538,46.58101063887976],[4.650418912909199,46.58097255654329],[4.650419127633075,46.580971022371656],[4.650423318394747,46.58093691802733],[4.650439706829862,46.580887237034815],[4.65044007121878,46.58088633114914],[4.650491931235398,46.580757243369234],[4.650492292893175,46.580756247459384],[4.650560058227569,46.580565867426564],[4.650560308429426,46.58056550356649],[4.650660211717524,46.58031503824192],[4.650729502588458,46.58025684908331],[4.650762544670097,46.580179188424665],[4.650763039607908,46.58017828065556],[4.650846774283879,46.58000631328873],[4.650847652704611,46.58000512980009],[4.650918895540281,46.57989503587586],[4.650895444183421,46.57989699514887],[4.650896529117428,46.579894007415],[4.650885717347259,46.57989497387284],[4.65088011425955,46.57989541491301],[4.650880720641131,46.579893875092935],[4.65092265546951,46.57978213227037],[4.650922894745084,46.57978140831342],[4.651020469769949,46.579462888254206],[4.651199818093339,46.579304042029705],[4.65125515084359,46.57922065593337],[4.651444266045278,46.578914504863334],[4.6514785809217,46.57878413850829],[4.651489888306388,46.578678961494354],[4.651360217143083,46.578886536566934],[4.650968280362516,46.57932692459407],[4.650902170084974,46.579429649436555],[4.650795236031655,46.57973245317084],[4.650779865795868,46.57975969377871],[4.650722042121704,46.579860047440725],[4.650661069381528,46.57996855216827],[4.650636591787165,46.58001420690816],[4.650546378065951,46.58014051532796],[4.650471936612645,46.58023561452796],[4.65036633955613,46.580431853556696],[4.650319716137748,46.58053979099186],[4.650259008143365,46.58070016813167],[4.650245972372232,46.58073980374885],[4.650220292148425,46.58087076568736],[4.650201511309961,46.580962180444956],[4.650191622969775,46.5810065440478],[4.650183167630473,46.58104647389417],[4.650120795241061,46.58141483111723],[4.650163111883409,46.58147933705369],[4.650041709017771,46.58149036311262],[4.650066116255395,46.581351854266515],[4.650107328847598,46.58111277268903],[4.650118267845411,46.581047048947156],[4.650124633834498,46.581002826177134],[4.650135609954329,46.580955564878],[4.650155421742252,46.58086368495836],[4.650173412702348,46.58073328416966],[4.650252098897734,46.58053256978651],[4.650298101959227,46.58042139904166],[4.650408755123011,46.58021959333603],[4.650482484274679,46.580126846092696],[4.650573307242412,46.579999087928485],[4.650600464290932,46.579955646160094]]],[[[4.652323245740214,46.577174407068036],[4.652335151823705,46.577144964625234],[4.652304313563905,46.5769809538212],[4.65228381383303,46.576839129543096],[4.652225544186027,46.57653726718668],[4.652077428534397,46.57628740699897],[4.652012821336043,46.57621565803561],[4.651444936662549,46.57584513392699],[4.650924088075906,46.57550941384048],[4.651195465218267,46.57604705177912],[4.650848154346059,46.57608916630493],[4.651212585705792,46.577037862810016],[4.651089010567588,46.577063061418876],[4.651229438192754,46.577180100089556],[4.651296609765252,46.57722443321977],[4.651354811721812,46.577248631412694],[4.651433439395675,46.5772701933139],[4.65153980591128,46.57728478041142],[4.651649280067787,46.577289865921756],[4.651851087756645,46.57725597271832],[4.652323245740214,46.577174407068036]]]]}}]}
