{"type": "FeatureCollection","name": "aoc_geojson","features": [{"type":"Feature","properties":{"dt":"Pau","type_prod":"Vins","categorie":"Vin tranquille","type_denom":"appellation","signe":"AOC","id_app":9,"app":"Béarn","id_denom":61,"denom":"Béarn","insee":"64170","cvi":"1B101S, 1R101S, 1S101S","nomcom":"CASTAGNEDE","insee2011":"64170","nomcom2011":"CASTAGNEDE","id_aire":75,"crinao":null,"grp_name1":null,"grp_name2":null},"geometry":{"type":"MultiPolygon","coordinates":[[[[-0.987965229800362,43.44954184931061],[-0.987896564812888,43.44948420348308],[-0.988471860743396,43.4497886611477],[-0.988654722332343,43.450132433811945],[-0.988643869946562,43.4501417516249],[-0.988469855415285,43.450258691168806],[-0.988371212919441,43.45015215432425],[-0.988299511369453,43.450043634290786],[-0.988293948945476,43.45000267182644],[-0.988306661347442,43.44991680620606],[-0.988299229719382,43.44986672425843],[-0.988279532989687,43.44982520138188],[-0.988096904692592,43.44963978320336],[-0.987965229800362,43.44954184931061]]],[[[-0.98750677992045,43.449324699632776],[-0.987590183542833,43.44935063472075],[-0.987643005822497,43.449358148172955],[-0.987677459805508,43.449368229715105],[-0.987700064996776,43.44939108875287],[-0.987738779125053,43.449441189794996],[-0.988164605473708,43.449792230332214],[-0.988211921720825,43.44991462026127],[-0.988182666340518,43.4500935189169],[-0.988242585681478,43.450148063616645],[-0.987985403949779,43.450360128759925],[-0.987821857817746,43.45036065649517],[-0.987328607056419,43.45009821505425],[-0.987000337168754,43.449904014796154],[-0.986919529156592,43.449878073743065],[-0.986269825298302,43.449680841736544],[-0.986357561735432,43.44946438903096],[-0.9864485866357,43.44925970596676],[-0.986486933080043,43.44926351903989],[-0.986553861165676,43.44924979497999],[-0.986696416121017,43.449219414120385],[-0.986899912932885,43.44920309413392],[-0.987031123882434,43.44920168632968],[-0.987172305539643,43.44922459359495],[-0.987334774008705,43.44926383237502],[-0.98750677992045,43.449324699632776]]],[[[-0.986139147774772,43.44912120128798],[-0.98633148230763,43.4486765053603],[-0.986347016770304,43.44864377441351],[-0.986557050660304,43.448707476965474],[-0.986866501036702,43.4488212075233],[-0.986920084139883,43.448866437449176],[-0.986974731737179,43.44892523047124],[-0.986760007643554,43.4490951926465],[-0.986555009018016,43.44919146997706],[-0.986452050006925,43.44918841407025],[-0.986313760047125,43.449164408535964],[-0.986139147774772,43.44912120128798]]],[[[-0.984345059624513,43.44936504786394],[-0.984316266198836,43.449245758519886],[-0.984320839506171,43.44920649492711],[-0.984332660487514,43.44917011751671],[-0.984453280569257,43.449030196996844],[-0.98471403776329,43.44918887427257],[-0.984557571900435,43.449248680481176],[-0.984345059624513,43.44936504786394]]],[[[-0.984358889404203,43.447800456447645],[-0.984249830019089,43.44744891835188],[-0.984199642755074,43.44735095487481],[-0.98427076196493,43.44716583349697],[-0.984491457724128,43.44714266938539],[-0.984667175077105,43.44709134303405],[-0.984726096272603,43.447085211267385],[-0.984841757464984,43.44708428806414],[-0.985049228454934,43.44706476230763],[-0.985960547350669,43.44712157222139],[-0.98592425619449,43.44721334976337],[-0.985872428490382,43.44758567206897],[-0.985793197688219,43.44829743892579],[-0.986295610068572,43.44866557481339],[-0.986243892705146,43.44880413221475],[-0.986122668320202,43.449040464314216],[-0.986072420872511,43.44915743805966],[-0.985989180150161,43.44939237185308],[-0.985705797741652,43.44939604630354],[-0.985654250019079,43.449385512315274],[-0.98528241347935,43.449256508309716],[-0.984910607651665,43.44920461167202],[-0.984829422879566,43.449183907731495],[-0.984795338266014,43.44918092814793],[-0.98474747457305,43.449182509251784],[-0.984797892555366,43.44895202736829],[-0.984916551712953,43.4488498324816],[-0.984850505282891,43.448765694686465],[-0.984811696874968,43.448691003996814],[-0.984777163827978,43.44859237449214],[-0.984744859385554,43.44844384798283],[-0.984637267653599,43.44822233343239],[-0.984500762529484,43.44800999005529],[-0.984387821977216,43.44785398115386],[-0.984358889404203,43.447800456447645]]],[[[-0.981712426052698,43.448200832533544],[-0.981740567344736,43.44813944338996],[-0.981981453374406,43.44822562136178],[-0.982186783266382,43.44831968231217],[-0.982383851785929,43.44842476639116],[-0.982817377596529,43.44861808097648],[-0.983182033585657,43.448766724626154],[-0.983353308715159,43.44882249048268],[-0.983467398347817,43.448845227989494],[-0.983574545751864,43.4488605638487],[-0.983805256569933,43.44891936728108],[-0.984268307901338,43.44901943698326],[-0.984374945086038,43.449036322228984],[-0.984276808986594,43.44919559363584],[-0.984280166068388,43.449226187873485],[-0.984314563766275,43.449388870422915],[-0.984317650359768,43.4494565881576],[-0.984309435793208,43.44948256359944],[-0.98428856072881,43.44950783379949],[-0.983993586102111,43.44973136855577],[-0.983825270092952,43.44985214432002],[-0.98377351370764,43.449879631460945],[-0.983453445305531,43.44999626036926],[-0.983327918679955,43.44997088067334],[-0.983237290430118,43.44995664840954],[-0.983091821465806,43.44995037858259],[-0.982888954290654,43.44990802516784],[-0.982770062427932,43.449899876600746],[-0.982646249560017,43.44990100710237],[-0.982486104243886,43.44990419428016],[-0.982296895962788,43.449926916663884],[-0.982125756710316,43.449960594758274],[-0.981965561672128,43.45001125583866],[-0.981698151318888,43.45011702506133],[-0.981577980174964,43.45017251960922],[-0.981336857705917,43.45029903095235],[-0.981227246519738,43.45036954075488],[-0.981165819578117,43.4506126764287],[-0.981118827054114,43.45064827458996],[-0.981008908865055,43.450712579831816],[-0.980917678034442,43.45074142661118],[-0.980773644154,43.450784465398684],[-0.980682836528388,43.45076050878125],[-0.980504118599162,43.45072050606392],[-0.980335833653935,43.450688316986906],[-0.980224700196985,43.45068330349958],[-0.980145627832901,43.45067882307908],[-0.980102433202146,43.45066392577083],[-0.980037345534447,43.4506167732647],[-0.979897555443406,43.450480032928525],[-0.980072555159302,43.45031100463831],[-0.980100387850038,43.45026476091522],[-0.98013158942718,43.45018146006535],[-0.980151360887185,43.4500527279777],[-0.9801747948472,43.45000367322967],[-0.980261205943934,43.44993023385183],[-0.980444844258187,43.44978421844453],[-0.980487773006983,43.44972922233976],[-0.980514956842906,43.4496718322881],[-0.980533947429345,43.4495782605118],[-0.980585561117409,43.44950763132129],[-0.98066425111498,43.449415558367654],[-0.980799874783913,43.449231491412064],[-0.980833515240733,43.4491852141606],[-0.980881208828614,43.449138330202516],[-0.981036922953202,43.44906405399933],[-0.981154388662714,43.448994516745536],[-0.981193054622826,43.448958323872475],[-0.9812203680812,43.44890282057662],[-0.981241755974134,43.44881888930926],[-0.98125388109812,43.448704761067475],[-0.981350125559909,43.44862339242182],[-0.981478409616437,43.44845301652105],[-0.981515663364741,43.448398228645736],[-0.981583488595875,43.44835997260296],[-0.981663365120873,43.448267224689616],[-0.981712426052698,43.448200832533544]]],[[[-0.975757942035882,43.45371754893111],[-0.975608461278016,43.45374456588037],[-0.975585845891731,43.454123737141636],[-0.975913491705552,43.45405711968328],[-0.976029211276551,43.4540353954913],[-0.976233904961532,43.45403968087445],[-0.976329238213177,43.45405572824599],[-0.976324918987446,43.45402904261938],[-0.976436201699241,43.45407008736615],[-0.977124397030439,43.454122916874276],[-0.977147589990664,43.454120353593524],[-0.977178735789035,43.45411299418027],[-0.977297482747162,43.45406890735739],[-0.977692371648336,43.45478991844485],[-0.977523495107569,43.45516743638035],[-0.977471904865995,43.455218875881755],[-0.977067874056074,43.455605929983626],[-0.977047908228518,43.45560152853453],[-0.976618464756376,43.45551235298491],[-0.976167504183671,43.45542135341399],[-0.975903632992754,43.45531780868298],[-0.975568873216083,43.455172635695064],[-0.975432623345784,43.45512998417908],[-0.975279961158433,43.45508424160299],[-0.975104273162909,43.45503096642061],[-0.974651618351253,43.45489570303039],[-0.974386153365659,43.454836983679115],[-0.973608697069499,43.45471471615324],[-0.973139805449442,43.45464499092266],[-0.972887269822586,43.45461227751559],[-0.972047079835811,43.454473203184506],[-0.971886594920577,43.45442513057519],[-0.971288119012027,43.45400820360356],[-0.972547594800629,43.4538537340281],[-0.973050776521038,43.45342504628731],[-0.973103693867771,43.45338382959286],[-0.973374254573158,43.45340011676044],[-0.973768455112472,43.453423396966066],[-0.974231980845012,43.45344962666092],[-0.974290078287167,43.453445783076354],[-0.974326657995345,43.453921149924064],[-0.975053002359701,43.45381585120554],[-0.975532985331555,43.453749228281126],[-0.975528345176475,43.45369823250433],[-0.975767449259285,43.45366729492379],[-0.975757942035882,43.45371754893111]]],[[[-0.969458538469528,43.45285117032342],[-0.969380658678506,43.452813848849836],[-0.969681943008485,43.452367354997804],[-0.969850473508665,43.45220083344652],[-0.970365530700429,43.45243624949854],[-0.970321245883854,43.452546960928615],[-0.970957300181569,43.452856669059784],[-0.972950280531361,43.45330207918492],[-0.972467904377244,43.45372585953992],[-0.971215425903856,43.4538831344357],[-0.970230005931556,43.45335625910625],[-0.970350410742846,43.45327347459002],[-0.969458538469528,43.45285117032342]]],[[[-0.969293941835522,43.451413119195635],[-0.969255971109251,43.45156872905237],[-0.969242767684674,43.45164073705514],[-0.969159604633751,43.45193870933716],[-0.969080162526454,43.45198080608111],[-0.96895564584986,43.45206491088712],[-0.968812527904696,43.45213032989538],[-0.968742966781068,43.45217764926237],[-0.968595654645888,43.45225754450646],[-0.968527298292826,43.45228112835588],[-0.968386986810967,43.452335273926245],[-0.968306653218983,43.45237163757861],[-0.968237708068282,43.452418934032465],[-0.968191702619491,43.452463588268],[-0.968087055737407,43.452538226120495],[-0.968048167103086,43.452583880652305],[-0.967982016981202,43.452635848797826],[-0.968019639346081,43.45266140442701],[-0.968097295082916,43.45271161658304],[-0.968618530893917,43.45269810164378],[-0.968749714531206,43.45269978002238],[-0.968994898973999,43.45280168381865],[-0.969031962284133,43.45286031924604],[-0.969029652685986,43.45297012225698],[-0.969020193435425,43.45307487254218],[-0.968940837276647,43.453120028753894],[-0.968636520878695,43.453118029339166],[-0.968170151571706,43.45310782439412],[-0.968030494334158,43.45309267340642],[-0.967725439023577,43.45306205285313],[-0.967531688507444,43.45299231239396],[-0.967414893649911,43.452948307959325],[-0.96715931409886,43.452767420407774],[-0.966964701069953,43.45263141126806],[-0.966491608786998,43.452312288962],[-0.966320366746526,43.45199886494509],[-0.966617279006399,43.451843500867504],[-0.967390886823619,43.451425383716675],[-0.968183365750729,43.45097630219152],[-0.968212491351372,43.4509916296043],[-0.968273835399447,43.45101514478877],[-0.968421989375933,43.45105493621964],[-0.968576333294412,43.451105580532165],[-0.968721466946259,43.4511625074952],[-0.968836497729241,43.45119711655287],[-0.969036058459831,43.451250787281545],[-0.969317303003191,43.45128587975202],[-0.969293941835522,43.451413119195635]]],[[[-0.967027586800726,43.45047726340833],[-0.9670736752967,43.450521606185056],[-0.967148047572045,43.45055833693451],[-0.967257234764629,43.45058892786239],[-0.967336192531901,43.45061864438517],[-0.96739679849913,43.450633269100734],[-0.967509061133384,43.45067437661678],[-0.96756145974486,43.45069011266162],[-0.967650524162194,43.450717566995124],[-0.967754671741167,43.450743207497744],[-0.967972626836927,43.450816204000425],[-0.9680019077727,43.45081945497589],[-0.967935630806314,43.450980605391955],[-0.967378914591953,43.45129313365565],[-0.967038969274488,43.45149673806305],[-0.966336166003711,43.45184974348399],[-0.966049592537544,43.45199905305641],[-0.965478310746369,43.45211149518629],[-0.965142081426978,43.4519909377647],[-0.964800762083719,43.45187723166736],[-0.963932684548646,43.451703986537424],[-0.963588686043321,43.451398954111454],[-0.962712609566121,43.45114897378967],[-0.962032677686719,43.45103584899596],[-0.961190397255698,43.450902895679086],[-0.96106047207162,43.450865580614256],[-0.960391649352642,43.449917627536124],[-0.960259968399334,43.44950843534727],[-0.960106406061804,43.449013116188205],[-0.960044530359062,43.44882386889466],[-0.960489582452365,43.44860599382447],[-0.960624017560451,43.44858143956783],[-0.961666342878029,43.44907901810658],[-0.961992890445748,43.4492388539978],[-0.962523961536953,43.450304708481724],[-0.965359040198137,43.451047598300015],[-0.966035102019846,43.45128371397435],[-0.966640153066123,43.45028472078252],[-0.966831325464983,43.45033158624413],[-0.966886697326016,43.4503509970598],[-0.966942156762298,43.450389591781416],[-0.967027586800726,43.45047726340833]]],[[[-0.967286412351792,43.45974655480499],[-0.967120264928565,43.45977245839406],[-0.966929997498304,43.459771410089445],[-0.966670353965836,43.45973272612091],[-0.966286005660247,43.45967536741301],[-0.966121292079865,43.45964320476528],[-0.965742453228489,43.45950258773848],[-0.964845067566593,43.459173316603845],[-0.964489158635744,43.459155266910045],[-0.964237259517856,43.45913376951033],[-0.963085502569865,43.459006927813384],[-0.962438169783535,43.45892855087918],[-0.961112215416839,43.45855457436872],[-0.961186586391312,43.45819468452231],[-0.961100493431704,43.458040011949414],[-0.961404732305222,43.45731931936767],[-0.961484037277687,43.45712076355943],[-0.962595135252853,43.4573705369608],[-0.962322555878309,43.45835293075724],[-0.962892443929306,43.458456031427886],[-0.963101154719174,43.45787638174379],[-0.964618281781693,43.45816244321051],[-0.964401620893665,43.458718065621724],[-0.96583749448319,43.45898924932067],[-0.966435388737605,43.45910553918531],[-0.967679462474467,43.459347780782565],[-0.967447240963791,43.45971526075987],[-0.967286412351792,43.45974655480499]]],[[[-0.96390914692665,43.45972490850898],[-0.963091840372608,43.45964041461894],[-0.961925017195163,43.459087038608594],[-0.96201619703179,43.458935160024645],[-0.962384987746917,43.45899301259095],[-0.962793464366753,43.4590596811139],[-0.963161649430251,43.45910872533924],[-0.963310259752397,43.459113646642585],[-0.963733120201613,43.459177263089124],[-0.964032280573953,43.459213426649455],[-0.96390914692665,43.45972490850898]]],[[[-0.958915365803137,43.4582168335651],[-0.958408582067178,43.45809257919372],[-0.958090819729697,43.45801240038922],[-0.957970973233791,43.4579869635259],[-0.957877240901212,43.45796543658073],[-0.95773666661457,43.45794427006642],[-0.957274994140597,43.4579219545997],[-0.957388242868635,43.45775819417342],[-0.957553185443477,43.45747778227302],[-0.957566070103272,43.45748172539709],[-0.957705514693678,43.457310521616314],[-0.957262222393187,43.45712764198515],[-0.956957877949115,43.457003371017706],[-0.95673458719595,43.456912260315285],[-0.956484701231124,43.45681023014514],[-0.956120266658885,43.45666085781172],[-0.955330089299404,43.45633723463042],[-0.955014262589235,43.45620770287429],[-0.955153897834252,43.456042801349476],[-0.955426376469031,43.45571675891177],[-0.956689457510376,43.456448914542285],[-0.95723511621192,43.456724982357294],[-0.95793276603844,43.4570407136919],[-0.958866606974015,43.45736357174587],[-0.961030429427262,43.45790439069945],[-0.960880571257093,43.45818993198168],[-0.960846826120763,43.458269085825734],[-0.960741328144668,43.458505712295164],[-0.960077972510655,43.45837232783192],[-0.959747218385821,43.4583908165875],[-0.959158607774853,43.45827072823526],[-0.958915365803137,43.4582168335651]]],[[[-0.955459792319737,43.45091625580909],[-0.955240556892476,43.45077049696445],[-0.955273750206189,43.450724605031084],[-0.955313718983319,43.45066936755685],[-0.955351711130872,43.45063032655141],[-0.955424365938733,43.45055596930173],[-0.955531173600853,43.450458655291186],[-0.955555374421767,43.45044020575617],[-0.955633038943396,43.45038115910048],[-0.955696602137707,43.450332806499084],[-0.955735055873805,43.45029149649479],[-0.955811125961624,43.45018413508057],[-0.955819682956968,43.45017193196475],[-0.955825127098445,43.45016659854494],[-0.955952395082384,43.45004142266724],[-0.956003460507326,43.44997496998032],[-0.956082620207562,43.44987299036888],[-0.95616836764435,43.4498128373043],[-0.956412570939186,43.44980760892282],[-0.956474642330591,43.44979867522828],[-0.956521944487212,43.44978892990786],[-0.957424875912184,43.449661082624424],[-0.958015476606645,43.44987784938579],[-0.958302752372035,43.449866088060254],[-0.958196504231765,43.44963927692041],[-0.958055378990728,43.449225563621006],[-0.959271692934771,43.449116963076825],[-0.959381472312199,43.44976116481329],[-0.960047138410045,43.449592155920996],[-0.960139920299194,43.44989080135291],[-0.960282187340572,43.45006242582209],[-0.960467177715015,43.45036958959018],[-0.960668641959017,43.450678943159026],[-0.960721271598465,43.45077880884318],[-0.96076702790631,43.45086505356122],[-0.960939803188551,43.450915935159024],[-0.961128903178887,43.450970453142666],[-0.961228849830853,43.45097823745448],[-0.961285134329081,43.4510019415607],[-0.961183048085765,43.45123402902925],[-0.960944452693793,43.45115745019987],[-0.96064167354792,43.45105556368839],[-0.959859498911135,43.45081149501253],[-0.959535148515646,43.4503084571362],[-0.959426604683913,43.45021892274051],[-0.958626958398787,43.45049110257313],[-0.958387521190405,43.45050453907381],[-0.958236320154136,43.45053168496875],[-0.956963367904015,43.45083457294669],[-0.955982391238716,43.45106831820887],[-0.955760238044109,43.45112273431719],[-0.955459792319737,43.45091625580909]]],[[[-0.950419421056366,43.453781640730824],[-0.950475115538718,43.4535917027951],[-0.95059306521639,43.45327491359584],[-0.950671336756246,43.453093250051],[-0.950848552171139,43.452692506212095],[-0.951027584680527,43.452294848605874],[-0.951061537668988,43.45222037509012],[-0.951431244065688,43.45207654080314],[-0.951792396899373,43.45194679952499],[-0.952180435151692,43.45181427423578],[-0.952186604684477,43.45178711524502],[-0.953194017215111,43.45220344681271],[-0.953465616507095,43.452475932378775],[-0.953497485926707,43.45246828320154],[-0.953883191403994,43.4528374917083],[-0.954128001245704,43.45310870203619],[-0.95446532239687,43.453477243363054],[-0.95469125839558,43.4535207891487],[-0.95482955406943,43.453593477992236],[-0.954785058352234,43.454017848322735],[-0.954986745920967,43.45426063531963],[-0.955250328935459,43.45447206570187],[-0.955495617000811,43.454622458874496],[-0.955568132887309,43.45466998493736],[-0.955774507258513,43.454849633597355],[-0.955463580695185,43.45503376367791],[-0.955106057647368,43.45524517726016],[-0.954947675205753,43.45530113580482],[-0.954720050370901,43.455376917953316],[-0.954239824847392,43.455548309484044],[-0.953775063119568,43.45571445010703],[-0.953543920466405,43.45579486211975],[-0.953559418715826,43.45583501254905],[-0.953537978014969,43.45585408148845],[-0.953488649842077,43.45587939307817],[-0.953182154962327,43.45570924984255],[-0.95290112197837,43.455551508341095],[-0.952725320311274,43.4554279393282],[-0.952666155387341,43.45536235852445],[-0.952470596496961,43.45515645650612],[-0.952383268106934,43.45505533094973],[-0.952337609889176,43.45498835629295],[-0.952248241611658,43.45484676913478],[-0.952116832573989,43.45470698633871],[-0.952200338696642,43.45463385681876],[-0.952249818282764,43.45459097471217],[-0.95225634853716,43.45458524152609],[-0.952283752042859,43.454607932489324],[-0.952436279183924,43.45471316440172],[-0.952710713390801,43.45455028289834],[-0.95256756596164,43.45448794741713],[-0.952495527909465,43.45448868484722],[-0.952310955461421,43.4545144276636],[-0.952169942874494,43.45440760438133],[-0.951827556020624,43.45414508467072],[-0.951756307963868,43.454198669671555],[-0.951784112654458,43.454227201292646],[-0.951579129619614,43.45437511528439],[-0.951287774496942,43.45429908886818],[-0.95075735799953,43.45415404402458],[-0.950392192554264,43.45396297361156],[-0.950419421056366,43.453781640730824]]],[[[-0.948993498600255,43.45237795794002],[-0.949097553177814,43.45221877630341],[-0.949216675135155,43.45200896086525],[-0.949317427810505,43.45183233391003],[-0.949384953892807,43.45174438584554],[-0.949499109622073,43.4516116791461],[-0.951039781940192,43.4520010140927],[-0.950556213224581,43.4530463744703],[-0.950336833537106,43.45379798504665],[-0.949721325603126,43.45365793090337],[-0.949572360667502,43.45365480607281],[-0.949378901058953,43.45365735724046],[-0.949029477643057,43.45375108087633],[-0.948397672427691,43.45378591770619],[-0.948028280905739,43.45371497986267],[-0.948993498600255,43.45237795794002]]],[[[-0.946351981084888,43.44340508048659],[-0.946475547280596,43.4436527076609],[-0.946555500160792,43.443821483936524],[-0.945035255655393,43.44445032373572],[-0.944891123970309,43.44405607526051],[-0.944786665862533,43.44387783158501],[-0.945299272912322,43.44361909563468],[-0.946204363665389,43.443196072813315],[-0.946351981084888,43.44340508048659]]],[[[-0.944744171733595,43.44275411610091],[-0.943861026716305,43.44324298535207],[-0.94331095372597,43.44275011136667],[-0.943734646155597,43.44248381153802],[-0.944713171698025,43.44186634916765],[-0.944937131186035,43.44201880001065],[-0.945181704315719,43.4422013963722],[-0.945376730199966,43.44235913434249],[-0.945410278711554,43.442386827187015],[-0.945888754254644,43.4427999680746],[-0.946004021432694,43.44291953571531],[-0.944744171733595,43.44275411610091]]],[[[-0.943472869086631,43.45107399077291],[-0.943507439141363,43.45137422696156],[-0.943568226100855,43.45161144395339],[-0.94356087824193,43.45175484740754],[-0.943558070919364,43.45181845549121],[-0.943211481969025,43.45205258067488],[-0.943063675896379,43.45201220215514],[-0.942895637297742,43.451950850992965],[-0.942662286717704,43.45187106908863],[-0.942344637571264,43.451759224635985],[-0.94213029102318,43.451494988405116],[-0.942027805121836,43.45136540192588],[-0.941921388595019,43.45129207773281],[-0.941691351987025,43.451128940223846],[-0.942325988121726,43.45051023598258],[-0.942629264883195,43.4502233728849],[-0.942823632572065,43.45003055328946],[-0.943255108514411,43.44973271511768],[-0.943642956396653,43.449492853444326],[-0.944265791396935,43.449129760975865],[-0.944470161994139,43.44930445697215],[-0.944696338946162,43.4494509742613],[-0.944509620264768,43.449582174926036],[-0.944431341000745,43.44965222524544],[-0.943895782157733,43.450130504147815],[-0.94371185183157,43.450318621902376],[-0.943519440542539,43.45053091913558],[-0.943478844377293,43.45056455569709],[-0.943461062574555,43.45095596658871],[-0.943472869086631,43.45107399077291]],[[-0.943450936569622,43.45045333334409],[-0.943489150821748,43.450484100033826],[-0.94353149817529,43.45045436318021],[-0.943491125599379,43.45042277430989],[-0.943450936569622,43.45045333334409]],[[-0.943374706892439,43.45058032831325],[-0.943398977669026,43.45063493327059],[-0.943449218178811,43.450621123275894],[-0.943423448901522,43.45056450107541],[-0.943374706892439,43.45058032831325]]]]}}]}
