{"type": "FeatureCollection","name": "aoc_geojson","features": [{"type":"Feature","properties":{"dt":"Pau","type_prod":"Vins","categorie":"Vin tranquille","type_denom":"appellation","signe":"AOC","id_app":9,"app":"Béarn","id_denom":61,"denom":"Béarn","insee":"64430","cvi":"1B101S, 1R101S, 1S101S","nomcom":"ORTHEZ","insee2011":"64430","nomcom2011":"ORTHEZ","id_aire":75,"crinao":null,"grp_name1":null,"grp_name2":null},"geometry":{"type":"MultiPolygon","coordinates":[[[[-0.838669685991167,43.47068795128373],[-0.838707153486234,43.47075264833374],[-0.838759569380146,43.470813392858346],[-0.838812365506713,43.47086871941554],[-0.838845181780336,43.47091007178195],[-0.83887523572478,43.470967465228846],[-0.838890997639309,43.47102752690642],[-0.838893935817767,43.47105669703707],[-0.83888174707826,43.471113065278736],[-0.838863688388228,43.47116117450913],[-0.838836088930845,43.4712145759157],[-0.838828393112791,43.47123637644688],[-0.83882745825962,43.471264963225465],[-0.838834297403056,43.47128958147661],[-0.838862869620482,43.47135441357285],[-0.838905559990608,43.471413971432156],[-0.838970959203977,43.47149317151858],[-0.839003436432035,43.47153129319974],[-0.83902783224496,43.47157618662396],[-0.839051107234232,43.47164688111365],[-0.839062332756615,43.47169827624623],[-0.839119107380012,43.47177796205294],[-0.839168375365485,43.47184710489574],[-0.839201114637117,43.47190395278567],[-0.839230460617092,43.4719710993608],[-0.839266900595646,43.4720888867355],[-0.839302696905997,43.47227848646336],[-0.839318983600902,43.47244634900113],[-0.839323005384824,43.47256762720165],[-0.839323714419204,43.47261155854199],[-0.837157287942153,43.47326875245711],[-0.837269390569498,43.4738343241312],[-0.836806153901034,43.474000434489646],[-0.836628150297591,43.47407420415007],[-0.835932478803652,43.47283554123621],[-0.835473762250073,43.47201868291335],[-0.83539061227452,43.471832830571756],[-0.835508863398731,43.47178856098277],[-0.835811963491642,43.47167496465998],[-0.83560335251453,43.471373485345595],[-0.835663988602186,43.47134990080508],[-0.835748855563655,43.47131690123819],[-0.835561026437915,43.470974693127495],[-0.835700149393209,43.47094112378021],[-0.835578933769255,43.47065375454185],[-0.837311380472353,43.4703589303994],[-0.837845217990496,43.47035596313162],[-0.838282696096909,43.4703175851826],[-0.838412306594924,43.47028236764652],[-0.838519362985913,43.470274250861856],[-0.838550288640933,43.47033359510213],[-0.838574735049695,43.470410733452454],[-0.838652443203547,43.470648298923976],[-0.838669685991167,43.47068795128373]]],[[[-0.834245749474673,43.47119950909941],[-0.834330909034371,43.4713098986972],[-0.834609547624757,43.47124860400352],[-0.834697501999313,43.47130448948924],[-0.834765546849653,43.47127145563119],[-0.834807795084232,43.47125032394217],[-0.834861006711973,43.471315635870994],[-0.834914074645752,43.471365820367716],[-0.835223111615565,43.47173589536601],[-0.834349962709655,43.472001355951505],[-0.83429723611669,43.47201745383708],[-0.833137271080589,43.47237015871745],[-0.833395386086278,43.47282427858547],[-0.831990510018965,43.47330867768456],[-0.831951142800857,43.4723511387312],[-0.831791391846986,43.472400024732174],[-0.831424322324995,43.472524518916345],[-0.830827268289969,43.4727204664807],[-0.830815307168022,43.47266720516196],[-0.831631421241543,43.472397395764006],[-0.831949447080353,43.472294181676375],[-0.831909142977031,43.47090341959646],[-0.831903266961712,43.470704023008715],[-0.832130273233961,43.47063258110585],[-0.832765382161857,43.47044572800943],[-0.833147001423997,43.470330081813934],[-0.833687858572543,43.470170968092226],[-0.833715001644818,43.470164422952465],[-0.834284747032747,43.470488343121986],[-0.834585819803237,43.4706576553266],[-0.83466968499895,43.47073197061018],[-0.834424285458342,43.47082613716264],[-0.834210556954856,43.471154006049105],[-0.834245749474673,43.47119950909941]]],[[[-0.82785999678803,43.475463981278466],[-0.827794327064067,43.475438108170934],[-0.827530290036658,43.47533835639302],[-0.827319046243624,43.47525313256779],[-0.827261477856827,43.47523003549521],[-0.827114043788166,43.47516318417835],[-0.82688352722879,43.47506341781103],[-0.826669341866726,43.47497856693115],[-0.826604764414081,43.474956077390466],[-0.826594883659026,43.474948860141964],[-0.826588335152736,43.47493224755988],[-0.826632483067638,43.47455697056316],[-0.826514654228045,43.47378127045963],[-0.826627127074385,43.473429071502196],[-0.826676634178433,43.473279151015134],[-0.827610238211706,43.474306704174964],[-0.828168955125443,43.474921716928776],[-0.82785999678803,43.475463981278466]]],[[[-0.826537665021501,43.474552122741834],[-0.826501744690548,43.47490423025207],[-0.826393883653518,43.474857688234906],[-0.825927684875388,43.474652930172205],[-0.825807269287913,43.47462772815003],[-0.825606964250266,43.474580396433446],[-0.825497599883526,43.47456327081932],[-0.82528277955216,43.474539419938964],[-0.825248245548919,43.474529740278726],[-0.824418833195502,43.47425682294535],[-0.823415169773721,43.4739766281361],[-0.821861657406139,43.47392380299324],[-0.821613916523617,43.47326914843077],[-0.823413115106458,43.47305353316872],[-0.823394925503388,43.47336754214907],[-0.824983515119249,43.47346441362867],[-0.824993127315269,43.47342858511422],[-0.825033406802181,43.47326818243579],[-0.825109393280078,43.473116517273695],[-0.825176793413206,43.47299379874538],[-0.825791049914178,43.47249120417431],[-0.826096333063432,43.47256239049496],[-0.826344835464601,43.47262225045351],[-0.826357200717329,43.4726240655819],[-0.826617023385935,43.47268118319797],[-0.82681555240125,43.47272236040401],[-0.826712532819355,43.47295460721437],[-0.826605169502081,43.47328879105403],[-0.826434739422766,43.47381075489724],[-0.826537665021501,43.474552122741834]]],[[[-0.826329230753017,43.47625495076596],[-0.825395720577458,43.476544265895335],[-0.82515573390981,43.4766181327914],[-0.825157981562739,43.47643637377521],[-0.825175910682428,43.47622262525209],[-0.825239277811209,43.47546889930409],[-0.825942314463963,43.475433626629034],[-0.826191595700452,43.47561830282631],[-0.826596301514944,43.475798480038726],[-0.827052671429855,43.475888918451346],[-0.827419295394623,43.47596153812678],[-0.827261944181351,43.47599465939221],[-0.827163394109786,43.476015524955585],[-0.827029530969019,43.47605403130497],[-0.826398436704289,43.47623548262344],[-0.826329230753017,43.47625495076596]]],[[[-0.826090745713875,43.47673211927155],[-0.826070019511473,43.47669763215054],[-0.825201298444813,43.476696870318996],[-0.825190434121342,43.47668788617011],[-0.825201893098937,43.47667793373962],[-0.825387789259896,43.47662020827098],[-0.825940132782879,43.47645595583302],[-0.826090745713875,43.47673211927155]]],[[[-0.824259141430357,43.4757135528437],[-0.823982278213001,43.475985981069734],[-0.823902276875292,43.476066268380144],[-0.823851808591791,43.47612011241644],[-0.823796086746001,43.476239986011194],[-0.823674069876057,43.47661638840835],[-0.823647677435333,43.47668631661072],[-0.823632307166401,43.47675459478817],[-0.823578302214425,43.47675902273435],[-0.823419709328187,43.47675867453419],[-0.822858053875726,43.476753362630944],[-0.822834786830754,43.47675130120643],[-0.822856865436629,43.476705755371746],[-0.822538177226816,43.47660809987998],[-0.821922900137511,43.47613133606337],[-0.82173896290887,43.47633940997615],[-0.821766563167115,43.47634897506874],[-0.82175972918803,43.476359664713826],[-0.821688554318057,43.47633839576573],[-0.821614779147514,43.47636171504458],[-0.821572643226205,43.47637536126434],[-0.821546103955077,43.476489610442265],[-0.821019857022744,43.47627271748854],[-0.820701278106559,43.47614127524498],[-0.820204677671913,43.475940447186225],[-0.820183775373853,43.475934879021],[-0.820337991431525,43.475579234067055],[-0.820381226059542,43.47548538383723],[-0.82039343305034,43.47545504887416],[-0.820297165842647,43.47542097265402],[-0.820271289928055,43.47541314789385],[-0.819945716157418,43.475187553011786],[-0.819824117759819,43.47515941365548],[-0.819878147510063,43.47504933008123],[-0.819784272129716,43.47503075188954],[-0.819720151343493,43.475134165419675],[-0.819709724819381,43.47514849445399],[-0.819598614735082,43.47541767902636],[-0.819580174343408,43.475465888107706],[-0.819572530392671,43.47548858597094],[-0.81953440870499,43.475491911535165],[-0.819528440409548,43.47551004663062],[-0.819506553828347,43.475593866277904],[-0.819457088043809,43.47582286638504],[-0.819165734442703,43.4757790026737],[-0.818862003551135,43.475727557896434],[-0.818942973740947,43.47549798812773],[-0.818949692519403,43.47547811521583],[-0.818898110271298,43.475466872695065],[-0.81820328539935,43.475314907118374],[-0.817548315413545,43.475139104582624],[-0.817507843065143,43.47519826787824],[-0.817173835373597,43.47509501211708],[-0.817034698549572,43.475050463684056],[-0.81704377505408,43.474980426902086],[-0.817100239692186,43.47490133453283],[-0.817277018693837,43.47464118855721],[-0.81728896831551,43.47462185206582],[-0.816374022936436,43.474233711546056],[-0.816577500542158,43.47385598115146],[-0.816565883615141,43.4738561201643],[-0.815785549474266,43.473857665231826],[-0.815740685877611,43.473858164439775],[-0.814748119339852,43.4735784911967],[-0.814623627169615,43.473441459302784],[-0.814559017530334,43.473362487944776],[-0.81425835228194,43.47256880856843],[-0.814680727884898,43.47237892475183],[-0.814685408881871,43.47237677831668],[-0.814981824472906,43.47230346967784],[-0.815398655050035,43.47225924671455],[-0.817141535997926,43.472201455777046],[-0.817279782987636,43.47217685865881],[-0.817179259374635,43.47259617977696],[-0.816753289193376,43.473394736873445],[-0.817744843285605,43.47372234679036],[-0.81823705638957,43.473796155450295],[-0.819234659242391,43.47408426706592],[-0.819265910605649,43.47403713772582],[-0.819508179689513,43.47365902450339],[-0.819780581449519,43.473230037586454],[-0.820102590432191,43.47339288647024],[-0.820574985383337,43.4736336594451],[-0.821090406134438,43.47392992978842],[-0.82155933711784,43.474207751318346],[-0.821359241627712,43.474602396937286],[-0.821853973478728,43.47485705928613],[-0.822405867011443,43.47514726373929],[-0.822668502208781,43.475283737207924],[-0.822675738123654,43.47527537524548],[-0.823578762256256,43.47551688482742],[-0.82426708922053,43.47570102223041],[-0.824259141430357,43.4757135528437]],[[-0.818078415188003,43.47520959786928],[-0.818028308092321,43.47518704375137],[-0.817992969059835,43.47523224506892],[-0.818043338889425,43.47525316861899],[-0.818078415188003,43.47520959786928]]],[[[-0.824277569473303,43.477882248681034],[-0.823964274295428,43.47778584781569],[-0.823928412048595,43.477767387256556],[-0.823898254605339,43.47775286876211],[-0.823861772612048,43.47772695389623],[-0.823812335526224,43.477682940946266],[-0.823767302316546,43.47763075595448],[-0.823733991279745,43.47758743489957],[-0.823695808306117,43.4775285227909],[-0.823660357033739,43.47745861529466],[-0.823646372852335,43.47741947616844],[-0.823643982483453,43.47740028465276],[-0.823653617339734,43.47735733954826],[-0.823682631756718,43.47725246008596],[-0.823701693987858,43.4772210720667],[-0.82393038253818,43.47678037490602],[-0.823937512402742,43.476766702218605],[-0.824224264848906,43.47673757562643],[-0.824568559627015,43.47672929590231],[-0.82501281668866,43.476725052322884],[-0.826022782622169,43.47673496964653],[-0.826385489831952,43.47744707875453],[-0.82619193607937,43.47782447991191],[-0.824995218696347,43.47791924739589],[-0.824626487473845,43.477947036199936],[-0.824347995474772,43.477908946942144],[-0.824277569473303,43.477882248681034]]],[[[-0.820306239631605,43.47605972689032],[-0.820978577439755,43.476332721360386],[-0.821691216705108,43.47662203497337],[-0.82168566494993,43.476728247920136],[-0.821681719793757,43.476752616989316],[-0.821666946812749,43.476947067457694],[-0.820781069314625,43.47660090109511],[-0.820089992669076,43.47633072774701],[-0.820056690387905,43.47631911143302],[-0.819925384693821,43.476234297566585],[-0.819955054313413,43.47618569248701],[-0.820069110279749,43.475977563691366],[-0.820123344094416,43.475984028349956],[-0.820306239631605,43.47605972689032]]],[[[-0.808563349264619,43.512770093947736],[-0.808858815572894,43.512571005191404],[-0.809375292164916,43.51213076390589],[-0.809893635094973,43.51168892314678],[-0.810465847624279,43.51172330789749],[-0.810466986475666,43.51180388559541],[-0.810482690817,43.51243782681403],[-0.810106534630213,43.51251752332661],[-0.809962626053302,43.512549693669385],[-0.809908061923394,43.512559267667584],[-0.809793805622672,43.512590665931846],[-0.809748595127345,43.512605045456326],[-0.809697681731329,43.512626741346715],[-0.809643869623387,43.51265511459957],[-0.809596894710843,43.512682076580965],[-0.809391942819301,43.51280340430074],[-0.808923810698402,43.51308440480601],[-0.808745946846526,43.51293121975188],[-0.808563349264619,43.512770093947736]]],[[[-0.806244749947836,43.51431840308647],[-0.806250376836518,43.51434540836942],[-0.80601239165146,43.51439429736092],[-0.805929547800968,43.51440486206997],[-0.805327322708208,43.51448383014645],[-0.806134293516167,43.51371445094652],[-0.80660105459535,43.51361600426128],[-0.80741930363629,43.513446482704936],[-0.807734044811129,43.513379311563675],[-0.807745212561844,43.51337414531567],[-0.80848858251618,43.51281469575937],[-0.808905888197164,43.513189252043524],[-0.808909127328462,43.51332578305277],[-0.808514688035429,43.51361698332199],[-0.808333517707201,43.51375359703638],[-0.807858558696294,43.51409608395489],[-0.80780433048383,43.514121948740865],[-0.80768978555107,43.514150922769254],[-0.807400238240179,43.51420612958429],[-0.806679279046325,43.51427324157768],[-0.806266461596213,43.51431358742554],[-0.806244749947836,43.51431840308647]]],[[[-0.802477441219733,43.513422570515814],[-0.802834660213937,43.513533263956425],[-0.802645895342037,43.51421139706674],[-0.8016806745233,43.51419156296534],[-0.801413731395106,43.5141863310844],[-0.800929972863554,43.51417401785738],[-0.800638189384859,43.51416560156488],[-0.80064102137598,43.51413920030179],[-0.800669712511463,43.51379852062299],[-0.800713006680484,43.51336058825169],[-0.800726672840191,43.51326039586099],[-0.800830277600746,43.5129146579397],[-0.801776892068763,43.51320339548915],[-0.801837109601728,43.51322497359196],[-0.802177540362955,43.513330763228986],[-0.802477441219733,43.513422570515814]]],[[[-0.800259113547118,43.482063283589916],[-0.800470967567752,43.4821673639173],[-0.800532022605585,43.48221332157253],[-0.800371806666417,43.48235693305423],[-0.800229808174672,43.48248423263995],[-0.800150417667066,43.48255754425929],[-0.7999521702114,43.4827414905643],[-0.799369681229436,43.48321498421391],[-0.799035603229351,43.48303412094247],[-0.798743147081542,43.48254167575369],[-0.799039974672589,43.48221538281559],[-0.798077650535397,43.48182514405864],[-0.797751510587152,43.48205049881166],[-0.797277930085341,43.48164717571514],[-0.79681537473446,43.481960895780176],[-0.79673028323215,43.481970452679164],[-0.796028914928137,43.4811729301845],[-0.795845120467167,43.48080250401411],[-0.796501637864225,43.480406601354744],[-0.796762469990744,43.480565087662804],[-0.796837636685604,43.48053453117306],[-0.797460429322658,43.48028166903224],[-0.797982046832303,43.480317160234506],[-0.79798850568849,43.480317564350926],[-0.798574500949523,43.48020983193947],[-0.798762308647011,43.48045175914221],[-0.798890796269659,43.48062713024652],[-0.799313849463055,43.48095655640908],[-0.79965042308188,43.481078062550786],[-0.800212619949044,43.48141647747412],[-0.800382842778086,43.48153264653762],[-0.800202391279457,43.48172749851805],[-0.800007476295503,43.481939340800466],[-0.800259113547118,43.482063283589916]]],[[[-0.797446993525067,43.4802206201128],[-0.797441089035758,43.48022298879622],[-0.796825825496725,43.480484954589414],[-0.796820260189693,43.48048496945703],[-0.796749937898803,43.48048401081949],[-0.796370787305483,43.480279589561825],[-0.797198141416228,43.47937310856871],[-0.797799696548413,43.479399854075126],[-0.798639071660822,43.48012380037988],[-0.798065731794124,43.48023397189987],[-0.797987102074438,43.480260777519526],[-0.797446993525067,43.4802206201128]]],[[[-0.800001217837991,43.51255810898876],[-0.800832554144853,43.51259003715843],[-0.800825292078926,43.512613080784995],[-0.800773078260547,43.51277785737818],[-0.800623624440142,43.5132461735696],[-0.800611604067464,43.51328334565833],[-0.800609036908227,43.51331000784708],[-0.800540835968213,43.51401678717181],[-0.800529419019715,43.514152840764424],[-0.800537727215179,43.51417551871292],[-0.80022733798564,43.51417396874357],[-0.799451218215821,43.51417441868963],[-0.799454937127423,43.51415393135839],[-0.799568419685453,43.5132989237573],[-0.799572484138754,43.513268696202736],[-0.799491215232813,43.513269382612286],[-0.799487314450303,43.513298343373904],[-0.799393468722092,43.514014307150205],[-0.798419965542401,43.5139758186726],[-0.798330372113772,43.513972292078506],[-0.798110407206992,43.51325516395591],[-0.79783620260893,43.51325233963769],[-0.797832253445081,43.5132805814045],[-0.797833955115631,43.51328385457094],[-0.797824815909828,43.513323447460195],[-0.797499031225823,43.51364111476482],[-0.797698731763258,43.513872278073066],[-0.797632024675852,43.514162404750195],[-0.797628817502132,43.51417566806102],[-0.797537679303532,43.51417498724249],[-0.79754215299983,43.51415654528991],[-0.797123909516157,43.51415606204757],[-0.796779160775051,43.51416083990242],[-0.796636135156059,43.514159723579134],[-0.796313251964853,43.51416013122663],[-0.796268119563729,43.51416639549953],[-0.796097344173145,43.51422479892646],[-0.795642215106785,43.51438530449112],[-0.795380295855449,43.513355008760605],[-0.795478291958518,43.51300632078797],[-0.795587210046759,43.5126281561899],[-0.795596702038185,43.51258638940981],[-0.795645053916361,43.51241913888396],[-0.796143900366193,43.51243716195522],[-0.797362919301422,43.51248121216741],[-0.798031234531757,43.512505360503724],[-0.798580980643177,43.51252384110146],[-0.799398163236303,43.51255699674008],[-0.800000191958034,43.51257814163043],[-0.800001217837991,43.51255810898876]]],[[[-0.794403230743023,43.46149631961191],[-0.794470303920223,43.461778055666734],[-0.794533705351746,43.46201353352781],[-0.794591806467168,43.46221929332039],[-0.794629737303539,43.462286238822],[-0.794674165132217,43.46234295876977],[-0.794734821136881,43.46240199248904],[-0.793922559186401,43.46273596748371],[-0.793737105657023,43.46242360941931],[-0.793681175321409,43.4623293718428],[-0.793637347494312,43.46226299285611],[-0.793600381025598,43.462186285550835],[-0.793312473651492,43.46167800676431],[-0.793300511568309,43.46166725680626],[-0.792107989796626,43.46197652364767],[-0.791632625693016,43.4620997186806],[-0.79158378424873,43.46209413251465],[-0.791588180250768,43.461870241281574],[-0.791577219839521,43.46181469059881],[-0.79147677549647,43.461159964922906],[-0.791468709016672,43.46109017177098],[-0.792437200755058,43.46091836828528],[-0.792656746047437,43.460887442971384],[-0.793136152242777,43.46082192742504],[-0.793762206660497,43.46089124461934],[-0.793777643370036,43.46093402832972],[-0.793780198852614,43.460980235553095],[-0.793847542915467,43.46104696167282],[-0.79385788940523,43.461066955439996],[-0.79386402753208,43.461129970622984],[-0.793906930563373,43.46118422218411],[-0.793999581040849,43.46125591651461],[-0.794124738366137,43.46133863181249],[-0.794333419830513,43.461459674000615],[-0.794403230743023,43.46149631961191]]],[[[-0.792470463079851,43.46088838086585],[-0.792407271408663,43.460893925961884],[-0.79198118863343,43.460500729693905],[-0.793060464836863,43.45992053144669],[-0.793386226403438,43.460292467168706],[-0.793452551441666,43.460366254712206],[-0.793536871690328,43.46046913555845],[-0.793597416670632,43.460543395681015],[-0.793621943110996,43.46057027869218],[-0.793743053611049,43.46086147128626],[-0.79314347255094,43.46079419930036],[-0.792470463079851,43.46088838086585]]],[[[-0.791445321484735,43.47228591205253],[-0.791192776927872,43.472660892751584],[-0.791014271190417,43.472892769683],[-0.790854406302773,43.47309039717772],[-0.790728869854999,43.4732403461224],[-0.790653923960062,43.47332664533473],[-0.790559478910479,43.47349045821131],[-0.790358740457831,43.47387848626068],[-0.790308768392161,43.473885909065324],[-0.789704629637175,43.473972795512836],[-0.789233173189284,43.47404053651756],[-0.789213871083544,43.4740422924623],[-0.789165177685856,43.4740672340614],[-0.788829269101617,43.474228681301994],[-0.788508708059902,43.474380943872845],[-0.788494080212261,43.47438794055991],[-0.788208617563988,43.474477906054474],[-0.787904577334841,43.474575005467315],[-0.787883110189325,43.474583322047636],[-0.787815263421243,43.47460478933387],[-0.787339123350582,43.47475357027609],[-0.787445782063418,43.47490998984058],[-0.787123247200232,43.475021154220435],[-0.786815773704298,43.4751244052855],[-0.786530038137125,43.4752215814873],[-0.786195031457063,43.47533498032163],[-0.786243316373798,43.47542768840181],[-0.786322901421569,43.47558433462306],[-0.786390563857572,43.4757177085418],[-0.786058331597485,43.475803808180835],[-0.786123780252168,43.47589420521112],[-0.786163954197478,43.475959544701404],[-0.78571109182076,43.47610705429939],[-0.785671359872994,43.475995852559656],[-0.785644562349416,43.47592139861848],[-0.785638608908319,43.47590800576303],[-0.785345740574683,43.475983360279095],[-0.785108606768259,43.47604298588753],[-0.785070851833975,43.47594675692443],[-0.784440095248958,43.47605057582556],[-0.784527281550596,43.476271989735494],[-0.784543724612354,43.47631131725717],[-0.784557091802789,43.476345257829024],[-0.784578354754795,43.476399549079694],[-0.784586273284136,43.47641836774005],[-0.784470265930091,43.476439173218346],[-0.784176736141107,43.47649139907212],[-0.783905010724567,43.47653853917248],[-0.783881051889877,43.4765240636753],[-0.783824927055601,43.476486932525674],[-0.783752769273318,43.47644486687451],[-0.783706309790958,43.476417396115174],[-0.783687113073289,43.47640761816016],[-0.783627201130091,43.476376834134115],[-0.7835834363905,43.4763564749756],[-0.783552222412954,43.47634639607676],[-0.783505397335817,43.47634154605233],[-0.783346182081246,43.47633917944118],[-0.783221652039536,43.47634325758767],[-0.783106028870546,43.476343601862496],[-0.783099800410825,43.47631850914175],[-0.783098109109187,43.476307849643106],[-0.783088916394042,43.476237734417396],[-0.783063848708736,43.476056124098825],[-0.782578320221779,43.47607766953308],[-0.782544914000876,43.47607937623048],[-0.782550716031084,43.47566961713054],[-0.782546927634088,43.475352786757824],[-0.782822770524423,43.47533820224612],[-0.783171992005368,43.47531474981167],[-0.783223691266055,43.47530159552929],[-0.783484812262387,43.47521933900908],[-0.783222743903302,43.47473867988539],[-0.783208051090486,43.474746578821744],[-0.782814516495624,43.47435049327302],[-0.782765529435414,43.474342836185386],[-0.782850586407671,43.474037946016516],[-0.782877002733247,43.47396577695079],[-0.782923192029109,43.47386706690425],[-0.783565153313005,43.47411594619439],[-0.78364013566939,43.473981192364214],[-0.783676579856263,43.47390543028589],[-0.783708076094436,43.47381651037807],[-0.783722477621107,43.47372530518065],[-0.783729278344581,43.47356374919852],[-0.783731057416819,43.473369132146416],[-0.783766284388137,43.473318092213496],[-0.783828028326679,43.47325090404747],[-0.784268353072539,43.472856953348376],[-0.784381479230607,43.47274743782183],[-0.784661180052886,43.47244610524907],[-0.784712659416805,43.47238458935725],[-0.784842902651885,43.472046774107895],[-0.784884795247715,43.47189417028656],[-0.784898939438733,43.47181035984579],[-0.78491214888659,43.47165227293461],[-0.784904711259155,43.471214514323805],[-0.78510346931071,43.47121846897042],[-0.785464669304604,43.47125520804365],[-0.78561374848614,43.471261618167496],[-0.786470812912338,43.471254094503585],[-0.786552034296904,43.47126485656853],[-0.786722514118692,43.47130699624585],[-0.786791357193157,43.471985712688685],[-0.78680027838262,43.47285864717819],[-0.786684505028636,43.47297672466832],[-0.786393652318018,43.4729041140205],[-0.785189607237817,43.47330908658744],[-0.784922673082123,43.473535755501935],[-0.785300844645863,43.47381113354628],[-0.785415992453359,43.473882500546125],[-0.785792679208917,43.474567035524835],[-0.785788621336011,43.474512954029834],[-0.785870243403841,43.47446965964257],[-0.786987229258329,43.474120865383725],[-0.786977930736479,43.474002295441935],[-0.787553799633476,43.473963069908216],[-0.787484075934389,43.47311729997057],[-0.787303705814609,43.47311847125943],[-0.787310200261686,43.47296368086777],[-0.787234957795366,43.472647726912506],[-0.787212723498503,43.4724905181191],[-0.787194204939013,43.47232588363478],[-0.787154898664,43.47201659991946],[-0.787099857668828,43.47178757983837],[-0.787361457765824,43.471808609058044],[-0.788358165089441,43.47196435313224],[-0.788465891572512,43.47198130267157],[-0.78862196329584,43.47200556867089],[-0.788688682341022,43.47149622086179],[-0.789055124917511,43.47149610552617],[-0.789068372335643,43.47178891629614],[-0.789467396984945,43.47178585865338],[-0.789454219707828,43.4714960177813],[-0.789849687678738,43.47149344335378],[-0.790237123360992,43.47149096835078],[-0.79063246787139,43.47148839538494],[-0.791008774610634,43.47148594672357],[-0.791108170428843,43.471485350881906],[-0.791752549759329,43.47166573227625],[-0.791627338130354,43.47192736027105],[-0.791630341035369,43.47192788568011],[-0.791445321484735,43.47228591205253]]],[[[-0.790274773897769,43.474354932949865],[-0.790493114652252,43.47392809858312],[-0.79084430136571,43.473355292494816],[-0.791219742110004,43.47291025947574],[-0.791608021199814,43.47236560642381],[-0.792761410751451,43.47254320917797],[-0.793115837682695,43.4727881370457],[-0.793439349135468,43.47300685449837],[-0.791980986818444,43.475142449021625],[-0.791291020931729,43.474663541710605],[-0.790847337475677,43.474801745019896],[-0.790232557189084,43.47439180819918],[-0.790274773897769,43.474354932949865]]],[[[-0.790341481198825,43.48116369127894],[-0.790299062533352,43.4811338298423],[-0.790113156763679,43.48100459334921],[-0.790059491753476,43.48096737897141],[-0.789543923869242,43.48059224479038],[-0.789893781486002,43.48030231489259],[-0.79000565698761,43.4802187776709],[-0.790135619945989,43.480113170385685],[-0.790398299352611,43.479909965525515],[-0.79053254680724,43.479807450468805],[-0.790642431831162,43.47972001899682],[-0.790737771756187,43.47982459043658],[-0.790991295769314,43.480189431582986],[-0.791086071958945,43.48039229170266],[-0.791135314810946,43.48051432851516],[-0.791147309340652,43.48054426330855],[-0.790448328742028,43.48110329797531],[-0.790341481198825,43.48116369127894]]],[[[-0.789589586327751,43.511485861666706],[-0.789621843091743,43.51167271960933],[-0.789669386742358,43.51198244531982],[-0.79009691146018,43.51215944865439],[-0.790442239664597,43.51230239372631],[-0.790846291470026,43.512673064821215],[-0.79034658870886,43.51374269882776],[-0.789951725180849,43.513706331594086],[-0.789812714249975,43.51410544790817],[-0.789717494954753,43.51437485704045],[-0.789656105109793,43.51437484114115],[-0.789609585651997,43.51449887872982],[-0.789404220850973,43.515031012340636],[-0.789234296509377,43.5154738138793],[-0.789198556105656,43.515569911720995],[-0.789041475031134,43.51597668461426],[-0.788487403267251,43.51594182206316],[-0.788195507778923,43.515924278415895],[-0.787823031591758,43.51594792109449],[-0.787405894488504,43.51597375316402],[-0.787792149209246,43.515164539718974],[-0.788998001196277,43.51435748964609],[-0.789081696038939,43.51413658390549],[-0.789226008622715,43.513755838774145],[-0.789409584135232,43.51326491099324],[-0.789437930029619,43.513176818058845],[-0.788427315944834,43.51290183110864],[-0.787787880292551,43.512728171815496],[-0.787566163157436,43.51266728132502],[-0.787327180139028,43.51260167918259],[-0.786959166151878,43.51250311283808],[-0.786959061429135,43.512505278282475],[-0.785895118107852,43.51208179745822],[-0.786102144298566,43.511852354180256],[-0.786393850943788,43.51152762674232],[-0.786799137783094,43.511067332543284],[-0.787074617250179,43.51114598243203],[-0.787234332074988,43.51118823249021],[-0.78731905058947,43.51121175473084],[-0.787558239207751,43.51127680899441],[-0.787780657267039,43.51133902587907],[-0.788276511754006,43.51147887978981],[-0.7883164117085,43.51148712348941],[-0.788341367916703,43.51149021468688],[-0.788676280641266,43.51145103812111],[-0.789075691964792,43.511404652121826],[-0.789589586327751,43.511485861666706]]],[[[-0.784832106602181,43.47180963224306],[-0.784809922132575,43.471938489183],[-0.78477887336892,43.47206045006185],[-0.784732695432181,43.472185551540576],[-0.784663588728408,43.472358741625484],[-0.784458601355761,43.472585136816974],[-0.78427368357418,43.47278389914442],[-0.783965576594443,43.47305208561317],[-0.783863553296964,43.47313302046546],[-0.783713787176575,43.47324021217163],[-0.783555510415498,43.47334400793247],[-0.783289846309902,43.47349613895116],[-0.783141250415597,43.47359671372625],[-0.782946639077107,43.47377797794946],[-0.782874442010546,43.473863004473785],[-0.782838038206177,43.47393939533615],[-0.782801869226965,43.47402874831413],[-0.782677939616597,43.47394417448705],[-0.782620612023619,43.47390375223911],[-0.782988255689242,43.473677445964384],[-0.782791212800281,43.47361136786714],[-0.782718873364196,43.47358714230198],[-0.782503990484023,43.473599508498516],[-0.782395869307264,43.47362354935504],[-0.782261660719029,43.4736533646927],[-0.782079434397634,43.473769163165386],[-0.781947830400879,43.47392687899314],[-0.781901406921429,43.474072794292866],[-0.782234695750931,43.47427715166285],[-0.781922647744537,43.47464544916828],[-0.781603986169534,43.47455812373734],[-0.781591846337927,43.474572868858175],[-0.781553530118087,43.47462023285098],[-0.781547668544557,43.47462701267093],[-0.781528720385467,43.47461911720991],[-0.781501956539498,43.47465220693246],[-0.781519330099577,43.47466060771501],[-0.781500730984323,43.47468620673054],[-0.781456628902833,43.474683242417484],[-0.781385104693362,43.474797337557746],[-0.781473292987145,43.47483497201833],[-0.781458129725795,43.474884590320656],[-0.781453960411087,43.47494715552141],[-0.781465728435174,43.47499817573113],[-0.781490092621006,43.475043261933436],[-0.781511103675959,43.47506558695251],[-0.781530312201554,43.475077436491844],[-0.781050579280063,43.475681266749156],[-0.780767851320707,43.47561943592017],[-0.78071576751836,43.474921846831684],[-0.780678597404554,43.474394513471175],[-0.780671086427847,43.47430479402719],[-0.780617349703298,43.47359708523213],[-0.78055955129666,43.472795664040895],[-0.7805169304355,43.472223035651055],[-0.780512929371297,43.472165979889006],[-0.780555216903629,43.47216207232813],[-0.780566548997349,43.4717929243659],[-0.781018152984945,43.47177887573985],[-0.781134687510875,43.47177372777751],[-0.781415523410023,43.47176761889847],[-0.781740839497724,43.47176085736296],[-0.781779103639403,43.4717615933305],[-0.781760418143197,43.47148518566666],[-0.781790704206141,43.471020800820455],[-0.781856135777124,43.47101716567814],[-0.782411309572965,43.47106416688959],[-0.782311592148696,43.47203879941964],[-0.782311532846617,43.47205105122103],[-0.782247162734889,43.47276981782706],[-0.782278179848879,43.47280512392004],[-0.782891817912339,43.4728081089076],[-0.782950726857267,43.47260203974966],[-0.783116384907413,43.47205807740063],[-0.783135442115945,43.4719962533246],[-0.78340929919444,43.471151546375154],[-0.783417578850482,43.471127027982],[-0.78342729776773,43.47110182882487],[-0.783463931915728,43.47108532736833],[-0.783539297912964,43.47106540160418],[-0.783616835961617,43.47105404679824],[-0.783711729887531,43.47105271422392],[-0.783949739221155,43.471072413695865],[-0.784021212680892,43.47107225915127],[-0.784647173960175,43.47101850837199],[-0.784701458580128,43.471063449226726],[-0.784785702479743,43.47112950105235],[-0.784807252904834,43.47116189454368],[-0.78484020849758,43.47163596123935],[-0.784842952975106,43.4717226944464],[-0.784832106602181,43.47180963224306]]],[[[-0.784584835824894,43.47063157677066],[-0.784593365966673,43.47078926434987],[-0.784601384560011,43.47084717048339],[-0.784619746046348,43.47090813802533],[-0.784645656620628,43.47097856958329],[-0.784479480120105,43.470997975458296],[-0.784082044478718,43.4710457249982],[-0.784041643486541,43.471048217001226],[-0.783952040013203,43.47104161892748],[-0.783781189032665,43.471029481794496],[-0.783686950043305,43.47102385604718],[-0.783566566770727,43.471024997932766],[-0.783537658814989,43.47102735858027],[-0.783491666419244,43.47103508965663],[-0.783449898112584,43.471054382497506],[-0.783424047031868,43.47105996900673],[-0.783406477411909,43.47105797050632],[-0.783399444925094,43.47104695715403],[-0.783397585190014,43.47098865573982],[-0.783410285474525,43.47059360884345],[-0.783847015486921,43.47054538998962],[-0.784039573379006,43.47052659480797],[-0.784047807096437,43.4705051404024],[-0.784341829641984,43.47049090704683],[-0.784388372197185,43.470504683479376],[-0.784389431218954,43.470507618847506],[-0.784392342049484,43.47054994087468],[-0.78450243745562,43.470552219855406],[-0.784504148436393,43.47050496258207],[-0.784520581416185,43.4705141162597],[-0.78455544672368,43.4705233466069],[-0.784584791818679,43.47053889465154],[-0.784584835824894,43.47063157677066]]],[[[-0.784102521976915,43.50193585488004],[-0.784109117216349,43.50195895369503],[-0.784116666678722,43.50208668471933],[-0.78412228230691,43.5022151137831],[-0.78412994663497,43.502248803966395],[-0.784145160166259,43.50230880231716],[-0.784157555237663,43.50236358472132],[-0.784182368859461,43.50246035825913],[-0.784200279598851,43.50254251064021],[-0.784212375773176,43.502573974413075],[-0.784234548723038,43.50263066730378],[-0.784258353615468,43.50268207894805],[-0.784281821926137,43.50273025968971],[-0.784300772940964,43.50277373416063],[-0.784329180011962,43.50287245394715],[-0.784340035240463,43.50291513017726],[-0.784368671536901,43.502976011022014],[-0.784419449480354,43.503076201620324],[-0.784444893432447,43.5031243133749],[-0.784472839455998,43.503167203570065],[-0.784473892267325,43.50316815762329],[-0.784600751063462,43.50335252294146],[-0.784608500143194,43.50352645495283],[-0.7840925031789,43.50353420114249],[-0.783964664452262,43.50323727736712],[-0.783769806777223,43.502764527368036],[-0.78358294265947,43.502319150860835],[-0.783372708753229,43.501800729672475],[-0.783321062633196,43.50167228599212],[-0.78343726674445,43.501648053494904],[-0.78348825567671,43.501636906073024],[-0.783692541872269,43.50159545717834],[-0.783722362453647,43.50166494381024],[-0.783988241880751,43.50160990492834],[-0.784014703430033,43.50168662456897],[-0.784059738641183,43.50181800097284],[-0.784102521976915,43.50193585488004]]],[[[-0.783095056150954,43.507008573568164],[-0.782930917829097,43.50708681109348],[-0.782822144689343,43.50700233452258],[-0.782576870868665,43.50695162475217],[-0.782196809729088,43.50723880036038],[-0.782156353246282,43.5072671439602],[-0.781970786797654,43.50701438574054],[-0.781958259242768,43.507004554390114],[-0.781760838451919,43.50714493120714],[-0.781727367377803,43.50711961718331],[-0.781391205750434,43.507314283811155],[-0.781217426971774,43.50741906640558],[-0.781026914969746,43.50752533308755],[-0.781020878394543,43.50752950688461],[-0.780761151248102,43.50767845019793],[-0.780619364005169,43.50776166927605],[-0.780754018420859,43.50786335022619],[-0.780998112910192,43.50804273076736],[-0.780985314560809,43.50806074154928],[-0.780957458636661,43.50810756069048],[-0.780812737045288,43.50827780359899],[-0.780766866246931,43.508297238030096],[-0.78062809356411,43.50835107797646],[-0.780585013607072,43.50836591130614],[-0.780463611993031,43.508397887803895],[-0.78034619847969,43.508449090955686],[-0.78018217426529,43.50852353704988],[-0.779964529938345,43.50862002909424],[-0.779761176501658,43.50866666196966],[-0.779631731907993,43.508687388493605],[-0.779471426731376,43.508713063963775],[-0.779372279185851,43.50859429050806],[-0.779338438012271,43.50855394631338],[-0.779311158481125,43.50852868589257],[-0.779281376241353,43.50850864692072],[-0.779248153130165,43.508485215021814],[-0.779175466080611,43.50844694562053],[-0.779099245065346,43.50840762841349],[-0.779029081567009,43.50837197316178],[-0.778931317003258,43.50833061457167],[-0.778753871040288,43.50825564366328],[-0.778593243269748,43.50818612120354],[-0.778556254274185,43.50816939575863],[-0.778532457171586,43.50816319947939],[-0.778501512714941,43.50816310710947],[-0.778476377975825,43.50816479385286],[-0.778458459125459,43.508170822838274],[-0.778431029922752,43.508184659418376],[-0.778398749531634,43.5082131669403],[-0.778302989147689,43.508296309860036],[-0.778260081085085,43.50833257379218],[-0.778225550524016,43.50805977316766],[-0.778175938179155,43.50788126490635],[-0.77811120812614,43.50773066592704],[-0.777903590356501,43.50740769176751],[-0.777845743742346,43.50733161391726],[-0.777731928663394,43.50718542763115],[-0.77751290626538,43.50690536514947],[-0.778112446651601,43.50660578362071],[-0.778362546321493,43.50660391225404],[-0.778549631876703,43.50689319290526],[-0.778706798719237,43.50713586731578],[-0.779049075875392,43.50774490357135],[-0.7804551514536,43.50724667974923],[-0.780690182071543,43.50707977308958],[-0.780951113178369,43.5068908852623],[-0.781037368229857,43.506826986902105],[-0.781157324075814,43.506776865204706],[-0.781236595934884,43.50671780401779],[-0.781253034409397,43.50673065160457],[-0.781465001011936,43.50653491342382],[-0.781609164707539,43.50640891530697],[-0.781758114443592,43.50627104043235],[-0.781928014700049,43.506126219327406],[-0.782287976726774,43.50580452714227],[-0.78255737988618,43.50556030457512],[-0.782602250178761,43.50551820565729],[-0.78272483466567,43.50541223475772],[-0.782945195378464,43.50522196532146],[-0.782966397312012,43.50521131729774],[-0.782980501769495,43.50521127544197],[-0.782997729182585,43.50521355658831],[-0.783635120902617,43.50560564998032],[-0.78370021376358,43.505739029093384],[-0.78402822249669,43.50638061491736],[-0.784124017494737,43.50657237094121],[-0.783686993636821,43.50675552353759],[-0.783538465993171,43.50681898547026],[-0.783341304624451,43.50688621626315],[-0.783257040944938,43.50692770872566],[-0.783095056150954,43.507008573568164]]],[[[-0.779459590127705,43.47737292948644],[-0.779273416721989,43.47757001527103],[-0.779242454445396,43.47760325085615],[-0.779183190774084,43.477666927035926],[-0.779103819858291,43.477752111072526],[-0.779049067243821,43.47781103617611],[-0.778820615363583,43.47805553232348],[-0.778817267096345,43.47805916189573],[-0.778362586375512,43.47783155446989],[-0.778179687672198,43.477739934315096],[-0.777904705959951,43.47760225543316],[-0.777959446623385,43.47750739276999],[-0.777561071091988,43.47719918652384],[-0.777753342011186,43.477015762325706],[-0.778036611120716,43.47674341656568],[-0.778063827009201,43.47671715743271],[-0.778115049480533,43.476743743870934],[-0.778266329774914,43.4768191727854],[-0.778377754713351,43.476873473456976],[-0.778496849990989,43.476931559756395],[-0.77860508770931,43.47697876562991],[-0.778719931704767,43.477028623299354],[-0.778783919219788,43.47705746640942],[-0.778810132302002,43.477068621800655],[-0.77888115462416,43.47709911101402],[-0.779069537695874,43.47718198181085],[-0.779482775436944,43.47734933257743],[-0.779459590127705,43.47737292948644]]],[[[-0.77634130865681,43.47066001269625],[-0.775983201264037,43.47076238573674],[-0.775125958173998,43.4710079808721],[-0.774625669424275,43.47115061149317],[-0.77403978481941,43.47048711354307],[-0.774036497754505,43.47047849116489],[-0.773836589886264,43.470040774600335],[-0.773673522695391,43.469902251260216],[-0.773447854560148,43.46971438762789],[-0.773672156950913,43.46960461440979],[-0.773547371178907,43.469320193711354],[-0.773583466804643,43.469304885353615],[-0.774117412323506,43.469111908028275],[-0.775030546969317,43.46878186779135],[-0.775548103812136,43.468595579065045],[-0.777596010879496,43.46781424774171],[-0.777683745455768,43.46808410357585],[-0.777770445009552,43.46833255860117],[-0.777819601011885,43.46848396524448],[-0.777854438953357,43.46860380589229],[-0.777910280832645,43.46883433202519],[-0.777920953270923,43.4689063770138],[-0.777947663304909,43.46934652383933],[-0.777951915366652,43.469488327676615],[-0.777934994871171,43.469541339149146],[-0.777752946112433,43.46994571194653],[-0.777526099361104,43.47050395688576],[-0.777040326878673,43.47033480686331],[-0.77634130865681,43.47066001269625]]],[[[-0.779414978806221,43.51233834423085],[-0.779355630985768,43.512688999601934],[-0.779296237298732,43.51304461067447],[-0.779276948935965,43.513163370141086],[-0.778842774312365,43.512918731001946],[-0.778506972257556,43.513409178510685],[-0.777039706766645,43.51295706331176],[-0.777042873938039,43.51295064779594],[-0.777103844795472,43.512831427512396],[-0.777199172481331,43.512677592762365],[-0.777405615285883,43.51237288581165],[-0.777531894445285,43.51218725712073],[-0.777589471310213,43.51210301342218],[-0.777857149012274,43.511893902019615],[-0.77801638725206,43.51176909503256],[-0.778741097236867,43.511994242811994],[-0.778893138696799,43.512077936301],[-0.779010496859186,43.512121674783124],[-0.779134716791467,43.51216436328592],[-0.779224024949635,43.51220124290608],[-0.779423073999536,43.512288341169466],[-0.779414978806221,43.51233834423085]]],[[[-0.777050565231716,43.47680328518508],[-0.77710312042603,43.476844507297756],[-0.777146523514777,43.476878212214025],[-0.776248933006389,43.47751054700932],[-0.775532080244539,43.47723820259718],[-0.775098801317004,43.47709882715574],[-0.775322567932916,43.476679313667915],[-0.7753042973254,43.4763202949555],[-0.775342232573224,43.47631221775805],[-0.775526490769498,43.47627220050981],[-0.775674822824026,43.476238839185164],[-0.775835356636122,43.47619541478191],[-0.776035904125009,43.47613978703588],[-0.77613103198439,43.476126834016284],[-0.776197594017348,43.476129017737804],[-0.776509436682044,43.47638358943621],[-0.777050565231716,43.47680328518508]]],[[[-0.775102419307066,43.472144417873814],[-0.775037473803097,43.47193897679806],[-0.774998262517702,43.47182027825733],[-0.775028778894473,43.471810387962286],[-0.77500820615188,43.47176832101765],[-0.774974087215025,43.47177608505664],[-0.774777034629754,43.47141401970975],[-0.774681978124624,43.47123025401574],[-0.774675449407259,43.471189228932104],[-0.77478729112802,43.471154077464256],[-0.775836017021113,43.47084875973359],[-0.776389298449773,43.4706845505921],[-0.777030793594591,43.470377923028394],[-0.777080627123329,43.470381589898125],[-0.77745771073221,43.4705190414997],[-0.7771913795028,43.47133275340833],[-0.77741375047266,43.472388291629194],[-0.7773542616396,43.47240333603084],[-0.776629844202521,43.47259648373809],[-0.776412827965291,43.472653497581156],[-0.776119049687631,43.47273561421607],[-0.775480170156226,43.47290181368463],[-0.775451102103893,43.47290363728646],[-0.775268023450302,43.47264142465194],[-0.775102419307066,43.472144417873814]]],[[[-0.776835165655541,43.505936910934494],[-0.777880715493822,43.50592182490689],[-0.777853824500104,43.50594194773981],[-0.778004773388913,43.50610899759616],[-0.778082627105291,43.50636506548552],[-0.777856424131121,43.50645365491196],[-0.777601873912583,43.50658727765813],[-0.777354095482011,43.5067203935904],[-0.777245001536545,43.506566926623655],[-0.77711917584027,43.50639800949926],[-0.777056319197303,43.5062795912363],[-0.777011510435938,43.50618909740996],[-0.776973475288558,43.50611692270122],[-0.776908632433804,43.506034152619904],[-0.776835165655541,43.505936910934494]]],[[[-0.774493518586326,43.47115899868519],[-0.774510082522556,43.47115887195286],[-0.774641887914938,43.47138810429068],[-0.774827860292855,43.47173965730241],[-0.774896029336867,43.471883107249845],[-0.774991030238765,43.47209047348447],[-0.775014554978095,43.472158648293345],[-0.775073493339483,43.472357363257366],[-0.77507426380605,43.47235967826136],[-0.774975053398716,43.4723762855541],[-0.774902361656904,43.4722411896381],[-0.774661666603477,43.47228416324815],[-0.774611664953013,43.472293020956286],[-0.774628540169251,43.472310807530604],[-0.774933999270265,43.472839510991044],[-0.775020990361997,43.47296257961598],[-0.774899581221033,43.4730046398061],[-0.774055365511497,43.47317987641036],[-0.773492752673035,43.47328531120193],[-0.773461270623259,43.473291811968636],[-0.773695357198827,43.4737733756731],[-0.773828180018888,43.47403689122643],[-0.774116902358609,43.47423354752864],[-0.774071395586606,43.474388073714124],[-0.773644735475569,43.474313314341615],[-0.773118732978947,43.47419103272578],[-0.772864079872737,43.47413081624682],[-0.772760127716466,43.474118583612324],[-0.772637716690269,43.47412095466849],[-0.772521088148363,43.47412474552104],[-0.772346032917635,43.47410517052227],[-0.771812230634442,43.473700060871245],[-0.771662467199237,43.47374922926921],[-0.771586649052068,43.47377744882966],[-0.771516038507555,43.4738115218162],[-0.771490910053507,43.473826267502375],[-0.771383011622022,43.47394045059859],[-0.77122649965071,43.474103522980975],[-0.770962937401772,43.47410350949073],[-0.770578280263558,43.473724457528384],[-0.770578027572658,43.473724376251575],[-0.770571591925842,43.47371865553902],[-0.770505635090206,43.47365213670621],[-0.770505076638442,43.47365116536011],[-0.770462753334592,43.473609314116075],[-0.770415951567817,43.473563295305205],[-0.770369061128602,43.473540427810256],[-0.770198395231704,43.4733784746082],[-0.769714626924406,43.47292504778587],[-0.770049254958235,43.47274344012409],[-0.770163457718799,43.47251987312503],[-0.769970405578391,43.472320148486666],[-0.76969229000774,43.47234324640072],[-0.769400197666158,43.47223811861254],[-0.769337150406452,43.472217794434414],[-0.769163344836796,43.47238308654124],[-0.768432810352607,43.47256441191965],[-0.768588172375276,43.47295892240772],[-0.768113837900275,43.47299613704911],[-0.767876614627298,43.47301483560363],[-0.767198701324833,43.47306894372959],[-0.767136251153162,43.47252195368976],[-0.767119909452565,43.472312296784374],[-0.76711502939535,43.47195110270821],[-0.767101899895077,43.4713848344109],[-0.76709905500043,43.47124145074885],[-0.767975669769309,43.471230421230814],[-0.76842211823354,43.471301901329504],[-0.768751158973238,43.47138593057778],[-0.768966899000516,43.47148290758385],[-0.769422897518346,43.4716867257705],[-0.769734026871666,43.47182757958083],[-0.769784887821088,43.47185066939021],[-0.769882485361237,43.47173783725112],[-0.769920261734668,43.47171229368143],[-0.770011017064635,43.47156304067556],[-0.770050621828379,43.47154274761298],[-0.769847211132644,43.471301950909854],[-0.769777640073147,43.47113503861494],[-0.770500839088168,43.470759315819784],[-0.771414401271202,43.47028058543126],[-0.771355278447491,43.47015609407549],[-0.771210166194567,43.46994056212704],[-0.770766124971936,43.46927994727089],[-0.770746214631716,43.46928937714132],[-0.769963815973391,43.469697425734154],[-0.769255837475355,43.47006558993135],[-0.769179681226101,43.46997546672015],[-0.769120051821188,43.46990539467378],[-0.76907428646714,43.469850602635375],[-0.769017971904122,43.46978392797915],[-0.768896909209521,43.469638892600486],[-0.768660273831233,43.469291075434455],[-0.768412720675088,43.46892382218517],[-0.76821142251007,43.46861503674497],[-0.767871793465686,43.468182531737796],[-0.767650411206758,43.46789930360122],[-0.76761001987528,43.467849097962905],[-0.767129242686435,43.46796849778108],[-0.7665585686884,43.4680918316436],[-0.766483190259812,43.46760591047793],[-0.766289169880901,43.46696450963674],[-0.766139148743659,43.466592510724375],[-0.769157384785992,43.46571743620332],[-0.76918306155778,43.46572618034402],[-0.769345342255862,43.466256543062684],[-0.769409986371283,43.466469111823734],[-0.769576478462332,43.467001399713894],[-0.769598896856008,43.467073576750614],[-0.769678951461741,43.46721940745013],[-0.76972184505642,43.46734167178221],[-0.769960670125806,43.46795475787246],[-0.770371938876772,43.46834612316699],[-0.770424892984821,43.46838796443891],[-0.770870934427854,43.46863256369219],[-0.771116183808619,43.468766608747686],[-0.771291467580799,43.46885210890096],[-0.77158907310944,43.468949112692066],[-0.771870656223183,43.469020553032635],[-0.772297411484974,43.4691463844895],[-0.772342076158761,43.46916176253453],[-0.772189272232587,43.469266161137895],[-0.772558747131163,43.46971941214801],[-0.772848947385052,43.47006706773965],[-0.773288470669236,43.47066406259595],[-0.773587610381471,43.4711533573322],[-0.773803560126212,43.4714436101012],[-0.773854268188756,43.47142103734324],[-0.773861835311539,43.47141762126411],[-0.774482608732507,43.47116424262076],[-0.774493518586326,43.47115899868519]]],[[[-0.775966701180842,43.50639996872351],[-0.776038754963297,43.50618776789424],[-0.776075287507625,43.50607336309808],[-0.776113677593833,43.50586864002826],[-0.776118797980386,43.505436469656665],[-0.776119049578502,43.505432767883605],[-0.776174252281398,43.505419765854604],[-0.776353308289722,43.50570572630585],[-0.776744484901157,43.50622335136098],[-0.776843143455334,43.50634989004129],[-0.777105715257211,43.50673148027467],[-0.77715648060937,43.506805283111454],[-0.776898067271986,43.506981823657384],[-0.776888625252052,43.50698314343839],[-0.776756902172051,43.50696917761127],[-0.776752052530449,43.50691989621411],[-0.77660518427152,43.50692402220026],[-0.776603660839332,43.50690461939791],[-0.776602876942798,43.506881407744366],[-0.776290955636627,43.50687281834614],[-0.776205079297337,43.506871035988354],[-0.7761730184213,43.5068708917957],[-0.776152211476277,43.506836758162876],[-0.776066166732089,43.50662538061752],[-0.776050664085339,43.506575929867175],[-0.776043456422924,43.50654159273219],[-0.776018279109395,43.506536975268034],[-0.775999656138516,43.506528526551186],[-0.775982943034239,43.50651712895451],[-0.775967357020384,43.5065002876891],[-0.775957944977531,43.5064851229068],[-0.775953943455745,43.50645625864411],[-0.775966701180842,43.50639996872351]]],[[[-0.775013558971505,43.51511626669342],[-0.775025238834396,43.51424529560305],[-0.775505439016693,43.51423379833881],[-0.775520198154879,43.51427003451956],[-0.775849416432955,43.51465588537842],[-0.775814394888383,43.515024877095286],[-0.775803916884874,43.51513657345414],[-0.775769417142912,43.51513705436183],[-0.775737635581171,43.515306869771706],[-0.775737258498263,43.51535948611853],[-0.775765803499684,43.515383262364125],[-0.775619528022533,43.515562379423415],[-0.77542549254721,43.51580197774455],[-0.775355115149135,43.515874235803686],[-0.775253307990291,43.51596920599575],[-0.775196126223417,43.516004974856436],[-0.775046839052081,43.516096914256686],[-0.774977004528382,43.51613978902742],[-0.774884026236915,43.51618833355525],[-0.774783627991904,43.51622191382965],[-0.774634794494686,43.51626240458597],[-0.774387153953136,43.516330564822525],[-0.774248903331103,43.51636636306313],[-0.773973314614671,43.51640288846178],[-0.7735228180031,43.51646360576487],[-0.773402091229379,43.51648167893809],[-0.773036712392793,43.51656068920242],[-0.772900834646891,43.51659117881878],[-0.772582986416482,43.51667024489996],[-0.772447992304753,43.51670853961728],[-0.772178374481396,43.516809615745544],[-0.771936941689734,43.516844226914145],[-0.771558710434063,43.51690287213869],[-0.771171617108295,43.5169641661871],[-0.770923844211528,43.51700025662063],[-0.770826125491947,43.51701626560328],[-0.770516657422138,43.517017570529035],[-0.770521363720864,43.51615810286838],[-0.770522645698954,43.51564797063995],[-0.770766334396389,43.51559689062161],[-0.770708993941578,43.51521562117675],[-0.770655652966759,43.51521378330762],[-0.770744158154273,43.514863380947766],[-0.770762508434759,43.51477906426393],[-0.770774909300861,43.51475116048389],[-0.770795763926848,43.51471440567671],[-0.77082319997376,43.514683637043454],[-0.770893626507992,43.514627143319096],[-0.771336443681848,43.51427819768348],[-0.771920295994993,43.514382548414275],[-0.77195777774519,43.51404121608758],[-0.772063817188059,43.51400122704722],[-0.772164439434981,43.51397863046245],[-0.772261595715835,43.51396921506782],[-0.772382317134524,43.51397186016823],[-0.772476021839056,43.51398526326007],[-0.772546183099661,43.51400200758253],[-0.772641885889221,43.51403263516591],[-0.772711562782271,43.51406272715575],[-0.772773190721023,43.51409652200345],[-0.773035477966538,43.51428906951018],[-0.773085839067439,43.51434163135482],[-0.773145284098739,43.514432608772076],[-0.773189310089356,43.51464680332453],[-0.772631486688473,43.514725844450865],[-0.772407157629309,43.514807781012934],[-0.77252746839457,43.515250630979224],[-0.772588127959632,43.51546370661549],[-0.773302484436988,43.515372732857436],[-0.773310504003966,43.51549477406785],[-0.773505149808486,43.515514841603355],[-0.773953722021565,43.51541365788525],[-0.773998636137429,43.51541344555816],[-0.774574479056978,43.51544275964723],[-0.774595583398394,43.51544184475048],[-0.774620625772983,43.51543493793922],[-0.774642274365907,43.515425356986306],[-0.774662852356144,43.51541455226756],[-0.774688426570454,43.5153969081242],[-0.774703588299874,43.515384670638944],[-0.774721688337116,43.51536629589599],[-0.774753747202762,43.5153249166648],[-0.774913574694352,43.515112812327],[-0.775013558971505,43.51511626669342]]],[[[-0.77279773797565,43.491418792490144],[-0.772797603471971,43.49144311669203],[-0.77279623592616,43.49145055022789],[-0.772789218219687,43.49153960581721],[-0.772786097370324,43.49158439032314],[-0.772783450510232,43.49162132203902],[-0.772778670050439,43.49168039574661],[-0.772777824946178,43.49170708657039],[-0.77277808376307,43.49177319063841],[-0.772778984095451,43.4918641323376],[-0.772778587554409,43.49189765304597],[-0.772780057708297,43.49192192139449],[-0.772783739946837,43.49195349866712],[-0.772787835122753,43.491968758473675],[-0.772795317725402,43.49199038556456],[-0.772800511516641,43.492003535462445],[-0.772805711723353,43.49201866672827],[-0.772812080858451,43.492030874986405],[-0.772821206396336,43.492041726274834],[-0.772838105074535,43.49206167448356],[-0.772853787108975,43.492081935261986],[-0.772874397366839,43.492111301924886],[-0.772887111052856,43.49213157596421],[-0.77289764369566,43.492150664918476],[-0.772912064470749,43.492179976834414],[-0.772918071297533,43.492199853851986],[-0.77293112173578,43.49224785845021],[-0.772945092467737,43.49230799077924],[-0.772923114106775,43.49237081577331],[-0.77289306739101,43.49246337530986],[-0.772874795879556,43.49251859524485],[-0.772868059695726,43.492540357044795],[-0.77284371612235,43.49255210325924],[-0.772724925190587,43.49261019192174],[-0.772722862167981,43.492610804172074],[-0.772585116745954,43.49267792922974],[-0.772525921462179,43.49270908316226],[-0.772527599838346,43.49278738769686],[-0.77252735081006,43.49284576326073],[-0.772474601008447,43.49284507739827],[-0.772464291241661,43.49284633699085],[-0.77245754346873,43.49284720237764],[-0.772405575108322,43.492845228267676],[-0.772322775789529,43.4928409946018],[-0.772239235855462,43.49283678665138],[-0.772193451210238,43.49283477735136],[-0.772125874139462,43.49282307813744],[-0.77208634255872,43.492816437606756],[-0.772006156681788,43.49280301543398],[-0.771941666114808,43.49279310020331],[-0.771823888384068,43.492772429359654],[-0.771728895045618,43.492755829360256],[-0.771473722844526,43.49270589230518],[-0.771468573396054,43.49270472041878],[-0.771284134613927,43.49266556205204],[-0.771277356884301,43.492664086528244],[-0.771271078805368,43.492662683689694],[-0.771147024389978,43.4926198926185],[-0.770933127757001,43.4925409559658],[-0.770870341454509,43.49235344840317],[-0.771196440093681,43.49213070199589],[-0.771477495449875,43.49193987642178],[-0.771523107974534,43.49196188802834],[-0.77155593346054,43.491973806161184],[-0.771588463943628,43.49198123093783],[-0.77163794554367,43.491984913253624],[-0.771684474587978,43.49198131237549],[-0.771727157979436,43.491971900544854],[-0.771760324025391,43.49195885674575],[-0.771789509645216,43.49194171806961],[-0.771794510082917,43.49193496876398],[-0.771803049814369,43.49193124880965],[-0.771821367142118,43.491914398300906],[-0.771840217112377,43.491888702168445],[-0.771855014408224,43.491852158263036],[-0.771858156098057,43.491817100880596],[-0.771853465206402,43.491792764483655],[-0.771832324043425,43.491753418111735],[-0.771803073001599,43.49172056897313],[-0.771786011474961,43.49170567033801],[-0.771836694502426,43.491673011621],[-0.771897860691916,43.491628548846286],[-0.771892792980434,43.49162485211601],[-0.772045576689864,43.49152865160867],[-0.772037693574101,43.491525413165895],[-0.772097227240754,43.491488122801755],[-0.772100806368852,43.49148610670916],[-0.772135627859626,43.49146624974812],[-0.772135986362289,43.491466057125436],[-0.772146947002961,43.491459640783475],[-0.772147552375468,43.491459439568075],[-0.772450542720178,43.49128811411611],[-0.772535679425183,43.49124885140349],[-0.7727737456791,43.49114013342429],[-0.772779855963158,43.491195495304716],[-0.772783397743696,43.49125130689251],[-0.772789600663525,43.49132314878109],[-0.772793110908874,43.49137094503827],[-0.77279773797565,43.491418792490144]]],[[[-0.769717984370664,43.4752988422202],[-0.769546222308985,43.47530310691654],[-0.769314224675177,43.47531676268635],[-0.769233761229353,43.47520445115146],[-0.769143223329797,43.47507807868439],[-0.769017675560571,43.47498174679042],[-0.768965394654281,43.47495213069462],[-0.770188702748158,43.47488389874309],[-0.770244871281604,43.474978410305425],[-0.770340330302492,43.47513262278281],[-0.770442655679581,43.47529722465328],[-0.770356873975173,43.475322547465524],[-0.770348377033671,43.4753231133659],[-0.770222567947076,43.47533028355201],[-0.770104988332145,43.475323386352684],[-0.769989565514641,43.47531731469017],[-0.769849971849622,43.4753028966726],[-0.769717984370664,43.4752988422202]]],[[[-0.76923425747251,43.511509935101735],[-0.769564073147192,43.51160601525708],[-0.769602369818668,43.51152577932386],[-0.769785839272507,43.51156623787942],[-0.769803967015191,43.511646313319574],[-0.769807906813795,43.51167427923322],[-0.769750858298217,43.51199485275218],[-0.769693694017355,43.51232686964901],[-0.769682011880425,43.512388345672726],[-0.76961574195185,43.512790936538046],[-0.769542340818051,43.51323196657098],[-0.769470912277177,43.51366347034651],[-0.769401195249328,43.51407392752259],[-0.769092526261506,43.51462455986701],[-0.769056956917531,43.51468416410822],[-0.768551751519377,43.51459003488889],[-0.768517004829406,43.51422842643456],[-0.768494118172953,43.513983411319195],[-0.768404942742318,43.513972999961524],[-0.768488084710126,43.513469031140005],[-0.768460334322743,43.513459186918936],[-0.768539155838779,43.51299878378351],[-0.768621552919815,43.51251744944361],[-0.768578491394883,43.51250813751428],[-0.768198214356846,43.512437137127286],[-0.767651957328614,43.51175282972911],[-0.767454557459788,43.51150379154837],[-0.767479808731672,43.51145292334526],[-0.767818847679249,43.511104896974246],[-0.767784293420471,43.51108375972814],[-0.767951052454993,43.51107706319564],[-0.768571697237722,43.511058102218115],[-0.768604261421906,43.511094170502645],[-0.768554315058506,43.511142114364006],[-0.768938422092635,43.51135079225404],[-0.769179138617011,43.51148095628123],[-0.769202449247924,43.5114929362502],[-0.76923425747251,43.511509935101735]]],[[[-0.767753697739007,43.511070141123426],[-0.767573813091864,43.510969205574845],[-0.767663471297835,43.51087952924017],[-0.767979893409024,43.51057165039256],[-0.768043407866073,43.51050981430571],[-0.768318182102114,43.510248148399114],[-0.768266557977577,43.510221479699716],[-0.768274123920617,43.51021419099497],[-0.768697897622853,43.50978467246809],[-0.76902123614577,43.50945601327683],[-0.76907695187794,43.50948091801673],[-0.769087724763908,43.50948666845001],[-0.769275925433038,43.50960685807073],[-0.769548665870599,43.509780043351455],[-0.770127318059571,43.51014525478456],[-0.770282655742319,43.51024361702317],[-0.770003393949419,43.51048580827811],[-0.7697702546052,43.510687843549206],[-0.769595138029261,43.51084246378108],[-0.769523148497774,43.510805334668305],[-0.769482556288433,43.510844937199415],[-0.768943008404503,43.51056834580068],[-0.768882578705006,43.51061494288817],[-0.768772435989633,43.510697946409294],[-0.768594972065967,43.51083003813359],[-0.768577470446548,43.510844337674804],[-0.768792954597922,43.51092196604956],[-0.768702061812217,43.51100412013716],[-0.768677705064355,43.51099316724831],[-0.768637457401789,43.510994656446435],[-0.768568795311001,43.511042170042025],[-0.768345395378852,43.51104948528061],[-0.767753697739007,43.511070141123426]]],[[[-0.764153305108155,43.505090609947764],[-0.764571337747084,43.505341987804904],[-0.764534927171035,43.50543593713676],[-0.764513965699928,43.5055163794701],[-0.764473723536917,43.50571990025339],[-0.764447905455423,43.50579988073095],[-0.764415235859909,43.50586406618143],[-0.764395415689952,43.50590528721511],[-0.76445413535461,43.50592324422962],[-0.764387719829594,43.50609749955565],[-0.76429469997742,43.50627556102493],[-0.764269636743866,43.50637839375232],[-0.764247653996272,43.50647913790764],[-0.764258163985857,43.50650732602884],[-0.764337114804275,43.50666401332496],[-0.764353861450439,43.50667973496875],[-0.764353668692843,43.50669000996395],[-0.76433947968417,43.506722748755095],[-0.764044641403429,43.50736745974536],[-0.763924494342409,43.507784975800064],[-0.763923377872706,43.50779059908285],[-0.763898874811465,43.50796997428516],[-0.763877950531173,43.50813409299778],[-0.763745298596324,43.50837784216258],[-0.763373563910478,43.508262934379054],[-0.763350061568732,43.508304643358144],[-0.763234311370462,43.50826812882319],[-0.763180587323126,43.5083642100194],[-0.762830451455376,43.50826728578815],[-0.762806473289902,43.508256408613754],[-0.762685343061885,43.50821332479058],[-0.762391950814393,43.5080909206631],[-0.762297567919051,43.50805186212371],[-0.762296901646247,43.50803035784898],[-0.762498108585763,43.507523920986415],[-0.762562197859204,43.50735560236643],[-0.762769139847285,43.507048206950884],[-0.762942888742362,43.50678763023718],[-0.762172330927226,43.506516054711525],[-0.762234116153888,43.50642590938317],[-0.762536989677236,43.50597728380778],[-0.762692342939186,43.50574950206189],[-0.763285300083185,43.50501049873283],[-0.763296451743123,43.50499750141156],[-0.763370715266139,43.50490710235304],[-0.763635411262204,43.505003477596546],[-0.763616589074969,43.50503349479186],[-0.763658539532023,43.50504861164619],[-0.76368132435173,43.505018637004035],[-0.763820822366322,43.50507017899216],[-0.763828487886131,43.50506063534573],[-0.763841511232729,43.50506675845833],[-0.763866853133275,43.50508524416676],[-0.763829047538421,43.50512204548775],[-0.763864937204231,43.50514286714241],[-0.763905429787001,43.50510741367252],[-0.764017902717396,43.505173314629396],[-0.764131790972777,43.505075774439305],[-0.764153305108155,43.505090609947764]]],[[[-0.761472975990544,43.46525487505875],[-0.761503639227412,43.465260475513425],[-0.761438833650003,43.4653982810658],[-0.761893041698133,43.46530955213451],[-0.762078816441257,43.465729492085856],[-0.762465641407132,43.46660423871751],[-0.762408933102434,43.46661260323793],[-0.762368381462538,43.46668075357526],[-0.76241266001507,43.4667658632066],[-0.762481407343594,43.46727948737623],[-0.762489419917634,43.46778153045771],[-0.761324011942588,43.46771184408537],[-0.761263942336089,43.46756117078014],[-0.761161004282086,43.46730155988827],[-0.761046002638538,43.4670068801992],[-0.760970597776424,43.466825935313175],[-0.760847224532296,43.46651290172945],[-0.760743866935823,43.46624871176512],[-0.76063520456853,43.46597903153194],[-0.760557554736819,43.46574106016804],[-0.760546694984743,43.46570171630703],[-0.759961255764109,43.46575797564691],[-0.759954233942793,43.46573948482154],[-0.759717848782991,43.46575921812268],[-0.759523008325401,43.46579777484418],[-0.759338549172023,43.46583434968848],[-0.75927671831649,43.46568499783541],[-0.759196713591987,43.465475209273926],[-0.759121996902178,43.46525740112805],[-0.759106796124078,43.465208390200395],[-0.759082099250364,43.46510305487214],[-0.759909058100443,43.46482215981108],[-0.759947081205717,43.46479850274413],[-0.76012604228751,43.46474032069869],[-0.760319620054797,43.464674965794416],[-0.760544730998012,43.464637968720375],[-0.760748873471611,43.4646055721324],[-0.760914746655516,43.46460062407099],[-0.76118792140074,43.46516578574886],[-0.761267960331099,43.46560083685083],[-0.76130962129463,43.4655930854384],[-0.761472975990544,43.46525487505875]],[[-0.761263385594354,43.46563107906403],[-0.761033869340293,43.46564805481077],[-0.761048689848986,43.46569500713798],[-0.761358972880744,43.46566694059817],[-0.761341254627552,43.465605947932026],[-0.761263385594354,43.46563107906403]]],[[[-0.76268226721461,43.50914289337428],[-0.762349199319769,43.509414223415526],[-0.762120833674101,43.509596890111915],[-0.762035568349942,43.50984628849447],[-0.761994220729702,43.50983475285009],[-0.761861323835597,43.50981045115908],[-0.761523978201027,43.50974640550931],[-0.761521849693438,43.50974602899931],[-0.760569738822698,43.509569371349464],[-0.760477989635582,43.509544090993984],[-0.760534223138197,43.50943144087964],[-0.760841651165932,43.508666416604804],[-0.761422609417928,43.50882982877721],[-0.761654127014178,43.508277755818625],[-0.761705913100684,43.50825596268479],[-0.761752656084924,43.508255421554956],[-0.762100989918777,43.5080603957307],[-0.762787032607934,43.50829023021043],[-0.763192188329414,43.508426047655206],[-0.763152396445499,43.50849867661861],[-0.763611935816728,43.50863719846018],[-0.763351633963706,43.509163343782795],[-0.763281051100572,43.509306217731236],[-0.76268226721461,43.50914289337428]]],[[[-0.758786487092008,43.51641487809901],[-0.758468809596186,43.516542175464046],[-0.758276284246181,43.51662063757143],[-0.758307780461205,43.51664044275728],[-0.758048594557722,43.516812369148816],[-0.757999557454766,43.51684415326237],[-0.757926645608075,43.51689126663559],[-0.75774925511431,43.51700811477134],[-0.757571952113996,43.517126310666406],[-0.75746327369446,43.51703919329855],[-0.757417570169312,43.51700276633719],[-0.757138209702408,43.51718232523546],[-0.757246981984609,43.517276555453485],[-0.757527791002148,43.51751821810762],[-0.757504868583974,43.51753297384872],[-0.757360306239313,43.517415754471166],[-0.757097186997087,43.51720230184184],[-0.756819130080431,43.51737722097665],[-0.756744828780193,43.51742393129543],[-0.757145829539374,43.51776033063268],[-0.756684581836753,43.51804680268712],[-0.756120641013594,43.51748248700166],[-0.75556991264169,43.516930771921714],[-0.755440040180499,43.51678827131573],[-0.755065544572232,43.51637997102969],[-0.755390884925602,43.51589852188137],[-0.755974318997517,43.516002432154885],[-0.755992342411627,43.51600550076312],[-0.756499245261801,43.516080353840465],[-0.756818401614262,43.51582051371583],[-0.757564826336381,43.51623060055331],[-0.758066696429953,43.51650648390385],[-0.758313814602901,43.51635632310416],[-0.758535469565384,43.51622370795943],[-0.75879793717617,43.51577865495772],[-0.758795831345118,43.51575404793467],[-0.758699878144142,43.515401856027296],[-0.758545678360166,43.51410492598341],[-0.759645458674852,43.51415227288361],[-0.759660473185129,43.5144912375639],[-0.759683034320369,43.51501918420702],[-0.759695907852488,43.51533489441191],[-0.75971229570961,43.51587440467974],[-0.759720721739486,43.51613730628445],[-0.759317565424999,43.51614426021706],[-0.759327896990281,43.5166291261586],[-0.759274690522181,43.51663313275284],[-0.759214128298283,43.51665901192622],[-0.758861317130956,43.51645759061779],[-0.758786487092008,43.51641487809901]]],[[[-0.753544043234712,43.505850666420734],[-0.753534464090388,43.505785515637456],[-0.753526495911981,43.505720399147734],[-0.753510892199023,43.50544946195128],[-0.753509149026926,43.50540385573046],[-0.753525648488072,43.50519242552984],[-0.7535442729374,43.504939668741244],[-0.753566257197743,43.50464175959698],[-0.753584358711122,43.50446999580553],[-0.753880401739261,43.50447262451001],[-0.754629463086165,43.50448838522056],[-0.755689008642873,43.50489222371983],[-0.756094448913467,43.50522036036952],[-0.755737837708092,43.505269916259536],[-0.755544888583328,43.50532244794055],[-0.755426712730062,43.50536599372626],[-0.755319049080512,43.50540566238817],[-0.754987591314222,43.505516314062824],[-0.754930742945947,43.50554017081471],[-0.754540897182096,43.50574390659562],[-0.754543795942982,43.50573903236752],[-0.753988076736347,43.505864383622175],[-0.753544043234712,43.505850666420734]]],[[[-0.753252119149057,43.50494356971038],[-0.753248201011769,43.505063501276744],[-0.753238411216282,43.505157965598045],[-0.753217443108676,43.505276415853764],[-0.753199399814847,43.505354412531524],[-0.753170852111623,43.50540422003828],[-0.753158561631377,43.50544148507296],[-0.753150497816636,43.505486620187696],[-0.753156232748171,43.50553271870619],[-0.753173097445765,43.5055768105828],[-0.753253467768301,43.50566671213523],[-0.753370893895355,43.50578775658264],[-0.75347259992193,43.50589547413314],[-0.753482623771801,43.50590305340314],[-0.75351994368417,43.50594013192084],[-0.753520693821804,43.50606710773171],[-0.753510271787162,43.506303367693114],[-0.753522780844306,43.506339503874734],[-0.753532003999343,43.50636512531244],[-0.753593876529483,43.50649764087549],[-0.753606075100363,43.50651766487831],[-0.753611278164777,43.506521537964844],[-0.753681104669221,43.50658072950381],[-0.753691869361014,43.50659017462704],[-0.753694920602809,43.50659331157161],[-0.753958253857788,43.50682612684012],[-0.754091487943024,43.50694662331969],[-0.754170049670505,43.50705613271708],[-0.754263560838991,43.50721259245126],[-0.754402017375592,43.507452703964596],[-0.754463639709568,43.50759648695251],[-0.754492856701388,43.50768752899343],[-0.754542183536954,43.507868487341185],[-0.754531477758612,43.50797163069775],[-0.753841798236648,43.50792030454951],[-0.753668937184988,43.507562758370845],[-0.753484873012241,43.507633983741435],[-0.753338407622569,43.50745683873814],[-0.753151125237032,43.507228864851236],[-0.753025416571836,43.507289782407355],[-0.75262386750023,43.506937810212236],[-0.752216715067394,43.50657765403169],[-0.751885575181316,43.506109931764136],[-0.751723619647008,43.50588116946835],[-0.751691866328271,43.50580804903413],[-0.751728372467339,43.505796697508956],[-0.751763373865078,43.50578125473433],[-0.752007581381698,43.50563247016882],[-0.751969200229917,43.50551283181851],[-0.751968353751293,43.50551123981941],[-0.751910846819379,43.50533371660454],[-0.751722694297036,43.504749356163],[-0.751622922869056,43.50445331982772],[-0.752956847683886,43.50371809435166],[-0.753462321233062,43.50343956390672],[-0.753536196816778,43.50346420755245],[-0.753670161163145,43.503520277164604],[-0.753690714039615,43.50352992372663],[-0.753469212626077,43.50395588840826],[-0.753244965306142,43.504423200737065],[-0.753226750269492,43.50452318091526],[-0.753216762322768,43.50459378295923],[-0.753223441823263,43.50466759094094],[-0.753237766567376,43.5047940065363],[-0.753247198120397,43.50486069361807],[-0.753223857467646,43.504942836870875],[-0.753252119149057,43.50494356971038]]],[[[-0.751303602631111,43.520072849147674],[-0.750587368754964,43.52028416760853],[-0.750154903480909,43.520417031432785],[-0.750154180097248,43.52041732667091],[-0.749982375974589,43.520466593715405],[-0.749752055663315,43.520569405854424],[-0.749649261344495,43.52014394348371],[-0.749461195032107,43.519386899454716],[-0.750412242736256,43.51841409720595],[-0.750852386054101,43.518317535958786],[-0.75148562531521,43.51850720890096],[-0.751950173324456,43.5183996205144],[-0.752139843737721,43.51805564386321],[-0.753201817266318,43.51835107681821],[-0.753175909151841,43.518486812879424],[-0.753137922895019,43.518691512568765],[-0.753132780783492,43.51872456720235],[-0.753078640850641,43.518996480069305],[-0.75275124052265,43.51895647072012],[-0.75267538743658,43.51936775721894],[-0.75267491694537,43.51936813379483],[-0.752615002206407,43.519676725898194],[-0.75185480548568,43.51990650824975],[-0.751303602631111,43.520072849147674]]],[[[-0.743195864403681,43.49246128250966],[-0.742979139574835,43.49214082007638],[-0.743743260047974,43.49173721101689],[-0.743716235229871,43.49170409781674],[-0.743664999978358,43.49164308835695],[-0.744243048388669,43.491300305649105],[-0.744667110254612,43.49174960857936],[-0.744785006238083,43.49187478652546],[-0.745178317782954,43.49229254480269],[-0.745090325368919,43.49231486066024],[-0.744563166997662,43.492669760582835],[-0.744560413247859,43.49268255571575],[-0.744149539579301,43.49285896851333],[-0.743994263170444,43.493044834663586],[-0.743846550124971,43.493082903289014],[-0.743195864403681,43.49246128250966]]],[[[-0.744538899011227,43.515150660416005],[-0.744242891447745,43.515139896584095],[-0.744049500695041,43.5151331543835],[-0.743204405341633,43.51510054535525],[-0.742780537493892,43.51508581518697],[-0.742713544056191,43.515081462536386],[-0.742252371911592,43.515065946424244],[-0.742253676161364,43.51504797704606],[-0.742408889877114,43.51471962072453],[-0.742428906602019,43.51446843915914],[-0.742210237028983,43.51393132109351],[-0.742095227193294,43.51377126956429],[-0.742099915770024,43.51376345160788],[-0.742163616356627,43.51369450949927],[-0.742547462920405,43.51325864157706],[-0.743032027310374,43.513211738999416],[-0.743398550815824,43.51317476473217],[-0.743982972334523,43.513118104867885],[-0.744237212949041,43.51375829463274],[-0.74465067025021,43.51408989211957],[-0.744601024512273,43.51421869875379],[-0.744897430478254,43.514296371362036],[-0.744796349923579,43.51442785545875],[-0.744782949856436,43.51445011578884],[-0.744778629679373,43.514495841572376],[-0.744832104851164,43.51495714616837],[-0.74469395470091,43.5151901610466],[-0.744538899011227,43.515150660416005]]],[[[-0.738966193752087,43.48729826816446],[-0.738779993909945,43.48744808404593],[-0.738474333583991,43.48727155328584],[-0.737637612425472,43.48743543010793],[-0.737626750036624,43.4874376962224],[-0.737448514754032,43.487472305525685],[-0.736773560507781,43.48760330512933],[-0.736073958785228,43.487813781334914],[-0.736042937367864,43.48774955000465],[-0.735991170073911,43.4877600714628],[-0.735132146462208,43.48792550801371],[-0.734970814464,43.4879537660754],[-0.734546874336967,43.488008997875774],[-0.734442930536367,43.48802185703966],[-0.734397777628863,43.4880256647495],[-0.734440158763849,43.488356022194075],[-0.734467077757694,43.48862359330768],[-0.734467218715246,43.48862385866038],[-0.734464333085086,43.488756451122256],[-0.734137819440879,43.48882804913528],[-0.733700985141559,43.48904854982764],[-0.733336317497558,43.489231705535815],[-0.73329227398927,43.48910982687954],[-0.733171236523175,43.48877019927638],[-0.733147270002789,43.488778320535864],[-0.732997589829732,43.48840338136215],[-0.732866744119664,43.48819262133046],[-0.733005562211916,43.487924475168796],[-0.733170399226867,43.487921589105945],[-0.73345728478635,43.48798646404854],[-0.733534495806062,43.48763649438421],[-0.733356239811808,43.487430971214216],[-0.733172565471858,43.48728291892028],[-0.734461454033857,43.48725823601977],[-0.734410114011848,43.48690422899711],[-0.734493766130589,43.48689323999077],[-0.734510318055218,43.48694995406315],[-0.735593740413527,43.486817048295435],[-0.735551272168547,43.48668710013918],[-0.735729962507016,43.48664239040515],[-0.736474328053695,43.486456583084426],[-0.736556659910078,43.48643672104625],[-0.736902093365397,43.48635005167651],[-0.737717278425582,43.48615008434595],[-0.737963187598065,43.48634191815548],[-0.738009054498098,43.48637762504716],[-0.738463768194903,43.48647425665732],[-0.738498431760702,43.48644234691887],[-0.738917085966452,43.486106533022955],[-0.739332896517482,43.48637329464264],[-0.739110470519825,43.486603172524106],[-0.739106278655299,43.48660719017645],[-0.738894882279569,43.486820294259665],[-0.739246965535789,43.48700305803189],[-0.738966193752087,43.48729826816446]]],[[[-0.73932015688355,43.4870613299192],[-0.739341482981984,43.48707158261028],[-0.739672521057605,43.48673905909331],[-0.739832943984383,43.48678243104645],[-0.740082575177253,43.48692297213725],[-0.739814567464509,43.48733627651633],[-0.739942181424266,43.48740771162514],[-0.74036032565348,43.487641693992614],[-0.740193303585752,43.48792073186612],[-0.739386511764428,43.48836965232723],[-0.738871266685751,43.48816054293042],[-0.738369540436149,43.48796141304054],[-0.739021987004395,43.48735912208394],[-0.73932015688355,43.4870613299192]]],[[[-0.736551243529377,43.49730317560018],[-0.735927504061795,43.49705158243055],[-0.735654152927257,43.49677511990619],[-0.73646095165476,43.49614527742613],[-0.737716237742498,43.49515048894418],[-0.737868599988187,43.495263587272575],[-0.738382954515776,43.49564630151554],[-0.738403117489737,43.495663349979715],[-0.738409836501027,43.49568104229568],[-0.738409125326626,43.49569863061283],[-0.738403316505471,43.49571963730462],[-0.738392242901056,43.495733890145324],[-0.738282076332048,43.495824337977645],[-0.737670852840334,43.49630117563896],[-0.737127867330391,43.496729720801696],[-0.737174169494077,43.4967700972504],[-0.736908431531056,43.496992997396454],[-0.736551243529377,43.49730317560018]]],[[[-0.725075263438096,43.49557514954462],[-0.725528663785636,43.4956622454306],[-0.726046257920922,43.495758571535276],[-0.726060629283023,43.49576077957722],[-0.726398734657225,43.49583661365517],[-0.726480298139763,43.49585614675221],[-0.726819336179731,43.49597112798701],[-0.727250814684562,43.49611688576814],[-0.727925577793699,43.496345245288374],[-0.727972471919162,43.496375787409995],[-0.727992085772325,43.496392045976464],[-0.727792090257211,43.496793432183],[-0.727670894514526,43.49696396012338],[-0.726665605118525,43.496776776953],[-0.725749600802959,43.496605970736454],[-0.724827895814141,43.49653605118842],[-0.724828379295213,43.49647100401618],[-0.725090165794951,43.49639256306675],[-0.725106706886289,43.49635191340514],[-0.725200306662782,43.49636626009475],[-0.725231926859387,43.496281498248955],[-0.725171097307097,43.49627070893889],[-0.72477144710751,43.49624175083299],[-0.724481052220525,43.49624533516071],[-0.72402882568973,43.49629852342573],[-0.72397278206754,43.49629666607692],[-0.723918094951893,43.49628710614581],[-0.723866839690329,43.49626941205164],[-0.72379638595305,43.496220853053806],[-0.723760715419624,43.49616110122446],[-0.723746004771821,43.496075409699024],[-0.724097771502787,43.4956196391086],[-0.724236984067022,43.49544255189511],[-0.725075263438096,43.49557514954462]]],[[[-0.723793560315826,43.49772124608793],[-0.724249009816807,43.49827862359059],[-0.723939805898633,43.49886821803661],[-0.723573352703293,43.4986187035544],[-0.722972552280079,43.498210608045845],[-0.722438741867608,43.49784902690256],[-0.722084260236566,43.497606482607786],[-0.722295315242618,43.49744575550789],[-0.722582631153776,43.497245660273684],[-0.722991308320069,43.49696330501492],[-0.723219620716147,43.49721396328416],[-0.723510098004581,43.49751886944871],[-0.723606611403104,43.49758959139024],[-0.723793560315826,43.49772124608793]]],[[[-0.72400519879917,43.50150088545793],[-0.724106379177975,43.50207476006458],[-0.723519677369799,43.50219777575437],[-0.72253113192325,43.502405654398395],[-0.721810088015553,43.50255606185265],[-0.721814182274683,43.502399649397404],[-0.722299947890556,43.50177301379299],[-0.72248377280993,43.50153747236922],[-0.723221697109576,43.501517892734725],[-0.72400519879917,43.50150088545793]]]]}}]}
