{"type": "FeatureCollection","name": "aoc_geojson","features": [{"type":"Feature","properties":{"dt":"Angers","type_prod":"Vins","categorie":"Vin tranquille","type_denom":"appellation","signe":"AOC","id_app":1028,"app":"Fiefs Vendéens","id_denom":2341,"denom":"Fiefs Vendéens Brem","insee":"85298","cvi":"1B709S, 1R709S, 1S709S","nomcom":"VAIRE","insee2011":"85298","nomcom2011":"VAIRE","id_aire":1686,"crinao":null,"grp_name1":null,"grp_name2":null},"geometry":{"type":"MultiPolygon","coordinates":[[[[-1.805925586997355,46.59374305298845],[-1.80628847916834,46.593821626835656],[-1.806294706998795,46.59382398129971],[-1.806453584398206,46.5938847839699],[-1.806460966514893,46.593888352877656],[-1.80649092585714,46.593903061454505],[-1.806496671921671,46.59390588720131],[-1.806557760828297,46.59393669853338],[-1.806560226835811,46.59393794808489],[-1.806706041098276,46.59401084620565],[-1.806741501799632,46.59402857116156],[-1.806806945878383,46.59406127423008],[-1.806819275973906,46.59406752196008],[-1.806866691611972,46.59409169079296],[-1.80692902586895,46.59412326151325],[-1.806991652744033,46.59415518074958],[-1.807161651680086,46.59423518110834],[-1.807207267869217,46.59425527573735],[-1.807253694721492,46.59428453776193],[-1.807270642112821,46.59429564322153],[-1.806923537110893,46.594580679075634],[-1.806717525732989,46.59474314365621],[-1.806552216747844,46.59488197664247],[-1.806356698983821,46.59504030097417],[-1.806304185919686,46.5949999277501],[-1.806177350638861,46.59490340849857],[-1.806126486560011,46.59486540161223],[-1.806076179110411,46.59482628879721],[-1.805932230531742,46.59471677622523],[-1.80587852735157,46.59467329545809],[-1.805837845188042,46.59470901373048],[-1.80563988381344,46.59456730933208],[-1.805506283579012,46.5944726973719],[-1.805532665124034,46.59444100790217],[-1.805455737629726,46.594395345114314],[-1.805241233223173,46.59427373021465],[-1.805396388143666,46.59411475769527],[-1.805441308163646,46.594067765680435],[-1.805494435394534,46.593998146929636],[-1.805567113568104,46.59389063042114],[-1.805635618800586,46.59376551768184],[-1.805678418946145,46.59369010809466],[-1.805897702345646,46.593737007534784],[-1.805925586997355,46.59374305298845]]],[[[-1.804946758366905,46.59430594462046],[-1.805184582285411,46.59448115789506],[-1.805266873454432,46.594540127136284],[-1.805496201307487,46.59470802880591],[-1.805849009714776,46.594978905437955],[-1.805923182244796,46.595036320880745],[-1.805980531808801,46.59507811488648],[-1.806418664950614,46.59539926128324],[-1.806588105307364,46.59552619551825],[-1.806486321433518,46.59559758828199],[-1.806486198997183,46.59559768363623],[-1.806378455978345,46.59569196947196],[-1.8062520002885,46.595802557499596],[-1.806251273611166,46.59580321950015],[-1.805689886826719,46.596290663643465],[-1.805689045641799,46.596291510870444],[-1.805581191023233,46.59639788870822],[-1.805580733043926,46.596398629627984],[-1.805544074538376,46.596448792798405],[-1.805543249238424,46.59644981977766],[-1.805302322354625,46.596822945671086],[-1.805301019895011,46.5968259773171],[-1.805276705893205,46.596879591156245],[-1.805276271739088,46.59688060170482],[-1.805191763712062,46.59708234318035],[-1.805190911286129,46.597084544030146],[-1.805149182052405,46.59719283504496],[-1.805148763782019,46.59719402534637],[-1.805102650279834,46.59730601867189],[-1.805056840363257,46.59741700690468],[-1.804996297161835,46.59756415673819],[-1.804911164963512,46.5977707052516],[-1.804884871340262,46.597834505656195],[-1.804801155313783,46.59803783720697],[-1.804589245978,46.598219669299155],[-1.804455544468033,46.598326860540666],[-1.804390381982917,46.59838327193007],[-1.804276678209013,46.59847536997422],[-1.804016448274343,46.59869098382467],[-1.803782740638039,46.598877969320526],[-1.803713081974145,46.598929427053086],[-1.803672035803901,46.59896552045641],[-1.802901572898322,46.598630709962094],[-1.802934347894283,46.59859135564665],[-1.802974261261591,46.59854836388375],[-1.803107468555106,46.59839554891386],[-1.803366653918642,46.59808959043076],[-1.803417282458953,46.59802864784715],[-1.803510988509074,46.59791610064061],[-1.803660697241705,46.59773679195417],[-1.803718597082337,46.59767076277397],[-1.803843637370688,46.5975099902998],[-1.803891815959394,46.59743318310504],[-1.803921270278212,46.59738440557705],[-1.803923895894336,46.59738005545059],[-1.803966161835985,46.59730890908898],[-1.803970145586723,46.5973021564683],[-1.804043923232386,46.59718034192007],[-1.804107037379892,46.59707855069689],[-1.804173600866273,46.59696840545164],[-1.804217076673533,46.59689170533386],[-1.804269487912121,46.59678431932266],[-1.804295454026081,46.5967034830609],[-1.8043410747516,46.596565169378714],[-1.804349787818336,46.5965319669457],[-1.80436698566101,46.596476306689],[-1.804408058422749,46.596416847332854],[-1.804525416200259,46.596306914261014],[-1.804784281500852,46.596065645949956],[-1.804807063892599,46.59604060300434],[-1.804971133144079,46.59589505919281],[-1.805021061894088,46.595849931916675],[-1.805259057761293,46.595643548134966],[-1.805204465763842,46.595618146451855],[-1.805154262613131,46.59565868462085],[-1.804942683375601,46.5958396921342],[-1.804716734758443,46.5960254523233],[-1.804539386366225,46.59616587011955],[-1.804470566666296,46.59623713955529],[-1.804434737808532,46.596280411509895],[-1.804370824179168,46.596358330834214],[-1.804318048677582,46.596436413873114],[-1.80428956754653,46.59649471297506],[-1.804281480481769,46.59651426735985],[-1.804219934867823,46.5966752610318],[-1.804166985075593,46.596832826558014],[-1.804131584539053,46.596898723182356],[-1.80406824631465,46.5970201896831],[-1.803988265333143,46.59716806486974],[-1.803912638988546,46.59730006055035],[-1.803791762359207,46.597510905426994],[-1.803672079076721,46.59767009976799],[-1.803504517182901,46.59786359935091],[-1.80328123490299,46.59812411860201],[-1.803050025148625,46.59838677430987],[-1.802819092720038,46.59863778069127],[-1.802592966932464,46.5985121378074],[-1.802402049376111,46.59840874196596],[-1.802323579278215,46.59836638929932],[-1.80216114655633,46.598481729769546],[-1.802029058367082,46.59857613060675],[-1.80198856223303,46.598606607261964],[-1.801830131703742,46.59872430510824],[-1.80168419585094,46.598864932959174],[-1.801566453908527,46.598981012998344],[-1.802119384620428,46.59924900557098],[-1.801818827259213,46.59955344937118],[-1.80201851365394,46.5996612593946],[-1.801894973930513,46.59975764661235],[-1.801821604820402,46.59981602453984],[-1.801751615434491,46.59986821650195],[-1.801595646265485,46.60029090091399],[-1.801236504571697,46.59994549255823],[-1.801131390380176,46.59985635555819],[-1.801005645953327,46.59975590577919],[-1.800889690704083,46.59967886057299],[-1.800575894547067,46.59947633480083],[-1.800333644996223,46.59931924930191],[-1.800180745491394,46.599218043600146],[-1.800042601210962,46.59911793268677],[-1.79974515700645,46.59890190906225],[-1.799647449673119,46.59883880145177],[-1.799493322650694,46.59873403802937],[-1.799277159526678,46.59859218425694],[-1.798893398105447,46.59835452054183],[-1.799041111823829,46.598219144289835],[-1.799219527059184,46.59805352262106],[-1.799335314875963,46.597944924283226],[-1.799464343097339,46.5978262081382],[-1.799632599496718,46.59763449012605],[-1.79984693455382,46.59737029451692],[-1.80009194048939,46.597063675865805],[-1.80015635881058,46.59698546742719],[-1.800339397133101,46.59677743140719],[-1.800431328469573,46.596672899813115],[-1.800644344134637,46.59642941580078],[-1.800764185599934,46.596295657440955],[-1.80105210498883,46.59597568864575],[-1.801298444353574,46.59571691239293],[-1.801411380981019,46.59562502983927],[-1.801613837041293,46.59547544447824],[-1.80180033026314,46.59534664554812],[-1.802137429467241,46.59512429160165],[-1.802279836415635,46.59502828434953],[-1.802546542092742,46.59484758398566],[-1.802710063035164,46.594735805122205],[-1.802907870420148,46.594606258561015],[-1.802946588382703,46.59459272537609],[-1.803012346894071,46.594643820231894],[-1.803290180056468,46.594851276614655],[-1.803407031116946,46.594932611658116],[-1.803619908409836,46.595077301853394],[-1.803695160522477,46.595061061721765],[-1.803754292859519,46.595063811070574],[-1.803771740230925,46.595045036425994],[-1.803676438638604,46.595038753976254],[-1.803648756132258,46.595026114120856],[-1.803576182946073,46.59497936517875],[-1.803506310783536,46.59493800561676],[-1.803344741810782,46.594828959182514],[-1.803235371942687,46.594733056776],[-1.803009914249693,46.5945540729518],[-1.803321303963135,46.59435336235638],[-1.803619121256028,46.59416494802544],[-1.803938525135102,46.59396020042701],[-1.804240988751892,46.59377258149503],[-1.804494251841823,46.593964107232246],[-1.804807559412182,46.59419830613454],[-1.804834705190514,46.5942211620205],[-1.804946758366905,46.59430594462046]]],[[[-1.802973001869129,46.592594271040255],[-1.802681202444739,46.59234707665862],[-1.802405852469139,46.59210830234216],[-1.802212700026022,46.591952678890124],[-1.80238240296545,46.59181023973487],[-1.802606556039237,46.591670927053876],[-1.804638398077703,46.593384405838165],[-1.804603642731242,46.593429437077646],[-1.804516473500936,46.59354180138711],[-1.804444612683688,46.59360823712724],[-1.80440505073144,46.59363145881842],[-1.804324818816906,46.593674250060765],[-1.803965462565749,46.59339128547493],[-1.803629706155353,46.59312952071725],[-1.803272001035524,46.59284738700186],[-1.802973001869129,46.592594271040255]]],[[[-1.802338979965422,46.59229640138823],[-1.802557472761321,46.59246629664643],[-1.802718012295704,46.59259045221266],[-1.803019127073073,46.59282309244518],[-1.803270199375571,46.59302102725617],[-1.803639677287759,46.59330753804935],[-1.803799798872393,46.5934313489943],[-1.804199249635955,46.593743031269604],[-1.803798944126497,46.5939918615988],[-1.8034977298698,46.59418772613046],[-1.803096897638834,46.59443955276599],[-1.802835415981934,46.594603797436946],[-1.802497123976849,46.59481258204463],[-1.802361120948902,46.59489515011005],[-1.802137577525723,46.59473484803171],[-1.801404209799789,46.59420434080797],[-1.800754753591127,46.59373327493589],[-1.800787665448496,46.59368363144199],[-1.800868517486486,46.593561882918955],[-1.80103519726862,46.593294722203126],[-1.801177172363697,46.5930723498746],[-1.801316988995955,46.59285963017653],[-1.801527743987668,46.59253297442479],[-1.801597814632292,46.59246995350333],[-1.801764983770126,46.592335830888445],[-1.802072036774273,46.59209056101312],[-1.802338979965422,46.59229640138823]]],[[[-1.799301608771032,46.58988436042046],[-1.799435004610903,46.58991169063145],[-1.799554460749474,46.589901176040655],[-1.799667875500392,46.5898993043381],[-1.799768367644088,46.58990816846403],[-1.799858101394664,46.589925602815725],[-1.799923807715256,46.589922845883585],[-1.800009427740987,46.58991591557267],[-1.800167083189957,46.58990677444435],[-1.800278660253285,46.58991372963129],[-1.800280517168749,46.58991401255232],[-1.801133207809798,46.59027767966077],[-1.801134843684614,46.59027842289647],[-1.802124824530982,46.59075630073312],[-1.802033020558305,46.59092731397033],[-1.801844154559574,46.5912453844973],[-1.801813946644325,46.59129302051056],[-1.801702349960974,46.59155850236488],[-1.801505371045592,46.59141729169008],[-1.801394994986386,46.59135877713712],[-1.801122943245554,46.59121205651007],[-1.800789807124221,46.59103596434445],[-1.800475113414225,46.59083456024283],[-1.800278312554425,46.59071011929326],[-1.799935326789964,46.59047426803018],[-1.799634882701589,46.59027560174625],[-1.799483441813459,46.590168380989255],[-1.799156236842208,46.58991851448492],[-1.799226955040158,46.5898672853083],[-1.799301608771032,46.58988436042046]]],[[[-1.798530214777846,46.59186345217081],[-1.79812182332758,46.592339569644174],[-1.797658851621088,46.59287643026],[-1.796428257692481,46.592360340020214],[-1.795574006742048,46.59329337857552],[-1.795379890163626,46.59322158954719],[-1.795231656332753,46.593165558149174],[-1.795092876130601,46.593105431734934],[-1.794835844702077,46.59299685718515],[-1.794676962940726,46.59292097420651],[-1.794617081005858,46.59288297971203],[-1.794588990161964,46.59283896193576],[-1.79458677225785,46.59279007102305],[-1.794598957299337,46.59274869535855],[-1.794621875296324,46.59271625168203],[-1.794598518731921,46.59270514245506],[-1.794802441959139,46.59257508339504],[-1.794843828385446,46.59253690408427],[-1.794893304597242,46.592479171021346],[-1.794969574386202,46.59238991424847],[-1.794898528767116,46.59231287596069],[-1.794775545961955,46.592207794171834],[-1.794640806277427,46.59213261337409],[-1.794580597517641,46.59209535426714],[-1.794637797543002,46.59199462840333],[-1.79468181905956,46.59192846389174],[-1.794727207628048,46.59186296374028],[-1.794854444797959,46.59175515269544],[-1.794971197257818,46.591679805400375],[-1.795125391588794,46.591592785096815],[-1.795342041870404,46.591473557790394],[-1.795470579498094,46.591402767672115],[-1.795666608004904,46.59131976635863],[-1.795740359795583,46.59128952148739],[-1.795779854163638,46.591258096602736],[-1.795825907685141,46.59120312260039],[-1.795993765277801,46.59099807502487],[-1.796178702896435,46.59077453972111],[-1.796434946826693,46.59045302337559],[-1.796713946646053,46.59010321855136],[-1.797002521131271,46.58973442813389],[-1.797032825946348,46.589695269184446],[-1.797233925003824,46.589435511328865],[-1.797290032897332,46.58936550094497],[-1.797690389519762,46.58942872711191],[-1.798031999783415,46.58948755993928],[-1.798205679004024,46.58951617885659],[-1.798513041174977,46.58972069261704],[-1.798729695453849,46.58985963919546],[-1.799118564279123,46.59010989688233],[-1.799446524939505,46.59031643098473],[-1.79975893657831,46.59051874528684],[-1.800107949654426,46.59074135389537],[-1.800375969456223,46.59091657190243],[-1.800664973037867,46.591101192738385],[-1.800983672028823,46.591304954197426],[-1.801225456985411,46.59146160560144],[-1.801414080945348,46.591586749139296],[-1.801541474727372,46.5916779272066],[-1.801401474853529,46.59181740441252],[-1.80127397197828,46.59195022263639],[-1.801207834466551,46.59201776924049],[-1.80114678244947,46.59207770513865],[-1.801024014915396,46.592209331983014],[-1.800948949017824,46.59228988252116],[-1.800903039298216,46.59235829402642],[-1.800540033016834,46.592141867556535],[-1.800252870155231,46.59244204827814],[-1.799995941739501,46.592311018360746],[-1.799381216010729,46.5919928381488],[-1.799311807499665,46.592067827795574],[-1.798990196867298,46.591982268843054],[-1.798809881251981,46.591934894850446],[-1.798530214777846,46.59186345217081]]],[[[-1.799287076147797,46.59868820269256],[-1.799549069882882,46.59885997805176],[-1.79975479552821,46.599002179022044],[-1.799898760096648,46.59910448175033],[-1.799994153902627,46.59918139814611],[-1.800118605973605,46.599279106622376],[-1.800287400889715,46.599388395892554],[-1.800504988250728,46.599519633655206],[-1.800666491735816,46.599621921336485],[-1.80079331230633,46.59970789269725],[-1.800907404601392,46.59979051897685],[-1.801138444430837,46.59997919624025],[-1.801374287978531,46.60018075197246],[-1.80149237493418,46.600287837452015],[-1.801613827049925,46.60041967957999],[-1.801233677367424,46.60057139812538],[-1.801177922941585,46.60059214051441],[-1.800804052318997,46.60032150151448],[-1.80061601971212,46.60019597032694],[-1.800022572714441,46.59982042594797],[-1.799576606109081,46.599542433773856],[-1.799500486268297,46.599605255588926],[-1.799449620874509,46.599650238957956],[-1.799276058557517,46.599764147334696],[-1.799191041121504,46.59980920993802],[-1.799092727632794,46.59986673786234],[-1.799013026675517,46.59990679620366],[-1.798811596429554,46.59966797936519],[-1.798722587957746,46.59970193276882],[-1.798671223029263,46.59971013109066],[-1.79859866297035,46.59971840641419],[-1.798492746268589,46.599752076441675],[-1.798433748060744,46.599762759817544],[-1.798359337569821,46.59976786503433],[-1.798308388335811,46.599755568124266],[-1.798238959318039,46.59972221538977],[-1.797686389335626,46.59935432734715],[-1.797499135521774,46.599258257403605],[-1.797308827223873,46.5991720579052],[-1.797448241689096,46.599037483012914],[-1.797604024805099,46.59890005652456],[-1.797948721284376,46.59860468902025],[-1.798031887538816,46.59853273218269],[-1.798214640034831,46.59837468842267],[-1.798296143263924,46.59830613886769],[-1.798335972410164,46.598272534220605],[-1.798446408161063,46.59817444526105],[-1.798512237903949,46.59820262637342],[-1.798752651059963,46.59834644128892],[-1.799025302788763,46.59852038678979],[-1.799287076147797,46.59868820269256]]]]}}]}
