{"type": "FeatureCollection","name": "aoc_geojson","features": [{"type":"Feature","properties":{"dt":"Colmar","type_prod":"Vins","categorie":"Vin de sélection de grains nobles, Vin de vendanges tardives, Vin tranquille","type_denom":"appellation","signe":"AOC","id_app":1,"app":"Alsace ou Vin d'Alsace","id_denom":1,"denom":"Alsace","insee":"68250","cvi":"1B001D10, 1B001D11, 1B001D12, 1B001D13, 1B001D14, 1B001D20, 1B001D21, 1B001D22, 1B001D23, 1B001D24, 1B001S 1, 1B001S 2, 1B001S 3, 1B001S 4, 1B001S 5, 1B001S 7, 1B001S 8, 1B001S 9, 1B001S00, 1B001S06, 1B001S0A, 1R001S, 1S001S","nomcom":"ORSCHWIHR","insee2011":"68250","nomcom2011":"ORSCHWIHR","id_aire":1,"crinao":null,"grp_name1":null,"grp_name2":null},"geometry":{"type":"MultiPolygon","coordinates":[[[[7.22629374968877,47.941083284991834],[7.226106538768257,47.94110723753086],[7.226083919239474,47.941227285007415],[7.226001780922393,47.94123168356807],[7.226076169178498,47.94134877995015],[7.226521777331462,47.94118601830583],[7.226579822668603,47.941209163260616],[7.226580448397016,47.941208599993885],[7.22658130455835,47.9415927653385],[7.226579568415247,47.94187040793521],[7.226727592332836,47.94189157535969],[7.226777422482664,47.94189915426889],[7.226822561948922,47.94190509956041],[7.226808643712544,47.94197445492104],[7.226758007071646,47.94222420736036],[7.226745409335948,47.942286575654286],[7.226731092065346,47.94235765769194],[7.226713827728737,47.94244560876623],[7.226697747341952,47.94247944318571],[7.226663823987876,47.94255528656907],[7.226624271239868,47.94263791159471],[7.226594008950567,47.94270416019563],[7.226568609197897,47.942759058443436],[7.226536639146341,47.94283248824092],[7.226517958870033,47.9430254839009],[7.226991955840013,47.94313612479196],[7.227180951865252,47.94317987961702],[7.227181078447707,47.943179784936234],[7.227207030796037,47.94318732215285],[7.227236599020829,47.943188060048726],[7.227237365682171,47.94318758182898],[7.227483474660692,47.94319566384955],[7.227800934563605,47.943284360012974],[7.22805488584915,47.94337561274086],[7.228141331660664,47.9433831342819],[7.228471710163948,47.94341683880897],[7.228472837517169,47.943417519195464],[7.228496195579428,47.94340766562292],[7.228526050717253,47.943411997803636],[7.22848526522229,47.943331183985926],[7.228533749087355,47.943424427951776],[7.228570606370234,47.943466089411984],[7.228710058218275,47.94347557681446],[7.228930205015547,47.94344908227998],[7.229208372848789,47.94342184923351],[7.229235024529785,47.94345495589249],[7.229235870052648,47.94345546617685],[7.229235736302686,47.94345547099465],[7.229488805553458,47.94359614017381],[7.229879423701571,47.94352240653557],[7.229932158868618,47.943512575799055],[7.229984450786393,47.94364677838309],[7.22979742682185,47.94368325692898],[7.229846580630207,47.943789904693396],[7.229983391070233,47.943754514152886],[7.230254457855631,47.94434920644283],[7.230601549521403,47.94428298696054],[7.230708251002223,47.94426192865442],[7.230818563696903,47.94424074012218],[7.231010305165425,47.94442633465196],[7.23109312948533,47.94450608342154],[7.231279585085299,47.94474305819706],[7.231289383359323,47.94475153719785],[7.231492703380523,47.944942661899944],[7.231528060972663,47.944977256804066],[7.231544282586018,47.944992263556834],[7.231579806351457,47.94506254137609],[7.231645983656029,47.94519921694905],[7.231699255666239,47.94530697733244],[7.231722651122888,47.945354710722505],[7.231743376132935,47.94540091813008],[7.231743144498787,47.945401377096005],[7.231682099234847,47.945443231555295],[7.231661989955346,47.945460178532045],[7.231683205147512,47.94544364231535],[7.231662376869938,47.94545998434053],[7.231668918879083,47.94555032269327],[7.2316759703316,47.94564704144975],[7.23168241610166,47.9457529746267],[7.231754006911607,47.94611368225742],[7.231825757642788,47.946486460580466],[7.231782450171991,47.9465219979569],[7.231736969217138,47.94655887537543],[7.231599912541218,47.946673585182616],[7.231600342514628,47.94667393018066],[7.231568353420618,47.94670338178534],[7.231567775339428,47.946702861877895],[7.231499772010138,47.94678191751462],[7.231400254759405,47.94689302110417],[7.231492098627854,47.94690926807703],[7.231618058669355,47.946929422514614],[7.231675485178473,47.946937987483444],[7.231676146795954,47.9469378735158],[7.231746319369599,47.94695318896584],[7.231765476083171,47.94695790596497],[7.231765602666458,47.94695781127948],[7.231860072081938,47.94724045834091],[7.231984497786494,47.94743794049622],[7.232091289106947,47.94750528902933],[7.232233090040356,47.947612922506586],[7.232294117547334,47.94774888205799],[7.232815983358271,47.94759317323046],[7.232834108809456,47.94760009020401],[7.233191427850461,47.94750213219589],[7.233188029050852,47.947503246087166],[7.233269994986222,47.9474814552288],[7.233275772746468,47.94747989507346],[7.233275620073441,47.94748134255371],[7.233766071390462,47.947347219898504],[7.234103457665812,47.947255024610634],[7.234424367027173,47.94716648670983],[7.234568813742967,47.947125858926626],[7.234759445528658,47.94708572824556],[7.23475907297427,47.94708610217637],[7.234814533544286,47.94707508958927],[7.234815328915317,47.94707497077982],[7.234805616179952,47.9470407136098],[7.234815696958884,47.94707621923661],[7.234953315952536,47.94704584092995],[7.235166771392663,47.94700092093755],[7.235567737505994,47.94691544034206],[7.235581186926314,47.946912521847864],[7.236018769914814,47.946823645940654],[7.236017891069632,47.94682439863587],[7.236073494755787,47.94681518274466],[7.236079670923546,47.946811895721495],[7.236211781140626,47.946784778831756],[7.236410208641783,47.94668109725924],[7.236756649959388,47.94650258922152],[7.237627459881583,47.94605407149201],[7.237693991768498,47.946020487439434],[7.23759145061952,47.945910722310785],[7.237523230084309,47.94584432978223],[7.237478265290287,47.94580539681844],[7.237397725807341,47.945730887042714],[7.237302188447351,47.9456415974096],[7.237203760789569,47.94554970829354],[7.237118474972307,47.94546951157579],[7.237078541467281,47.945433100624555],[7.236995418680374,47.94535814307602],[7.236941765797944,47.945309519693836],[7.236881206732556,47.94524330097708],[7.236710099272472,47.945067785586296],[7.236788295071908,47.945042523139634],[7.236797512203499,47.944959817344674],[7.236816653101787,47.944804924730455],[7.236813031211379,47.94477639603586],[7.236803672061076,47.94469958772624],[7.236754500298529,47.944613040667825],[7.236716179896627,47.94457666152281],[7.236672627845443,47.94453524395875],[7.236489217953752,47.9443954106268],[7.236413065328683,47.94432371603925],[7.236352222693321,47.944263996224315],[7.236230726684006,47.9441704152288],[7.236089713222331,47.94406591231057],[7.236021907386882,47.94402311647813],[7.23596062715326,47.94403343850247],[7.236021639885329,47.94402312612915],[7.235913754947604,47.94401088622653],[7.235912493735598,47.944010210737076],[7.235922793815376,47.9439393622803],[7.235864252967891,47.943896682724166],[7.235754161558297,47.94380647503142],[7.235551792837192,47.94365425635814],[7.235350836342832,47.94351298153005],[7.235230344690977,47.943420174467285],[7.235156418638842,47.943347767950314],[7.235067044471473,47.94325996669746],[7.234925944136038,47.94307877023834],[7.234888475499894,47.943022802951084],[7.234812926515081,47.94289313600942],[7.234757323336813,47.94276464220935],[7.2347222988636,47.94268218042638],[7.234656022030904,47.94252081585477],[7.234588166313909,47.942430345545645],[7.234559727606039,47.94238162287923],[7.234518655868745,47.942325875559135],[7.234366457970684,47.94210812795208],[7.234292887629663,47.94199983881521],[7.234210984169434,47.94188797483936],[7.234145083302285,47.94179509057458],[7.234005024078696,47.94161340493503],[7.233958536482478,47.941555329278685],[7.233844655243647,47.941412534167576],[7.233791610576042,47.9413109848321],[7.233755196616683,47.94124803963977],[7.233679451562875,47.94123004256876],[7.2333991921225,47.941403903526655],[7.233192677631622,47.94154554419422],[7.233069020025566,47.94165148214082],[7.232970521057551,47.941761740047006],[7.232892921255526,47.94184817267853],[7.232844823612081,47.941911010669266],[7.232798812949939,47.941971430175066],[7.232755233110391,47.942028697812866],[7.232749778230225,47.94220058024277],[7.232755128069482,47.94202906209488],[7.232664803526194,47.94208549145406],[7.232664796350056,47.94208540158901],[7.232568806333135,47.942003695147065],[7.232309175850181,47.9421285932656],[7.232304735516751,47.94212505825772],[7.232300443281288,47.94212169815853],[7.232553221405295,47.941994974241155],[7.232364047807933,47.94182470066811],[7.232552495267907,47.94199427942852],[7.232612609932983,47.94197778258731],[7.232420043542365,47.94181709440592],[7.232419986136859,47.94181637548525],[7.232644404123239,47.942003042641566],[7.232777599735448,47.941914065124095],[7.23283863101208,47.94183850403666],[7.233020111706691,47.94163026394321],[7.233141782104664,47.94152295571726],[7.233365030282171,47.94137251049395],[7.233656853608482,47.94119733137795],[7.233710787940692,47.94112698246027],[7.233733890617405,47.94109884182318],[7.233693750643424,47.94096573434576],[7.233667917819917,47.94090763474726],[7.233621769523212,47.94082692563691],[7.233632258655902,47.94080879299016],[7.233701073432457,47.940701407273195],[7.233700270597764,47.940582202299325],[7.23359397620327,47.94043192345758],[7.233282634545783,47.94010906079736],[7.233211186024853,47.94009613573929],[7.23321077762466,47.94009606034114],[7.233186795411617,47.94006448046437],[7.233185866400978,47.94006460408561],[7.233210471279066,47.94002000681035],[7.233098569470688,47.93987001987156],[7.232847269613604,47.939531382545134],[7.232811664316753,47.93948021415303],[7.232766951150207,47.93941576541422],[7.232635232600752,47.939230893593766],[7.232618605404976,47.93920742996515],[7.232568438248002,47.93912506288075],[7.232567871415798,47.93912417461616],[7.232625153982598,47.93911139214397],[7.232600884919124,47.939071170602396],[7.232591196480194,47.93905565808585],[7.232672322901439,47.93918476478769],[7.232709024508679,47.939239588774186],[7.232752978076802,47.93930460566408],[7.232861127119999,47.93946473196518],[7.23289353183834,47.93951277127963],[7.232988740231617,47.93963848608993],[7.23304105617581,47.93970743719404],[7.233258137059369,47.939993774400655],[7.233288485422522,47.940036209956055],[7.233309992444029,47.94006030865634],[7.233526729186822,47.940290240249944],[7.233610607842012,47.940379862962544],[7.233641960608863,47.94041135722216],[7.233682996687971,47.94046836784802],[7.233753488037141,47.940563339917105],[7.233786044086929,47.94064012307652],[7.233850619305014,47.940664380920396],[7.234041816283816,47.94065847713587],[7.234315390460058,47.94068979731121],[7.234564190152694,47.94072831911322],[7.234848756105079,47.9407612243421],[7.235186843891,47.94076732396302],[7.235517970861806,47.94073834512389],[7.23564711403117,47.94070953279268],[7.23564697310771,47.940709447752845],[7.235647233411617,47.9407093482377],[7.23559789138006,47.940681026944674],[7.235422400016623,47.9405796598474],[7.235011198212618,47.94034169571926],[7.234899137590612,47.940305632780095],[7.234884883850096,47.94030182098039],[7.234743735816974,47.940156855846986],[7.234646496089087,47.940054467574825],[7.234518834566142,47.939917126902806],[7.234390750157826,47.93977448404116],[7.234180606980246,47.93955323838249],[7.234078778476043,47.93944542749254],[7.234040032954616,47.93940365545291],[7.233979301016624,47.939341857685136],[7.233951839576602,47.93931373800923],[7.233753259269633,47.93911127105986],[7.233299316774946,47.93928508703404],[7.233214885739467,47.93917340366931],[7.233165238364862,47.93910931322661],[7.233116028208133,47.93904565761968],[7.233070534137299,47.93898150750815],[7.233029942186609,47.9389283559982],[7.232949658813921,47.93882156985073],[7.232899448433404,47.93875713910918],[7.232476320669476,47.938868376394105],[7.232476960658456,47.93886799282564],[7.232419217690646,47.9388771943379],[7.232463073953951,47.938952759333795],[7.232347547874417,47.93875396510964],[7.232299846244697,47.938672230025496],[7.232250162226636,47.9385875021748],[7.232066247089088,47.938637481781164],[7.231930625618364,47.93866742508964],[7.231748433069822,47.93870706795723],[7.231859433211708,47.938682879076445],[7.231747876596379,47.938706817644025],[7.231706750897787,47.93869568269562],[7.231634335197354,47.93868405334678],[7.231634125113387,47.93868478191029],[7.231679411271325,47.938494340018295],[7.231650892314392,47.9384546319854],[7.231629032676115,47.93844793963087],[7.231524150970121,47.93842107790421],[7.231463396939917,47.938407676271275],[7.231417263315229,47.93839428838791],[7.231322564296129,47.93836057055264],[7.231254310409641,47.93833554277489],[7.231191697605913,47.93831229437351],[7.230994538447986,47.93824171328478],[7.230887225239174,47.93820286204483],[7.230793040327218,47.938168854904006],[7.230547557532814,47.93837840712403],[7.230775597203434,47.9381687625253],[7.230781614899701,47.93816349872466],[7.230781712774088,47.93816304457818],[7.23078134025432,47.938163418498426],[7.230691165473235,47.93813260134639],[7.230493360483327,47.93806231310254],[7.230379869085062,47.938043511300684],[7.230250682164895,47.93801626257176],[7.230086770531684,47.93797404262166],[7.229867820522479,47.93787910034714],[7.229735165505646,47.93779997458679],[7.229623817510942,47.93771557484391],[7.229503254953202,47.9376451156755],[7.229503775554,47.937644916672056],[7.229513327145065,47.937630152743886],[7.229513699670025,47.93762977882753],[7.229359742638736,47.937611442582636],[7.229514234611033,47.93762975955503],[7.229529751590432,47.93761243748856],[7.229615648074873,47.93750561029962],[7.229393757125358,47.93742420162078],[7.229178381807981,47.93734544178184],[7.22906667111033,47.93744643927993],[7.228938192776725,47.93741123275536],[7.228738549944347,47.937356509201564],[7.228685872587628,47.937353539993154],[7.22840891171851,47.93733665904865],[7.227713122589474,47.93756224326278],[7.227575981705822,47.93764712162351],[7.227339370457351,47.93787049678301],[7.227290732129076,47.937916498891084],[7.227241049957197,47.93795613978151],[7.22767404375533,47.93814179402869],[7.227634483387495,47.93820576446823],[7.227621960435122,47.93822532164763],[7.227564836821128,47.93826919607877],[7.227489305783979,47.93833788646155],[7.227449945201363,47.938384185389324],[7.227393602322453,47.93843280816095],[7.227381014849984,47.9384566034411],[7.227352214501422,47.93849909736903],[7.227335297221821,47.93852241768551],[7.227166808952843,47.93875244169487],[7.227067830131157,47.938856763721745],[7.226909746294563,47.93901377301635],[7.226835223382296,47.93906989940581],[7.226673409258839,47.939138090669076],[7.226401398366743,47.93924900191297],[7.226301234830638,47.939323354691005],[7.226198690021925,47.9394267227384],[7.226155881309412,47.93947521809787],[7.22614542808893,47.939485417848324],[7.226112554273652,47.93952057777299],[7.226067595988477,47.939607723325835],[7.225991284782221,47.939755839423164],[7.225940087988561,47.93985726872166],[7.22592267764447,47.93989124109486],[7.225916219757899,47.93991959206918],[7.225885024069354,47.940053196444154],[7.225867152490255,47.94013522120435],[7.226434899733531,47.94029494090129],[7.226434512837472,47.9402951350762],[7.226481131668717,47.94030787658274],[7.226505407802296,47.94024562855676],[7.226413643072424,47.94049262590787],[7.226418193592251,47.94063548802911],[7.226444448269283,47.940698981161226],[7.226519766404512,47.940891657411164],[7.22655859592605,47.94098669165255],[7.226600616548759,47.94110324062741],[7.226580728777688,47.941052315853234],[7.226525759931948,47.94105429471476],[7.22629374968877,47.941083284991834]],[[7.232567831537285,47.939124183514934],[7.232515087628239,47.93904145868779],[7.232567871415798,47.93912417461616],[7.232567831537285,47.939124183514934]]],[[[7.228201593618828,47.93528227364287],[7.228211278070224,47.93524731726592],[7.228212553109606,47.93524312564384],[7.228219482267085,47.93522070559858],[7.228239491290054,47.93515545622081],[7.228266899787448,47.93506695872867],[7.228272589707933,47.93504917962959],[7.228280029768049,47.93502475844889],[7.228283441790149,47.93501373056266],[7.228308221316594,47.93499147867328],[7.228441742161566,47.93482264382603],[7.228475888768754,47.93477995685752],[7.228472812969796,47.93467245970083],[7.2284276129405,47.934674087821776],[7.228015095635338,47.93468768429769],[7.227628941359888,47.93477287960578],[7.227562516977745,47.934787528590036],[7.227545127709547,47.93479482398803],[7.227426036573267,47.934841921526186],[7.227195528680948,47.934933136148835],[7.227066908770376,47.934981838155316],[7.226459205692264,47.93521181472236],[7.226316354217994,47.935272113448704],[7.225946982910619,47.93547034473975],[7.225954770271234,47.93548223110822],[7.225976424931781,47.93551497759309],[7.225959020866642,47.9355271399498],[7.226666398655634,47.93571292334691],[7.22715605868097,47.93584084229771],[7.227243771210558,47.93569790189043],[7.227277566115459,47.93566424039107],[7.22768685955104,47.93570934337055],[7.228000712721783,47.935817273939485],[7.228080087325989,47.93570266163146],[7.228087931370111,47.93555718961559],[7.2281189016341,47.93548812078789],[7.22814315439775,47.93542226797913],[7.228199821753662,47.935283599195614],[7.228201593618828,47.93528227364287]]],[[[7.228960084889904,47.93529334477682],[7.22894556213168,47.93531639892442],[7.228810064890507,47.935495759872744],[7.228758570296159,47.93556475713618],[7.229077200186377,47.93566025596889],[7.22920073600536,47.9356974427671],[7.229408626651993,47.935759799137436],[7.2295935609643,47.93581514147733],[7.229708922837332,47.93581206649883],[7.229719699637648,47.935874855078275],[7.22985093257408,47.935870667380264],[7.230116665290486,47.93586289481731],[7.230202268395995,47.93575076019866],[7.230248438245124,47.93568060226705],[7.230212165351175,47.93566974261976],[7.229550388782017,47.93547071118385],[7.229463534176665,47.93544446005075],[7.229157946149451,47.93535272825443],[7.228960084889904,47.93529334477682]]],[[[7.231490626842394,47.9326565100307],[7.231495742129361,47.93270715568913],[7.231733356988791,47.932691740531816],[7.231742214830922,47.932769108285854],[7.232148221523796,47.932737978390044],[7.232212453457493,47.93273286874936],[7.232191711941759,47.9326074426076],[7.232027040867862,47.932621040059324],[7.231951800771284,47.93262600572102],[7.231937146364864,47.932476026552536],[7.232001392349241,47.932471096757645],[7.232423259296086,47.93243876314946],[7.232372922080114,47.93229538787626],[7.232351268984199,47.93223749767949],[7.232340751053136,47.93220317905723],[7.23232756987737,47.932162377384735],[7.232325403044404,47.93215371345448],[7.232301783153527,47.93206110618488],[7.232281059924261,47.931989663802725],[7.232273045498841,47.931963185846755],[7.232268959786499,47.931942244071585],[7.232260686040095,47.931944434990235],[7.23225579576772,47.93194533230223],[7.232199694685075,47.9318809333953],[7.232182978996172,47.931834491184915],[7.23216349250891,47.93178021793228],[7.232118692495082,47.931728028941684],[7.232044399467976,47.931734763051814],[7.231856536911025,47.93180723652587],[7.231727219783032,47.93185714090484],[7.231500688537884,47.931944165922665],[7.231321962615373,47.932013515268004],[7.231317775793991,47.932004743890005],[7.231226281882821,47.93203120383393],[7.230934077143536,47.93211536772712],[7.23090313570903,47.932124233637175],[7.23088363183466,47.93212854158317],[7.230871226986149,47.932131061545874],[7.230659675339869,47.9321688778695],[7.230477302501642,47.93222447816957],[7.230412587148707,47.93224032907703],[7.23035877532418,47.932261735197415],[7.230220222098818,47.932316927494334],[7.230041968632631,47.93238887134529],[7.229912119241119,47.93245231139519],[7.229838861326873,47.93252750108991],[7.229815755566603,47.9326581123914],[7.229815176504601,47.93274330053477],[7.229814744471796,47.932779906487],[7.229837687374986,47.93298005650755],[7.229838284647559,47.932984180693914],[7.229954127566255,47.93298216940254],[7.230076417885443,47.932980286158475],[7.23029742014455,47.93297682824651],[7.230293631516337,47.93289909753897],[7.230315757867791,47.93289739892104],[7.230467793186855,47.93288173581935],[7.230498427611224,47.9328790996763],[7.230607633457756,47.93286786389026],[7.230698008350018,47.932859289416605],[7.230774898695723,47.932851471248476],[7.230762061283863,47.932662042325354],[7.230872114536463,47.93265302883637],[7.23095824113109,47.93264668012175],[7.231051242383666,47.93263909218741],[7.231163069793661,47.93263046509553],[7.231192395502962,47.932628236433985],[7.231215978315264,47.93262630489432],[7.231293138247707,47.93262018901343],[7.231390523555596,47.93261208228219],[7.231485960380508,47.93260476670117],[7.231490626842394,47.9326565100307]]],[[[7.232989628605689,47.933116083147056],[7.23275001866738,47.93315356304356],[7.232734136220397,47.93315116163309],[7.2327244710579,47.93327534086312],[7.23268516040898,47.93334903795742],[7.232636973508965,47.93344089968105],[7.232611172875346,47.93348896494398],[7.232592520341452,47.933525777307125],[7.232591383991158,47.933528341758326],[7.232852832632894,47.93348385621149],[7.232858525383943,47.93348292994383],[7.232999208089446,47.93345775929883],[7.233111128189782,47.93343515780462],[7.233114167971262,47.93343459756569],[7.233104759597239,47.9334175428578],[7.233243417818255,47.93338045838517],[7.233371640812427,47.9333453723073],[7.233456488925644,47.933326360375005],[7.233544918820084,47.93330685870565],[7.233588557990811,47.93337134597133],[7.233608841001915,47.933370073714535],[7.233717224050511,47.93336364131712],[7.233787524412933,47.93335894284388],[7.233732491224912,47.933171937020695],[7.234091962524546,47.93313238491939],[7.234066474925006,47.933044982388175],[7.234571806733894,47.93298971314625],[7.234570541526742,47.932977231498356],[7.234533086679481,47.93282564155517],[7.234506468896258,47.932722417959475],[7.234650179276142,47.9327133583984],[7.234785295483618,47.932704158079694],[7.234980844278723,47.93269097487561],[7.234990851915369,47.93269034345158],[7.235116094094145,47.93268176935201],[7.235286715640978,47.93267047634055],[7.235571382383113,47.932651463114844],[7.235563155300482,47.932607238485716],[7.235560719576527,47.93259353733022],[7.235554939897821,47.93256148131803],[7.235547696460672,47.932516139700425],[7.234885791710343,47.932565436052236],[7.234793268595731,47.93257228880185],[7.234628624347008,47.93258453709411],[7.23462448659856,47.93255791941314],[7.234621001255674,47.93253443255077],[7.234610996657774,47.932464586547425],[7.234609053814379,47.932455373820225],[7.234793395158902,47.93244124333077],[7.235115382679615,47.932416018055974],[7.235209340521814,47.93240866265406],[7.235269307030721,47.93240388546005],[7.235529195283043,47.93238360330416],[7.235516091496073,47.93229512326491],[7.235512855275155,47.932251259291],[7.235510652929809,47.932206907388995],[7.234963298301102,47.932236299259834],[7.235290672796108,47.93221808906134],[7.23527923971108,47.93210854972125],[7.234943198239486,47.932129055334855],[7.234847958403763,47.932135465423],[7.234363347236242,47.932157904450136],[7.234360940257851,47.932157991276064],[7.234029880929829,47.93217371819028],[7.233834954074188,47.93218291197132],[7.233829211242244,47.93218320922835],[7.233744189309831,47.93174493665857],[7.233671319062503,47.93174765501444],[7.233575991012911,47.93175127341786],[7.23352854383635,47.93174992041618],[7.233397781183083,47.93174643507749],[7.23327500120365,47.93172535783158],[7.233171628880207,47.93167861612017],[7.232974857010057,47.931589098780165],[7.232845243582918,47.93153113629096],[7.232784737061701,47.93154593555337],[7.232616684712158,47.93176405787685],[7.232554624255944,47.93184506428937],[7.232516714991365,47.93198837698274],[7.23250012917532,47.9320510706617],[7.233303022408578,47.93202085643544],[7.233314257772735,47.93214644509045],[7.233327479547632,47.93228683261584],[7.233350693678287,47.93238441120648],[7.23338636794598,47.932533902665185],[7.233387352997194,47.93254287957341],[7.233393326969551,47.93264288238129],[7.233394305542332,47.93265681636051],[7.233400260479551,47.93273978635193],[7.233418039218718,47.93283143248198],[7.233432224306985,47.93290662533466],[7.233453442679596,47.93298760286256],[7.233468819463321,47.93304580935959],[7.233332664385039,47.93306216540752],[7.233128569925366,47.93309430969749],[7.233089227180179,47.93310041490757],[7.232989628605689,47.933116083147056]]],[[[7.234191392994473,47.93927688968226],[7.234190998955882,47.9392769940177],[7.23417400171202,47.93930599610341],[7.234297633552716,47.93943825526206],[7.234377451592008,47.93952405846972],[7.234471780787966,47.93962529018574],[7.234516259552764,47.93967334423397],[7.234547791914858,47.93970708489229],[7.234750709906814,47.939925165854255],[7.234822864119323,47.940002322946775],[7.234872455224671,47.94005559990528],[7.2350072128763,47.94016087047667],[7.23507410548867,47.940204060227025],[7.235244815210142,47.94031443244749],[7.235278550283407,47.9403337637468],[7.235301766496744,47.94034734607053],[7.235497222084331,47.94045853760069],[7.235545692289123,47.940487701499414],[7.235570487512232,47.9405025786684],[7.235644672197606,47.94054469392443],[7.235835944610064,47.94065387287178],[7.235928182033488,47.940666767310994],[7.236056350939711,47.94064087363545],[7.236113008183156,47.94062981696199],[7.23679116427501,47.94045033260544],[7.236831912788488,47.94039127278196],[7.236787925987651,47.9403091348664],[7.236722859106153,47.94025524550906],[7.236702030083869,47.940237972343006],[7.236663274017403,47.94020449289179],[7.236516919368827,47.940081707885156],[7.236497846200278,47.940066263931485],[7.236331963286062,47.93992904254456],[7.236089437548199,47.93972564145537],[7.236002344341408,47.93965289943038],[7.235754946367447,47.93944724015429],[7.235716721950771,47.9394153634692],[7.235664562651546,47.939371912896284],[7.235541424822106,47.939269378181],[7.235442789419012,47.93918812990543],[7.235309565555543,47.939076856306315],[7.235204196916795,47.93905569314626],[7.235203669143507,47.93905580230972],[7.235152613933162,47.9389841929839],[7.23515217681904,47.93898375813216],[7.235190337430427,47.93892587369659],[7.235122486464414,47.93881359342828],[7.235090502051341,47.93876076291146],[7.234934766198717,47.93850366912422],[7.234551755383242,47.938502524252456],[7.23410964187885,47.93850026527778],[7.233245790639065,47.938493926134555],[7.23349844237053,47.93869669712842],[7.233835423162347,47.93899808634392],[7.233843804445678,47.939005624875335],[7.233880750860553,47.93904502850806],[7.23402172205925,47.93919288493055],[7.234100908286018,47.93921201933159],[7.234101168585481,47.939211919819776],[7.234191505198417,47.93927661526348],[7.234191392994473,47.93927688968226]]],[[[7.234307330177796,47.94072154126878],[7.234041121506226,47.94069175791981],[7.233948046499368,47.94069691700376],[7.233807170578213,47.940704791175065],[7.233781682719303,47.94071985976447],[7.233734984090607,47.94074813033373],[7.23371702655922,47.94083061040061],[7.233724031787117,47.94089984330651],[7.233790339502235,47.941093561749945],[7.233826333753522,47.9412268186978],[7.233844342082709,47.94129610541629],[7.233903598399011,47.94139481713422],[7.234094043420411,47.94164308982016],[7.234142184550731,47.94170507124526],[7.234193225887622,47.94177145425178],[7.234304597946224,47.94192479391845],[7.234347090098867,47.94197985921262],[7.234434604659588,47.94210990600085],[7.234622249297463,47.94237846664865],[7.234718610343892,47.94251513370788],[7.234739994521007,47.94258132444368],[7.234763615733968,47.94264193693266],[7.234786395947514,47.94270041677784],[7.234806509448863,47.94275070140917],[7.234838721889981,47.942826505308595],[7.234857543929684,47.942865661155096],[7.234863180044201,47.942877444336624],[7.234941069304107,47.94300450336962],[7.234995239330278,47.94298578641279],[7.235113074019029,47.943122579848286],[7.235111436354414,47.94316923295243],[7.235105211895308,47.94319541314493],[7.235112090737086,47.943169029100346],[7.235098851002166,47.943219885904675],[7.235179811596747,47.94329807700412],[7.235277859046958,47.94339034187545],[7.235393581507446,47.94348557402919],[7.235740573516893,47.9437388316015],[7.235801261275389,47.94378152388394],[7.235842493327137,47.94381239082645],[7.236015489318978,47.94394448965319],[7.236244007881332,47.944128479062904],[7.236283783563359,47.94415957865692],[7.236361968824086,47.94422146660293],[7.236401522960058,47.9442548272507],[7.236558521870461,47.944388133407585],[7.23664180026888,47.94445163988574],[7.236707091156636,47.94450155579856],[7.236790043542313,47.944581115993806],[7.236806795367287,47.94460105975387],[7.236845627571752,47.94467572305007],[7.23684872198084,47.94471778936078],[7.236864159925,47.944818621635356],[7.236860348445564,47.944926997932996],[7.236858266525429,47.94498988938852],[7.236856320065558,47.94504944137079],[7.236854331523229,47.94511350106172],[7.236962221514628,47.945254977603355],[7.236991795545058,47.945289329076815],[7.237028114783731,47.945324158126326],[7.237058256046112,47.945352180445916],[7.237097348287437,47.94538645878914],[7.237233642538358,47.9455124001466],[7.237305249255707,47.94557921137002],[7.237539472668478,47.945792463114785],[7.237595594420809,47.945843430488296],[7.237648261859405,47.94589145829582],[7.237743946174076,47.945992638716355],[7.238050010573039,47.945836041859124],[7.238053012309506,47.94583331992045],[7.238055290558316,47.945831615458324],[7.238114518444679,47.94580063799854],[7.238160370763337,47.94577014330347],[7.238176287606565,47.94576956877705],[7.238172504907989,47.945772589280274],[7.238362831597579,47.94567505452944],[7.238431722793575,47.94563873540165],[7.238570127656958,47.945566632734135],[7.238502486527653,47.945601428985576],[7.238713133056719,47.94549297608923],[7.238996539461208,47.94534665749026],[7.239319406538594,47.94518052809346],[7.239022565882734,47.94533328075108],[7.239320462190086,47.94518030973038],[7.239678638501657,47.944996141311144],[7.239724920535195,47.94497103785854],[7.239725535594418,47.94497075870355],[7.239726774337839,47.94497241290348],[7.240458404108281,47.94459225487721],[7.241059726742314,47.94434558617621],[7.240981545480054,47.944377700496034],[7.241059227691107,47.94434605482328],[7.241282088562504,47.94424788044845],[7.241282363255263,47.94424796064985],[7.241762803523986,47.94402421184716],[7.241797012418207,47.944011178063434],[7.241808863137906,47.94402516979789],[7.241814221740228,47.944021731731574],[7.24223948984211,47.94385649031896],[7.242059426191931,47.94365471903696],[7.241927360340819,47.94350627930877],[7.241785393446483,47.943351437832526],[7.241667718015832,47.9432235670141],[7.241626047505371,47.94322245884035],[7.241626582498364,47.943222439512766],[7.241595891706316,47.94314063396102],[7.241595581061776,47.943140104438044],[7.241610953165983,47.94310088579116],[7.241477565716417,47.94272637158074],[7.24146971620401,47.94269700426753],[7.2413427955467,47.94247871200594],[7.241268203802441,47.942408135571476],[7.241144718785052,47.942289756943495],[7.241001313141743,47.94223924035321],[7.240965262235362,47.942226212826554],[7.240944820740711,47.94221884002606],[7.240888595874586,47.9421984300094],[7.240786257681838,47.94216328299214],[7.240656798293637,47.94210433132304],[7.240624919574786,47.94208980113691],[7.240504372528421,47.94203494349214],[7.240288453329611,47.941849245140894],[7.240141787681712,47.94167411335427],[7.240077655306818,47.941596759663334],[7.239884693161723,47.941345882836885],[7.239841741389678,47.941288492702355],[7.239779256665003,47.9412065731491],[7.239695621405446,47.941096667716906],[7.23960811667787,47.940983657488395],[7.239535500382487,47.940840458692776],[7.239526207998371,47.94082322001741],[7.239492103039028,47.94075568675843],[7.239455398296693,47.94068247941593],[7.239397500452887,47.94057236540007],[7.239387515072642,47.94055316900441],[7.239382040691171,47.940541740652634],[7.23935957791907,47.94049902175429],[7.23934935383224,47.94048019447209],[7.23933916724449,47.94045848185869],[7.239296674850806,47.94037998587616],[7.239270387151103,47.94033136674996],[7.239208553161122,47.94020724526485],[7.239189229825081,47.940168558691816],[7.23917203323839,47.94013466203344],[7.239157754272157,47.94010705884648],[7.239152915564596,47.94009686927125],[7.239090977490176,47.94007206842837],[7.238497477288554,47.94014432672015],[7.238500792817058,47.94015727503468],[7.238469008284461,47.94019086724436],[7.238468093655341,47.94019117063694],[7.238394436451368,47.940175804941084],[7.238393416823553,47.94017647262056],[7.237828540680772,47.940272928853844],[7.237811226119844,47.9402958262736],[7.237803898649891,47.94030527167839],[7.237659139198882,47.94032662908439],[7.237658969535773,47.94032618458757],[7.23759069133855,47.940302603185266],[7.237374860306228,47.94034932691113],[7.236145188494858,47.94067164501474],[7.236005408222329,47.94069994046019],[7.235994303247064,47.94071539184869],[7.235979256039711,47.94073522130278],[7.235754048125029,47.94077038387435],[7.235754102457387,47.940771063785526],[7.23568611394204,47.94073263949915],[7.235528819266908,47.940770037899256],[7.235185751283772,47.94080233148422],[7.234836373285497,47.94079258351863],[7.234559750906605,47.94076173496699],[7.234307330177796,47.94072154126878]],[[7.239647328361701,47.94486632166509],[7.239725567733872,47.94497074411652],[7.239725535594418,47.94497075870355],[7.239647328361701,47.94486632166509]],[[7.241762517927715,47.94402432066091],[7.241766140674008,47.94402265766886],[7.241762803523986,47.94402421184716],[7.241762517927715,47.94402432066091]],[[7.237814112698149,47.94029210535648],[7.237804158947773,47.940305172158446],[7.237811226119844,47.9402958262736],[7.237814112698149,47.94029210535648]],[[7.23575536670757,47.94077177828634],[7.235754105574578,47.94077110279384],[7.235754102457387,47.940771063785526],[7.23575536670757,47.94077177828634]]],[[[7.237425900957123,47.93961702832699],[7.237436504345042,47.93964900019695],[7.237458642908774,47.93971453253719],[7.237463728265509,47.93972948985087],[7.237467824403064,47.93974213964014],[7.237519240178885,47.939895387559964],[7.237546499693065,47.93998470807619],[7.237731016784354,47.940111702087734],[7.237759877783384,47.94019420543953],[7.237809340425376,47.94021395970794],[7.238480684414633,47.94009869925195],[7.238593702862973,47.940086327558795],[7.238855358073315,47.94005245702335],[7.23887356554079,47.94005035764634],[7.239018998062154,47.9400323991155],[7.239089319928099,47.94002283030455],[7.239134654533007,47.9399976709462],[7.239118022408544,47.93980144007373],[7.239081592135327,47.93933248692411],[7.239101290085155,47.93872848344861],[7.239126532427474,47.938530920658785],[7.239138729150518,47.938104822871594],[7.239156665243059,47.93751737528037],[7.239118864173474,47.937490801693954],[7.238981761192654,47.937488722620465],[7.238847805965453,47.93748743097508],[7.238709495007022,47.93748701744013],[7.23869581101876,47.93748697076626],[7.238599354431281,47.937486668146796],[7.238249860656133,47.93748360445788],[7.238133389847773,47.93748627711698],[7.238061845158872,47.937534192476335],[7.238054703462158,47.937592490369376],[7.238047653013846,47.93766367274513],[7.238045166397338,47.93769296279647],[7.238043178793636,47.937721784211064],[7.238043414886735,47.93774151291649],[7.238050760315327,47.93790887899187],[7.238052394155886,47.93795280067842],[7.238054800534867,47.93799128701622],[7.238056760468111,47.9380409648849],[7.238059660609917,47.93811917821726],[7.238066349904215,47.93824646262846],[7.238068503203936,47.93828513834465],[7.238068243559179,47.93829866636298],[7.238030275983999,47.93833879043013],[7.237977209489189,47.93839640290635],[7.23794323118982,47.9384310655961],[7.237876919245292,47.938551161662176],[7.237831345574064,47.93863707296795],[7.23781282747448,47.938668834297715],[7.237791781061779,47.938704201734545],[7.237778876004301,47.93872900112113],[7.237741562768664,47.938760539641436],[7.237716630148173,47.93878252870138],[7.237676733822265,47.93881866665034],[7.237584180640029,47.93890077601661],[7.237572912935214,47.938910826021065],[7.237512427642153,47.93903503744317],[7.237501924147193,47.93905632538267],[7.237486061672341,47.93908943277446],[7.237480981787024,47.939099710042356],[7.23734615517124,47.93937783302787],[7.237394174322731,47.93952047882618],[7.237397778573096,47.939533687117304],[7.237425900957123,47.93961702832699]]],[[[7.239761049452453,47.93650165684014],[7.239628980526733,47.93654572079404],[7.239628037218346,47.936545664736606],[7.239519538803544,47.936741908687836],[7.239437565982958,47.93689753982003],[7.239386694152478,47.936990943368855],[7.239319913909637,47.937118537777906],[7.239263393346035,47.93728721888059],[7.239243164290682,47.93734788211024],[7.239207653583287,47.93744721978676],[7.239180787459985,47.93838755644282],[7.23917590405402,47.93853445523699],[7.239152516705895,47.938738440014596],[7.239132399696605,47.93933551907566],[7.239183836609591,47.9399921098596],[7.23918449812433,47.9399919958492],[7.239184519685024,47.93999226544349],[7.239185525851058,47.94000484651121],[7.239574697369029,47.9399403239593],[7.239503640766768,47.939952443080664],[7.239574711744133,47.93994050368878],[7.239184816838612,47.940006043727955],[7.239201700272877,47.940067890218145],[7.239260866763004,47.9401838165983],[7.239272192250009,47.94020467697632],[7.239331927131705,47.94031932105841],[7.239400556137121,47.94045293053957],[7.239444256507092,47.94053814218823],[7.239490401583419,47.94062876312181],[7.2395574164709,47.94076062831603],[7.239626447842667,47.940894223140525],[7.239666519390798,47.940972626183836],[7.239734704063979,47.941062090640685],[7.239794164300411,47.941141415710995],[7.239841141053377,47.94120217535363],[7.239880437240451,47.94125410980067],[7.239923307120249,47.941308799152736],[7.239971338226302,47.94137267502002],[7.240012675254119,47.94142832094214],[7.240038754568197,47.94146090532363],[7.240136058597011,47.94158572812958],[7.240326089378089,47.94181670286971],[7.240345053468499,47.94183746751849],[7.240396770315247,47.94188201364533],[7.240481344942857,47.941958358475325],[7.240518134468182,47.941992358413856],[7.240538523903482,47.942010818447066],[7.240805024005565,47.94213295426369],[7.240815815658021,47.942137070675585],[7.241030195134882,47.94221296227534],[7.241176438160284,47.9422637368302],[7.241216838045828,47.94230094074617],[7.2412955340026,47.942375875160806],[7.241384741523042,47.94245980271921],[7.241497210226339,47.94263661912588],[7.241529135747821,47.94268692673616],[7.241580245386237,47.942837840958056],[7.241601078739373,47.94289368635512],[7.241679653712936,47.943112913848644],[7.242241210680662,47.94293445680426],[7.241679787460902,47.94311290901668],[7.241704177429211,47.9431528541581],[7.241703129019466,47.9431531624073],[7.241702164249573,47.94317798143217],[7.241702020650557,47.94320132880177],[7.241833573092419,47.943346723084844],[7.241871842978291,47.94338914083339],[7.241938908226064,47.94346620742187],[7.242016889483065,47.943553964864755],[7.242083287787026,47.943627720877394],[7.242172484577531,47.94372823114478],[7.242275064206705,47.943845111039074],[7.242751865611154,47.9436617832651],[7.242759659279761,47.943670333812754],[7.243694119890801,47.94332103687761],[7.243694767047375,47.94332074311342],[7.243735695789394,47.94329583142547],[7.243736736995094,47.943295433293876],[7.243737026076745,47.9432956932182],[7.243998267477049,47.94319450378768],[7.244643539075914,47.94294595635527],[7.245087751194653,47.94277461154561],[7.244933730056251,47.94276747278186],[7.245084653426352,47.942774453177044],[7.245088818167638,47.94277286060223],[7.245149849781681,47.94273099911133],[7.245265130200908,47.94268149821262],[7.245538309735251,47.94256698563571],[7.245537569023972,47.94256611117506],[7.245538997044515,47.942565518789756],[7.245593874802723,47.942547311946456],[7.245595356226635,47.94254906086705],[7.247079329979151,47.941853341319764],[7.247018243465726,47.94180408988724],[7.246949616089527,47.94174609873785],[7.246898068839601,47.94169704292938],[7.246786955604953,47.94174828747498],[7.246608218020771,47.941605055587466],[7.246578798209992,47.94157268346952],[7.246522841512998,47.941502066961654],[7.246622816451598,47.94146582572247],[7.246562946282944,47.94134803534141],[7.246484919466185,47.9411777281045],[7.246441015098489,47.941083423467425],[7.246410509263391,47.94092698892911],[7.246409693331525,47.94084815935451],[7.246409328151351,47.940805092968944],[7.246408870493042,47.9407575236933],[7.246444783922026,47.94059805590253],[7.246390791544314,47.94039623685684],[7.246455616734098,47.940391729154825],[7.246429828412802,47.94026738857984],[7.246370494655552,47.93988001565188],[7.24650052279492,47.93980708808586],[7.246658604151079,47.939719356529984],[7.246648883403551,47.939261513861574],[7.246560819340781,47.939066334692825],[7.24641614937668,47.93874216151135],[7.246207602309842,47.93847446355739],[7.24609557867533,47.93805213490604],[7.245835546194023,47.937613799600236],[7.245732886871052,47.937676724398855],[7.245732781927859,47.93767708869343],[7.2457322685853,47.93767737763326],[7.245675956395032,47.93767761169566],[7.245675237342473,47.93767700682676],[7.245695337819161,47.93750765637065],[7.245652379904992,47.93715718241403],[7.245631679635452,47.936962360157985],[7.245649705994956,47.93682237521806],[7.24567156381227,47.93669171480173],[7.245637760394096,47.93664643290314],[7.24557937204516,47.93665422240735],[7.245315475187677,47.93667827607845],[7.245314221227112,47.93667769055145],[7.245316691749662,47.93664155127581],[7.245316550821506,47.936641466247345],[7.24524823351043,47.93616185897989],[7.245208997701458,47.93597671938103],[7.245185378710329,47.93585428267905],[7.24510078827897,47.935678894391366],[7.245016605600427,47.93556720958921],[7.245008258053198,47.93550316228193],[7.245007606201748,47.93549669686216],[7.24500297368547,47.93542377309896],[7.244869504807707,47.93529115896211],[7.244691060647313,47.9353086967358],[7.244654099827593,47.935086613611425],[7.244652750873636,47.935039617198385],[7.244688416842684,47.93468107247933],[7.244700114381602,47.93461612007339],[7.244614157782792,47.93429297596433],[7.244198513789581,47.93450033083915],[7.244012420591433,47.93456636103533],[7.243792349403777,47.93464353300554],[7.243470450648163,47.93477891101712],[7.243137800005741,47.934945859889446],[7.24309938394243,47.93505738094638],[7.243099967883388,47.93506132533044],[7.24300486488236,47.935030966006984],[7.243046548791909,47.9350641574052],[7.243003864055777,47.93503019105811],[7.242920025988233,47.93504674001431],[7.242312070004518,47.93526608530993],[7.242274148914268,47.93527655830274],[7.242108143999874,47.93532049976066],[7.242107771579878,47.935320873717444],[7.242107511314519,47.93532097324723],[7.242068026189916,47.935363857459365],[7.24201885022025,47.93537446669752],[7.242018581903272,47.935506869578575],[7.242018843029176,47.93537437683267],[7.241973267014617,47.93534114548361],[7.241703150466061,47.93539299414199],[7.241360306540455,47.935439358601684],[7.241135993214091,47.9354552135464],[7.241028242388617,47.935454509969986],[7.240702385773054,47.93545672857853],[7.240685692715535,47.93545426736655],[7.240488960121551,47.93548462616284],[7.240370811783571,47.93555513549754],[7.240200535569548,47.9357284670931],[7.240045808182225,47.935906734382584],[7.240020636123128,47.93593576241579],[7.239860745182776,47.93611655913074],[7.239815894034431,47.93621479249009],[7.23970817332778,47.936467696929846],[7.239759817119556,47.93650134084857],[7.239760745364335,47.93650147334326],[7.239761049452453,47.93650165684014]],[[7.239760626695817,47.93650140173475],[7.240285390060657,47.93657635817668],[7.239760745364335,47.93650147334326],[7.239760626695817,47.93650140173475]]],[[[7.240612659800623,47.93262834216533],[7.240626915854011,47.93266405731319],[7.240640986502446,47.93269410129679],[7.240629637297149,47.93283555654873],[7.240614113785616,47.93298518368633],[7.240599747706539,47.93313251587414],[7.240595490041313,47.933141321657835],[7.240605498216087,47.93322117112827],[7.24064160137477,47.933682567233134],[7.240649114589733,47.933798286319245],[7.24067539656185,47.934076543201435],[7.240694680208281,47.93423545740217],[7.24073339497164,47.934662421405434],[7.240737483860241,47.93472527083299],[7.240730834177017,47.93528257148863],[7.240731448651958,47.93538916672511],[7.240732032269337,47.935409874305634],[7.240801230346293,47.93540980789319],[7.241132536467454,47.93540865386494],[7.241349201191952,47.93539442713299],[7.241689905182643,47.93534814001632],[7.242198597690868,47.935249186884995],[7.242357434069798,47.93519946599097],[7.242517437535584,47.93514087046612],[7.242901020959708,47.93500533865155],[7.242956036708953,47.934977213992255],[7.243363014383646,47.934772069771256],[7.243761542910952,47.934603820138555],[7.24412180950663,47.934473633211994],[7.244170499211869,47.93445528988301],[7.244598422883686,47.934250555326415],[7.244590748569312,47.93422505708918],[7.244481167596189,47.934166292368815],[7.244330552146608,47.93408747135938],[7.244152854691126,47.93396519773659],[7.244054174056015,47.93388008257007],[7.243958701854827,47.93379818595384],[7.243959728484201,47.933797608088305],[7.243950985614183,47.93378891168094],[7.24395044352302,47.9337888411544],[7.243787282430655,47.93364206825975],[7.243440381521939,47.93318857304599],[7.243222837081523,47.93288172075639],[7.243043007369133,47.9325299745153],[7.242844866857036,47.93234318759487],[7.242668054977583,47.93229721572571],[7.242461440260865,47.93228269281955],[7.24246251721706,47.93228274402151],[7.242453520787709,47.93217032291169],[7.242453351110518,47.93216987841955],[7.242454005329344,47.93216967452521],[7.242427999858064,47.93208769948725],[7.242400405573862,47.932002627492125],[7.242373533228224,47.93191987264546],[7.242889264872284,47.93183724367149],[7.243024075056996,47.931815877933076],[7.243019005430967,47.931695564105624],[7.24301250750576,47.931559079402994],[7.242957029638712,47.93128647392736],[7.242910985819605,47.931056336768734],[7.24249190490445,47.9311233061056],[7.242474519610358,47.931040118235124],[7.242455019187521,47.930950607932694],[7.242434837223938,47.9308576073829],[7.242331005218242,47.930656055375664],[7.242259204698382,47.93048777337486],[7.24181998744165,47.93050247474298],[7.241743724393015,47.93076614239035],[7.24175568657834,47.93072290076972],[7.241582947405134,47.93070931537865],[7.241550731571397,47.930908393839445],[7.24158280361108,47.930707518076005],[7.240884819605052,47.93068434073352],[7.240867580306299,47.9308929718122],[7.240855205761222,47.930993097004844],[7.239766002465373,47.93093258526347],[7.239810838495523,47.931023704227314],[7.239833076136432,47.93106868440687],[7.240070697672221,47.93155984332856],[7.240166778207963,47.93192948932708],[7.240173526462629,47.93212788056889],[7.240092597495476,47.93230483478413],[7.240231252697083,47.93255451884671],[7.240312480206336,47.93257411587517],[7.240560909688143,47.93249944061704],[7.240559489071126,47.93250012281058],[7.240609669082005,47.93262448471694],[7.240612194547165,47.93262746721201],[7.240612659800623,47.93262834216533]],[[7.24061044984683,47.93262418613703],[7.240612334850792,47.932627632906176],[7.240612194547165,47.93262746721201],[7.24061044984683,47.93262418613703]]],[[[7.243453663402666,47.92822598796632],[7.243140799611568,47.92834644006477],[7.242999671581817,47.928392638851925],[7.242730072600379,47.92847899061982],[7.24247750012985,47.92856697944923],[7.24230402203577,47.92864462865054],[7.242052367832712,47.92879774373973],[7.241944847953346,47.928925461349785],[7.241806363216824,47.92913378813626],[7.241716010027398,47.92935876086185],[7.241680126091576,47.92953544087338],[7.241677053713307,47.92955402752528],[7.241761853024206,47.930136234817155],[7.241761236255687,47.93027937556184],[7.241756826964916,47.930323155384606],[7.241803070566583,47.930279305785305],[7.241916162530817,47.929857489552376],[7.24199272201235,47.92956235722359],[7.24205053292579,47.929413364151344],[7.242205507769572,47.92930889606191],[7.242531082800938,47.92904387736465],[7.242787863579952,47.9289296902525],[7.242829112716525,47.92891729408438],[7.24296979108933,47.92887886258734],[7.243185719954635,47.928828968477646],[7.243331046366604,47.928796677260536],[7.243790543263688,47.92875573106081],[7.243615819628409,47.928477703218],[7.243538103545196,47.92835280557087],[7.243453663402666,47.92822598796632]]],[[[7.247269311140987,47.939021688759],[7.247269166886153,47.939168867811674],[7.247290538972949,47.93931842280567],[7.247299180008558,47.93937939506148],[7.247322395711666,47.93954023906345],[7.247390369888227,47.93969054141085],[7.247609360166339,47.94007168723093],[7.247621382274924,47.94010622068749],[7.247630297527103,47.94013545906221],[7.247648485040103,47.94019671676074],[7.24766389595303,47.94024843156256],[7.247682253290576,47.94031013373402],[7.24784628788607,47.94075193865819],[7.248189721743029,47.941474029014344],[7.248205525372217,47.94150887619969],[7.248294843057343,47.94148527608703],[7.248439078535912,47.94144734155853],[7.248582320957646,47.94140538716597],[7.248908797079141,47.94131002668758],[7.249579393482048,47.941115239471976],[7.24982677294232,47.94081130630614],[7.24982746326454,47.94081155169217],[7.249868900487643,47.94075958178278],[7.24986885725705,47.94075904259833],[7.250175551533832,47.94038861215617],[7.250255430096059,47.940290818826654],[7.250355425820372,47.940169585630144],[7.25043711122064,47.940070915601524],[7.25056176819318,47.93992103084417],[7.250558935726096,47.93991581602095],[7.25056159121712,47.9399204965018],[7.250598915665011,47.93986074416145],[7.25059797949232,47.93986077805628],[7.250936748423185,47.939305058314886],[7.250940554744218,47.93930401924135],[7.250973821321158,47.93925054216277],[7.250970752568091,47.939250743405374],[7.2511461105561,47.938965456617595],[7.251167108125596,47.938931259871175],[7.251353192496865,47.938627559204186],[7.25143111061038,47.938500364878614],[7.25149764890817,47.93839350024407],[7.251613249643629,47.93820771162847],[7.251732234510233,47.93801395939817],[7.251816000607247,47.93787943302044],[7.251816242461189,47.937880776138606],[7.251842204044504,47.93783657578942],[7.251844344554058,47.93783316363351],[7.251844492703885,47.9378333385182],[7.251900030525555,47.93774318462293],[7.251995406282094,47.93758786928587],[7.252265154527062,47.93715018432845],[7.252404241723604,47.93692118499866],[7.252605681618047,47.93659340253242],[7.252653736249441,47.93651532561244],[7.252699292406716,47.9364412145619],[7.252831564001371,47.936224267812506],[7.252888338777984,47.93613118441739],[7.252951914011031,47.936027580323376],[7.252659427619708,47.93613488077344],[7.251829753371105,47.93644062672117],[7.251973040619955,47.93668535428252],[7.251991936659604,47.9367470365404],[7.252011193911935,47.93680987733951],[7.252042280680216,47.93695331225506],[7.252134856045358,47.93702728658243],[7.252154471578674,47.93704108625263],[7.251347679744261,47.93744171211447],[7.251346476149147,47.93744175570126],[7.251249787830631,47.93760748238998],[7.251250120160157,47.93760828148171],[7.250660245660617,47.93789587060374],[7.250327234089656,47.93796128173718],[7.250312678302334,47.938186220137126],[7.250308256077258,47.93827659542259],[7.250376212957343,47.93852026658151],[7.250434725882508,47.93872676638899],[7.250355821510953,47.93866908028671],[7.250355384274835,47.93866864549146],[7.250219054011903,47.938393562699915],[7.250102571301651,47.93816192249502],[7.250016876653566,47.93798639699817],[7.250001104863379,47.93795362169974],[7.249953333927218,47.937856303659885],[7.249915992226929,47.93763144158685],[7.24989975257019,47.93752423990511],[7.249885031794734,47.93742761798973],[7.249812328251895,47.93729533269895],[7.24968518880684,47.937191694971574],[7.249337286217349,47.93730721127148],[7.24917848153437,47.93711639666155],[7.248790560934181,47.937053920868955],[7.248546844759842,47.93714403401783],[7.248072244171696,47.93732541661494],[7.248343253166047,47.937627712376596],[7.247779967433322,47.9377652576441],[7.247815642682115,47.937867340085596],[7.24783567001748,47.937926458375664],[7.247849877836057,47.93796316587827],[7.247938583282356,47.93806756531865],[7.248006102231069,47.938145243228874],[7.248080421345415,47.93823078628003],[7.248042685127394,47.93825522024323],[7.248028600142487,47.93824597497867],[7.247991527568976,47.93822111503954],[7.247991288905152,47.93822148417515],[7.247397583376765,47.93854524449336],[7.247367826621425,47.93862247657266],[7.24727841556244,47.938897617988424],[7.247269475538469,47.9389249788705],[7.247269311140987,47.939021688759]],[[7.250434753516567,47.93872678659191],[7.250435136281304,47.93872821473443],[7.250434725882508,47.93872676638899],[7.250434753516567,47.93872678659191]],[[7.248042820323984,47.9382553089851],[7.248042679387173,47.93825522395998],[7.248042685127394,47.93825522024323],[7.248042820323984,47.9382553089851]]],[[[7.248973336356864,47.92516166250559],[7.248766707376423,47.92513660737895],[7.248701922403106,47.92512966966259],[7.248606743110052,47.92513834239553],[7.248422953342547,47.92515734249061],[7.248315646166349,47.92516861699829],[7.248083357281465,47.92519315732286],[7.247954252384783,47.92520684271364],[7.247826470045623,47.925220299842294],[7.247411896930843,47.92526423381016],[7.247380925048942,47.92529942211386],[7.247564871835989,47.92568409050862],[7.247418556709694,47.925379173301884],[7.247359357044417,47.92541015583672],[7.247358836630599,47.92541035492075],[7.247295894552099,47.92540298923129],[7.247183855111832,47.925464002988484],[7.247063470226466,47.925529644639575],[7.24691579390771,47.92561114439408],[7.246806796925258,47.92566997477583],[7.246689366983469,47.92573568933294],[7.24661763627704,47.92577262251497],[7.246336813474231,47.92595969915615],[7.246207533442552,47.92604657075988],[7.246003464663598,47.926200857872665],[7.245680132389759,47.92644489768368],[7.245672617954123,47.9264498560264],[7.245498107644714,47.92659820611683],[7.24528953376957,47.92677834047481],[7.24503404295741,47.92701731073285],[7.244863351317916,47.92717822925808],[7.244588787824206,47.92743528230556],[7.244402772582005,47.927612526094336],[7.244393095703115,47.92762062679788],[7.244204023064949,47.927756342895876],[7.243969921173396,47.9279242392554],[7.243672443026432,47.928112902124184],[7.243478659675112,47.92821661250734],[7.24351959231641,47.9282823660461],[7.243821307081931,47.92875642128086],[7.244087159931458,47.928742212496104],[7.244325278545186,47.92873333198865],[7.244433603443928,47.928727972904085],[7.244534722291912,47.928723054553394],[7.244749235590642,47.92871412553739],[7.244908862403321,47.92870636998377],[7.245388377344486,47.92865586122742],[7.245098090320003,47.92868645823561],[7.245298681408192,47.92871300033237],[7.245297695058712,47.928712405130106],[7.245626328690655,47.928752070201874],[7.246121512966792,47.92888214355508],[7.246176542013138,47.92889781741448],[7.246608799185811,47.92906927960594],[7.246868034807428,47.92920347003532],[7.247038555692868,47.92931662618875],[7.247593522814058,47.92974419732599],[7.247779390181248,47.92988482612678],[7.248025011909043,47.93011512986731],[7.24817345542552,47.93031920885897],[7.248215768880587,47.93040879419252],[7.248220883076597,47.9304190636407],[7.248151165046951,47.93043934155555],[7.248150637385998,47.93043945077775],[7.248150319549612,47.93043883140323],[7.248112656090618,47.93044911690286],[7.247729848174041,47.93056364051726],[7.247894470534475,47.93047422702309],[7.247729256687602,47.93012610343716],[7.247681589541089,47.930021570630934],[7.246997653164167,47.93020719241612],[7.24671859015162,47.93042655996272],[7.246561427527594,47.9305522025946],[7.246412467181486,47.93084220704179],[7.246294023934603,47.93108126799714],[7.246316577901523,47.931158590651556],[7.246341646818598,47.93123717419883],[7.245790895788021,47.931394807821746],[7.245845949375229,47.931514575568436],[7.245905036021866,47.931614369875156],[7.24602202507117,47.931812559239894],[7.245945438482076,47.93183083105513],[7.245796830027354,47.931614588665234],[7.245679880356892,47.93144199321573],[7.245559174510179,47.931533960676774],[7.24552696295769,47.931555403872935],[7.24546686496125,47.931600386933816],[7.245418547838632,47.931636742491364],[7.245386834400992,47.93164933536664],[7.245365432862834,47.93165840090533],[7.24515539805276,47.93174350459763],[7.24525628477558,47.931919835807385],[7.245438585944648,47.93223697195452],[7.245553260315659,47.93240793751177],[7.24568549516504,47.932602241095616],[7.245833027814264,47.93282176699446],[7.245885520741155,47.932909542767035],[7.246058330566713,47.933196829424524],[7.246169362349948,47.933442820116746],[7.246168220586086,47.933441960166476],[7.246169660154241,47.93345993310678],[7.246170527274209,47.933460712866506],[7.246183202716671,47.933618964596434],[7.246235751913751,47.933876533778765],[7.246283047789702,47.934076883295766],[7.2464798452148,47.93403236248559],[7.246783410501006,47.933956220284536],[7.246834398763533,47.934067031998055],[7.246863897330869,47.93413391910866],[7.246892550610761,47.934188579783395],[7.24691672730667,47.93423925665347],[7.246988811269266,47.93424007351101],[7.24712151070636,47.93424419490111],[7.247460796857781,47.93425399968069],[7.248086701357686,47.93427073564834],[7.248146946655478,47.93427946060405],[7.248258113552732,47.934294363842135],[7.24847711880843,47.93432447072443],[7.248653067690894,47.93434613166082],[7.248721080518322,47.93435304306977],[7.248892813040642,47.93437062037538],[7.249117296388806,47.934393768418104],[7.2493584442519,47.934419016557634],[7.249358303323173,47.9344189315339],[7.249408065777551,47.934422357435366],[7.249306014593738,47.93414305841734],[7.249408398059394,47.93442315653385],[7.249562084399273,47.934444810894874],[7.249631347370874,47.93445392965987],[7.249864582548982,47.9344858621192],[7.249967902007606,47.93450825789267],[7.250182678251907,47.934560865829006],[7.250503737583695,47.93463936640861],[7.250650516175718,47.93465514098299],[7.250704843206996,47.934660293693945],[7.250821722617267,47.93467282469933],[7.250941424738416,47.9346854336241],[7.251044003701228,47.93468018682822],[7.251359780032036,47.93467271664865],[7.251815562219832,47.934556440443075],[7.25203988883284,47.93449901657401],[7.251970093705495,47.934080298654486],[7.251946908361835,47.93395676542364],[7.25169221571099,47.93388469737935],[7.251691947272691,47.93388460068522],[7.251711509221671,47.93383262711224],[7.251901019546476,47.93381602945029],[7.252270134604551,47.93377805487036],[7.252235813047569,47.93318798515249],[7.25223186351348,47.93307186638453],[7.25257474358115,47.93299446476436],[7.253080316453993,47.932883859529184],[7.253075819743113,47.932765958016624],[7.253079609222445,47.93246047540079],[7.253047240408705,47.93229437517215],[7.253010833267787,47.932188264610566],[7.253009502341498,47.93215830102223],[7.253031714862481,47.93215434182733],[7.253056171770933,47.932149940806916],[7.253084300214952,47.93225148453582],[7.25313741936991,47.93247730716703],[7.253123959805072,47.932709056976414],[7.253135900502591,47.932884639495335],[7.253089130781833,47.933199339967146],[7.253095680392818,47.93321244123817],[7.253199222006798,47.933414806730106],[7.253409825661366,47.93382995457436],[7.253686857707935,47.93437094352991],[7.253709755506014,47.93441562716979],[7.253868760594506,47.93447178154095],[7.253921035411829,47.93449313959872],[7.253927647548087,47.93448361706383],[7.254220407479185,47.93400886127059],[7.254261107332444,47.93394447864698],[7.254512757698776,47.933532406884055],[7.254611889194458,47.93336893117305],[7.254821617243115,47.93302443994843],[7.254905653393825,47.93288845859028],[7.255040614831642,47.932666814327106],[7.255346419281482,47.93217103296612],[7.255434118603441,47.93202725757936],[7.255525898337638,47.93187918838506],[7.255587948611987,47.93177843140753],[7.255717467530761,47.93156590577498],[7.255847624623457,47.93135633094713],[7.256423097864932,47.9311695432388],[7.257207768185294,47.93091424038995],[7.258096096201942,47.93062389801839],[7.258591864903073,47.93046008849129],[7.258580204942672,47.93044014304638],[7.258510523722213,47.93035398711896],[7.25850233589833,47.930342207289414],[7.258416160432501,47.93022934154318],[7.25835713932421,47.930155686808924],[7.257797736176858,47.93031693693862],[7.257311191837696,47.93045868817949],[7.257248611659679,47.93047429655895],[7.25712922138699,47.9302667406663],[7.257121489802294,47.9302506181606],[7.257039280827354,47.93014535848106],[7.25696047951193,47.93004412095585],[7.256810603368577,47.929847674367934],[7.256747278621493,47.92976381049861],[7.256681768005113,47.929677772720346],[7.256536377631654,47.929488733714685],[7.256480442548972,47.9294150563439],[7.256135422687642,47.928964320206646],[7.256131415715272,47.92895950857624],[7.255948343752453,47.92875371994937],[7.255829344930452,47.92861942102765],[7.255609049380221,47.92837253226802],[7.255457155222911,47.92820094190226],[7.255363588732897,47.92817630499638],[7.255198614444183,47.928197607367935],[7.255117866849639,47.92821071892719],[7.254603176209735,47.92827227653886],[7.254109386024063,47.928296843753884],[7.253636012958927,47.928340226265966],[7.253091410405745,47.928391685542586],[7.253038587119456,47.92839684411484],[7.252435504907014,47.92845150078772],[7.25198786308987,47.92849304306792],[7.251825283592193,47.92850911669714],[7.251647832545713,47.92852870293308],[7.25138834886103,47.92856378764925],[7.251099450894997,47.92860498414316],[7.251021105266444,47.92861629344318],[7.250697249752705,47.928661368628845],[7.250250215791939,47.928660342883866],[7.249890840763239,47.92866046757994],[7.24980783109496,47.92863868860297],[7.24970696996536,47.9286417996739],[7.24954658185657,47.92864841770969],[7.249287837016063,47.92865760493908],[7.248999501893755,47.92866903439789],[7.248938496837329,47.92867250452003],[7.248386892111501,47.92871698512802],[7.247590334604776,47.928782134115906],[7.247128124055108,47.928819318072854],[7.247129435833876,47.92878547359033],[7.246931935120554,47.92877576633009],[7.246257886130719,47.92874310365783],[7.246175645674175,47.92873760702138],[7.246174941131476,47.92873718188216],[7.246194917985791,47.92865174139338],[7.246369539921205,47.9286704789774],[7.246358928978449,47.92860831586787],[7.246369745607672,47.92867137278959],[7.246848434520044,47.92871101326469],[7.247256005418186,47.92872663825301],[7.247378381978916,47.928727617511505],[7.247485595706178,47.928726802080625],[7.247716799788591,47.92870861159781],[7.247888374764871,47.9286960034409],[7.248009638313005,47.92868476526043],[7.248250644029742,47.92866171270416],[7.248532009592099,47.92863359376865],[7.248644285431379,47.92862231973957],[7.248878337630726,47.92859951757081],[7.249000058548323,47.92859231744331],[7.249133340239527,47.9285837974204],[7.249282013015935,47.928574900301804],[7.249409493721024,47.92856929373806],[7.249469851683332,47.92856611716978],[7.249552389247707,47.92802823377066],[7.249469949380087,47.92856566300508],[7.249470751643655,47.928565633959884],[7.249618265463563,47.928565700799766],[7.249618399174143,47.928565695958724],[7.249744783365204,47.92783038196065],[7.2496184207832,47.928565965553005],[7.249883616564306,47.928566998569124],[7.250283504380927,47.92856874151732],[7.25040328970301,47.92856918056617],[7.251484080529569,47.92849002215088],[7.2517726165845,47.92846271713995],[7.252436677500733,47.92839422846895],[7.252750896706529,47.92836112373556],[7.252791670979793,47.928359556260766],[7.25429535748293,47.92817456194288],[7.254342257964854,47.9282259461302],[7.254757131285058,47.928197208807944],[7.255173979894044,47.928131266518804],[7.254846271612407,47.9278224785365],[7.25477429722277,47.927761098227535],[7.254674252376578,47.927675770534606],[7.254189419068383,47.92731220193668],[7.253643873444598,47.92690549845946],[7.252730201118559,47.92638451348164],[7.252444212369757,47.92625283715596],[7.251715469571,47.92591738289214],[7.251383193238089,47.9257669223372],[7.251252965980974,47.92586194545138],[7.251219588049523,47.92588884028522],[7.251184146215134,47.9258732704917],[7.251183383086183,47.92587383624019],[7.251183246316067,47.92587375371551],[7.251152678670842,47.92586044076327],[7.250798193263227,47.92612202689648],[7.250972075379978,47.925992797713015],[7.25115300052396,47.925859437721975],[7.250377752210596,47.925530797185615],[7.250367208987357,47.92552640233167],[7.250156562944449,47.92546129896975],[7.249878692885032,47.92537555724392],[7.249759755707421,47.9253387665411],[7.249739604456481,47.92533327751668],[7.24935016067821,47.92523399995384],[7.249339382140584,47.92523168642306],[7.249068551290087,47.92518020614559],[7.248973336356864,47.92516166250559]],[[7.251691941056149,47.93388461720176],[7.251288683014434,47.933739339832314],[7.251691947272691,47.93388460068522],[7.251691941056149,47.93388461720176]],[[7.251183387225026,47.925873838737495],[7.250898353284165,47.9260851429413],[7.251183383086183,47.92587383624019],[7.251183387225026,47.925873838737495]]],[[[7.250672729570629,47.93631038773922],[7.250709059892448,47.93612620823963],[7.250781341139445,47.93597055836421],[7.25032392757103,47.935103172417655],[7.25021150070635,47.93507425714224],[7.250189443081475,47.93503332777549],[7.250371042423493,47.935117058198024],[7.250831548529514,47.935096418172805],[7.251116325165395,47.93508700700936],[7.251388784418247,47.93507786098655],[7.25135931319876,47.9347053589198],[7.251092255335553,47.934714940219024],[7.250940418727535,47.934719717664045],[7.250823288498036,47.934712423121155],[7.250365273163452,47.93467376076331],[7.250198952830496,47.934630033535115],[7.249846719689742,47.93453238255499],[7.249646788754687,47.93448761824547],[7.249498265289664,47.934471815482695],[7.248990504682291,47.93441818536221],[7.248823911156937,47.934401143191586],[7.248642988492532,47.93438101439583],[7.248550668393495,47.9343686739138],[7.248462995822718,47.934357426912484],[7.24837340792529,47.93434570841302],[7.248287184803009,47.9343341384512],[7.248178905258659,47.93432012212389],[7.24807970777925,47.934307309163295],[7.247617420737038,47.93429727040327],[7.247329565978655,47.93429164357922],[7.247023239737163,47.934284791709565],[7.246731139280365,47.93425462276485],[7.246323051752886,47.93436032145355],[7.246339598810329,47.934593687443176],[7.24641820488696,47.934806513144665],[7.246510158793274,47.934964961191056],[7.246600617601369,47.93512148050515],[7.246934352875585,47.935582563462276],[7.247067866508193,47.93565037395101],[7.247506367491474,47.935965988607265],[7.247823460905226,47.936192445134736],[7.24798892144468,47.936304071043764],[7.248100387300851,47.936252361350974],[7.24833951037188,47.93653841684016],[7.248403380614149,47.93656891094719],[7.248565134436096,47.936510424050084],[7.248460238338986,47.93638137596006],[7.248668215849596,47.93631896292139],[7.248889531596675,47.93661539538103],[7.249024797522113,47.936576161913706],[7.249112285281898,47.93669214063864],[7.249346212183725,47.93666231370991],[7.249426481442956,47.93665309939579],[7.250342006869193,47.93646611199498],[7.25053156863339,47.93639985609371],[7.250561909508521,47.936390195628064],[7.250620858659658,47.936347594985286],[7.250672729570629,47.93631038773922]]]]}}]}
