{"type": "FeatureCollection","name": "aoc_geojson","features": [{"type":"Feature","properties":{"dt":"Colmar","type_prod":"Vins","categorie":"Vin mousseux \"Crémant\"","type_denom":"appellation","signe":"AOC","id_app":2,"app":"Crémant d'Alsace","id_denom":3,"denom":"Crémant d’Alsace","insee":"67034","cvi":"1B001M 1, 1B001M 3, 1B001M 4, 1B001M 5, 1B001M 6, 1B001M 7, 1B001M00, 1S001M00","nomcom":"BERSTETT","insee2011":"67034","nomcom2011":"BERSTETT","id_aire":16,"crinao":null,"grp_name1":null,"grp_name2":null},"geometry":{"type":"MultiPolygon","coordinates":[[[[7.593056390757296,48.69366201865032],[7.593044235461268,48.69369402130761],[7.593032189365934,48.69372881276804],[7.592983531205817,48.69385331099134],[7.592970672589767,48.69388660210786],[7.592937667220466,48.69397553912165],[7.592906210670667,48.694054235419124],[7.593110359060168,48.694116190654796],[7.593942500587895,48.694334938004346],[7.594198693259028,48.694397497504234],[7.594424011639862,48.69444944432463],[7.594735111379101,48.694419878096646],[7.59498265819176,48.69438726619339],[7.595071400511396,48.69435951730867],[7.595274463213831,48.694294653729784],[7.595299802792175,48.694256285964414],[7.595345011747978,48.69418543753483],[7.595408060712857,48.69408534009085],[7.595444720677879,48.6940286963495],[7.595479089292441,48.69397385282393],[7.595518377437347,48.6939130532901],[7.595551821279845,48.69384770400268],[7.59558055901142,48.693800015131785],[7.594631733490531,48.6936054203935],[7.593185385674292,48.693288907989036],[7.593168829319069,48.69333585631048],[7.593147704470652,48.6933973963249],[7.593126795549788,48.69345829732474],[7.593108103006648,48.69351190508529],[7.59309071419263,48.693561768588296],[7.593056390757296,48.69366201865032]]],[[[7.594822121938332,48.69619432197172],[7.594830912472984,48.69624317604338],[7.594924076549635,48.69626408960242],[7.59568208291036,48.6964348702052],[7.596590424388469,48.69663894866391],[7.596693194185109,48.69666228332342],[7.596669174610462,48.69671564662339],[7.596638560482482,48.696783769992216],[7.596587225231166,48.69690098488824],[7.597295342731543,48.697067643838466],[7.597377784844743,48.69705022742074],[7.597444177797612,48.69698811126605],[7.597499150443844,48.69699878389238],[7.597482710136798,48.69702383464141],[7.597467507639228,48.6970474861648],[7.597412706041719,48.697131499200026],[7.597325933334973,48.697265128053665],[7.597317156311968,48.69729528891805],[7.597297001783607,48.69736472070853],[7.597260604505132,48.69749081970993],[7.597234985499304,48.697578571864966],[7.597136322476404,48.697929613409734],[7.597305295067879,48.69795354671971],[7.597474539103448,48.69797746932198],[7.597537253680829,48.69798640167869],[7.59765867804,48.69800360995385],[7.59774785554834,48.698016296225354],[7.597806429710888,48.69802457733821],[7.597843089671114,48.698028208131504],[7.598035364613188,48.69804781752447],[7.598224464512612,48.69806691846252],[7.598623423907685,48.69810747164188],[7.598795235252686,48.69812498651108],[7.59908404781515,48.69815429268031],[7.599080310169178,48.698076322550406],[7.599081660355983,48.69780579816029],[7.599078892838699,48.697752747534906],[7.599076212329988,48.69770068461996],[7.599074022206191,48.697654188811995],[7.599073643742238,48.69764834709065],[7.599069045216146,48.697559057887425],[7.59906187141695,48.697415809643786],[7.599058273853386,48.697342519125485],[7.59905721202773,48.697322738682296],[7.599062577942638,48.69722450557914],[7.599066455355437,48.69715263836916],[7.599068574978388,48.697114895830566],[7.59907004091527,48.69708672884974],[7.599073690924826,48.697020005961555],[7.59907737928667,48.696955263732285],[7.599082277410012,48.69694597482416],[7.5991132949974,48.69688864683782],[7.599144887902942,48.69683012536357],[7.599155650591893,48.696810158770546],[7.5991634730711,48.696795441225056],[7.599173915824908,48.696776478050985],[7.599189161744021,48.69674714845587],[7.59956178766295,48.69672834936392],[7.600167591765849,48.69669604161426],[7.600291861703813,48.69668223382518],[7.600603876846985,48.69664748182625],[7.600588971958278,48.69668067266324],[7.6005556286056,48.69675638071681],[7.600517239176668,48.696847419978816],[7.600479168367303,48.696938987499],[7.60058778569911,48.69693443316],[7.600695469344577,48.696930094969346],[7.600805091515853,48.69692613231346],[7.600978321663283,48.69691962319601],[7.601061971824766,48.696917474110485],[7.601142831144477,48.69691300010628],[7.601147442957121,48.696912822010454],[7.601227894216116,48.696909895365096],[7.601329920380007,48.69690622556615],[7.601421423001872,48.69690206111936],[7.601500397999523,48.69689937149685],[7.601575128536037,48.69689639525889],[7.601642965091137,48.69689395552281],[7.601711240219267,48.69689185919978],[7.601743604496804,48.696832856645],[7.601887369565993,48.69658160773642],[7.601979157845921,48.69642318460471],[7.602053992392385,48.696296319712395],[7.602088701360789,48.696237676928554],[7.602144003809172,48.69613318983068],[7.602162349306977,48.69609581144438],[7.602196710877289,48.696031686067556],[7.602302689607674,48.695830458567094],[7.602346790292249,48.69574712648832],[7.602265208567041,48.69576036877225],[7.602248707071913,48.695763078432655],[7.60218967841175,48.69576815157642],[7.602089861027618,48.695776782358465],[7.602065142065286,48.69577890842437],[7.60198829042223,48.69578250754962],[7.601872534245921,48.695787879584906],[7.601740780606638,48.69579395947873],[7.601648346306674,48.69579834042936],[7.601555632800633,48.69580264199347],[7.601460485696855,48.69580712757015],[7.601256890935772,48.69581652205239],[7.601143169189737,48.69582181480601],[7.601033380944196,48.695826955549535],[7.601012996767178,48.695869007450945],[7.600904753566029,48.69586697069303],[7.60079063042998,48.695864620306075],[7.600682404207842,48.69586123122702],[7.60041327874479,48.69585288269253],[7.600240435388251,48.69584829419046],[7.600053903913595,48.69583972904462],[7.600063817645763,48.69579159456367],[7.599998436486366,48.69578790211891],[7.599489469068565,48.695759079029756],[7.599195736702489,48.69573248692911],[7.599143045988558,48.695722988390955],[7.599008409779635,48.69570097600675],[7.598749830614511,48.69565473610492],[7.598395547572454,48.695591196690295],[7.597860409192154,48.695487694954714],[7.59737812576773,48.6953599874277],[7.59737520401142,48.695391724371355],[7.597149786709423,48.69534492226801],[7.59713099459165,48.695338619759326],[7.597059978529845,48.695318835519565],[7.596996780834701,48.69529974064994],[7.596924081886629,48.69527939058259],[7.596850761392738,48.69525816347936],[7.596772519730434,48.69523514405766],[7.59669450863332,48.695213196860266],[7.596484087415229,48.69515275085388],[7.596058189140828,48.6950594424121],[7.595797001259822,48.694991223085914],[7.595643059889396,48.69494157102043],[7.595537989231805,48.69490751263599],[7.595426546363295,48.694870636634676],[7.595321428574491,48.69483603930216],[7.59512850098256,48.69477329452279],[7.595031271604466,48.69474172630484],[7.59497432752841,48.69468851262498],[7.59485479083073,48.69465708381938],[7.594778431430767,48.69463687366929],[7.594705286539869,48.69461762067291],[7.59462612501015,48.69461815077898],[7.594556210447555,48.69461859452788],[7.594487374391937,48.69461737489365],[7.59432908425389,48.69461726222941],[7.594241705537958,48.69461720797606],[7.59419980315334,48.69461738221038],[7.594163223443209,48.69462545994172],[7.593885409234422,48.69468996029527],[7.593785052395479,48.694714101690124],[7.593679773046128,48.69473798230361],[7.593431197608478,48.694785226806104],[7.593305933293354,48.69480780534002],[7.59320354710004,48.69506879989804],[7.593091956676232,48.69536132271908],[7.592917032174323,48.695778638690804],[7.593056924094854,48.69580937486483],[7.593285496232579,48.695859576783405],[7.593392710235123,48.69587931916163],[7.593487064943939,48.69589676420854],[7.593577686346646,48.69591354224416],[7.593679228742818,48.69593224167764],[7.593823217094441,48.69596002603105],[7.593916829355669,48.695978310248606],[7.594008208241052,48.69599595973204],[7.594189314815317,48.696031051873014],[7.594266159354122,48.69604592800516],[7.594313376501422,48.69605509915389],[7.594348444016174,48.69606230616053],[7.594429826656196,48.69607925962734],[7.594515908026284,48.69609702291641],[7.594599508425335,48.69611443133271],[7.594758237795214,48.696147322258945],[7.594811544348125,48.6961359865105],[7.594812616329323,48.69614198168327],[7.594822121938332,48.69619432197172]]],[[[7.59569057790524,48.69361044085982],[7.595677476280596,48.69365022873489],[7.595665725639509,48.693686811082934],[7.595636151298163,48.69377138211278],[7.595623784367665,48.693810240659275],[7.595606136875902,48.69384786133107],[7.59558860385819,48.69388214397726],[7.595570980025135,48.69392003401935],[7.595345434414008,48.69427065336856],[7.595543244958709,48.694141482132],[7.595786275504451,48.693983356758736],[7.595887445438391,48.69391899874556],[7.595995886591466,48.69385066614035],[7.596068649640163,48.693800648107775],[7.596133875200731,48.69375776821055],[7.596283004882578,48.693660025507285],[7.596441992861344,48.69355523503549],[7.596525265838732,48.693500937008196],[7.596599336797543,48.69345032755284],[7.596676909099158,48.69340084431912],[7.596753668710072,48.69334986072491],[7.596845123516282,48.69328957061189],[7.5969384058202,48.693228399025735],[7.597140464234387,48.69309500642631],[7.597391840868811,48.692923581159846],[7.597827287665856,48.69262936624925],[7.597906965049583,48.692568268343656],[7.59782555435422,48.69260195334886],[7.597389586647826,48.69278050300275],[7.595860818640074,48.69311086037475],[7.595827770967252,48.693132767540654],[7.595805894037259,48.69316253275245],[7.59579804532445,48.69319860422838],[7.595765301298326,48.693372404035124],[7.595756440082815,48.69341707381774],[7.595745162237082,48.693451295412565],[7.595731319303993,48.69349039111787],[7.595717490873113,48.69353119811205],[7.595704302356443,48.69356999827392],[7.59569057790524,48.69361044085982]]],[[[7.597407434806286,48.693145520538515],[7.597324250273731,48.69320080691604],[7.59723233393936,48.69326048455424],[7.597143831926927,48.6933203006568],[7.597069196676063,48.69336913030547],[7.596992860053556,48.69342027798677],[7.596914695564141,48.693472307016386],[7.596752914565733,48.69357936827581],[7.596596626514874,48.693680811503036],[7.596525175568133,48.69372717536614],[7.596458354377432,48.69377047744228],[7.596567207286146,48.693753213673716],[7.597432370895849,48.69361576872655],[7.597430468759822,48.6935802535823],[7.597428425553048,48.693541590465244],[7.597424481454429,48.69346588049248],[7.597420097105148,48.69338207872004],[7.597418053913787,48.6933434155963],[7.597415922527947,48.6933052964603],[7.597414179764367,48.693270045450134],[7.597411631842371,48.69322410389353],[7.59740941473555,48.69318346532862],[7.597407434806286,48.693145520538515]]],[[[7.603189797952379,48.69785131709035],[7.603121039800292,48.69784640525704],[7.603049927151601,48.69784257541891],[7.60290972969833,48.697833215520916],[7.60289717131289,48.69783279969264],[7.602851837854272,48.697829595607324],[7.60261092013654,48.69781403530755],[7.602364927250967,48.69779957154047],[7.602362098813034,48.697872479643856],[7.602186201123158,48.697867290903176],[7.6020977102637,48.69786395154184],[7.601958074841294,48.697860965748255],[7.601689879364057,48.697854025344164],[7.601588024229619,48.69785039087216],[7.601488473942275,48.69784819895972],[7.601460396760729,48.69784775162466],[7.601212880357953,48.69784379563656],[7.600923539303294,48.69783938194926],[7.600759290083301,48.69824440555164],[7.600677070245632,48.698423450475765],[7.60065486485248,48.69846647346835],[7.600652876502645,48.698468622483226],[7.6005756162256,48.698458361309235],[7.599144105200786,48.698267479303084],[7.599075853469468,48.69825750013502],[7.599048686501876,48.69833846507811],[7.599030668605599,48.69839195757376],[7.599012770499455,48.69844526524452],[7.598974151310019,48.69856000818743],[7.599041050527109,48.69859634804433],[7.600372997747182,48.69879098560731],[7.600442116991917,48.698847871306846],[7.600461047464353,48.69886344802759],[7.600468981603426,48.698870079188126],[7.602356984596448,48.69926432363396],[7.602437681987412,48.69924561974921],[7.602445475816887,48.699236759440495],[7.60252378816223,48.69914931313491],[7.602559714245491,48.6991090933833],[7.602728180796067,48.699158085885585],[7.602896376367801,48.69920708862808],[7.602968029589849,48.69922783607562],[7.603042211602806,48.69924947686381],[7.603302044686414,48.69932512160357],[7.603314194369788,48.69932861650854],[7.603652969497608,48.6994212123204],[7.603759246818478,48.69945026199263],[7.603854778488515,48.69947630305905],[7.603971091902439,48.69950802809096],[7.604077433960634,48.69953626411169],[7.604294585861457,48.699594004798456],[7.604458774395689,48.69963766431659],[7.604566513060017,48.699666296437385],[7.604616126373128,48.699679425470094],[7.604715919425928,48.6997059318792],[7.60483079819289,48.69973681057272],[7.60491361467508,48.69975910763011],[7.604980252479664,48.69977698443034],[7.605058186747427,48.6997979384166],[7.605136958730086,48.69981913027029],[7.605260206608986,48.69985229794266],[7.605386518124027,48.69988624805746],[7.605477695792672,48.69991074430662],[7.605567485373901,48.699934933750946],[7.605656437381214,48.69995888521215],[7.60583558624633,48.700007010117574],[7.606378506096506,48.69934948229759],[7.606437041807891,48.69923387635967],[7.606229393338419,48.699186673961876],[7.606329326116988,48.69898027093233],[7.606361583335577,48.698907756551264],[7.606242585647181,48.69888109297718],[7.606145224170175,48.69885899874607],[7.606290614212648,48.69851217788287],[7.606312519789877,48.69845655156295],[7.606161173343621,48.698435012729114],[7.606104281567132,48.69842576963748],[7.606051601745623,48.6984179854563],[7.60594408171892,48.698399527312006],[7.60585050745578,48.698383323021204],[7.605730102299741,48.69836383111082],[7.60560740711299,48.69834460779589],[7.605499086376927,48.6983309553928],[7.605394204338454,48.69831771056749],[7.60529661548872,48.698303823370885],[7.605136533203397,48.698281990233454],[7.605154536948775,48.698131191549116],[7.60514072700273,48.69812893227393],[7.605039568183452,48.69812085901806],[7.605012777002165,48.69811802026836],[7.604986384837066,48.698115075993535],[7.604928365825439,48.69811002042207],[7.60480918527674,48.698098228691045],[7.604798637718624,48.698097465053934],[7.604683597826383,48.69808632405444],[7.604431034980812,48.69806220763582],[7.604446167509855,48.69794827993061],[7.604352125977565,48.697940651847176],[7.604342344810629,48.697939317968796],[7.604274799311131,48.697934269833496],[7.604167218231379,48.69792590344437],[7.604145014298477,48.69792414861241],[7.604060618364925,48.69791785943513],[7.603886330589647,48.69790315072378],[7.603771713038813,48.69789370440379],[7.603745327926422,48.69789238134653],[7.603601780809515,48.69788053884576],[7.603573505664711,48.69787784721388],[7.603532192883351,48.69787547911144],[7.603460188189215,48.697869251344216],[7.603375090457444,48.69786271850999],[7.603326652969871,48.69785981472352],[7.603189797952379,48.69785131709035]]],[[[7.610622657170376,48.6998237641873],[7.610952960049667,48.69970926207156],[7.610999136241544,48.69969269907702],[7.611195103248207,48.69963375949229],[7.611614397508635,48.699483556334044],[7.611714618204101,48.699447061903754],[7.611822515926864,48.69940810788776],[7.61186847661433,48.69939065189164],[7.611886219002017,48.699351132877915],[7.611906729973965,48.69929673060841],[7.611336787856654,48.69916057719341],[7.610950245430314,48.699069761138595],[7.610716259474277,48.69901412532608],[7.610623986124875,48.698992648661324],[7.610605337878149,48.699052744873406],[7.610585802651689,48.699115127850476],[7.61057000005141,48.69916583383793],[7.610553661915064,48.699218182306794],[7.610548042646617,48.69923623915142],[7.610279015424844,48.699175291128476],[7.610010021408204,48.69911316996122],[7.609873750213861,48.69908051098695],[7.609736289212939,48.69904978995153],[7.609668947820397,48.69903320436176],[7.609547658030096,48.69900681288268],[7.609416110350646,48.698975232040254],[7.609286300675879,48.698946376861514],[7.609203944266831,48.698927759021196],[7.609116187640663,48.698906556985186],[7.609023420114877,48.69888563881699],[7.608939157822648,48.6988654727607],[7.609007084405151,48.698685172076615],[7.608728431716482,48.69863693645948],[7.608655281304789,48.69862237697497],[7.608458716533947,48.698574299250986],[7.608188134487325,48.69850800096574],[7.6081614790539,48.698557594648804],[7.608011859474732,48.69883322430152],[7.60797115398925,48.69890714712006],[7.607927118780117,48.69898498279579],[7.607891954492069,48.699052294327196],[7.607787448869755,48.699020206525994],[7.60776111435483,48.69901329630862],[7.607733328290512,48.69900536104446],[7.607451008046155,48.69893870410935],[7.607220592816635,48.69888337401382],[7.607185193170759,48.69895573988873],[7.607124737552553,48.699069618576004],[7.607072467701473,48.69917137789414],[7.606975266941717,48.69936398111809],[7.606914723276027,48.699348843023095],[7.606855583655816,48.699334191199895],[7.606798526314384,48.69931999942793],[7.606669668683071,48.699288041300214],[7.606638770676763,48.6992803161952],[7.606603014114841,48.699271517552546],[7.606466354508158,48.699237518306816],[7.606401239556649,48.69936031613826],[7.605862806194399,48.70001469741652],[7.605998068394764,48.70005289590461],[7.606398128185363,48.70016581982877],[7.606424239335956,48.700173279576894],[7.606451613857324,48.700176545985116],[7.607316381987748,48.70028042033071],[7.607782634487557,48.70028734808177],[7.608014163142234,48.70026731249038],[7.608099269407596,48.70025384013784],[7.608322081783989,48.70023837562092],[7.608514147601893,48.70021382871253],[7.608584849451275,48.700243799681274],[7.608644888957303,48.700264001953514],[7.608685566846152,48.70027765514648],[7.609311294302113,48.70048752574385],[7.609946164934139,48.700722266885165],[7.610001966736649,48.700646678219506],[7.610030418538864,48.700608186824674],[7.610058990091995,48.70056951059129],[7.610110902708229,48.70049920790318],[7.610167438644627,48.70042268974457],[7.610205129176934,48.7003716776212],[7.610284893869925,48.70026380754453],[7.610317353865655,48.70021984519088],[7.61035092364117,48.700174578513625],[7.610385076453525,48.70012820808841],[7.610418885692401,48.700082571726696],[7.610442960997268,48.700050015799675],[7.610352424723113,48.7000297330358],[7.610196547020034,48.69999549042935],[7.610208036449554,48.69998225198238],[7.610164970690962,48.699986260786034],[7.610226117595286,48.699938845973044],[7.610447277336926,48.699878482463504],[7.610529131878239,48.69985594415054],[7.610622657170376,48.6998237641873]]]]}}]}
