{"type": "FeatureCollection","name": "aoc_geojson","features": [{"type":"Feature","properties":{"dt":"Pau","type_prod":"Vins","categorie":"Vin tranquille","type_denom":"appellation","signe":"AOC","id_app":9,"app":"Béarn","id_denom":61,"denom":"Béarn","insee":"64263","cvi":"1B101S, 1R101S, 1S101S","nomcom":"L'HOPITAL-D'ORION","insee2011":"64263","nomcom2011":"L'HOPITAL-D'ORION","id_aire":75,"crinao":null,"grp_name1":null,"grp_name2":null},"geometry":{"type":"MultiPolygon","coordinates":[[[[-0.875087368361617,43.43580489218697],[-0.874852811829369,43.43603667119584],[-0.874614676242558,43.43591089273014],[-0.874034374799056,43.43557190164644],[-0.874132478053181,43.43546309455841],[-0.874152567218411,43.4354603940859],[-0.874234741847016,43.435384853809545],[-0.874526647252466,43.43511634538477],[-0.874730965761664,43.43494212585885],[-0.873938361449008,43.43455966055079],[-0.873778307257326,43.434708425097725],[-0.873702682346276,43.43467753323699],[-0.873237135848509,43.434441801277785],[-0.87324233028536,43.43413176055406],[-0.874280197826671,43.43322721222191],[-0.874755648457249,43.43341007161306],[-0.875073608378242,43.43354668338876],[-0.875777770716121,43.433964912869634],[-0.876309944160563,43.4343491230228],[-0.876284948397718,43.4343982076836],[-0.876121478976879,43.43462456206133],[-0.876026257186464,43.43473569991713],[-0.875802906259465,43.43495573056846],[-0.875684794599829,43.43512155194376],[-0.875357625347657,43.435455458807745],[-0.875087368361617,43.43580489218697]]],[[[-0.870476545349377,43.43372661714045],[-0.870593504141187,43.43363713585923],[-0.87068945824278,43.433562456928236],[-0.871194809442493,43.433737957508676],[-0.871446369251969,43.43349062671454],[-0.871749350298955,43.43351320952596],[-0.871913678854383,43.43336915930538],[-0.872734538611454,43.433578856143924],[-0.872651296346477,43.43363119429543],[-0.872536490702893,43.43374158814404],[-0.872518097354024,43.43376395388625],[-0.872022603753484,43.434140530622706],[-0.872072026769003,43.434165965420064],[-0.871935211676212,43.43427993803558],[-0.871518412739657,43.434085150840865],[-0.871238850230641,43.43396066691848],[-0.870476545349377,43.43372661714045]]],[[[-0.86748363722921,43.43030799891692],[-0.867451088152744,43.43030366720833],[-0.867075511721555,43.4307524087417],[-0.867046141372309,43.43076777953193],[-0.867025420355794,43.43027221469531],[-0.866999478318822,43.4294986897622],[-0.866912974773789,43.42871408775164],[-0.86685509302315,43.42838081213365],[-0.866943888224058,43.42834125076596],[-0.867012738701771,43.42832672156957],[-0.867076243927742,43.42832643471148],[-0.867135885814253,43.428347723281675],[-0.867506452582345,43.428004816776955],[-0.86799345889765,43.42755938847899],[-0.868345510489481,43.427262897758894],[-0.868642957971187,43.426955746941076],[-0.868665569823046,43.42690792057736],[-0.868618148015027,43.42689925683889],[-0.868557340836128,43.426888189072],[-0.868675854959364,43.4265886933922],[-0.869105958359264,43.4263631807465],[-0.870289634391032,43.4256872019296],[-0.870974671999698,43.425852672671155],[-0.871227963820886,43.426215348015624],[-0.871344388214999,43.4263770097408],[-0.871398528279863,43.426463435647044],[-0.870897418612653,43.42679246909944],[-0.870283412423342,43.42710229746039],[-0.869525333652694,43.42806832300616],[-0.86926213199812,43.42826913672026],[-0.869177790861279,43.42837303346304],[-0.868870109688312,43.42881286958881],[-0.868745082010672,43.428949475513924],[-0.868326535760203,43.42939669467873],[-0.86748363722921,43.43030799891692]]],[[[-0.868484091892705,43.43914948329007],[-0.868605243498187,43.439368268440155],[-0.868660769616272,43.4394384339567],[-0.868737151348851,43.439473175720245],[-0.868900588714552,43.43957452426895],[-0.869135500137556,43.43974420701221],[-0.869205631298153,43.439750348078135],[-0.869246049717163,43.43977601609472],[-0.869293078386541,43.43982459696117],[-0.869485840802041,43.439968582808355],[-0.86955637165913,43.44002289910973],[-0.869668073515265,43.440069979243994],[-0.86979937267469,43.44016211661571],[-0.869888534150508,43.440232430624135],[-0.869957940660425,43.44027003306251],[-0.870037172300531,43.440295664708565],[-0.870118826086292,43.44033156827367],[-0.870188191756566,43.44039610426139],[-0.870238751896097,43.4404420364796],[-0.87032484728539,43.440490661778654],[-0.870440219528416,43.440527972037415],[-0.870575049240845,43.44058070995799],[-0.87076504127249,43.44065408445544],[-0.870907538481236,43.44073807392735],[-0.869884178391489,43.44128060122182],[-0.869374661724017,43.44122963284205],[-0.869310484652217,43.441233007076995],[-0.868819158417707,43.44128884474765],[-0.868125171510891,43.44136227859557],[-0.867582180242123,43.44141824480141],[-0.867983857944238,43.44220348641057],[-0.866123293663237,43.44255114421827],[-0.866402850658513,43.44330373144843],[-0.869059111405996,43.44282279473711],[-0.869064322718628,43.44369741166412],[-0.868277395345816,43.443935129408004],[-0.867890906120983,43.44403549686658],[-0.867680512017136,43.44407976220623],[-0.867335070534966,43.44413245331407],[-0.867054592439954,43.44405374674907],[-0.86611900032887,43.443715237412995],[-0.865615665567397,43.44342001866874],[-0.865049309971272,43.443101196002765],[-0.864751564064628,43.443017425506234],[-0.864617624340424,43.442931951538476],[-0.864398843324223,43.44286797047251],[-0.86444842702394,43.44283872829976],[-0.864550176114616,43.44252073814861],[-0.864658787617703,43.44213566800061],[-0.864674245924976,43.44193163881874],[-0.864677136026853,43.4417558010624],[-0.864782348722903,43.44174682155047],[-0.865824471171163,43.441631436570475],[-0.867026806242877,43.441479424410794],[-0.866920695482723,43.441337203593754],[-0.86702417679334,43.44110769196305],[-0.867201079081733,43.44108759270958],[-0.867427425689828,43.44090575536486],[-0.865805009947232,43.44100008108168],[-0.865754812813284,43.44100178313539],[-0.865619806811849,43.44062279722196],[-0.8658989572082,43.44052762093977],[-0.865956658760823,43.44050700553039],[-0.866052422422824,43.44043107671438],[-0.866241751850138,43.4402447088383],[-0.866271760418907,43.44024426785136],[-0.866972486187761,43.440048824642275],[-0.867133649112254,43.44001163297356],[-0.867734116169815,43.43986759474173],[-0.867886388539415,43.43986179508534],[-0.867880556195926,43.439824712723436],[-0.868102258034266,43.439787068401024],[-0.867927786836822,43.43942615882299],[-0.867975745318443,43.439137649569595],[-0.868095824158135,43.43838880734209],[-0.86818777188624,43.43853918889079],[-0.868232833708676,43.43866512395342],[-0.868432900657994,43.43900962560246],[-0.868484091892705,43.43914948329007]]],[[[-0.867929137010756,43.432991589521166],[-0.867921900850921,43.432990587011155],[-0.868076768290401,43.43280499669039],[-0.867682808730335,43.43262415187631],[-0.867169233980586,43.43257782491408],[-0.867098736323723,43.43251648083358],[-0.867071161991051,43.43247035724872],[-0.867012233121413,43.43229249500461],[-0.867016768153161,43.431874751798894],[-0.867018015015072,43.43158638173554],[-0.867094252547384,43.43160077257114],[-0.867163330276563,43.431617130502254],[-0.867183663005458,43.431561099034234],[-0.867213121816749,43.43156725263625],[-0.867307865121778,43.431586656918185],[-0.867321301319828,43.43154753538775],[-0.867369391609071,43.431556896562604],[-0.86740867569434,43.43156396016235],[-0.867624451845557,43.4316003879544],[-0.867973380995435,43.43167232107661],[-0.868012096687198,43.43179586998142],[-0.868081921610877,43.432065848056865],[-0.868224863125382,43.432079656360735],[-0.8683617447935,43.43218159291605],[-0.868376303588352,43.432155491789565],[-0.868453490199365,43.432022307108255],[-0.868560352099387,43.431904005031946],[-0.868538736774539,43.431882168916104],[-0.868554327638202,43.431849365435404],[-0.868564845209857,43.43182566053028],[-0.868579652573937,43.4316397598115],[-0.869792265198671,43.43154814287513],[-0.870042743323386,43.43153270405154],[-0.870465454134988,43.431509035631855],[-0.870456712150993,43.43214851169372],[-0.870461688640521,43.43231424973149],[-0.869840576790493,43.43242391450049],[-0.869814954000463,43.43279431307332],[-0.869217361948049,43.43293583016954],[-0.868856267141748,43.43301755086848],[-0.868694113798178,43.433026858172944],[-0.868380577470069,43.43302184819239],[-0.868212102609364,43.43299598166734],[-0.86799435276802,43.4329468348545],[-0.867929137010756,43.432991589521166]]],[[[-0.867466273750439,43.438041452060894],[-0.867976925509814,43.43860031536541],[-0.867975745318443,43.439137649569595],[-0.867553694481966,43.43904517728399],[-0.865236680149107,43.43853711963767],[-0.865154898330527,43.43806345801041],[-0.864558540009676,43.438108434444025],[-0.864465816283563,43.43811922004984],[-0.86413678263607,43.437556652503694],[-0.864000029009706,43.437333466132486],[-0.863968249386885,43.437261550429334],[-0.863922512478434,43.43713644885143],[-0.863916409099868,43.437052988137275],[-0.863941348825095,43.43675827753837],[-0.864021466991864,43.43603762082128],[-0.864035127295032,43.43581050789896],[-0.864035599556442,43.43572005706952],[-0.864024398420017,43.43561407981602],[-0.864126863652111,43.435674735516145],[-0.864128406142311,43.43569584778],[-0.864980684295183,43.435797384901775],[-0.86497481484782,43.435802008039204],[-0.865248455513558,43.43600580429921],[-0.865425386874283,43.436096677336494],[-0.865404258069723,43.43630270982037],[-0.865309722798496,43.43694840112273],[-0.864290408910127,43.43680418775583],[-0.864273626526379,43.43697196363988],[-0.864256831207445,43.43706966259823],[-0.864904204182338,43.437156716165084],[-0.865102370518455,43.437177294908174],[-0.865996110497947,43.43725536686732],[-0.866687821313643,43.43793360350539],[-0.866977555548123,43.43785633115098],[-0.8670334424877,43.43788964415187],[-0.867171923588455,43.43794351649783],[-0.867287685171969,43.43798856224657],[-0.867466273750439,43.438041452060894]]],[[[-0.865349329474721,43.434220725223774],[-0.864811506287123,43.43453464608571],[-0.864625270431428,43.43464361757646],[-0.864532880351437,43.434578369357126],[-0.864453308248178,43.434512573479886],[-0.864416196237381,43.43448084110897],[-0.864288391791196,43.43457646718658],[-0.864239484735947,43.434545786256805],[-0.864117412749831,43.43465498878493],[-0.864093488966873,43.43463557606447],[-0.864069475863902,43.4346534570008],[-0.863940230906304,43.434764446570455],[-0.864027608295273,43.434834197723696],[-0.864084949062961,43.43487817888067],[-0.864143912009116,43.43492606535562],[-0.863905781222931,43.4350666119754],[-0.863860705922344,43.43509479233204],[-0.863722378957607,43.43517917372792],[-0.863577174859243,43.43504717330525],[-0.863515786937834,43.43508827571047],[-0.863408887958261,43.435160275996985],[-0.863231615429746,43.43527946374592],[-0.863198625410627,43.43530171810115],[-0.862053335484786,43.43478673374594],[-0.862309636762988,43.43447503400034],[-0.862938274480093,43.43406294837336],[-0.863324576083515,43.433831907253996],[-0.863121039594522,43.433755131349656],[-0.862930633672699,43.43370085532928],[-0.862173416536787,43.433135276967775],[-0.862668175075945,43.43284632512068],[-0.862797922561094,43.432731806366284],[-0.86346890128096,43.43230271404859],[-0.865085041408084,43.432808168706366],[-0.865010828944086,43.43289746883034],[-0.865610950326341,43.43313356350967],[-0.865435406717995,43.433307728306744],[-0.865150598677715,43.43358667607356],[-0.865275398737247,43.43361924084388],[-0.865444682169086,43.43366264745227],[-0.865532549366735,43.43373048830685],[-0.865775136653072,43.433915575156966],[-0.865817329793584,43.43395117894926],[-0.865349329474721,43.434220725223774]]],[[[-0.865261606755305,43.43867989772881],[-0.86496723507503,43.43911303284679],[-0.865263555625877,43.43867946786149],[-0.865563725473264,43.44025936881706],[-0.865267238523469,43.44030075838848],[-0.864698196219057,43.4403938500672],[-0.864646646630448,43.44009223062697],[-0.864670838324048,43.44002732456369],[-0.864642673580382,43.4400276092273],[-0.864747918392196,43.43972309573318],[-0.864833209151681,43.43944172282457],[-0.864912504067679,43.43917965957668],[-0.864927365801305,43.43910652948135],[-0.864930327767168,43.43902923037941],[-0.864916023160979,43.43890102532046],[-0.86487129297526,43.438763367661274],[-0.86481939483101,43.43865514980923],[-0.864772194577613,43.438578200055275],[-0.864846317650567,43.438572041404676],[-0.865236680149107,43.43853711963767],[-0.865261606755305,43.43867989772881]]],[[[-0.863918280979512,43.43608579972828],[-0.863875815169944,43.43644526812033],[-0.863842595296778,43.43664803861755],[-0.863708221132894,43.43707455909869],[-0.863583616246482,43.43707810481023],[-0.863448557128678,43.43710634332081],[-0.863428831451058,43.43709975120879],[-0.863338534141992,43.43703073406297],[-0.863059632921164,43.43690314278728],[-0.86294739464366,43.43662161370199],[-0.862838270972541,43.43655200686933],[-0.862745135749559,43.4364940795478],[-0.862704688995977,43.436478948982476],[-0.862617959496,43.43645565153345],[-0.86247132808388,43.43643304979135],[-0.861953204101898,43.436404063260284],[-0.861628712659554,43.43637789626548],[-0.861553973860244,43.43622761694966],[-0.861545644909793,43.43592508669081],[-0.861968560017406,43.4358101107326],[-0.862357774925915,43.43572524889561],[-0.86242808827705,43.435686350836356],[-0.86250323646925,43.4356550265765],[-0.862672818092361,43.43562186452409],[-0.862802383671849,43.43557445707231],[-0.862935707906592,43.435537003599215],[-0.863461897677685,43.43538077617689],[-0.863731803540418,43.43526792021725],[-0.86378179296144,43.43526136236787],[-0.863824253366835,43.43527335813215],[-0.863846203436189,43.43528914834474],[-0.863864824213064,43.43530505736756],[-0.863902081984191,43.435535757447965],[-0.86393205526274,43.4358787691891],[-0.863918280979512,43.43608579972828]]],[[[-0.862254701657289,43.427167369115544],[-0.861866217512415,43.42744811481259],[-0.861353247092911,43.42792533502137],[-0.860770523741519,43.42827677632376],[-0.860144521612524,43.428651915485325],[-0.85973943224923,43.428805251519385],[-0.85944371033239,43.42831399815257],[-0.859284106497824,43.42792651978346],[-0.859926048533423,43.42766737171117],[-0.860598326018442,43.4273907445885],[-0.861625172776878,43.42676089978726],[-0.862195197303164,43.42712967979143],[-0.862254701657289,43.427167369115544]]],[[[-0.863508212180649,43.44433841621742],[-0.863399174136647,43.44477250101583],[-0.86319179012494,43.445341782928224],[-0.862521816318064,43.44543485936034],[-0.862222952067468,43.44544128565453],[-0.862240584574571,43.445129630520015],[-0.862302239727122,43.44474272460503],[-0.862485741217014,43.44471762414441],[-0.862743577453972,43.44470779652581],[-0.862738249247565,43.444319406548345],[-0.862739897215737,43.44430529619144],[-0.863508212180649,43.44433841621742]]],[[[-0.858233542632912,43.43464306426953],[-0.858498260212041,43.434861696136934],[-0.858674299806584,43.434991072707525],[-0.85892887128593,43.43519844583403],[-0.859097684248327,43.43550372248381],[-0.858686022706748,43.4354254389419],[-0.858585601741277,43.435411723762726],[-0.858543256707483,43.43541800675814],[-0.858277626764575,43.43550079269335],[-0.858154477808882,43.435542561551955],[-0.857848419933773,43.43566759023857],[-0.857399972194764,43.43584056599187],[-0.857178878006034,43.43592581573281],[-0.856346742894698,43.436247835385565],[-0.856030527861415,43.43635790804216],[-0.855942911597522,43.4363876900919],[-0.855726699379285,43.43643889534162],[-0.85550431994326,43.43647924074938],[-0.855167894574894,43.436540490198595],[-0.854642026934658,43.43661163571424],[-0.854644395072344,43.43662299070331],[-0.854445748338868,43.4366449246979],[-0.854047675702976,43.4366587348714],[-0.853850149164075,43.436666036034026],[-0.853448258737722,43.43659522105399],[-0.853439755935838,43.436405649496486],[-0.85460884683336,43.436312152622826],[-0.85591703809279,43.4361272189356],[-0.855744598579664,43.435776850119005],[-0.856915062755011,43.43545161046291],[-0.856863346865494,43.43535689419951],[-0.856650299066479,43.43500374003465],[-0.856564980869354,43.43495165430676],[-0.857021835085636,43.434834047742214],[-0.85707145906872,43.43425085733088],[-0.857474466089081,43.434366114713605],[-0.857979912423736,43.43455464300416],[-0.858233542632912,43.43464306426953]]],[[[-0.85719575487105,43.42915207883514],[-0.857093310379157,43.42918725432327],[-0.856667546504369,43.42914306479311],[-0.856481135786217,43.428829226373544],[-0.858187239422517,43.42804208876926],[-0.858561704843448,43.42871428717115],[-0.858732024112471,43.42899996266889],[-0.85865200120435,43.42915008420316],[-0.857826864265255,43.42941088860323],[-0.857614618902465,43.429478440332666],[-0.857452735193661,43.42952663296395],[-0.85719575487105,43.42915207883514]]],[[[-0.857746208829271,43.444082935565376],[-0.857632879175924,43.44409814210948],[-0.857497349557794,43.44412701993535],[-0.857276692315678,43.44420820037659],[-0.857093628002068,43.444265612926294],[-0.856493100381619,43.44445399863402],[-0.856249835646833,43.444190819186076],[-0.855907356658657,43.4443301991096],[-0.85583828699833,43.443914175790525],[-0.85580600677811,43.44382732316201],[-0.855733217152707,43.443656252839666],[-0.855706825812773,43.443660885583796],[-0.855664535963384,43.443603573243635],[-0.85563982622648,43.443609317054104],[-0.855603147015625,43.443532439069806],[-0.855697308254442,43.443507918982455],[-0.855600747078739,43.443358412025255],[-0.855860389168898,43.44322630627698],[-0.855730009797969,43.44315132368251],[-0.855654303658018,43.4430565596249],[-0.85567876562045,43.443043438584404],[-0.856055398447144,43.442974721845175],[-0.85614902451025,43.44296066894504],[-0.856352055034659,43.44292452485653],[-0.856670097202829,43.442872484478656],[-0.856973116304592,43.442813952507606],[-0.857662641171365,43.44394845995871],[-0.857678608567765,43.443974552984564],[-0.857746208829271,43.444082935565376]]],[[[-0.856054297370194,43.44644530560757],[-0.856025724622859,43.44633634276311],[-0.855995440180411,43.44620185987991],[-0.855982329052402,43.44609117552822],[-0.856792996209495,43.44588188799927],[-0.856889202141406,43.4454013398744],[-0.857071860914852,43.445321243573915],[-0.857100986532759,43.4452910222022],[-0.857110312166237,43.44521259594229],[-0.857297994733099,43.44514105746671],[-0.85737201466788,43.44510743535477],[-0.857426783726513,43.44509827846572],[-0.85757410050827,43.44508474382996],[-0.857677486841401,43.445065027638904],[-0.857778059503579,43.44503838581743],[-0.857894388011986,43.44501073220595],[-0.85806778992424,43.44495852657536],[-0.85814619622394,43.44495158967638],[-0.858152717254232,43.444986125888406],[-0.858173820646361,43.44505374013602],[-0.858223953161068,43.44513022823389],[-0.858503264176705,43.44564108408677],[-0.858632585725209,43.44591381403083],[-0.858048580627007,43.446022534413714],[-0.856785319603357,43.44629262843708],[-0.856054297370194,43.44644530560757]]],[[[-0.856748825445127,43.457083121034486],[-0.856506012708899,43.457208954160826],[-0.856126281555737,43.45741901726537],[-0.855770287239251,43.45761247089391],[-0.855698025931606,43.45765044266682],[-0.855595449079069,43.45781712935172],[-0.855532774343477,43.4578652984833],[-0.855493240821839,43.45787319112705],[-0.85542906762414,43.45786953053078],[-0.855220982963284,43.457956473239044],[-0.855205045990023,43.45801198603889],[-0.85531784759862,43.458080661185726],[-0.855117098807882,43.458208776900356],[-0.855505329635614,43.45864325969641],[-0.856035392282501,43.45839758194317],[-0.855806524491052,43.45808443322839],[-0.856501196587686,43.457774794725935],[-0.857723709079556,43.45723647832629],[-0.857953369374644,43.45713579134948],[-0.858248892242408,43.45738630117227],[-0.858076496816966,43.45747432014922],[-0.858123482266396,43.45752218761306],[-0.858305016627735,43.45769740187001],[-0.858177801903947,43.45780272723981],[-0.858067947762813,43.45787563765455],[-0.85766847286872,43.458132347734775],[-0.857469570670776,43.45824184681327],[-0.856412590813909,43.458844434548716],[-0.855673180924885,43.45926339422721],[-0.855610578057151,43.45929606798313],[-0.855543346563409,43.45924315529251],[-0.8554773687999,43.459284506204554],[-0.855464121954746,43.459291643265765],[-0.855355376872955,43.459198683698226],[-0.855304637746567,43.45915383100977],[-0.855194260170296,43.45920243681536],[-0.855001891448756,43.45895779503567],[-0.854562587317839,43.458418119302515],[-0.854468035307327,43.458302585628466],[-0.854405904000603,43.458200310103685],[-0.854374527437672,43.45806064005017],[-0.854576383549449,43.45783286383595],[-0.85490918662794,43.45747423219337],[-0.854983366885518,43.45742799587314],[-0.855065517682461,43.45730518261447],[-0.855115918898784,43.45722151085778],[-0.855282314762736,43.45696473035083],[-0.855205787723547,43.45692250710278],[-0.85531795099359,43.45663514001071],[-0.855550831425243,43.45629672689227],[-0.855863654306303,43.455839541290764],[-0.856151944074918,43.45545907100855],[-0.856756648468699,43.455828733247394],[-0.856939263944197,43.456226575219475],[-0.85698837336038,43.4563927255092],[-0.857038860693268,43.45657756226698],[-0.857104054442767,43.45688572800149],[-0.856748825445127,43.457083121034486]]],[[[-0.855470539027364,43.45631264593098],[-0.855284370847598,43.45660273750183],[-0.855169862356222,43.45647170158771],[-0.854832417349271,43.45604937290143],[-0.854631459012383,43.455803686059326],[-0.85406542600219,43.45510881884407],[-0.854606587891409,43.454804114358325],[-0.854988423176043,43.45457398514668],[-0.855281603532261,43.454799184046244],[-0.855523894312874,43.45441684017617],[-0.855644228127649,43.45422925486741],[-0.856673621900871,43.45457109637983],[-0.856610613968873,43.4546584604565],[-0.856238470856731,43.45522648033662],[-0.856055270010572,43.45548881472932],[-0.855846623595602,43.45574971275999],[-0.855754299625193,43.45588117563581],[-0.855470539027364,43.45631264593098]]],[[[-0.85513620766321,43.4591923429792],[-0.855210967871637,43.45930957152241],[-0.855235669312259,43.4593570624547],[-0.855265049857395,43.459461404156905],[-0.855277845637152,43.45948256664992],[-0.85537509415787,43.4596511479783],[-0.855385507451368,43.459780575077374],[-0.85535737331125,43.459949205672515],[-0.85524764971134,43.46012740585788],[-0.854982561625581,43.46053344015065],[-0.854947677715951,43.460595932545885],[-0.854920037780056,43.46115357868721],[-0.854908810805559,43.4613715090186],[-0.854413544423909,43.46140633829174],[-0.853831860500979,43.46142487389701],[-0.85327554528499,43.46126478638629],[-0.853237869622401,43.461246940734576],[-0.852889948464086,43.460775525700356],[-0.852707528707138,43.46053349829948],[-0.852522083772966,43.46034039875241],[-0.852295732818716,43.46011074232434],[-0.852223470552735,43.46012295034694],[-0.85220128976384,43.460127792564265],[-0.851753441042351,43.46019100848189],[-0.851433977131675,43.46022885029449],[-0.851057868464571,43.46026654333625],[-0.850580115233185,43.46031901778921],[-0.850215765029709,43.460399345487126],[-0.850176466776859,43.4604089391717],[-0.848980972941498,43.460566092347236],[-0.848204901982095,43.46067500432167],[-0.848064391147997,43.4606947684482],[-0.847371960312431,43.46079520836002],[-0.847370725865076,43.460828489662426],[-0.846687867130609,43.46099253792226],[-0.846378151838788,43.46106343596329],[-0.845739258026211,43.46119529158181],[-0.845687405239696,43.461152185482774],[-0.845713168079241,43.461080742593424],[-0.845040688021997,43.46101742452178],[-0.844687622982138,43.460858095396254],[-0.844372475135025,43.46069066388607],[-0.844774561232941,43.46059757727408],[-0.844891740202815,43.4602974338766],[-0.845378697825135,43.46022168896639],[-0.846048136093177,43.46009370472954],[-0.846000866699107,43.46023364718811],[-0.846193666192925,43.46017852137023],[-0.847424505501973,43.46009499526189],[-0.847507124355748,43.460254104340585],[-0.848231345798476,43.460148390485955],[-0.848789652035208,43.4600283906866],[-0.848793157278713,43.4599053145397],[-0.848810593126088,43.45949170380773],[-0.848806022591051,43.45914462945951],[-0.85131186310027,43.458782992263835],[-0.851931328798381,43.458703136030714],[-0.851908150107563,43.45855101381378],[-0.852693647440389,43.45839138725811],[-0.852798274055912,43.45866095179439],[-0.853001988773783,43.45859542696487],[-0.854342738254589,43.45816373576527],[-0.854389539441948,43.45829186783053],[-0.854380849501132,43.458315326251835],[-0.854465700187553,43.45835995619666],[-0.854830595809647,43.45880977376126],[-0.85513620766321,43.4591923429792]]],[[[-0.852736369847197,43.43651336807759],[-0.852716503157895,43.43662270316923],[-0.852749765342413,43.43685715084708],[-0.852949700645863,43.43708314551003],[-0.852466011796207,43.437224927839644],[-0.852028690996444,43.4373964938437],[-0.851889195178368,43.43720176448567],[-0.851570045604483,43.43680877993646],[-0.851531633336687,43.43676492969148],[-0.851425409733578,43.43674393819228],[-0.850725582123744,43.43692150361656],[-0.85060680607938,43.43684781466617],[-0.8503038189979,43.43649298343853],[-0.8501344218114,43.436213385984985],[-0.850409827273915,43.4361637799973],[-0.850673918290028,43.43612979802301],[-0.850811643641185,43.436117333610895],[-0.850927937294599,43.43611337756734],[-0.851190832179192,43.43611321422826],[-0.85182348511926,43.4361342143419],[-0.851954733714149,43.43615422502774],[-0.852068111114794,43.43616946699537],[-0.852216408794216,43.43622255812099],[-0.85231865704884,43.43626539786335],[-0.852414718969515,43.43630998887395],[-0.852745377654241,43.43647071318882],[-0.852736369847197,43.43651336807759]]],[[[-0.850524433696752,43.45417972836884],[-0.850305669565333,43.4542991076959],[-0.849994698272707,43.454520485614154],[-0.849727021646838,43.45480679839712],[-0.849186665725753,43.454473994485504],[-0.848650316730362,43.454437299333335],[-0.848537819702416,43.45421043713022],[-0.848377714639148,43.45388375314633],[-0.848638244845078,43.453878458615854],[-0.848479844636511,43.453222674051524],[-0.848513780136911,43.4532235398651],[-0.848671342527225,43.45324451261729],[-0.848665925404684,43.45265949460885],[-0.849042996722242,43.45261844141458],[-0.849423870508854,43.45260832725933],[-0.849587090017264,43.45260117461178],[-0.849577522176237,43.453392454608625],[-0.849925164952744,43.45346206462342],[-0.850241593189511,43.45332038858209],[-0.850878489673037,43.45282611660651],[-0.851752919655913,43.4524984069469],[-0.851794850666392,43.452489439501846],[-0.852474573528317,43.452186212933924],[-0.853281783752479,43.4517892726222],[-0.853316129025023,43.45184605836722],[-0.853376821839195,43.45205242056452],[-0.853332373568323,43.45214002287327],[-0.853304590111621,43.45216821380448],[-0.852985722892957,43.45237844229467],[-0.852709904412676,43.45255029805642],[-0.852205332306635,43.452937730688234],[-0.851721920181726,43.453308915543545],[-0.851426564795508,43.453532534722],[-0.850736315409509,43.45402960777601],[-0.850524433696752,43.45417972836884]]],[[[-0.850196811533103,43.44464463266538],[-0.849959264779795,43.44461776969111],[-0.849718574919819,43.44459381022298],[-0.849433291412844,43.44456666158048],[-0.84925769856979,43.44456407629905],[-0.849043873910551,43.444566542696286],[-0.848986559186124,43.44455984280383],[-0.848732556507146,43.44454013744779],[-0.848578185288091,43.444542471432285],[-0.848456637457474,43.444551294914405],[-0.848048362020417,43.44461480394324],[-0.847854170036781,43.44464278167249],[-0.847637420779639,43.44466804768982],[-0.847446255746129,43.44464151282244],[-0.847338006325199,43.444636621762456],[-0.847004338565912,43.444551467186436],[-0.846953058524609,43.44424884119697],[-0.846925348171866,43.44417650596919],[-0.846829386647871,43.44383610534915],[-0.846958682914029,43.44350526672676],[-0.847239188302134,43.44379731672653],[-0.84745588083455,43.4438802314479],[-0.847802554011271,43.444017525165506],[-0.847784219681224,43.44405573722614],[-0.848684281480504,43.444186513690774],[-0.850020750751408,43.44415882107959],[-0.850026264947511,43.44418393566787],[-0.850064622081101,43.44428228322638],[-0.850196811533103,43.44464463266538]]],[[[-0.848943233774532,43.43069609141764],[-0.848424456034273,43.43107743588461],[-0.847805206957391,43.430664847054935],[-0.847520983099224,43.43048624675272],[-0.847619722697793,43.430404824952824],[-0.84750048019361,43.43031835986833],[-0.847417811794726,43.430257616611186],[-0.847546833003317,43.43009495429523],[-0.847676134869209,43.42952830727541],[-0.848295477992945,43.42970796543813],[-0.848329712914511,43.429639644554506],[-0.848455925095377,43.429355663360354],[-0.849751980477273,43.42906728794586],[-0.850304047078047,43.428995232538206],[-0.850429257241954,43.42897330521286],[-0.850473881384909,43.42908602003325],[-0.85063106179824,43.42936064498304],[-0.85071814697208,43.42960173405631],[-0.850720461635735,43.4296639819167],[-0.850692883502714,43.42970063156829],[-0.850649492194281,43.42970415653762],[-0.850564552993273,43.429711050784974],[-0.849844633200901,43.42975710075392],[-0.849727421876207,43.43114460276092],[-0.849469025780491,43.43099562338526],[-0.849018912353595,43.43073177174295],[-0.848943233774532,43.43069609141764]]],[[[-0.849285530448894,43.450884095344655],[-0.849279080910438,43.45092440744981],[-0.848946433030409,43.45093632041098],[-0.848774244262796,43.45099963678299],[-0.848271545067711,43.45109388341857],[-0.848108446999288,43.45110093983445],[-0.847929395851363,43.45108946718398],[-0.847607649837598,43.45106108595914],[-0.847439281515008,43.451052205404224],[-0.847218432605013,43.45104059516989],[-0.847206820360152,43.451040737463295],[-0.847161734162704,43.451041348287255],[-0.846798824381512,43.4510463130647],[-0.846583814115125,43.451053589780415],[-0.846405898962779,43.4510812563443],[-0.846408899868848,43.45104295850955],[-0.846468585530701,43.451044351531465],[-0.846468255551242,43.45102094408669],[-0.846441929461712,43.45102106845011],[-0.846443832433946,43.45097929673591],[-0.846599041897296,43.450987385174955],[-0.846611988357221,43.45086676700465],[-0.84640173573273,43.4508545986252],[-0.846310005496116,43.450851010942976],[-0.846306391859895,43.45086537092739],[-0.84623091857695,43.450864538523696],[-0.846190727199109,43.45086254311844],[-0.846022301674656,43.4509340982167],[-0.845601237126742,43.451065876267386],[-0.845616030824696,43.451091112022596],[-0.844682108529385,43.451337295041945],[-0.843813931038938,43.45156465288784],[-0.843764415386538,43.451572985676734],[-0.843692614002263,43.45157715534542],[-0.843661381424422,43.451572318966825],[-0.843614290043875,43.451552192466536],[-0.843589243708092,43.45153632768468],[-0.843565883143733,43.45150869350402],[-0.843392500361418,43.45126210032065],[-0.843290125331287,43.451108555089384],[-0.843090537008391,43.450732555192324],[-0.843061126753935,43.45074017421122],[-0.84303690079188,43.450738421756895],[-0.843024994590171,43.450730467420335],[-0.843010393626425,43.45071549290117],[-0.844118472553349,43.45059627130161],[-0.844436445528803,43.45101382446602],[-0.8444550982965,43.45100064209009],[-0.84468573922224,43.45087770063368],[-0.845000542994979,43.4507154709281],[-0.845218970091687,43.450604040973126],[-0.845246852653103,43.45063088372033],[-0.846875283010263,43.450095661559835],[-0.846945386447435,43.45016036631761],[-0.84694840156988,43.4501352187312],[-0.846968506328419,43.45012711852236],[-0.847131395400552,43.45007818689427],[-0.847193538732015,43.45004796638452],[-0.847226546355666,43.45002760810413],[-0.847252063614978,43.449995085740575],[-0.847276738850545,43.44994998296811],[-0.847281387598693,43.4499141486411],[-0.847277718042689,43.449892571246416],[-0.847267538869209,43.44985870486717],[-0.847205078142086,43.44984353956721],[-0.847090911418304,43.4498131871106],[-0.84686686724298,43.44968909778983],[-0.846837444918027,43.44963925131012],[-0.846921198784235,43.44953476322468],[-0.847321682355926,43.44913448073687],[-0.847174714407265,43.44890956376398],[-0.84738993820056,43.44881877976986],[-0.847836236735875,43.44865979616419],[-0.848423883541295,43.44841832433795],[-0.849007819441327,43.448210128195946],[-0.849487109310652,43.44810085656819],[-0.849795812802524,43.44890018593814],[-0.849180880061005,43.449297291772176],[-0.84914277257698,43.449481495947325],[-0.849017946376431,43.449960351083554],[-0.849016174510528,43.44996527804242],[-0.848958448918543,43.45015747543705],[-0.848963054864275,43.450228109740024],[-0.848993132249043,43.45030801710877],[-0.849124196849374,43.450535298941595],[-0.849252488882624,43.450772857581136],[-0.849262795627842,43.45079383874895],[-0.849283758284583,43.450855785068605],[-0.849285530448894,43.450884095344655]]],[[[-0.848858343534155,43.455835963728845],[-0.848136591659104,43.45637296072657],[-0.848003654635745,43.456420739274],[-0.847832209563295,43.45648618914045],[-0.846969009890713,43.45679076761646],[-0.846687874469864,43.45689668166868],[-0.846113340889501,43.45709345021124],[-0.845684012799955,43.457205884875414],[-0.845332952296351,43.45729428160355],[-0.845311087301324,43.45705987452864],[-0.845296190032457,43.45688340794351],[-0.84526746876206,43.456548361468215],[-0.845789942072148,43.45639776237569],[-0.845807615455012,43.456384704615914],[-0.845837663228967,43.45637363945964],[-0.845886274231999,43.456362815880546],[-0.847448575882344,43.4558052562645],[-0.84783566534734,43.45563648729055],[-0.848225143600221,43.45523379965442],[-0.848277438966246,43.455191228048434],[-0.848525309804727,43.455007856949344],[-0.848711407436526,43.45488432784129],[-0.848751339853896,43.45514277258496],[-0.848810497533252,43.45552582730071],[-0.848858343534155,43.455835963728845]]],[[[-0.846916946689552,43.44352998834468],[-0.846791973357654,43.44383860539559],[-0.846895760781366,43.444199895246435],[-0.846919151916678,43.44426310637533],[-0.846971464274366,43.44454236671685],[-0.846547716755386,43.44445779876924],[-0.846616576819715,43.44435807356619],[-0.846306758061387,43.44422838424604],[-0.846225576485781,43.444336113030424],[-0.84557808480319,43.44408717828377],[-0.845381582402545,43.4440787539993],[-0.845157130077353,43.4440664578927],[-0.84524044953585,43.44390010650854],[-0.84524311403194,43.443860469770286],[-0.845219926364036,43.44379842209551],[-0.845190064173616,43.443734539748405],[-0.845165447893859,43.443671461923394],[-0.845162812497685,43.443630211928905],[-0.845169492493645,43.44359331495376],[-0.84519436761722,43.44355676267844],[-0.845232384107321,43.44352631908459],[-0.84527544470003,43.44349920921015],[-0.845289547343565,43.443477180933044],[-0.84528914576161,43.443452695297985],[-0.844953250003858,43.44318620669839],[-0.845771246665105,43.44234370789671],[-0.846279643548566,43.441951396731305],[-0.846820073241008,43.441557584759494],[-0.847507750722594,43.44209331705555],[-0.847290334453388,43.44222300117288],[-0.847385478038888,43.442307351954845],[-0.847190587824652,43.44240236796653],[-0.847610822184173,43.44297030045752],[-0.84755667552482,43.44301275737182],[-0.847448406106843,43.44309433755555],[-0.847346711411616,43.443189195011556],[-0.847220475416869,43.44325168726635],[-0.846905172704829,43.44346303184295],[-0.84692684453682,43.44347838504212],[-0.846931897734442,43.4434836999899],[-0.846916946689552,43.44352998834468]]],[[[-0.845947862281636,43.447770385534994],[-0.845869142200929,43.447809660951194],[-0.845784573648579,43.44785761090875],[-0.845727374103928,43.44789332968317],[-0.8455864795367,43.44800299843054],[-0.845370579156701,43.448092902086614],[-0.844938277014676,43.44827263578236],[-0.844495671666574,43.44845732719607],[-0.844095265542343,43.448572423297065],[-0.844105398901568,43.448588997397856],[-0.843813442673174,43.44868231812735],[-0.84366558709729,43.4487286394928],[-0.843542946981292,43.4487674903597],[-0.843483215462768,43.44880050548021],[-0.843364955613028,43.44889747816491],[-0.843290231012378,43.44895957854035],[-0.843245730216761,43.44898926072221],[-0.843174797800625,43.4490304194796],[-0.843089403890631,43.449079027037534],[-0.842981410129021,43.44914464971845],[-0.842810901528452,43.44918132521933],[-0.842664350845761,43.449186165104],[-0.842276950800985,43.449185228622106],[-0.842127555721016,43.4491253158881],[-0.842126426652671,43.44887351090054],[-0.842124610058367,43.44850598615363],[-0.842299107184525,43.44845872167765],[-0.84236847612519,43.448436714523176],[-0.842396098915957,43.44842456534885],[-0.842430422785139,43.44839614535383],[-0.842461384493278,43.448358116725075],[-0.842476881374391,43.448316223217766],[-0.842630126143705,43.448339429005294],[-0.842931556961599,43.448171464781495],[-0.843192190458799,43.44789442756021],[-0.843088830522848,43.44778892677496],[-0.843547559837214,43.447562505392746],[-0.843453088963255,43.44739210692513],[-0.843745313161944,43.447262207767004],[-0.844181157000992,43.44705785315746],[-0.845064890973089,43.44694397116804],[-0.845639010248913,43.44686999090923],[-0.846135421555941,43.44680606346226],[-0.846293812453058,43.44685817489608],[-0.846602604673428,43.44666561869884],[-0.84692121697557,43.4465459424307],[-0.84711572423839,43.446463460942546],[-0.847390149991232,43.44677158064196],[-0.847433381631724,43.44682273767612],[-0.847550189994464,43.4469831518508],[-0.847433524279277,43.447026208629076],[-0.847309172351629,43.447078185403576],[-0.847047998252352,43.44720825245558],[-0.846881680814472,43.44729081326511],[-0.846607719630777,43.4474330429974],[-0.845947862281636,43.447770385534994]]],[[[-0.845495103035993,43.439083956113976],[-0.845628452826225,43.4391538004162],[-0.845742870045637,43.43920855425308],[-0.845818170676899,43.43911094290976],[-0.845920956700145,43.4389918186365],[-0.846858417740399,43.43956272599198],[-0.847063042785325,43.439810993039956],[-0.84734064578585,43.440120888871554],[-0.845902595658209,43.440354553632766],[-0.845661561654742,43.440158829024654],[-0.845356585969625,43.43998104746596],[-0.84521066634131,43.43989147278257],[-0.845150621295929,43.43985865681141],[-0.8450786904339,43.43990687812968],[-0.844936836619382,43.44010728351502],[-0.844837582499116,43.44006856374741],[-0.844768032505692,43.44004148944179],[-0.844585640096628,43.44013479593711],[-0.844195237015691,43.440461480080955],[-0.844151121787346,43.44049682360265],[-0.844095830472596,43.440520313961436],[-0.843909775013337,43.44057735985987],[-0.843730673844626,43.44062749317208],[-0.84361680013336,43.44067332921799],[-0.843633818974516,43.44043051917688],[-0.844590689057554,43.43965389775845],[-0.844618682592944,43.439649210812696],[-0.844639758809595,43.43963720335344],[-0.844659040117573,43.43961499131658],[-0.844668082861279,43.43959494427793],[-0.844665696725684,43.43956665605431],[-0.844662604129782,43.43953334883619],[-0.844680213549185,43.43950462084198],[-0.844733686001495,43.43945210121312],[-0.844824542098264,43.43934862397091],[-0.844914539663852,43.43926003915461],[-0.845285494987697,43.438927377541425],[-0.845495103035993,43.439083956113976]]],[[[-0.844576806576669,43.436875015471934],[-0.844741594367228,43.437036158799614],[-0.844940236891694,43.43724329781042],[-0.845103172986391,43.43742107984449],[-0.845216596243917,43.437581164368254],[-0.844526886854145,43.43784389858359],[-0.844012420243222,43.43809698411781],[-0.843849986451418,43.43804132115927],[-0.843711094902141,43.43804381985322],[-0.84365997040979,43.43804455385789],[-0.843592288167936,43.43805091968255],[-0.843538842021741,43.43808164017791],[-0.843484116424924,43.43812465594857],[-0.843384707246734,43.43821483458317],[-0.843312567093623,43.43828765196524],[-0.843488335253346,43.43839670589366],[-0.843581712982333,43.4384862561833],[-0.843211895601509,43.438704749082206],[-0.842435153054843,43.43915998141645],[-0.841549882048057,43.43968201918613],[-0.841263551844656,43.43984782294344],[-0.841305500360044,43.43980778367382],[-0.841430304435665,43.43971463444269],[-0.84137810103992,43.43967334165368],[-0.841424187199406,43.43963973085054],[-0.841331276017815,43.439558989248376],[-0.841314687112896,43.43956786444866],[-0.841232965239279,43.439508433329735],[-0.841162603675845,43.43956353185799],[-0.840958067325394,43.43974174547273],[-0.840728000560967,43.439935636180515],[-0.840913157632628,43.44005571054902],[-0.840372318976064,43.44037159333895],[-0.839574582167002,43.440600115298906],[-0.839555315303558,43.440592962173696],[-0.83940818865151,43.44020384119221],[-0.839509413997867,43.43984086220337],[-0.839657832984493,43.439323896939975],[-0.839983015641214,43.439495482655396],[-0.840121975048978,43.43956612541012],[-0.840283516270908,43.439438167655176],[-0.840613250758002,43.43917453940822],[-0.840675419344096,43.43903380260594],[-0.841026761785811,43.438601511265375],[-0.841391559682182,43.43874439533541],[-0.84177856074322,43.43825760338949],[-0.842153086354564,43.43778953743412],[-0.842081619032855,43.43775775578173],[-0.841992167639057,43.43771211054286],[-0.842549941638614,43.43733941276982],[-0.842395592561376,43.437232659937024],[-0.84236550986577,43.437182025844564],[-0.842652575187621,43.436849918869946],[-0.842560023915069,43.43677637161644],[-0.84314914985899,43.43601857862197],[-0.843550963724944,43.43635109470785],[-0.84361639139699,43.436444158942855],[-0.843682394769704,43.43652549327727],[-0.843766717837537,43.43653510993635],[-0.843888706028195,43.43653312107527],[-0.843810020438531,43.43661337697987],[-0.843848031806968,43.436632834298685],[-0.844029698410629,43.43672294256236],[-0.844071311687061,43.43668534602793],[-0.844232834290234,43.43676995414089],[-0.844319277004176,43.436678163403464],[-0.844442109969227,43.43676459527891],[-0.84451517850576,43.4368221693524],[-0.844576806576669,43.436875015471934]]],[[[-0.842872486478986,43.44220585613009],[-0.842531957294048,43.44231548966243],[-0.842007318705727,43.442761141329015],[-0.842090743814564,43.44280898243044],[-0.842502712190744,43.44302648234712],[-0.842598915141602,43.44308053506896],[-0.843024132829141,43.443283511628564],[-0.843212745912431,43.443379230618234],[-0.843616978706653,43.4435788965477],[-0.842969722439271,43.44426336559887],[-0.842844142445823,43.444254401332174],[-0.842734784577277,43.444245852056326],[-0.842706103909356,43.44424029450224],[-0.842636570701316,43.44421537975981],[-0.842636943098225,43.444220951073945],[-0.842072197473446,43.444327550231115],[-0.841656899338354,43.444411820790705],[-0.841738119082697,43.444284188242435],[-0.841578807279997,43.44410897354527],[-0.841563057776172,43.444082330235126],[-0.841175744668729,43.444161733036644],[-0.841055148377944,43.44418294451797],[-0.841043584044095,43.44419488405683],[-0.840647119766095,43.44386531814227],[-0.840550986010844,43.44379378707757],[-0.840472567487153,43.44373576909567],[-0.84055067254218,43.443629955593074],[-0.840644101304766,43.44349261346089],[-0.840637265736068,43.4434606098096],[-0.840644140717172,43.4434265886369],[-0.840802584809791,43.44310039945879],[-0.840863547631637,43.44298411479163],[-0.840916252113013,43.442899648523216],[-0.84100180101451,43.44278501373018],[-0.841269829151932,43.44265958223786],[-0.841691060452657,43.442464492844174],[-0.842315969450012,43.44218002814776],[-0.842338022480823,43.44216042037926],[-0.842335455243797,43.44212015881944],[-0.841540100035652,43.442462282407696],[-0.841253499378072,43.44258909402971],[-0.841168597167573,43.44255058222918],[-0.841472670715495,43.44213951154582],[-0.841515164883577,43.44207801548698],[-0.841632688173037,43.441938736814535],[-0.841951058865022,43.441617770776],[-0.842320471918059,43.441244912048546],[-0.842759326311057,43.44105847036138],[-0.843164065915694,43.440905393661986],[-0.843431932634846,43.44081842336015],[-0.843525214023497,43.4407862889609],[-0.843573232236379,43.44073720616228],[-0.843734249097803,43.44067357364119],[-0.84399257491898,43.44060108202569],[-0.84419349233928,43.44053891463233],[-0.844503656679177,43.44030073875602],[-0.844685666659193,43.440392095439655],[-0.844764468140411,43.440431811819465],[-0.844984261546885,43.44054470495636],[-0.844254343419109,43.4409572145909],[-0.844179640726164,43.440999138505916],[-0.844057977899641,43.44098949640872],[-0.844094900219512,43.4412699337355],[-0.84399456866991,43.441764212966966],[-0.843981604439757,43.441840244409875],[-0.842872486478986,43.44220585613009]]],[[[-0.843102493314436,43.45004964414215],[-0.842990597079486,43.45034356138517],[-0.842924753782682,43.4505533370588],[-0.84292407248962,43.45059677665325],[-0.842917189165664,43.450687995128014],[-0.842980378356011,43.450786184815996],[-0.843126885922775,43.450985903124426],[-0.843326273851942,43.45129786787756],[-0.84355872330609,43.45167342197438],[-0.843438515397377,43.45169327080952],[-0.843043692402872,43.45171655946654],[-0.842193058442357,43.45169233658614],[-0.841407525981994,43.45169687326942],[-0.841419940042703,43.45147377133281],[-0.841424542356148,43.4513835346311],[-0.841423803500216,43.45127997637131],[-0.841403464717629,43.45099228265324],[-0.841407234881648,43.450798941437654],[-0.841448223776904,43.450631572308545],[-0.841475184044931,43.45058729068858],[-0.841597516211256,43.45047900662496],[-0.841630740362189,43.45040450832602],[-0.841744135793096,43.45028275986898],[-0.841931216499057,43.450133266790615],[-0.842041714246489,43.45005881926359],[-0.842668569917198,43.44968204957798],[-0.842959724649635,43.44949157133481],[-0.843053918458102,43.4496245098506],[-0.843124842504388,43.44986059752328],[-0.843123151623721,43.44992406923589],[-0.843102493314436,43.45004964414215]]],[[[-0.842128684487991,43.449926478466914],[-0.84177721203052,43.450135757690816],[-0.841868941051564,43.44981193244506],[-0.841886903850044,43.449708881781895],[-0.841885556713678,43.449603633808735],[-0.841827576525417,43.44954263933101],[-0.841594641189069,43.44931491036998],[-0.841442176367978,43.4492682562962],[-0.841224320460045,43.44920509612746],[-0.841071730136374,43.44915655446981],[-0.840813515647378,43.4491203156944],[-0.841215720602302,43.44910785178411],[-0.841416010586433,43.449056161070544],[-0.841577806544922,43.449005655342496],[-0.841790279013304,43.44905486424547],[-0.841925209957806,43.44908889907214],[-0.842017138709619,43.449117703842695],[-0.842088533234793,43.44914633631767],[-0.84216820549618,43.44918413276858],[-0.842228943290287,43.44922719468621],[-0.842294116626924,43.449258930106026],[-0.842373581748813,43.44929547274147],[-0.842437137426042,43.44932150078167],[-0.842519561673191,43.449341274750154],[-0.842653875003302,43.44936605307088],[-0.842737719002529,43.44938856877728],[-0.84279454892332,43.44941015145682],[-0.842887589603349,43.44945927266358],[-0.842678073686193,43.4495911885816],[-0.842128684487991,43.449926478466914]]],[[[-0.841101998690453,43.43831412283723],[-0.841067630668239,43.438352902303414],[-0.841019177085059,43.43841767197274],[-0.840976793644274,43.43852149793213],[-0.840932548065102,43.438604853385],[-0.840331580675377,43.43863472694356],[-0.840168870990722,43.438687785860004],[-0.839977758752753,43.438763469217776],[-0.839780278198389,43.4387845238903],[-0.839668952501584,43.43858346668396],[-0.839343401245303,43.43816563528734],[-0.839146103786205,43.43793024611238],[-0.838989696335622,43.43775186388786],[-0.838863043474329,43.4375970163203],[-0.838768647947987,43.43749578900923],[-0.839879073517199,43.43617171154672],[-0.840034916919468,43.43621212134742],[-0.840200390283702,43.43625606249056],[-0.840344322564783,43.436286536001944],[-0.840492661466827,43.436314511140075],[-0.840614444292915,43.436337213078424],[-0.841261902679304,43.43640044397619],[-0.841101298424209,43.436551518664224],[-0.840647989123869,43.43696707066856],[-0.840287817755244,43.43729482931377],[-0.840148316463539,43.437423266417724],[-0.840690471256422,43.43776216481288],[-0.841238114132912,43.438110954236045],[-0.841101998690453,43.43831412283723]]],[[[-0.841039125388093,43.449188515967975],[-0.841559662240572,43.449353891902064],[-0.841664356759138,43.44946826418488],[-0.841812500326204,43.44963153612368],[-0.841827711500535,43.4496704486385],[-0.841826665923803,43.44973434774607],[-0.841819821463271,43.449789175014786],[-0.841767285044114,43.449959475937476],[-0.841709670084886,43.450131488247436],[-0.841607012532363,43.450317708603116],[-0.841469247111862,43.450528052834386],[-0.841354458872255,43.45073442931722],[-0.841362596370354,43.450454732998885],[-0.841357037791374,43.45042520594568],[-0.841341875153445,43.450407368797684],[-0.841095620841083,43.450154259938664],[-0.84080386042628,43.449849170925646],[-0.840707025349612,43.44975064220482],[-0.840071426101688,43.44998746600383],[-0.839763976585615,43.449689866408086],[-0.839681230831174,43.44961344568492],[-0.839609549288404,43.44953978519619],[-0.839812019411438,43.44939668597767],[-0.839810163810195,43.44906537238829],[-0.83991250653075,43.44909092731511],[-0.839994461362484,43.449103694091065],[-0.840178284951646,43.449114559960236],[-0.84051769750757,43.44913188767268],[-0.840771958832792,43.449147820717684],[-0.841039125388093,43.449188515967975]]],[[[-0.841317597068132,43.4485121865459],[-0.84131516777527,43.44880329944272],[-0.841314046411306,43.44905293229192],[-0.841223703205601,43.449071899619355],[-0.841064400732791,43.44907646906283],[-0.840740257985625,43.44908229078791],[-0.840599127124,43.449073875044114],[-0.840072170011855,43.449047345061665],[-0.840033338347593,43.44881768420124],[-0.84012132233234,43.44878375930092],[-0.840473870655205,43.44864983870442],[-0.840611652942265,43.448484171713915],[-0.840621079830459,43.448532747150914],[-0.841317597068132,43.4485121865459]]],[[[-0.839485357441709,43.4344793446373],[-0.839525825169343,43.43448565575791],[-0.839680076050316,43.43452450102291],[-0.84008381239057,43.434630878920586],[-0.840472865083521,43.43473390311689],[-0.840647657547276,43.434800841557546],[-0.840930357725336,43.43490484454127],[-0.841156480344823,43.435040758103064],[-0.841093719871382,43.43526321159734],[-0.841018928973213,43.43530558682953],[-0.840963491038497,43.43535087834633],[-0.840921639562513,43.43540712704296],[-0.840771804270349,43.43566572587315],[-0.840579326576439,43.43600762283161],[-0.840511725981428,43.43612990706589],[-0.840425950200917,43.436211402633226],[-0.840377114574052,43.43622232221079],[-0.840307132111855,43.43621642770878],[-0.840197936140967,43.43619526060295],[-0.839855455498137,43.43611048930358],[-0.839374800984681,43.43599629920829],[-0.839289780708213,43.435974364004764],[-0.839181969685559,43.43593134929997],[-0.839178375055949,43.43593489950869],[-0.839125797288288,43.43598603338785],[-0.839003861050689,43.43595360746067],[-0.839077118956918,43.43577717038978],[-0.838923285105235,43.43574461439921],[-0.83887798677125,43.43573631255837],[-0.838729182190713,43.435701326176066],[-0.838705664154659,43.43574710605986],[-0.838464377567399,43.435745031949565],[-0.838346481539762,43.43561203153403],[-0.838099261820146,43.43564142203077],[-0.838082075407794,43.43569688525649],[-0.837612331298312,43.43567012125913],[-0.837484237989802,43.435663942781176],[-0.837382673687587,43.43543299453579],[-0.837210307133778,43.43508196739525],[-0.837036784541894,43.43474692387866],[-0.836993571323322,43.43463649570478],[-0.837012940922851,43.43457113749139],[-0.836985561874675,43.43446276026826],[-0.837078538587726,43.434461356711985],[-0.837323904568886,43.434445004492595],[-0.837448282011374,43.43444555014622],[-0.837687168218559,43.43445248522884],[-0.837939059125164,43.434457968001844],[-0.838225488869267,43.43447537630286],[-0.838572997414924,43.43447827849582],[-0.839062306539639,43.4344779530756],[-0.839160151385891,43.43446430543927],[-0.839294724725449,43.43446205548459],[-0.839485357441709,43.4344793446373]]],[[[-0.839228477977028,43.438182770789034],[-0.839466265444172,43.43844140399738],[-0.839572564586984,43.43856535739142],[-0.839648118449545,43.43869535497346],[-0.839699494050629,43.43874649575078],[-0.839716201632388,43.43876716038288],[-0.839722532023278,43.438791615766334],[-0.839719946617912,43.4388602526447],[-0.839678357080439,43.43902412826473],[-0.839606063068171,43.43921503358215],[-0.839569634558877,43.4393580995536],[-0.839485342925877,43.43970993956547],[-0.839438323366361,43.439909136002264],[-0.839364042810725,43.440207298045536],[-0.839362348106836,43.44023374940843],[-0.839420835677247,43.44037471085192],[-0.839495853668477,43.440576245454466],[-0.839472158113681,43.44061383530466],[-0.83896392437865,43.440781375939174],[-0.838788877908067,43.440836761517886],[-0.83872118526944,43.4407430538833],[-0.838612790744275,43.440600708780856],[-0.838545789806035,43.440459958668235],[-0.838525007815139,43.44039863539201],[-0.838569805694489,43.44036606233245],[-0.838582906526969,43.4398291257926],[-0.838586551597025,43.43967821516039],[-0.838264253397989,43.43965532286073],[-0.837955748095061,43.439685353704824],[-0.83793283122197,43.43954574299587],[-0.837890055078925,43.43930676570322],[-0.837895505501231,43.43925694258955],[-0.837906456394342,43.439226560307915],[-0.838244737469934,43.438694581113346],[-0.838511283479067,43.43827314080336],[-0.838584005469062,43.4381589629639],[-0.838546801460903,43.43815343640683],[-0.837932191694604,43.43799183617056],[-0.837855988982866,43.43797796390745],[-0.837408971196118,43.43790121328553],[-0.83680256576302,43.43779948440304],[-0.836704156541865,43.43809372494818],[-0.83623437282638,43.437996248920605],[-0.836304554977559,43.437727238461655],[-0.8363512766605,43.43761236221413],[-0.836415751717789,43.437430113367846],[-0.836765384798865,43.43692187673663],[-0.837107002897449,43.436990025062016],[-0.837520591200019,43.437073455859746],[-0.83764002215071,43.43709795589956],[-0.838015027689242,43.43725886350036],[-0.838416495855449,43.437423605614015],[-0.838653454494341,43.43749960280055],[-0.838692822455472,43.437511627868574],[-0.83894863854942,43.43782375625148],[-0.839108561794976,43.4380214695354],[-0.839165663274367,43.4381065449389],[-0.839228477977028,43.438182770789034]]],[[[-0.838397281700613,43.445317530955364],[-0.838349558599167,43.44533597609221],[-0.83830037214865,43.44536212927069],[-0.838217784879185,43.445400905553946],[-0.838133233539114,43.4454380400002],[-0.838045354798943,43.44547718383982],[-0.838021427136836,43.44548541787174],[-0.837961495354628,43.445496909559125],[-0.837907380773512,43.44551035679238],[-0.837861894771417,43.44551602214564],[-0.837790748938624,43.445542863267605],[-0.83776655990575,43.4455490348285],[-0.837698508053273,43.445566668877746],[-0.837666959167542,43.44556814723659],[-0.837597634825462,43.44557042385797],[-0.837545177633459,43.445567959347976],[-0.837489451202942,43.44556281840779],[-0.837393647579583,43.445546217226784],[-0.837366474848854,43.44553547066146],[-0.837306093646138,43.445506895493125],[-0.837262514087265,43.44548556125913],[-0.837179726389768,43.4454398555131],[-0.837133988056132,43.44539914199801],[-0.837078186116345,43.44535211967048],[-0.837020388092202,43.44531408525486],[-0.836990976481266,43.445293870216915],[-0.836956440485603,43.44526726142817],[-0.836900268063846,43.44522394513506],[-0.836857441614925,43.44519907123235],[-0.836816717056148,43.4451779058986],[-0.836767424574237,43.44516172790599],[-0.836715320276355,43.44514231682336],[-0.836669327796392,43.44512557150392],[-0.836618313988096,43.44511323749039],[-0.836560539181593,43.44509591876942],[-0.836529471606492,43.445084229128426],[-0.836492299298808,43.445079240999654],[-0.836381926351421,43.445046221459],[-0.836293845526067,43.44466923495036],[-0.836188327908468,43.444116143619205],[-0.836144564584468,43.44407535982098],[-0.835959999054627,43.443784478137566],[-0.835782656179856,43.44365925419622],[-0.835509451800876,43.44347572575488],[-0.83543729336409,43.443413249191764],[-0.835367891948967,43.44335688994636],[-0.835360401593174,43.44332058577792],[-0.835359564901718,43.44328395587134],[-0.835363973019045,43.44325182397352],[-0.835487091354006,43.44289969294678],[-0.835507400702355,43.44286132324662],[-0.835678259030083,43.44298389483121],[-0.83685147248677,43.44382603364304],[-0.837525378655467,43.44436763008555],[-0.838486237017689,43.445126035412656],[-0.838582144554523,43.44523306510375],[-0.838564970919525,43.44523691649259],[-0.83844537542743,43.44529537967097],[-0.838397281700613,43.445317530955364]]],[[[-0.837267466608353,43.44098337284301],[-0.837327614632113,43.44107149398348],[-0.837363516956093,43.4411278680816],[-0.837360278503091,43.44124417644371],[-0.837163368036501,43.44131465567674],[-0.836659872947337,43.44157190960427],[-0.836107678590818,43.44191267221108],[-0.835940356487465,43.441737463932924],[-0.835655287867958,43.441438973871776],[-0.835039295338709,43.44179072774784],[-0.834916678464459,43.44167041012008],[-0.834880337835505,43.44163152483908],[-0.834866517332369,43.44160409184189],[-0.834844935527117,43.44154369698291],[-0.834707225337951,43.44142688609767],[-0.834587459399996,43.44135114313331],[-0.834221039814846,43.44112830904838],[-0.834141212113087,43.44096188972534],[-0.834746798679523,43.44060429458239],[-0.834901290436883,43.440746631932015],[-0.834964603385883,43.44071547636416],[-0.835892461803461,43.44015442579889],[-0.836256992784813,43.44046009756836],[-0.8369195216895,43.440192886667894],[-0.837251141798466,43.44005908688773],[-0.837577734987572,43.43996851886073],[-0.837601319993255,43.439994074208286],[-0.837713057282184,43.44012729440291],[-0.837959060303999,43.44004975971138],[-0.838112588024279,43.44004053476384],[-0.838198483097426,43.44006253021712],[-0.838216879699532,43.44007331731813],[-0.838335051855006,43.44022513399797],[-0.838461423152675,43.44041458048213],[-0.83749394302523,43.4406965722119],[-0.837593779208983,43.4407848178541],[-0.83714665394061,43.440925323953955],[-0.837267466608353,43.44098337284301]]],[[[-0.836516002896694,43.44517694082283],[-0.836598130010339,43.44521276243344],[-0.836675684596578,43.44525045737439],[-0.836882746674844,43.445367061123314],[-0.837004226642477,43.44544238115298],[-0.837083416596398,43.445502716234465],[-0.837132297497469,43.44554791213587],[-0.837259892422704,43.44567408653837],[-0.837418913479992,43.44584508435124],[-0.837460881872666,43.44587746452463],[-0.837492878650894,43.44589380478824],[-0.837523302842554,43.44590695814834],[-0.837559901103394,43.44591259680176],[-0.837628764175846,43.44588673747057],[-0.837681605286452,43.44586531903165],[-0.837827092747686,43.44577801652831],[-0.837979454392209,43.44568443530251],[-0.838126448186123,43.445612301307534],[-0.838494049409323,43.44544299519942],[-0.83874474109143,43.44532241828858],[-0.839024514828461,43.44517640000411],[-0.839113851925391,43.445151705375615],[-0.839340377826227,43.44508395583759],[-0.839429568509285,43.445088539832696],[-0.83960247334857,43.44522301310266],[-0.83940424693399,43.44542018544613],[-0.839234274457698,43.44559617936841],[-0.839148116288013,43.445692549520395],[-0.839010054429527,43.44585399088126],[-0.838838120320383,43.44605248185862],[-0.838779069777201,43.44611420345826],[-0.838697377378042,43.44620897375958],[-0.838627959316382,43.446295022189766],[-0.838405651887352,43.44669264791975],[-0.838390444480822,43.446716695995434],[-0.838364287014255,43.44671005701561],[-0.838325495415147,43.44676970918521],[-0.838289489730917,43.44684331398135],[-0.838274784202261,43.44688598935885],[-0.838230371417094,43.44703735488507],[-0.838216269012129,43.44712054172734],[-0.838205077391315,43.44737323287172],[-0.837681577874959,43.4471149016598],[-0.837405963937683,43.446954881092836],[-0.837349281864305,43.44689284779868],[-0.837589224541863,43.44665186683426],[-0.837527628299778,43.446384731626665],[-0.837560137912102,43.446318006493144],[-0.837357434914564,43.4462815943361],[-0.83737428418892,43.44594322396509],[-0.837184440760728,43.44595868818178],[-0.836979711560368,43.445938199999375],[-0.836726818449972,43.44591104112791],[-0.836751713595037,43.44572280760666],[-0.836709365895801,43.445479129809456],[-0.836473233318449,43.44549190935481],[-0.83646311014363,43.44541246350989],[-0.836435301197088,43.44529770520152],[-0.836413039295414,43.44521049279298],[-0.836408947550561,43.4451862280341],[-0.83641568594659,43.44517049679266],[-0.836425326118749,43.445159346531035],[-0.836445023855024,43.44515441526149],[-0.836516002896694,43.44517694082283]]]]}}]}
