{"type": "FeatureCollection","name": "aoc_geojson","features": [{"type":"Feature","properties":{"dt":"Dijon","type_prod":"Vins","categorie":"Vin primeur, Vin tranquille","type_denom":"appellation","signe":"AOC","id_app":1027,"app":"Coteaux Bourguignons ou Bourgogne grand ordinaire ou Bourgogne ordinaire","id_denom":2338,"denom":"Coteaux Bourguignons ou Bourgogne grand ordinaire ou Bourgogne ordinaire","insee":"71305","cvi":"1B320, 1B320 02, 1R320, 1S320","nomcom":"MONTBELLET","insee2011":"71305","nomcom2011":"MONTBELLET","id_aire":1685,"crinao":null,"grp_name1":null,"grp_name2":null},"geometry":{"type":"MultiPolygon","coordinates":[[[[4.843937123198264,46.47278924711908],[4.84393154665239,46.47284409963535],[4.843931265322482,46.472847346693236],[4.843931268365686,46.472847436714076],[4.843929800851587,46.472861871586645],[4.843903551718129,46.4731189044329],[4.843884653063201,46.47314217722468],[4.843883286758595,46.47314418081053],[4.843877191362011,46.47315283581205],[4.843877067152455,46.47315301795621],[4.843855436418733,46.47318417091294],[4.843855439461829,46.47318426093376],[4.8437943945829,46.47327198329162],[4.843786063375243,46.47328391688127],[4.843730848685305,46.473374427365506],[4.843623502335148,46.47350396857022],[4.843515661137164,46.47363045526909],[4.843482947223754,46.47367313576061],[4.843482447333018,46.47367377431465],[4.843444737494349,46.473722930355876],[4.843387292472081,46.473797624326],[4.843336615720444,46.47388743089883],[4.843267234800769,46.474010144466014],[4.843234319722437,46.474070031474916],[4.843210002205574,46.47411428776872],[4.843185027583641,46.47416224752169],[4.843171070979199,46.47418904326223],[4.843160564483081,46.47422920376781],[4.843156814730158,46.4742416938971],[4.843137639046634,46.47430694359394],[4.843117018847501,46.47442589824734],[4.843076989415134,46.474657212897775],[4.843075770057683,46.474671283468666],[4.843068142089778,46.4747580537394],[4.843062489388109,46.47484154963349],[4.843061339986043,46.47485769068297],[4.843067625770223,46.47488938397476],[4.843089070367444,46.475026304619114],[4.843104455363188,46.47512279154159],[4.843123653658111,46.47511221392471],[4.843134279996811,46.47510645819782],[4.84317140093022,46.47508613415506],[4.843262897121752,46.47504682897357],[4.843313651341573,46.47502871686016],[4.843387996486082,46.47501427731651],[4.843645722499185,46.474975172414766],[4.844000994974154,46.474917649803864],[4.844836813022082,46.474817692159355],[4.845968144112502,46.47466278601189],[4.846970997921278,46.474529310251505],[4.848323824506966,46.474343869399206],[4.848560463825141,46.47430977801695],[4.84863935789048,46.47429499121969],[4.848713096148106,46.47427425308571],[4.848785409315428,46.47424993515732],[4.848847444118438,46.47422623383105],[4.848902996611707,46.4741997551118],[4.848940914876624,46.474179956667065],[4.848985813356769,46.47415455099099],[4.849074581211657,46.47409646056065],[4.849078150206097,46.47409406098726],[4.849119161239266,46.474057819682756],[4.849141819233566,46.474037817756596],[4.849154046108179,46.474025460440274],[4.849180008477717,46.47399910012898],[4.84920040371344,46.47397003772996],[4.849211144465581,46.47395230025196],[4.849218916774721,46.473939294454254],[4.849245237796207,46.47389275262608],[4.849258646676546,46.47386911740961],[4.849268834738487,46.47384661515555],[4.849268934515082,46.473845712840095],[4.849281974744396,46.47377659819779],[4.849283088486014,46.473770995828914],[4.849314948039161,46.47356097722456],[4.849336899569313,46.47341632969274],[4.849396413578535,46.47305301454156],[4.849468903553025,46.472611038250065],[4.849557119187759,46.47202541571062],[4.849550579161467,46.47202092799382],[4.848629450837624,46.472102485765404],[4.848321228219373,46.47205126810145],[4.848228931537674,46.472035917904556],[4.847334538252776,46.47188303077879],[4.846759311369115,46.47196978919834],[4.846275214832481,46.47203750862836],[4.846237661413699,46.47204496071624],[4.846007109167562,46.47203139213155],[4.845518693994854,46.47179041813118],[4.845394580724509,46.471797916891504],[4.845290012619955,46.471812845902626],[4.845211711794152,46.47182581945735],[4.845134011275059,46.47184112508411],[4.845019252297812,46.47187080974155],[4.844969873905129,46.47188709906402],[4.844937581473493,46.47189977990792],[4.844862758962716,46.47195007610342],[4.844813397468659,46.47195915948465],[4.844804644110221,46.47196245325505],[4.844691244277896,46.47200535591955],[4.844521426705572,46.472064571155926],[4.844437545232116,46.47208601076222],[4.844196748248873,46.472151144904444],[4.843985911204101,46.472188593927726],[4.843923428700212,46.472195186559134],[4.843919271479898,46.47219561392374],[4.843911087332608,46.47219646654995],[4.843910341463923,46.47229780728593],[4.843908646711665,46.47252147832755],[4.843909281951012,46.47270223846703],[4.843909316547981,46.4727109746938],[4.843909341216762,46.472734842832104],[4.843909828446377,46.472772394138254],[4.843937123198264,46.47278924711908]]],[[[4.845376898079109,46.47171452743222],[4.845150935574603,46.47163233975427],[4.845089873412785,46.471611528822244],[4.844982995304149,46.47158127972096],[4.844784479373487,46.47153197406383],[4.844683030029953,46.47151190501952],[4.844630396366589,46.47150131582663],[4.844342524080682,46.471446426429324],[4.844041768721742,46.471392194576254],[4.843801032416137,46.4713549174045],[4.843766828542312,46.47134961476971],[4.843770765224704,46.471354234886185],[4.843775650462883,46.4713599205363],[4.843900433792379,46.47150724298195],[4.84392143906449,46.47153473563858],[4.843935489064797,46.471553153394126],[4.843941326506306,46.47156386758973],[4.843945222869345,46.47158271940583],[4.84394854802452,46.47161166827575],[4.843953423952736,46.47163635883173],[4.843958309014909,46.47166131944996],[4.84397709480376,46.47171956177194],[4.843953758156479,46.471746509005534],[4.843952485441335,46.47176670521565],[4.843959196429214,46.471845678345794],[4.843959879234252,46.47187358901552],[4.843961982431241,46.4719589413992],[4.843960580550656,46.471986885709704],[4.843957035029328,46.472005407266835],[4.843952041526046,46.472089072770885],[4.843948293345343,46.47215173187718],[4.843968079686221,46.472150872160015],[4.843977972856426,46.47215044230014],[4.844020539240881,46.472148584470325],[4.844074119121188,46.47214087447866],[4.844108927610296,46.472133197197074],[4.844146338335222,46.47212151482907],[4.8443083613855,46.472070802473766],[4.844396396452198,46.47204497256039],[4.844495639684982,46.47201905172598],[4.844643032149771,46.47196362120271],[4.844727090501181,46.47193200067734],[4.844768542456218,46.471916469919684],[4.844866374528437,46.4718796730702],[4.844938130304457,46.471846629753394],[4.845040649624405,46.471809667000315],[4.84504438243403,46.471808255677274],[4.845095697495829,46.47179526763863],[4.845152324723223,46.471785166106564],[4.845154657807597,46.47178476815229],[4.845241291870926,46.47177535293586],[4.845331115553571,46.47176003159281],[4.845367927401875,46.471757635697536],[4.845398797570195,46.47175686693864],[4.845467440356704,46.47175512784735],[4.845376898079109,46.47171452743222]]],[[[4.845694118296856,46.47113412675693],[4.845685007070034,46.47113454413814],[4.845501012604046,46.471105991489736],[4.845440292004465,46.471095263075384],[4.845403176052802,46.471088656911625],[4.845296378633592,46.47106462164211],[4.845157125438588,46.47103300407713],[4.845102876891447,46.47102090999421],[4.845012427602275,46.47100228488882],[4.844901441175742,46.47098543242462],[4.84482982513297,46.4709763207257],[4.844659015986711,46.470971422404205],[4.844516509761458,46.470963094641654],[4.844197815525565,46.47094500066555],[4.844098774734634,46.47093443966625],[4.844073641043839,46.471305393175044],[4.844161505411761,46.471320818225145],[4.844464314721013,46.47137411590477],[4.844760753751508,46.47143562193548],[4.84516964004657,46.47154169750678],[4.845299341509794,46.47159535633857],[4.845539794949587,46.47170126830077],[4.845981931512422,46.471911465339986],[4.846318941263047,46.47097613742677],[4.84590333153381,46.4711104814371],[4.845863215532853,46.47111923579036],[4.845815124357786,46.47112730832898],[4.845733314542485,46.47113286313227],[4.845694118296856,46.47113412675693]]],[[[4.845473812156159,46.461678705275524],[4.84520147580766,46.461738677457014],[4.844923095383106,46.461801088407405],[4.84486834789822,46.46181251070593],[4.84479353962975,46.461828129929884],[4.844861756933318,46.46200689840848],[4.844936118155636,46.46220160011448],[4.84497161484001,46.46229154735869],[4.844979888956066,46.46231267028904],[4.84498872069063,46.46233486505527],[4.845047839398124,46.46246424179384],[4.845078230538657,46.46251112786902],[4.845090330638977,46.462529757108946],[4.845090603357947,46.46253011298502],[4.845094591273442,46.46253626341868],[4.845122384392776,46.46264506961805],[4.845148249662852,46.46274697154663],[4.845152093561436,46.46283364699597],[4.845152893008597,46.46284957649647],[4.845161467090979,46.463014446485936],[4.845161825713937,46.46302119595312],[4.845166801424444,46.46311821118341],[4.845171603604024,46.46321009521807],[4.845177155683969,46.46329332040879],[4.845180363105646,46.463341906470795],[4.845179519696859,46.46337092267017],[4.845176186726228,46.463476628746136],[4.845172807003453,46.46353856149949],[4.845168717615264,46.46361419637068],[4.845146384081806,46.463709220752236],[4.845137610694917,46.463765836403304],[4.8451348294796,46.46378380527214],[4.845129926249603,46.46381225654412],[4.845121766366908,46.463860035413774],[4.845094856837097,46.463912260309456],[4.8449903571664,46.46406751742375],[4.844913957447437,46.464059293794904],[4.84490555902102,46.464057628010764],[4.844887450296342,46.46405404741428],[4.844898068430194,46.46408666147043],[4.844903957760772,46.46412205398913],[4.844898279381822,46.464247072909295],[4.844897654257336,46.464259422607036],[4.844896385741609,46.464283581876785],[4.844934117671695,46.464343229476974],[4.844988917112607,46.46442962247946],[4.845030382194617,46.464491731727286],[4.845082179339298,46.46455871803061],[4.845093088504408,46.46457295306958],[4.845228652315645,46.464742617457546],[4.844854662056223,46.46479198072437],[4.844804579552425,46.46479882410695],[4.844875532000349,46.46495043729372],[4.844941323885836,46.46494559196014],[4.845651549516681,46.4662505855644],[4.845831331608692,46.4665827419883],[4.84648377432475,46.46780453877037],[4.846510484629567,46.46780032416698],[4.8465333077731,46.4677968028688],[4.84648948356309,46.46771518704663],[4.847096419058444,46.467615306792865],[4.847036570046662,46.467507019262506],[4.846890286769579,46.46724827069045],[4.846826651242664,46.46712437206506],[4.846622941527556,46.46677873303794],[4.846510927752187,46.46659265713231],[4.846251820206231,46.46611983308028],[4.846279596309207,46.466116321855125],[4.846309187173116,46.466112511086955],[4.84638708087964,46.46624950994297],[4.846467362591239,46.466403133126846],[4.846534821032569,46.4665321942221],[4.846661608962356,46.46675423950195],[4.846689072180898,46.46680693698726],[4.846775796467233,46.46695829415545],[4.847216888206113,46.46689225786507],[4.847254337645044,46.46707431460526],[4.847067170976305,46.46710183956608],[4.846901179928723,46.46717729950355],[4.846910715678262,46.46719714092653],[4.846896179012784,46.46719899716684],[4.84695461869199,46.46730802810874],[4.84708340340087,46.46755814254593],[4.847275786860735,46.46793098495444],[4.847453963856325,46.468265326618614],[4.847462327440565,46.46828518695119],[4.847478269685724,46.46836716318651],[4.847479010963994,46.46841984221295],[4.84747154818286,46.468476616976325],[4.847461789451539,46.46856567395892],[4.847448461767196,46.46869946341526],[4.84743639045515,46.46901661527124],[4.847444536872199,46.46902621112478],[4.847469631226237,46.46904354918754],[4.848528171344911,46.46922935680227],[4.848503835984963,46.46929982505512],[4.849001935864278,46.469430653897234],[4.849052974752925,46.46934038831921],[4.849459563466803,46.469448106902384],[4.849503648018373,46.469394972506066],[4.849516170011348,46.469379818172065],[4.849550473643538,46.4693381008449],[4.849602436403178,46.46927511130494],[4.849753957370984,46.469084231686494],[4.849790359492611,46.46903905764104],[4.849837141775189,46.46898092556882],[4.849898475353267,46.468905984977205],[4.84996006322752,46.46883086009144],[4.850070225185085,46.46869280025982],[4.850116488786601,46.46863476652896],[4.849800142836938,46.46855873521824],[4.849788848540829,46.46838328124064],[4.850342687595929,46.468355128604955],[4.85076752367894,46.46782512017859],[4.850836334611465,46.467736277166644],[4.850853820593742,46.46769456161833],[4.85085314031547,46.46765530202788],[4.850852335757112,46.46760469560417],[4.850743955762035,46.46741478179892],[4.850634194304771,46.46722254844774],[4.850557974070459,46.46708912801676],[4.850534041890374,46.467044570599796],[4.850480501258853,46.466949512980484],[4.850376357972602,46.4667652947243],[4.850274576662797,46.466619948458266],[4.850214084203182,46.46653896418316],[4.850168731759322,46.46648160331607],[4.850069524417459,46.46636215541618],[4.849977914297597,46.46625915734053],[4.849824822818342,46.466076721930534],[4.849675057440082,46.465900087042975],[4.849655654455995,46.4658737403804],[4.849444677343901,46.46548715174117],[4.849318635150025,46.465214297704655],[4.849308534754051,46.465154744648316],[4.849307234315506,46.46513945376311],[4.849302076235279,46.46508342351656],[4.849290866928828,46.46494885992725],[4.848652329328893,46.4650498942563],[4.848472189981655,46.465076857594404],[4.848319381055452,46.46510256787789],[4.848299031356372,46.46510595947041],[4.847898286743991,46.46515819740621],[4.847415808469384,46.46522184341136],[4.847409213562616,46.46519646019562],[4.8477681531855,46.465149133392764],[4.848128221977801,46.46510052620432],[4.848343572788655,46.46507407461698],[4.848487583841946,46.465050308044695],[4.848904475542501,46.4649860975918],[4.849173325573807,46.46494211566421],[4.849280972503934,46.46492614224712],[4.849283749360466,46.46490808325988],[4.849300255993041,46.46478748228598],[4.849342913714183,46.464477040356506],[4.849356665383001,46.46439053049687],[4.849360815862667,46.46438992289232],[4.849370969366216,46.46432031440242],[4.849385661083928,46.46425000195827],[4.849389138070549,46.46423337275577],[4.849397793056329,46.464181081999435],[4.849419350528493,46.464051842556195],[4.849503563521222,46.46371379682476],[4.84954773601358,46.46352114207605],[4.849555003349848,46.46348175380523],[4.849566897540324,46.46335969622505],[4.849574224130203,46.46322978640502],[4.849574555995207,46.46322419667775],[4.848565117119582,46.463314751979205],[4.848365174226275,46.46333410949442],[4.848182123888101,46.46335193240716],[4.847891136471402,46.4633770852365],[4.84764299620693,46.463401184117565],[4.847441831442319,46.4634191186439],[4.847153143302561,46.46344675436691],[4.847128064714322,46.46344905130423],[4.846988414126469,46.46345905507016],[4.846749042493279,46.46347652518845],[4.846498276792578,46.46349625056874],[4.846321865429844,46.463510000096115],[4.84552624554868,46.46356392694648],[4.845530241037657,46.463543326416755],[4.845551720823805,46.463542529088286],[4.845651675238254,46.46353424921281],[4.845833773161501,46.46351905779873],[4.846147933259827,46.46349686838633],[4.846621257289397,46.463463548958245],[4.846696796338275,46.463457914544705],[4.846777773297145,46.463451201408],[4.846845653661335,46.46344650132591],[4.847134988801744,46.463426421815896],[4.847244758120739,46.46341545988989],[4.847412712623521,46.46339833294074],[4.847474697076668,46.46339273704851],[4.847536811789456,46.46338713901598],[4.848300066438902,46.4633129154814],[4.848362686814766,46.463306858465444],[4.848533221671946,46.46328896755007],[4.848704044416257,46.463271882351826],[4.849259119129678,46.463216332769825],[4.849581737816933,46.46318228782019],[4.84958372787516,46.46315640544452],[4.849592584888331,46.46304088208002],[4.849578235930328,46.462879078016144],[4.84956938603772,46.46277951353071],[4.84951285715533,46.4625461559715],[4.849511592209173,46.46253960132154],[4.849498612990213,46.462475861564364],[4.849475224963094,46.462378063615375],[4.849475067227331,46.462377255536666],[4.849465242612595,46.46234120634296],[4.849447521909029,46.46227601214252],[4.849478803974134,46.46227217313633],[4.849469568548114,46.46224196897066],[4.849439780498813,46.4622475851941],[4.849423712539791,46.46218884929278],[4.849391387525674,46.46206579618907],[4.849303519270384,46.46173071610531],[4.849289151199592,46.46167213280916],[4.849272402886083,46.461604851225644],[4.849242156507525,46.46149311328443],[4.849228088767409,46.46143569603241],[4.849213872481727,46.46137774076153],[4.849175108202773,46.46111851552955],[4.849024553892161,46.46113734512403],[4.848813590973425,46.46116588894444],[4.848395520639881,46.461221381832104],[4.847825798113664,46.461297970691106],[4.847727582068174,46.461311268359374],[4.847727098416439,46.46131623004353],[4.847659568331311,46.46133119303412],[4.847596455109078,46.46134572427236],[4.847324208104014,46.461408222101596],[4.846805319392594,46.46152730758451],[4.846804907257569,46.46152668375551],[4.846804219350113,46.46152561403354],[4.846792815936197,46.46150832475697],[4.846771663761509,46.46147642155866],[4.846767130285225,46.46146955943823],[4.846741012729297,46.461406482145286],[4.845723794238764,46.461624497798894],[4.845576275138197,46.46165606373181],[4.845538238147665,46.46166442422951],[4.845473812156159,46.461678705275524]]],[[[4.847193443117623,46.47978877330881],[4.847803782073579,46.47978926462688],[4.847781963702134,46.47899520040126],[4.847761808376653,46.47858886040357],[4.847487756851083,46.4785775288722],[4.847190508250343,46.478570354575126],[4.847168716220438,46.47856980611215],[4.847147015621998,46.479788442882],[4.847193443117623,46.47978877330881]]],[[[4.847200041731717,46.4785246250836],[4.847473865043451,46.478533078750324],[4.847710021510305,46.47853421461678],[4.848077435262447,46.4785343082941],[4.848357030240363,46.47853609140318],[4.848272509753647,46.478246532352564],[4.848215397236654,46.47806551466332],[4.848204892503614,46.4780325387988],[4.848005263580403,46.47749327564487],[4.847257759461298,46.47758417238174],[4.847252304891595,46.47758480097194],[4.847237244244512,46.47758666567786],[4.847224721107446,46.477755839359375],[4.84722382354577,46.47776783317286],[4.847179354237836,46.47799850058285],[4.847204269958488,46.4781297801287],[4.847208080427813,46.47816529616975],[4.847209188507111,46.478174915744226],[4.847209079541796,46.47817554799525],[4.847191715157012,46.47836731739496],[4.84717955151368,46.47845857472611],[4.847170806890038,46.478523746575014],[4.847200041731717,46.4785246250836]]],[[[4.848289225131603,46.470183461911155],[4.848370264106815,46.47013981806532],[4.848379889321526,46.470135338997636],[4.84852351612919,46.470069065739075],[4.848526724525915,46.47006757271228],[4.848690071494064,46.46999467529723],[4.848967178837973,46.46987436136855],[4.848974768174117,46.46987135631518],[4.849100808453929,46.469820858949426],[4.849233186578032,46.469730447868855],[4.849243504872192,46.46972334547501],[4.849274335554866,46.46970222043797],[4.849189134693682,46.469657663574644],[4.849115715415671,46.469629939241976],[4.849046820570328,46.469604933820385],[4.849046556944575,46.46960484801638],[4.849034296822311,46.469600813119925],[4.848996061948563,46.46958810146893],[4.848930325530264,46.469567818585304],[4.848811007959238,46.469535882901084],[4.848805484037665,46.469534441088804],[4.848632467409645,46.469491214618586],[4.848395699810788,46.469428573286514],[4.848383339993115,46.46942544063543],[4.848065691202247,46.46934564262934],[4.847950840959599,46.46931471464826],[4.847926609028683,46.4693074505914],[4.847893162516104,46.46929754338005],[4.847887096150381,46.4692954798061],[4.847718295633286,46.469238132853285],[4.847714998835098,46.46923701525462],[4.847638140768886,46.46920394139485],[4.847551003794453,46.46916373801324],[4.847545297825371,46.46916076789311],[4.847446950902648,46.469109036581266],[4.847446953951443,46.46910912660205],[4.847392087272596,46.46927889513641],[4.847353668081391,46.46935310356202],[4.847167544700159,46.46971963547078],[4.846882949497775,46.47027726612119],[4.846858294530621,46.47032296986877],[4.846752179178214,46.4704961783736],[4.846585735055277,46.47071260458915],[4.846417641077038,46.47088032930103],[4.846394802778344,46.47090654844874],[4.846374628161511,46.47093443588036],[4.846363294259383,46.47095776702211],[4.846337001085847,46.471012864395405],[4.846271444182472,46.471209735929364],[4.846126003299165,46.471638567416996],[4.846015472099394,46.4719318197289],[4.846069391809699,46.47194572010774],[4.84611278990335,46.47195303519984],[4.846158787772601,46.47196012813212],[4.84620553926491,46.4719625252287],[4.846249847258711,46.47195820653513],[4.846303268920513,46.47194968741626],[4.846442995561791,46.471922029900085],[4.846816877028387,46.47184879545608],[4.846908884882182,46.47183253686614],[4.846953457064453,46.471816774731536],[4.847002022564292,46.471799596980404],[4.847012308791119,46.471795377561186],[4.847048439340759,46.471780562470066],[4.84710635524171,46.471746930850514],[4.847119752435293,46.47173833777028],[4.847153060631991,46.47171717329484],[4.847228439121755,46.47165641844469],[4.847230971798068,46.47165421582004],[4.84727587494146,46.47161358887002],[4.847312002729255,46.471571752719925],[4.847312753993584,46.47157083987382],[4.847314495764969,46.47156837982341],[4.847345423211267,46.47152311500217],[4.847356135839957,46.471500694505096],[4.847379263201115,46.47145222318627],[4.84745682859096,46.47127515236439],[4.847564394369256,46.4710293232866],[4.847565118180012,46.47102760025184],[4.847621554758376,46.47089644637892],[4.847654929380471,46.47083492927492],[4.847667202178561,46.47081239344387],[4.84769841443712,46.47075631549511],[4.847729008725314,46.47070123830018],[4.84775966005587,46.470643998491184],[4.847761280636044,46.47064181060283],[4.847844169284687,46.470529593905326],[4.847846662239881,46.47052622099664],[4.847909086142862,46.47045639792612],[4.848053470218117,46.470327784533126],[4.848110598315074,46.47029020201928],[4.848184307008571,46.4702418130867],[4.848194159282908,46.470236339591544],[4.848289225131603,46.470183461911155]]],[[[4.848621807012246,46.47201542158697],[4.848789249894822,46.472005506943695],[4.849073156216964,46.47199316707085],[4.849476731292482,46.471976818026796],[4.849586157955364,46.471970633399444],[4.849710177671177,46.47132606564647],[4.849818163235974,46.470839199818336],[4.849859035079164,46.470672088527124],[4.849849708714316,46.47061234287335],[4.849876923174317,46.47046535816984],[4.849894869971886,46.47040643195505],[4.849818066606147,46.47040965690041],[4.849706330368609,46.470424525923264],[4.849631267478769,46.47043294663526],[4.849630769774912,46.470429802237106],[4.849611069078201,46.47032167669693],[4.849532873687328,46.469891686628294],[4.849494075389325,46.46989312527113],[4.849473204921271,46.469892742525964],[4.849436293791559,46.46989216905999],[4.849292414476361,46.46988558084228],[4.849271680404113,46.469885375993144],[4.849206182257593,46.4698875168681],[4.849182316109405,46.469891055567196],[4.849158774618733,46.46989648047992],[4.849071581928502,46.469923921793544],[4.848865949713774,46.47001074429421],[4.848620419532263,46.470116586219994],[4.848407867966769,46.47021468850903],[4.848258907504875,46.47029284706985],[4.848162173806216,46.47035421828643],[4.848135829240064,46.47037310876597],[4.847996303888805,46.47049506856616],[4.847960427071042,46.47052888466309],[4.847891920873994,46.47060772306307],[4.84785785829871,46.47065276854522],[4.847829936745531,46.47069438211297],[4.847784301036411,46.47077492219774],[4.847769260330812,46.470804258058315],[4.847637149883235,46.471122089952125],[4.847472146707553,46.471511879033315],[4.847400314944315,46.47165039724135],[4.847396885093198,46.47181086746344],[4.848016238513017,46.471941541855024],[4.848040601064234,46.47194493078339],[4.848285222895455,46.47198898158684],[4.8483687807378,46.47200420288624],[4.848448439873932,46.472023630416885],[4.848621807012246,46.47201542158697]]],[[[4.849391807569615,46.47397837905448],[4.849337892459245,46.47405698209379],[4.84931715709541,46.47409523716954],[4.849347604588961,46.47412041438642],[4.849385903019247,46.474119524353426],[4.850214042707153,46.4741281857506],[4.850432675458809,46.47413212138049],[4.851086681449837,46.4741381018591],[4.851147706689856,46.47413846434204],[4.851320094932638,46.47413963467493],[4.851300823823486,46.47406735036541],[4.851247048233146,46.473865743925465],[4.851228322054311,46.47380182729741],[4.851123561144675,46.473446216221724],[4.851072873597113,46.473274102678126],[4.851057851244915,46.473223276262715],[4.851047989877689,46.47317470806598],[4.851044484740138,46.473144411211024],[4.8516322144064,46.47310318436971],[4.852114723817959,46.473069244341794],[4.852126796588419,46.47304085669981],[4.852188558722014,46.47289403201184],[4.852189637741931,46.4728643814368],[4.852196365920463,46.4726747647427],[4.852309761003706,46.4726817535164],[4.852665482037723,46.4727033679813],[4.853229960080938,46.47294487987376],[4.85326508397298,46.472777680358554],[4.853239861270597,46.472768181709895],[4.853293492279716,46.472589333176415],[4.853311023691412,46.4724530428295],[4.853319256583998,46.472396075000525],[4.853318430143147,46.47237942541678],[4.853311489682673,46.47235548924017],[4.8532834250843,46.47223164753567],[4.853245849848081,46.47217704392173],[4.853077466971098,46.4720096321138],[4.852972588365098,46.47194630221152],[4.852953736346525,46.47194012286439],[4.852869364455367,46.47191248841039],[4.852820677343034,46.47190300987598],[4.852752091003837,46.471891061799326],[4.852582077678597,46.471894358746106],[4.852520079860543,46.47189599438137],[4.852358225284986,46.47190537356515],[4.852263384562547,46.47190727125786],[4.852165706818078,46.47190624254166],[4.852075979977645,46.47190517494098],[4.85194246149607,46.47190058372165],[4.851845614106771,46.47188945341508],[4.851752169641452,46.471878718231586],[4.851725628297576,46.47186491725956],[4.851581775547466,46.471790148290864],[4.851500951562345,46.47179019696107],[4.851363595791906,46.47178008289782],[4.851154135627079,46.47177726158203],[4.85106388891858,46.47178007462915],[4.850994105260878,46.471786609283136],[4.850777342796614,46.47180678338311],[4.850745618832653,46.47183233671398],[4.850793648800638,46.47206835318056],[4.850962680337866,46.472769873664554],[4.850976911677304,46.47283197167296],[4.851016835944257,46.47300579080493],[4.850977475639919,46.47300994112324],[4.850913545864517,46.47275490728028],[4.850789962491418,46.4722632346018],[4.850701560117854,46.47190546670931],[4.850695294306093,46.47181684910242],[4.850248380197932,46.47185065729168],[4.850046235325098,46.47188671585348],[4.849917404357971,46.471905014258695],[4.849752949061493,46.47196072788915],[4.849713512964349,46.47197415623222],[4.849728802423954,46.47211748049131],[4.849598343083164,46.47296048674831],[4.849551509125597,46.473240191892046],[4.849494087574716,46.47361905538403],[4.849475531454433,46.47362160747081],[4.849444659345508,46.47380305793025],[4.849391807569615,46.47397837905448]]],[[[4.849738113088488,46.46260456753558],[4.849744862060968,46.46275748761773],[4.849753391863344,46.46302828081429],[4.849755230800042,46.46304023038304],[4.849740913150296,46.4630408224765],[4.849761124505052,46.46314101363227],[4.849774692171446,46.463133678411346],[4.849796162577267,46.46313261022251],[4.850979933172437,46.463074797418706],[4.850972472640508,46.46303546750885],[4.850970731174016,46.463026398625075],[4.850961711385451,46.46297952807326],[4.850961541408928,46.4629783599135],[4.850959693047394,46.46296614030166],[4.85094881257649,46.462895161059706],[4.850936302625541,46.462814570696],[4.850908798429789,46.46274151894487],[4.850859885078085,46.46265980700118],[4.85085762866854,46.46265092659854],[4.850856427693665,46.46264626240044],[4.85082218262269,46.462505136633304],[4.850816265295847,46.46248055323848],[4.850772805832455,46.4623329115304],[4.85074600335403,46.4622651625209],[4.850728601877676,46.462220949698306],[4.850719904203884,46.462198933306716],[4.850708781246761,46.462170741353084],[4.850708641816063,46.46217047340091],[4.850734584533231,46.46213987959798],[4.850777447810589,46.46208937635505],[4.850796882151341,46.46206672408664],[4.850807288309933,46.46205457615671],[4.850850660312643,46.46200370436083],[4.850918212064457,46.46192406866545],[4.850918382852568,46.46190605184022],[4.850918616475794,46.46186299445575],[4.850918992340659,46.46179723705271],[4.850916871849702,46.46174241859877],[4.850914870472995,46.46169111095603],[4.850893726291722,46.46148663366581],[4.850669579101013,46.461449282911616],[4.850596960934578,46.46143334589155],[4.85009366043389,46.4613200828093],[4.84962171045481,46.46121648791764],[4.849484076659093,46.46118584049621],[4.849338244620228,46.46114019381833],[4.849372069293792,46.461365182200566],[4.849424687940544,46.461560143144176],[4.849438075207539,46.46160901471618],[4.849491564437321,46.46180657357316],[4.849503446762684,46.461845651843],[4.849541338760741,46.46197527999522],[4.849544552588503,46.46198549597483],[4.849603658608216,46.46216801218667],[4.849738113088488,46.46260456753558]]],[[[4.850213610780498,46.470003161094375],[4.85046889701966,46.470023616197125],[4.850469213406492,46.46994840248683],[4.850655157702215,46.46995376750696],[4.850684515241492,46.469954552994636],[4.850836741444381,46.46995740145461],[4.850835639208999,46.469971019904975],[4.850873277153501,46.46996995988367],[4.850852908503655,46.4698652679989],[4.850845312845157,46.46983350619337],[4.850893117124033,46.469824715591784],[4.850892957000091,46.46979310355334],[4.850881891871007,46.46970519415935],[4.85085492447991,46.46960196021498],[4.850932396410067,46.46959926414395],[4.850952660613256,46.46964325040994],[4.850958711990373,46.46965639269866],[4.851003688195994,46.46971024663714],[4.851230228879781,46.4696788349086],[4.851220274373247,46.469631349058176],[4.851246779623956,46.46962875794318],[4.851234269334289,46.46958662764307],[4.851225908126674,46.4695592016308],[4.851306449698603,46.46954708827156],[4.851284444208013,46.46947484823585],[4.851223256341663,46.4694810636689],[4.8512222435178,46.46947810776203],[4.851189506328579,46.46937388652227],[4.851136589359641,46.46935492839736],[4.851133121410445,46.46934876973823],[4.851125860623902,46.469323037224775],[4.851108992846362,46.469267737188524],[4.851047608769415,46.46927584718391],[4.85101054204925,46.46917079533424],[4.850598003129877,46.46931807722454],[4.85043810315525,46.469392542888315],[4.850360211130895,46.46944433367373],[4.850282719954275,46.46953484808316],[4.850273898068096,46.46956300276047],[4.85026135176338,46.469612023954944],[4.850190869486348,46.46961325533746],[4.850182144206336,46.469651946650835],[4.850249212596245,46.46965383294148],[4.850205502855894,46.46981792799901],[4.850200056150144,46.469845667734155],[4.850177769458297,46.46996879423515],[4.850213610780498,46.470003161094375]]],[[[4.850363505784035,46.471808801931964],[4.850838896394555,46.47176516474235],[4.850967388838744,46.47175227498031],[4.851066027056399,46.47174320129937],[4.851532466859125,46.471735464061545],[4.851580991119822,46.471717114095945],[4.851586639253709,46.47170684464369],[4.851593418075471,46.47168763992246],[4.85159745464944,46.471668299496564],[4.851598105579295,46.471645230985345],[4.851587010330308,46.47155263850052],[4.85157248261683,46.47140885170618],[4.851552682909759,46.47134017878987],[4.85152121326937,46.47123494633669],[4.851492232223739,46.47116462077852],[4.851455900527221,46.4711696229125],[4.851383358238794,46.47117935497278],[4.851368700854955,46.47114311403996],[4.851365844499577,46.47113577456587],[4.851082833206758,46.4711781891514],[4.851049273037306,46.47109199525257],[4.851027219597904,46.47103371683278],[4.85090787688298,46.47077066364488],[4.850879817123348,46.47070824919389],[4.850847395728951,46.47064023096607],[4.850829159941321,46.47060224652883],[4.850806828225433,46.47056649011746],[4.850785251834296,46.47053378385318],[4.850832528417872,46.47052094867793],[4.85077806886879,46.47043734498288],[4.850761532367942,46.47044175605895],[4.850698611012293,46.47046223035522],[4.850693772957993,46.470454112331225],[4.850682972077491,46.47043546260581],[4.850643914226333,46.47031783308226],[4.850640110191932,46.470278714172565],[4.850439028921389,46.470280619720384],[4.850439659871586,46.470203149165734],[4.850399364073936,46.47020272089069],[4.850397610134585,46.470066473143284],[4.850142586305074,46.4700537596629],[4.850096925387533,46.470279494233765],[4.850057004105234,46.470474602061735],[4.850016747800558,46.470475343921045],[4.849961013849225,46.470723128541444],[4.849948477145441,46.47077629275445],[4.84984771372403,46.47127619205051],[4.849734504059724,46.47190887587944],[4.849775447567555,46.47190145782362],[4.849809522191622,46.47189523179196],[4.849945308683523,46.47185907708637],[4.850180312638822,46.47182708023481],[4.850264570103013,46.471816798977805],[4.850363505784035,46.471808801931964]]],[[[4.85053503354102,46.46916417637527],[4.850795670207781,46.46909654546485],[4.850827327567819,46.469088286637316],[4.850820208512339,46.469070568057],[4.850805242628353,46.469032890929064],[4.850738421124579,46.468865361906296],[4.850695161635501,46.468758338655356],[4.850866060750211,46.46872764867038],[4.850965697017186,46.46870973193702],[4.85091994334811,46.46859067976195],[4.851369292214855,46.46854106675212],[4.851257930163927,46.46834021315715],[4.851209667719916,46.46825479792149],[4.851141087457983,46.468181420971426],[4.851086354244358,46.468120429477764],[4.851045394534928,46.46805813397948],[4.851041364767006,46.46804694048798],[4.851032186603503,46.46802231987167],[4.850946569352866,46.467769528753664],[4.850737043174555,46.46804862771864],[4.850653987561525,46.4680557375025],[4.850515901989908,46.468239015090596],[4.850447926572459,46.46832946561573],[4.8505061258644,46.46832356918994],[4.850556648446868,46.46828735334366],[4.850531342942696,46.468321449444424],[4.850459196324721,46.468415750478016],[4.850272577042848,46.46865935012853],[4.850167285105885,46.46878724344767],[4.849865420311452,46.469161328627116],[4.849605345209893,46.46951852383081],[4.8495806146303,46.4695542316515],[4.849613690180315,46.46955702883947],[4.850036346031782,46.46959260933729],[4.850044908657602,46.46953374495428],[4.850090953384204,46.46942311382338],[4.850188252386655,46.469313183930346],[4.850291694761507,46.46924602786387],[4.850420074474131,46.46919540104088],[4.85053503354102,46.46916417637527]]],[[[4.851593711116927,46.46892734416697],[4.85175926743798,46.46889286640862],[4.851761771481041,46.46889750947784],[4.851779457583249,46.46893081903544],[4.853335158898162,46.46880093400885],[4.853327062718262,46.46870460008553],[4.853317194659082,46.46866738099093],[4.853308568315644,46.4686475253146],[4.85326009320386,46.46857130150852],[4.852931067200987,46.46815664017327],[4.852837224818399,46.468034225308614],[4.852737618644411,46.46790713011017],[4.852609516542596,46.467777704697504],[4.852560305222225,46.46772581151756],[4.852334305109535,46.4674888079354],[4.851971249399094,46.467134952667294],[4.851865869330927,46.46702965726743],[4.851754923153446,46.46692165980827],[4.851753759795093,46.466921948873626],[4.851743035119608,46.46692473472581],[4.850861678328551,46.467165451982794],[4.850802268170907,46.46718172630029],[4.851234965244617,46.46800921693684],[4.851271544575039,46.46808455345441],[4.85153364911071,46.46802194089999],[4.851648935593455,46.46823470998337],[4.851352045873278,46.46832481741367],[4.851434678149774,46.468458854010336],[4.851479171801937,46.468533071450665],[4.851501661154447,46.46858116480054],[4.851576995570092,46.46882277331908],[4.851593711116927,46.46892734416697]]],[[[4.851661198476633,46.47033945195353],[4.851571066386713,46.47035325214623],[4.851585148059097,46.47041093909018],[4.851597643170705,46.47052557609968],[4.851512391471456,46.47053722554122],[4.85153091739606,46.470602946792205],[4.851473468062863,46.470611803864145],[4.851482369047563,46.47063976153308],[4.851348833627103,46.470649941453864],[4.851356333673384,46.47066351060171],[4.851389610133769,46.47075286147294],[4.851436230648561,46.4708628023312],[4.851450324927011,46.47089013543317],[4.851501551678676,46.47100135268299],[4.851527691554374,46.471064788873825],[4.851632490271429,46.4713793270723],[4.851638823415786,46.4714122801995],[4.851660076191068,46.47158135779822],[4.851666376319525,46.47163637865056],[4.851666397163884,46.47169843666064],[4.85166767314058,46.471720663315686],[4.851674323880275,46.471751449609414],[4.851686453843054,46.47177467128774],[4.851715374589173,46.47181248244483],[4.851727800431319,46.47182137816716],[4.851902655979559,46.471860877414194],[4.85194945461663,46.471868495469984],[4.851989070764856,46.47187190654984],[4.85206872643554,46.47187583956072],[4.852196565871842,46.47187827093163],[4.852225109089017,46.47187807846818],[4.852983037981184,46.47183561661834],[4.853005577345423,46.471831378090684],[4.853027011996305,46.471821483050476],[4.853038174958096,46.47181238507252],[4.853049333648013,46.47179932407361],[4.853057800858916,46.47178378475556],[4.853062104832442,46.47176849309282],[4.853063090336359,46.47175145384168],[4.853034273169209,46.47158240903789],[4.852996610846018,46.47145998389235],[4.852865867345167,46.47101895860251],[4.852853284626294,46.470963229035945],[4.852855826882221,46.47095364036937],[4.852875172572551,46.470901446223955],[4.852931045063277,46.47078092695043],[4.85294074536804,46.47075564005676],[4.852995400466197,46.47059929253755],[4.853017808697371,46.470525972263616],[4.853022327366167,46.47049014110498],[4.853021694987519,46.47046385085475],[4.853017831057186,46.470442206592324],[4.853012130852572,46.470420231827795],[4.853003352647861,46.470399748102466],[4.852927111587017,46.470300556176916],[4.852905532171843,46.47027163329111],[4.852893818551613,46.470252998563566],[4.852815145149712,46.470086023131714],[4.852576700416289,46.470062508018614],[4.852450013631119,46.47004015293623],[4.852354932334279,46.470027193073165],[4.852094148453976,46.46999458173577],[4.851942020338071,46.469975430651445],[4.851940831671714,46.46998265553335],[4.851934785553447,46.47001959224025],[4.851844527319448,46.4700142998212],[4.851832188878102,46.47002332666855],[4.851836031546318,46.470067398788565],[4.851874432929764,46.470065785644174],[4.851878523986922,46.470109493456576],[4.851838819690379,46.47011112771798],[4.851806532653598,46.47011237154674],[4.851805437500493,46.47019147092817],[4.851795909642255,46.47024872984547],[4.851787094328062,46.470307778617254],[4.851786324004358,46.47031580734864],[4.851661198476633,46.47033945195353]]],[[[4.852464953877154,46.46995803689347],[4.852548671344037,46.469966497255975],[4.8525431413857,46.46999558952426],[4.852780079260801,46.47001696745119],[4.85269661999503,46.46974360653932],[4.852702784633339,46.46954129892052],[4.852701010413448,46.46951592788399],[4.852676906668333,46.46940499190952],[4.852647405556856,46.4693001781492],[4.85256364092188,46.46898322809558],[4.851864437132991,46.46903410335566],[4.851894256035171,46.469132967511136],[4.851923333059015,46.46923301459605],[4.851971983303854,46.469456500898865],[4.851986828898856,46.469525163988635],[4.851989175891894,46.4695520569407],[4.85199569433716,46.46972101307013],[4.852057957111191,46.469742611498376],[4.852143720197191,46.46972302715832],[4.852292699227754,46.46968017063544],[4.852331379543543,46.46977123506429],[4.852338889094362,46.469846502095386],[4.852456287830105,46.46985639804452],[4.852464763535437,46.46987949874948],[4.852474670524883,46.469906359198326],[4.852464953877154,46.46995803689347]]],[[[4.852901613908813,46.47093533420791],[4.852900810643683,46.470953901697804],[4.853026891726706,46.47144571209318],[4.853055875981727,46.471558280169994],[4.853066357298716,46.47159819143643],[4.853102087339855,46.47179036223821],[4.853739867041702,46.47172246243844],[4.854362574148178,46.47165606464303],[4.854743334241281,46.47159377107451],[4.854739866544696,46.47157230057075],[4.854709550665663,46.47138616707993],[4.854692036138489,46.471277466356796],[4.85468429633172,46.47123003488903],[4.854664925081394,46.47113190251832],[4.854658701655015,46.471106063297846],[4.854612164747367,46.47091442856667],[4.854610793190239,46.47090859626132],[4.854608642953944,46.47090286666487],[4.854517988477303,46.47066358022525],[4.854517563942879,46.47066259634261],[4.854472751818735,46.4705600130516],[4.854449088196891,46.47048131541463],[4.854448502771849,46.47047943344033],[4.854389768121757,46.47027790871495],[4.854387696196739,46.47027064664913],[4.854390914525776,46.470254111559996],[4.854426737039276,46.47008077541319],[4.854407656834201,46.47007937373935],[4.854383613442359,46.47007769232974],[4.852882905356635,46.470089067581576],[4.852901792947907,46.47017306703044],[4.852972084525718,46.47027748945556],[4.853053768331087,46.4703987503609],[4.853072175009418,46.4704455585792],[4.853073291235652,46.47047841610928],[4.85307041500708,46.470505033471255],[4.853062215841646,46.47054380656771],[4.853041563226696,46.47061124381523],[4.852980212041402,46.47077769774091],[4.852959266971473,46.47082118103263],[4.852920591284992,46.470887649537204],[4.852901613908813,46.47093533420791]]],[[[4.854791896162911,46.471952273054384],[4.854749415758952,46.471638437276475],[4.85437311152652,46.4716975961594],[4.853090817250163,46.471834679410954],[4.853075143397219,46.47191437551914],[4.853120797011673,46.47198037716103],[4.853228180164006,46.472067534915894],[4.853324882117224,46.47218179680814],[4.853413060345628,46.47229457561439],[4.853768402677075,46.47246237671846],[4.853974941055926,46.472693658770105],[4.854343616880155,46.47313082199059],[4.854431856084473,46.47318009955607],[4.854600325237953,46.47325779811776],[4.854886902595719,46.47336600458114],[4.854984489446842,46.47336811333297],[4.854791896162911,46.471952273054384]]],[[[4.855078385325423,46.47522428741615],[4.855108327852248,46.475234519689515],[4.855240493289981,46.475279570837685],[4.855507600230156,46.47530946070186],[4.855778528933009,46.475298395998315],[4.855795061779478,46.47529767715581],[4.856639644502788,46.475210460726906],[4.856659388852062,46.475208338526436],[4.85693397311935,46.47517829692304],[4.857043937324888,46.4751685837736],[4.857715855194393,46.47521773939138],[4.858075145246228,46.47524405301822],[4.858187260329258,46.47525538024333],[4.8583269056287,46.47526734050637],[4.858362469998275,46.47527036496068],[4.858391333845856,46.47527187710726],[4.858448768559403,46.475262476442005],[4.858452659164352,46.47526187274649],[4.858521249132097,46.47525463245134],[4.858546573396192,46.47525557163367],[4.858686512967236,46.47526086146986],[4.858712166939742,46.47526764982278],[4.858721007498205,46.47527074855746],[4.858744889427548,46.47527909692168],[4.858792818301902,46.47527003084278],[4.858839191314013,46.47526504321612],[4.858856933628172,46.47526538509969],[4.858871281999203,46.47526560204883],[4.858895024262821,46.47526602646644],[4.85905645587385,46.47527456904829],[4.859076046943272,46.47527560138394],[4.859097521945531,46.47527453144951],[4.859129499107466,46.47527175945495],[4.859155799711031,46.47526691811792],[4.859234590794728,46.47524149736264],[4.859447491447458,46.4751727322667],[4.859510939221259,46.47515233470842],[4.859526136613893,46.47514686332832],[4.859544424373374,46.47514026081323],[4.859598871891205,46.475112083474706],[4.859607309016309,46.47510717244681],[4.859741930328861,46.47502914239927],[4.859758618976522,46.47501770207527],[4.859768332826383,46.47500817666926],[4.859787766654909,46.474989305895484],[4.859803418713764,46.47497040659667],[4.859815563574375,46.47495570761177],[4.859938802354344,46.474738884027055],[4.859972381689762,46.47467988181491],[4.859896752313102,46.474442426360206],[4.859871541218507,46.47435303655573],[4.85986512199614,46.474294775446026],[4.859853358155975,46.47414094660781],[4.859670277087084,46.47404412830783],[4.859505736159015,46.47400546368007],[4.859401434813774,46.47398617451918],[4.858582035939238,46.4738629581554],[4.858303318882423,46.474016377317994],[4.857087026033113,46.47377674812949],[4.856857868493901,46.47372021508523],[4.856411235560278,46.47360560680007],[4.85602253990228,46.47350401665793],[4.85538207389437,46.473447495424786],[4.855354222843198,46.47344506538798],[4.855057283554191,46.473430881479715],[4.854933708972002,46.473626808737066],[4.854837288267686,46.473835355264086],[4.854815666747798,46.47389344123582],[4.854744033632342,46.4740181802895],[4.854692377986896,46.4740978301475],[4.854627025266309,46.47421174882456],[4.854553184629575,46.474405787557224],[4.854527995162584,46.47452382805327],[4.85452693356867,46.47456545771704],[4.854907226511481,46.474592341053516],[4.855122204918741,46.47460758584437],[4.855166507889813,46.47461073962917],[4.855078385325423,46.47522428741615]]],[[[4.855810217400351,46.46226326442164],[4.85578126774275,46.46214790411927],[4.855476519069356,46.46093654304819],[4.855385332904389,46.46089587105024],[4.85518482309158,46.460925067571644],[4.855346081911278,46.46151619299581],[4.855475087608557,46.46200200929156],[4.85555383083832,46.46229760246299],[4.855810217400351,46.46226326442164]]],[[[4.855746016886124,46.46594350253945],[4.85576062283412,46.46595902761751],[4.855805125805957,46.46600658248662],[4.855834414586648,46.46603222715593],[4.855934776763613,46.46612012686542],[4.855940243752734,46.46612373094491],[4.856018203911235,46.466177677670686],[4.856148231850907,46.466267797398174],[4.856878175751119,46.465979960899574],[4.85677488401946,46.4658481552543],[4.856997761051925,46.465778601449216],[4.857619315769614,46.465584753768084],[4.857619185492401,46.46558475588625],[4.857545001082605,46.465549843777204],[4.857488171186646,46.465523116097145],[4.857359808689682,46.465462784108865],[4.857254364392984,46.465413248162406],[4.857217007258912,46.46539566119955],[4.857157129221432,46.46536745171112],[4.857115138917667,46.46534777833749],[4.857093414997595,46.465337593209036],[4.857061621517906,46.465322617875565],[4.856993401388007,46.465290580798154],[4.856920444032891,46.46524574060668],[4.856850817244062,46.465203007930874],[4.856596846258494,46.46526658170277],[4.856093849546019,46.46540886907833],[4.856000675523628,46.46530617127441],[4.855747464537019,46.46542278223605],[4.855443086437412,46.465522029358965],[4.855482018066167,46.4655552635664],[4.855568885630561,46.46562969203849],[4.855625284352252,46.46573190662644],[4.855671132983558,46.46581519762337],[4.855690305587976,46.46585001366748],[4.855692933979401,46.4658544744956],[4.855732887139303,46.4659215584871],[4.855746016886124,46.46594350253945]]],[[[4.855725164918796,46.461605961002405],[4.855732109532986,46.46163386009971],[4.855748859696151,46.4617009606945],[4.855837713049217,46.462037011236966],[4.855854915029391,46.462121217856556],[4.855858028748385,46.46213611896573],[4.857220497475608,46.462021656057686],[4.857119533844183,46.46158663573458],[4.856686735003916,46.46162285317175],[4.856670844970567,46.46155808054836],[4.856664661643663,46.46152575567583],[4.856623193614594,46.4613566467943],[4.856603074199896,46.461274829508575],[4.856589463093669,46.46121956730615],[4.856585515548144,46.46120314856522],[4.856572499065958,46.46115003838833],[4.856564961979695,46.461150701296006],[4.856337434750723,46.461171151703155],[4.856269603978698,46.46117720773555],[4.856210352420856,46.46118258391156],[4.856133427447746,46.46118950818676],[4.855740871320191,46.461224707966586],[4.855632370980518,46.4612344866299],[4.855638108023212,46.461257541544235],[4.855648062058311,46.46129728106168],[4.855662418485835,46.46135532343739],[4.855683091270835,46.46143812265148],[4.855725164918796,46.461605961002405]]],[[[4.856517585253664,46.46972085825927],[4.856163527509055,46.46978974971583],[4.855746124389634,46.469866604293244],[4.855468501324798,46.4699176792179],[4.85540967836578,46.46992827193312],[4.855789386367625,46.47128766130383],[4.855944958439419,46.47183699518569],[4.856092761189567,46.472360965169635],[4.856252905254337,46.47293337243317],[4.856381345810886,46.472907417263016],[4.85659744312434,46.47359150290422],[4.85696840945597,46.47368923599956],[4.856984722537577,46.47369356448385],[4.857003042172893,46.47369939155219],[4.857106753367514,46.47373202287355],[4.858012255175894,46.47389924518311],[4.858156699713888,46.47392589909624],[4.858293889106722,46.473950058774875],[4.858546785882181,46.47381174104801],[4.858546916179004,46.47381173892879],[4.858642471221062,46.473807752836464],[4.858727436030732,46.47383348199386],[4.858795011523409,46.47385390959594],[4.858931781074471,46.47388104766126],[4.858965906800966,46.47388778820163],[4.859008455818969,46.473893040642906],[4.859009895222249,46.473893197366635],[4.859020886192609,46.47389436961439],[4.859240560059327,46.473917366365534],[4.859321019675215,46.473929477698135],[4.859353647769145,46.47393435101503],[4.859463070481969,46.47395472779517],[4.85945244619341,46.47391842218754],[4.85939416310267,46.473719324336685],[4.859366975580867,46.47362546307217],[4.859466135307502,46.473612500665475],[4.859671850812992,46.473585554521975],[4.859618846704898,46.473514540974946],[4.859359494208126,46.47317271107614],[4.859240191064433,46.47301540790483],[4.859025740549037,46.47270950532791],[4.858973666968664,46.47263514375733],[4.858904263718541,46.47253044016483],[4.858876376711475,46.47248486787728],[4.858831651442508,46.47238129398118],[4.858735302521351,46.47212471965877],[4.858679176884602,46.47196584781338],[4.858658355919849,46.47187512536071],[4.858651920471788,46.471846947948166],[4.858527328861836,46.47130089636851],[4.858475533825403,46.47107395086479],[4.858400280944209,46.470743896010795],[4.858379714314691,46.47068739610697],[4.858355666827394,46.47063968963695],[4.858332177340793,46.4705930549315],[4.858322964892364,46.470575190685416],[4.858048566471193,46.47016604993648],[4.857955427894828,46.47002264123209],[4.857899055737891,46.469940603050695],[4.857856535697833,46.469878695515746],[4.857834234947906,46.46984780369958],[4.857777464640209,46.46976937475001],[4.857729820755356,46.46970628949395],[4.857693721963981,46.46966067030746],[4.857680238005718,46.46964368609338],[4.857648835767513,46.469613482638294],[4.85762034586012,46.46959223886347],[4.857616063255827,46.4695889758851],[4.857613402339585,46.469587397878705],[4.857577079928645,46.469565831079024],[4.857531671199515,46.46954540275765],[4.857529686244843,46.46954453432321],[4.857507040899892,46.46953796704564],[4.857468468412827,46.469526884952685],[4.857428836777643,46.46951915266764],[4.857386554961252,46.46951398541935],[4.857353230726436,46.46951155479882],[4.857306261630078,46.469514209764604],[4.857249732517436,46.46952323495819],[4.857208095908772,46.469533188975525],[4.856795545441213,46.469645276142074],[4.856517585253664,46.46972085825927]]],[[[4.857533659574375,46.458789339076326],[4.857544780730017,46.45885950331481],[4.857613710368763,46.458966196888376],[4.857722344143747,46.45912124313267],[4.857765470199372,46.45918971597706],[4.857786958940856,46.45922368339006],[4.857835478052873,46.459301255698904],[4.858992436197836,46.459174440081455],[4.858976133128245,46.45909760498864],[4.858970975663783,46.45907246916098],[4.858969226860008,46.45906322035219],[4.858928568492981,46.45887977776331],[4.858872972090373,46.45870927817765],[4.858872969023309,46.458709188156995],[4.859019236302804,46.45869870166955],[4.859280653734388,46.45867868493275],[4.859487214517547,46.45866289313564],[4.859801237840388,46.45862616648767],[4.860458363298975,46.45854935475393],[4.860481212370068,46.45854673087105],[4.86038603360291,46.45843100900094],[4.860335399281905,46.45837175649452],[4.860306899815279,46.45833862426739],[4.860225450596652,46.458243304856644],[4.860171624229625,46.45817833974254],[4.860129206273762,46.458126879571196],[4.860033641277184,46.45801125378358],[4.859976681315144,46.45794228642814],[4.859956936211417,46.45792126118196],[4.85993997631492,46.45791694371504],[4.859912172880715,46.45791568505107],[4.859869618140245,46.4579175488039],[4.859793919660284,46.457925896790485],[4.859317999586196,46.45797705787964],[4.858687445697244,46.45803028268695],[4.858572604734723,46.458037375236586],[4.857971587419496,46.45805859083527],[4.857741405558252,46.45806575700338],[4.857608156460757,46.458060447990974],[4.857460594215147,46.458048165910384],[4.857471226312107,46.458100143866936],[4.857487191305143,46.45820157389632],[4.857504172313408,46.45834432977049],[4.857507727559449,46.4583951618049],[4.85750808153694,46.45840938719102],[4.857509091368932,46.45845053299757],[4.857511235131876,46.458555610432576],[4.8575120855987,46.45859207516271],[4.857512739930389,46.458615122575125],[4.857518072879446,46.45866457464431],[4.857527676812321,46.45875142660015],[4.857533659574375,46.458789339076326]]],[[[4.85900132869098,46.478931959298606],[4.859003913787514,46.478946598699636],[4.859026271484388,46.47899433252582],[4.859057000724583,46.47908111072877],[4.859059836845981,46.479080163889904],[4.859415050489362,46.47896702117506],[4.859457800560086,46.478951283864944],[4.859482913114175,46.478942138441425],[4.859553525840338,46.478913788246906],[4.859585665557151,46.47889660227121],[4.859589249750147,46.47889465247317],[4.85959358510252,46.47889178974926],[4.859639719450917,46.47886059528186],[4.85964397499174,46.478855392027405],[4.859658253133465,46.478838226471716],[4.859699813431376,46.47878377820744],[4.859700064840013,46.478783503905404],[4.859805672493022,46.47861524533454],[4.859822581372791,46.47856435065498],[4.859824076285896,46.4785317208817],[4.859806921235347,46.47821981643607],[4.85978637120359,46.47814863505617],[4.859790108951708,46.47788737036902],[4.859786359068853,46.477807989391756],[4.859768973773441,46.47751608426518],[4.859753267409501,46.47726576428378],[4.85973473885027,46.47701296825188],[4.858932114879154,46.47706196531356],[4.858899303805471,46.4772392169417],[4.858904053654732,46.47732884967999],[4.858907625553692,46.4774566013071],[4.858926673179761,46.47758320049132],[4.858962934147278,46.4778552533727],[4.858957714783519,46.47793928377236],[4.858939571929517,46.47820645711523],[4.858932179287742,46.478253503978806],[4.858922765495395,46.4784019127697],[4.85896075388419,46.47870167916651],[4.85900132869098,46.478931959298606]]],[[[4.858740390639063,46.47156629074219],[4.858752057462025,46.471656171320916],[4.858765832878754,46.471716114237566],[4.858784958048227,46.47178002329341],[4.858829291211012,46.471990697244],[4.858913407055819,46.47226701577384],[4.858950386406847,46.47235369235786],[4.859036078437581,46.47254234670262],[4.859061572658462,46.47258273380191],[4.859146195151162,46.47270556403962],[4.859268848416377,46.47286938792752],[4.859447761475969,46.47310029933313],[4.859775659627671,46.47353306536489],[4.859829859802112,46.47360856289376],[4.859868295310876,46.473672878050735],[4.859903933289628,46.47373543732206],[4.859919536417526,46.47376481650757],[4.859930576434507,46.47380183587349],[4.859971915318352,46.474108032727734],[4.860124235066442,46.474082675465205],[4.860321611843444,46.474032895973174],[4.860422270774276,46.474010360879745],[4.861434336455907,46.47379662493429],[4.861589773812237,46.473767161738614],[4.86169339964737,46.47374754949742],[4.862010955006422,46.47368193817702],[4.862243638802517,46.47361248505185],[4.862360501261565,46.47356437436473],[4.862466102732651,46.47351482582866],[4.862506334452664,46.47349039149451],[4.862532333843031,46.47347294440869],[4.862544473371184,46.47346193808768],[4.86255805348517,46.47344730546665],[4.862570337970314,46.47342909114487],[4.862577145765876,46.4734146589791],[4.862584417521401,46.47339472495356],[4.862592853195633,46.47336306279834],[4.862597541030358,46.473332362436764],[4.8626005163566,46.47328205463277],[4.862597784680624,46.473247872391774],[4.862591559628782,46.47321446765645],[4.862577714587709,46.473164073742545],[4.862476120711478,46.47290335447883],[4.862366862800916,46.472757960137294],[4.862327910085042,46.472712929277634],[4.862254685550609,46.472614865035844],[4.862192250491248,46.472527343299106],[4.862062973112931,46.47234156309606],[4.862056195392745,46.47233014452728],[4.862045061462787,46.472320958635635],[4.862038107360044,46.472308191883506],[4.862031711309299,46.47229649688256],[4.862015144411572,46.472280914448994],[4.862004242809266,46.4722632581464],[4.861984185058311,46.47222179230612],[4.861791658627545,46.471932200453196],[4.861096944963509,46.47093878200993],[4.860607290372604,46.47104538340468],[4.860541551276641,46.471059604119816],[4.860070781852628,46.4711619325769],[4.85965753968174,46.47123098755373],[4.85918539088179,46.47128911020357],[4.858697405166676,46.47133776089953],[4.858728974599351,46.47144551194753],[4.858735977218112,46.47147503118679],[4.858740823496844,46.471521608801154],[4.858740390639063,46.47156629074219]]],[[[4.859989600042404,46.47881671149989],[4.860042561358465,46.4789360032773],[4.860071691255116,46.478979663596384],[4.860182158370216,46.479145036010294],[4.860807795451005,46.47900172676424],[4.861202803675901,46.47890099064931],[4.861370362873111,46.47885953138315],[4.861009089665593,46.47790085201959],[4.860831771574186,46.47795426892556],[4.86065752961006,46.47800232131694],[4.860405987414188,46.47810432300374],[4.860079828515295,46.478369575118826],[4.860011975376891,46.47848263689053],[4.859967805685545,46.47855613258087],[4.85997020738047,46.47868390323664],[4.859975125296355,46.478717239273095],[4.859989600042404,46.47881671149989]]],[[[4.860782814962612,46.476805948789114],[4.860779463916253,46.47680708419877],[4.860817290752935,46.47686492390469],[4.860786721964894,46.47687460884031],[4.860805504746352,46.47696275206901],[4.860389645126991,46.47702131332027],[4.859885942927794,46.47709229131284],[4.859879978598975,46.47721560456925],[4.860079694032389,46.47719965408532],[4.860102836104286,46.477197746206784],[4.860114123176968,46.47742165742997],[4.860089756069857,46.47742205405364],[4.859870191479096,46.47742562767441],[4.859874259213549,46.47744168405697],[4.859878428158599,46.47749511796939],[4.859915211826689,46.4778358857629],[4.859931558086587,46.47804377218809],[4.859959020044974,46.4783482131913],[4.860096689520948,46.47821789250398],[4.860186929144929,46.47814193552094],[4.860277800658364,46.47807686668282],[4.86030589399892,46.478059566218185],[4.860415408704792,46.47800211996576],[4.860452375102969,46.477985035294786],[4.860502289232887,46.47796530792003],[4.860537233832456,46.477953930566244],[4.861100909416309,46.47779865808238],[4.861323767563738,46.47773873451355],[4.861494862320927,46.477690191924424],[4.861503110991178,46.47768357249553],[4.861503999815206,46.47767905449994],[4.861499706578701,46.47766786563988],[4.861471123306591,46.47762113437241],[4.861416470315504,46.47751727278552],[4.861337576768292,46.47733346325304],[4.86126686608105,46.47718311663287],[4.861217152887551,46.477189600746634],[4.861147188928951,46.47719866640758],[4.86110759955042,46.47720381467956],[4.861089193222969,46.477138182949865],[4.861128658394597,46.47713321684701],[4.861197986108854,46.477124611910035],[4.861249135668197,46.47711819447967],[4.86124317084107,46.47709622439412],[4.861177790295664,46.476819332137794],[4.86113364341651,46.47667945131457],[4.861100962285261,46.476688360106124],[4.86108365518962,46.4766931454853],[4.861078880031887,46.476694574307835],[4.860998183596283,46.476717685508085],[4.860984494269772,46.47672151125279],[4.860936557039999,46.47673418118367],[4.860881663319478,46.476776057095144],[4.860782814962612,46.476805948789114]]],[[[4.861155768770118,46.47087090155736],[4.86232290895868,46.47064967676138],[4.863190323059884,46.470485208263646],[4.863890153822692,46.47047145274806],[4.864267947756951,46.470464028459205],[4.864879569551175,46.47045161595235],[4.864923079771533,46.47045072567538],[4.865314538323981,46.47044262454386],[4.865514646075292,46.47043890730698],[4.865972603919909,46.470431249397855],[4.865826813813877,46.46986204227326],[4.8658128126783,46.469807147709226],[4.865704111519777,46.46940369514155],[4.865459499284657,46.46862434519072],[4.865304641159688,46.46813274615858],[4.86488462818445,46.46820499348702],[4.864814448609226,46.46821883886353],[4.864688935493004,46.46824610705895],[4.864273275428797,46.468331341303305],[4.864100801075295,46.46836910268546],[4.863686528023134,46.468414861238266],[4.863475300572663,46.46844010346577],[4.862861048719665,46.46838247684056],[4.862461954561279,46.468303956369525],[4.862044965992923,46.46819762414949],[4.861809793783041,46.46814002838488],[4.861319995698668,46.46802389135143],[4.860984723543788,46.46797044652164],[4.860768597973966,46.46794379287366],[4.86057448284576,46.4679471341505],[4.860514005658146,46.467977932267935],[4.860779014939095,46.469292428358116],[4.860836295296656,46.46958440461213],[4.861093572549423,46.47083993960079],[4.861096974329608,46.47087086842358],[4.861064511347927,46.47090517357902],[4.861155768770118,46.47087090155736]]],[[[4.861968861455662,46.476607750284266],[4.861915100223984,46.47663312537726],[4.861810483703899,46.4766582481553],[4.861804545055502,46.476659966175454],[4.86182980275961,46.476762054751724],[4.861838671345627,46.47678505834637],[4.861840962691422,46.476798711710934],[4.861856411613105,46.47683115555364],[4.861762552116054,46.4768620476648],[4.861775864421097,46.47691974602912],[4.861752008303347,46.47692364743034],[4.8617562874134,46.476930603205155],[4.86183366006705,46.47706219644143],[4.861965318588171,46.47702717566352],[4.86197020930381,46.47703295055082],[4.861998559753061,46.47709959104503],[4.862001396338427,46.477106300104154],[4.862016286118076,46.47714145514815],[4.862019532061529,46.477148697959066],[4.862041162055887,46.47717887937566],[4.86205919393714,46.477206777587256],[4.862084623739338,46.47724896651066],[4.862103988140706,46.47724333682553],[4.862155022439222,46.477325189831255],[4.862096135027334,46.4773417315609],[4.862054297265811,46.47735358200379],[4.862014783400348,46.47726928948527],[4.861848120798308,46.47731776067501],[4.861681969902608,46.47736595306932],[4.861647666183519,46.47730823638084],[4.861637157683182,46.477290663709695],[4.861609635365919,46.477244455613935],[4.861550092169135,46.47724560571346],[4.861399286500594,46.47729264702262],[4.861424075865482,46.477346645732275],[4.861480824438743,46.477473711331044],[4.861528759438129,46.47757173767875],[4.861557918004589,46.47762386378215],[4.861566994436947,46.47763767683366],[4.861576801732182,46.477646163828204],[4.861594626542849,46.477652718809864],[4.861612310015907,46.47765513285509],[4.861628173534262,46.47765388366083],[4.862127564840715,46.47751001129279],[4.862368324772163,46.47745132513704],[4.862565258101435,46.47740353073801],[4.862595673858674,46.477397000284775],[4.862866439852213,46.47733890483826],[4.863263499905183,46.477264338355575],[4.863327861622828,46.47725157978439],[4.86339080841071,46.47723938467052],[4.863892819142172,46.47713806503888],[4.864241073731165,46.47706609254127],[4.86430705817027,46.47705123531877],[4.864454425441944,46.47701811706499],[4.864625055428734,46.476982817640035],[4.864802033159625,46.47694633352698],[4.865103326714101,46.476885122496626],[4.865240809507181,46.47686036094849],[4.865433200318003,46.476832361103284],[4.865635932087413,46.47680176020586],[4.865936723512633,46.47675640755098],[4.866051180974827,46.47673697485483],[4.865962947711294,46.47640254277478],[4.865949765141339,46.47637924963045],[4.86584810705753,46.47623544567885],[4.865787395084685,46.47615285153835],[4.865621270080549,46.47599577873338],[4.865462604117836,46.47585092359017],[4.865372609947641,46.47573169821473],[4.865278051414173,46.47574585158375],[4.865110188696171,46.47577426153927],[4.865007165573953,46.47579251593558],[4.86481952446239,46.475822058883764],[4.864687061221127,46.475844846582206],[4.863889192412198,46.47597135186891],[4.863670561734954,46.476005901885515],[4.863605149924421,46.47601840759128],[4.863536200356256,46.47603421348645],[4.863319641871246,46.476098902621956],[4.863238455668171,46.47612670708355],[4.862893130620263,46.47626140792955],[4.86283580704136,46.47628170752917],[4.862776423174045,46.47630276124678],[4.862364654332555,46.47644655978228],[4.862156035805119,46.47651859310262],[4.862099611510506,46.47653851738769],[4.862042932714778,46.47655862593186],[4.86195390300387,46.476593492679925],[4.861968861455662,46.476607750284266]]],[[[4.862491497333583,46.48626972326898],[4.862690796184601,46.48619099659636],[4.862800560315083,46.48614426265626],[4.862885874081062,46.48610324126606],[4.862958538040139,46.48605837283312],[4.863160251172063,46.48591295396487],[4.863220975066656,46.485865938166],[4.863297737636573,46.48579983617664],[4.863517850789869,46.48559764260492],[4.863530164255678,46.48558402136756],[4.863540319810228,46.485564490673944],[4.863541708097626,46.48552880020524],[4.863539514687152,46.4855065886074],[4.863526339638165,46.48546447038686],[4.863511224832126,46.48543427306939],[4.863185166227537,46.484863679423405],[4.862824637280716,46.48478777229802],[4.862761330561668,46.48475151499854],[4.860638187114938,46.48531192834004],[4.86064510506948,46.48544971321207],[4.860648778190074,46.48552297056594],[4.860756447195367,46.485800795661795],[4.860783617261736,46.485870968366434],[4.860858477330791,46.48609294356055],[4.860990198531297,46.48648323481644],[4.861026774780956,46.48656154077224],[4.861119484056256,46.48676007713231],[4.861166721544236,46.4867686752507],[4.861166851871908,46.48676867312851],[4.861357387444432,46.48669288372125],[4.861464516450952,46.486645293314346],[4.861614486748346,46.48658448527436],[4.862037194247365,46.486422678849976],[4.862372698314592,46.48631156018603],[4.862491497333583,46.48626972326898]]],[[[4.863161205921838,46.48602867869713],[4.863090859203623,46.48607648180892],[4.863015261256772,46.4861270725775],[4.862942399269508,46.48616996272724],[4.862863666334624,46.486212768375836],[4.862753804443525,46.486264277691326],[4.862618306804634,46.48632115853335],[4.862462534456952,46.486376207901436],[4.862338246086858,46.48641768387526],[4.862262460551444,46.486439905055704],[4.861841043326637,46.486605113971926],[4.861738556758001,46.486643532027806],[4.861638608865013,46.486699021981444],[4.861571365740827,46.48673848710698],[4.86141834768149,46.48685518824608],[4.861390681625914,46.48688130881292],[4.861339667949196,46.48694545893672],[4.861292137420357,46.4870046885227],[4.86505017530601,46.491195376164065],[4.865125143153629,46.491152900779525],[4.865438009955511,46.49095882796022],[4.86580702054421,46.49073249337156],[4.866187543218849,46.490522542515784],[4.866329545305573,46.4904421331162],[4.866814552828668,46.49019120340401],[4.867613777003798,46.48986992708241],[4.868000278183109,46.48973589163787],[4.868236494909165,46.48965357976333],[4.867804554572545,46.489020689010935],[4.867586949770328,46.48876682362375],[4.867497810834061,46.4886619069619],[4.867211605844923,46.48832395514672],[4.867095610065741,46.48822298966031],[4.866999473420535,46.488073602119],[4.866988384776699,46.48801253541017],[4.866999286300101,46.48801100628801],[4.867169846363351,46.487949854615195],[4.867210709183443,46.48791694190015],[4.867239667030574,46.48789052857824],[4.867238070402141,46.48787055904346],[4.867068969560306,46.48768867719185],[4.867017019976708,46.487626296386935],[4.866725192708706,46.48723052003818],[4.866510023250896,46.48695220388668],[4.866438848529384,46.48697957663361],[4.866296900667645,46.48701558080321],[4.866262383431455,46.48702434080794],[4.86622694249898,46.487028972648474],[4.866149328302783,46.48702060235975],[4.866070143086931,46.487015860481044],[4.866017607601023,46.48702014085468],[4.865998321173883,46.48702432874547],[4.865943502546247,46.487038103743224],[4.865827483361327,46.487073503886535],[4.865721268478906,46.48711342752819],[4.865617628234434,46.4871561912944],[4.865362137268777,46.48728096536776],[4.865342002068028,46.48729084142678],[4.865250182160451,46.487339897003025],[4.865132937684539,46.4873928801262],[4.865016099362359,46.487446306849215],[4.864988105217461,46.48740560150077],[4.865214379479943,46.4873034623693],[4.86521275087255,46.487301597469774],[4.864596336376608,46.48663783907059],[4.863946456301989,46.48592922785738],[4.863615456511327,46.48561109289373],[4.863395304987202,46.48583886724235],[4.863326926709204,46.48589465467065],[4.863247594437745,46.48596187941147],[4.863161205921838,46.48602867869713]]],[[[4.863323869123737,46.48485493317734],[4.86331591794904,46.48487028468382],[4.863309952374837,46.48488650452165],[4.863307266406395,46.48490330138431],[4.863307693950384,46.48491581418428],[4.863310135920859,46.484926222526774],[4.863346407998991,46.48499174277568],[4.863530946151696,46.48530163826943],[4.863557799050905,46.48534335333459],[4.863586058711699,46.48539189079842],[4.86360234534993,46.48542585195185],[4.863616512976843,46.485458856881166],[4.86363043450715,46.485484660198445],[4.863641367232168,46.485491687557854],[4.863661091270065,46.485496499951175],[4.863679716484262,46.48549205301855],[4.864111910328822,46.48528775092805],[4.864565270919983,46.48506571826452],[4.864987982439975,46.48484742638837],[4.865408155944029,46.4846274629731],[4.865429128938887,46.48466116725724],[4.865413869989315,46.48466871200282],[4.865685806835311,46.484952588514496],[4.865767891273012,46.485038346602245],[4.866294672803008,46.48475584204799],[4.866362589406028,46.48471717367127],[4.866330576895133,46.4847038255812],[4.866155836233338,46.48463110980676],[4.865939007908591,46.48454782210524],[4.865921902776815,46.484543327632245],[4.865869001972258,46.484529239588035],[4.86581518625298,46.48447697662189],[4.865794216356115,46.48445480136067],[4.865695663781408,46.484497482245025],[4.865653893469812,46.48445808277978],[4.865597785454352,46.484476021942],[4.865544481429412,46.48436628561302],[4.86559238118209,46.48435235348413],[4.865568053440584,46.48429681689019],[4.865650685439827,46.484288082306314],[4.865323532372987,46.484196776635464],[4.865023662685633,46.48411015884555],[4.864982155933204,46.48413182253893],[4.864565796275103,46.48376536433798],[4.864203612959339,46.483961320878],[4.86457280774365,46.4842945933164],[4.864353247289514,46.48442877700242],[4.864210905909139,46.48451414363706],[4.86404531457042,46.48439236727487],[4.863871525843373,46.48449617035597],[4.863708387082527,46.484594935701566],[4.863480257782211,46.48473412117232],[4.863401218294988,46.48478314709037],[4.863371762744359,46.484802632151904],[4.863351322121066,46.48481881777323],[4.863338105750305,46.48483272392617],[4.863323869123737,46.48485493317734]]],[[[4.86381803296199,46.471676151279226],[4.863551040980338,46.47176373107856],[4.863482080271834,46.4717828698291],[4.863359883565744,46.471800624918906],[4.863019280252004,46.471862833033676],[4.862787144236465,46.471913724449394],[4.86253998372161,46.4719751283187],[4.862156579328879,46.47208964184215],[4.862118036728077,46.47210242945926],[4.862077181423706,46.4721200284842],[4.862060465267553,46.472134441947375],[4.862049917731981,46.472153888901616],[4.862051095314484,46.47217692774541],[4.862202149102535,46.47237433244246],[4.862495024765267,46.47273920821793],[4.862574290388852,46.472746923255386],[4.863137602298154,46.472540755739495],[4.863282545500767,46.47249425780979],[4.863365109166495,46.472468772581934],[4.863606538085078,46.47240746043233],[4.864071135729671,46.47229224802942],[4.864302987772137,46.472259733031045],[4.864791904219919,46.47218861571272],[4.864701825580093,46.47197517747984],[4.865152722300936,46.471878828758015],[4.86509571438513,46.4717137592918],[4.865817742155672,46.471475714519805],[4.866458061137052,46.47126917341969],[4.866435401640103,46.47122414797999],[4.8663900504211,46.47115220179975],[4.866271649899511,46.47100651001926],[4.866181273492791,46.47090260352915],[4.866091203259915,46.47080382599372],[4.866060633591032,46.470809549329374],[4.866013404956721,46.47064459076961],[4.865967521653363,46.4704846541728],[4.865197329217113,46.47049939085887],[4.864301999665162,46.47051823575814],[4.863203509249056,46.470539215686536],[4.861732588407863,46.47081646951445],[4.861267524320376,46.47090249733806],[4.861226495050114,46.47096846673142],[4.861830617493074,46.47183230804639],[4.862003470178195,46.472072591612715],[4.862255088686265,46.47200427091346],[4.862520140146381,46.471932308017706],[4.862752427578171,46.47187438918514],[4.862933527838024,46.471829283785475],[4.863254703780928,46.47178225434385],[4.86354976800212,46.47171502370491],[4.863757753744054,46.471647951653566],[4.863794375103143,46.471636185584046],[4.863814848624307,46.47167070891946],[4.86381803296199,46.471676151279226]]],[[[4.864818610465004,46.48383347602129],[4.864890770044471,46.48389219539726],[4.864988807215976,46.483975532023514],[4.865176686156098,46.48405506060902],[4.86550401267025,46.484155280818904],[4.865589700794497,46.48418252453721],[4.86560218617215,46.48419682206578],[4.865635893360948,46.48420635973508],[4.865698022117412,46.48415859904628],[4.865849074800087,46.484042104080096],[4.865906752836036,46.48399765846328],[4.866033125922093,46.48403639712672],[4.865513159523392,46.48292846317078],[4.865349567181342,46.48296418915211],[4.865293512975946,46.48284260830831],[4.865217252559004,46.48290032703784],[4.865181539308408,46.482923607610346],[4.86514355827554,46.48294539398392],[4.865086149515067,46.48297101013068],[4.864915466210577,46.483043419767],[4.86473975954149,46.483113839482805],[4.86467399461656,46.48313914140202],[4.864524513365356,46.483194811712366],[4.864448348396675,46.48321722077207],[4.864345066691057,46.48324358486552],[4.864273025634103,46.48326457547991],[4.864223427125331,46.48328601061554],[4.864189207329455,46.48330341193343],[4.86429879344649,46.483400431581515],[4.86431186446108,46.48339373330272],[4.864797819759424,46.48381652174188],[4.864818610465004,46.48383347602129]]],[[[4.867186868791784,46.47462275320787],[4.866860896190536,46.47472049146428],[4.86630418419168,46.47488738865613],[4.865956788155192,46.47499159895892],[4.865075497216225,46.475255391316104],[4.865316621103093,46.47554319392492],[4.865327494643219,46.475556166723415],[4.865373758045679,46.4756127864389],[4.865421922728675,46.475671626862045],[4.865466418518729,46.475726113705235],[4.865552787691001,46.47581558485903],[4.865597989393374,46.475852586455694],[4.865601175131003,46.4758542457858],[4.865621086765375,46.47586463910188],[4.865632291714341,46.475868239132005],[4.865638576976303,46.47586903722416],[4.865643419684757,46.47586958865566],[4.865832351596926,46.475862540897396],[4.865856613260842,46.47585908236227],[4.866017678621965,46.475830151811465],[4.866044683694864,46.47582304561819],[4.866145761929018,46.47578987033992],[4.866180170432755,46.47577813968761],[4.86623275117895,46.47576025766931],[4.866304687012025,46.475732692191585],[4.866407708958257,46.47569155872674],[4.866415096069604,46.47569026715817],[4.866428185619742,46.475687981746724],[4.866437694512042,46.475687736367895],[4.866507480729039,46.47569641421417],[4.866541454493386,46.475698651480926],[4.866577008186725,46.475697530321746],[4.866624475632093,46.475694052853044],[4.866667460462621,46.475689117389415],[4.866712888014288,46.47567936826926],[4.866740671646669,46.47567215912005],[4.866810995491543,46.47565083451597],[4.866887847537123,46.475625980537025],[4.866904738232398,46.47562048050291],[4.86693241307783,46.475613903577056],[4.866953697444344,46.47561868986478],[4.867038360428326,46.47567729361925],[4.867052877546264,46.47568624362755],[4.867068458647682,46.47569580674384],[4.867080600416984,46.475700111891015],[4.867101234198998,46.4757011258195],[4.867125868123834,46.475697120506915],[4.867137013247453,46.475691354033245],[4.86714175117872,46.47568884471527],[4.867168578165475,46.47567273410961],[4.867323684961359,46.47556499726832],[4.867584440667017,46.47538248641086],[4.867585203974089,46.47538193351278],[4.867697072281121,46.47529841119176],[4.86782962031005,46.47520203093262],[4.867847354644093,46.47522497926071],[4.867743749683768,46.475302331948825],[4.867650039670129,46.47537168668006],[4.867514995864713,46.47547135004309],[4.867174642100614,46.475705150489404],[4.867117221677887,46.47573779351825],[4.867030003601299,46.47577975027094],[4.866942877594147,46.47565300336243],[4.866666982224482,46.475717047061146],[4.866606071278039,46.47572389660832],[4.866548006287878,46.47572628618204],[4.866431479828986,46.47571566965937],[4.866413770284491,46.4757201021502],[4.866243567950042,46.47579061491859],[4.866084839502933,46.47584211532519],[4.866050639183335,46.47585231134969],[4.866008195982977,46.47586165118809],[4.865876033779717,46.475885606271575],[4.865776024967645,46.47589669657501],[4.865627257724194,46.47591164521928],[4.865816132975823,46.47606681536446],[4.865857011422231,46.47609938392671],[4.865896549941058,46.47613089350761],[4.866030641403384,46.47634622420046],[4.86605470830428,46.47639041609589],[4.866131045650442,46.47673152745056],[4.866791212281198,46.47663076458852],[4.86710648614681,46.4765895856946],[4.867468422040777,46.47654043775085],[4.867544691890519,46.47652901337206],[4.867915368161385,46.47647242544644],[4.868002050524004,46.47645668731412],[4.868405582209408,46.47637731328081],[4.868530047393298,46.47635321091903],[4.868660391498119,46.47632946263913],[4.868728020747895,46.47631700783717],[4.869138441822648,46.47624850712892],[4.869262347433798,46.47622711522905],[4.869493826700598,46.47618712018318],[4.86983502193246,46.476133980582084],[4.870000366765022,46.476108216917126],[4.870270671822593,46.476067494854824],[4.870519575497041,46.476030004719334],[4.870777979111135,46.47598821526519],[4.870994164663864,46.47594711645607],[4.871041899424492,46.475940029949975],[4.871416138707801,46.47588490340348],[4.871543516921743,46.475865974110064],[4.871686904112346,46.47584245907373],[4.871665783081856,46.47569427851046],[4.871646656664836,46.47569540241176],[4.871644788057575,46.475659945180794],[4.871651296915701,46.4756596584334],[4.871650256708684,46.47560275081922],[4.871650119043011,46.475526553302565],[4.871650162778791,46.475440445041954],[4.871629603708076,46.47543780943946],[4.871630818247023,46.4754276115633],[4.871641108256316,46.47534755035728],[4.871819760593657,46.47537533822789],[4.871929467376117,46.4752404167152],[4.871941975211956,46.47522498987873],[4.871724925215085,46.47513442139938],[4.871533502471481,46.475057393754824],[4.871409699756637,46.4750170880966],[4.871302919673822,46.47499794036393],[4.87126428685055,46.474992898549736],[4.870648504891404,46.47493110423672],[4.870478874882361,46.47469114061803],[4.870399753034437,46.47458128855115],[4.869892524461701,46.47394756634768],[4.86987279891851,46.47395401393284],[4.869694874843598,46.4740119584215],[4.869594462803569,46.474045396249366],[4.869518026707245,46.47407087580037],[4.869490251136541,46.47407448268941],[4.869348823538393,46.474090397049046],[4.869275055439502,46.47409862930248],[4.86916375484871,46.47411107827005],[4.868919467911648,46.474138492248585],[4.868778625939857,46.47415628780149],[4.868793143753125,46.4741766765432],[4.868793013455829,46.47417667867409],[4.867678794616511,46.474475284914284],[4.867186868791784,46.47462275320787]]],[[[4.867083636003215,46.48765619243096],[4.867287038378365,46.48786489527731],[4.867320170967735,46.48788804249638],[4.867345150844897,46.48790159530126],[4.867373227831253,46.48791419679834],[4.867397895519497,46.48792244054153],[4.867433857932468,46.487933021716586],[4.867455315324813,46.48793510304294],[4.867509319969858,46.48792800583663],[4.867528044610752,46.48795309974],[4.867487472363153,46.48796403065664],[4.867456206275478,46.487961118819115],[4.867392042326005,46.487953340230135],[4.867280200327773,46.487927966164285],[4.867273915872536,46.48793104115278],[4.867062490413129,46.48803645456357],[4.867054153672395,46.48804433679123],[4.867051660226831,46.488051493077876],[4.867056495235162,46.48806321331461],[4.867144776516365,46.488219304266295],[4.867221515237101,46.48827821767297],[4.867260219735142,46.488307939093865],[4.867436047324745,46.48851862336638],[4.867506841092681,46.488605735666454],[4.867694700169515,46.488836398744304],[4.867793254331355,46.48895728400054],[4.867836953580891,46.48901097240067],[4.868754786479411,46.488646767350815],[4.868711214627395,46.48858920417915],[4.868622861198192,46.48847301672117],[4.868444933138564,46.48823922044873],[4.868431280063323,46.48822133948577],[4.868455973542979,46.488211298296726],[4.868399382457707,46.488135303267946],[4.867955363581998,46.48754161100602],[4.867880540545691,46.48743583018797],[4.867872360031877,46.48742542564046],[4.867676907020277,46.48717471119205],[4.86740543607294,46.48682129723321],[4.867251481768711,46.48662088391139],[4.867158642322919,46.48666293223978],[4.867072220469135,46.486701993405916],[4.86696794495543,46.486749002113484],[4.866885116525045,46.486786383170646],[4.86671458699316,46.48686356650863],[4.866557665284038,46.48693449264643],[4.866554955218932,46.48693913049117],[4.86655553667862,46.48695992724549],[4.867083636003215,46.48765619243096]]],[[[4.869402980495149,46.48332381356106],[4.869770163580371,46.48321728842294],[4.87004864539267,46.48314400836225],[4.870274689501624,46.4830853665182],[4.870316346419447,46.48307576784231],[4.870565250613372,46.48302215554295],[4.870760032098408,46.482987262583315],[4.870934244072666,46.482957119471195],[4.871096877372172,46.48293914503251],[4.871420497575529,46.48289322458464],[4.871638725451374,46.48286145893763],[4.8717465685566,46.48284654250985],[4.871824822724415,46.48283571341253],[4.872231002891478,46.48277528814973],[4.872824559746617,46.482715033622284],[4.872872688053337,46.48270784993307],[4.872285129306028,46.48119195153661],[4.871965861789564,46.481185832603586],[4.871900437482367,46.48119050704012],[4.87181168078882,46.48119538344679],[4.871449757398886,46.48118870071078],[4.871314359282882,46.48118326180517],[4.871139863927,46.48117837279523],[4.871100363363513,46.48117856915853],[4.87113484582395,46.48126393191046],[4.871180439943313,46.481384330310654],[4.871195478885658,46.48142362505327],[4.871103024931812,46.481457564154404],[4.870963766330894,46.481510643812065],[4.870895545075176,46.48154022292389],[4.87059135533991,46.48164301878121],[4.870562740336067,46.48165267432969],[4.87006738907589,46.48175895768463],[4.869951013398875,46.48178355964262],[4.869830408194146,46.4818103023008],[4.86971223943842,46.48183205109198],[4.869555262904593,46.48186281115677],[4.868985846524553,46.48194625249997],[4.868890995929348,46.48195978296566],[4.868359193527379,46.48200702822734],[4.868509686171479,46.48255192612352],[4.868518270084929,46.48260456707617],[4.868546419360234,46.48269165534756],[4.868583983226082,46.48279092934085],[4.868605538135187,46.48285299575452],[4.868670304924934,46.48302694372065],[4.868816507579961,46.48339321157029],[4.868835373170663,46.48342244619915],[4.868855494121959,46.48344265325164],[4.868883977879819,46.483459571085845],[4.868909096440638,46.48346960851634],[4.868933645118635,46.48347443117366],[4.868961393916765,46.48347370719691],[4.869004876576924,46.48346029619279],[4.869167174643526,46.48340585147813],[4.869233095168664,46.48338513799542],[4.869402980495149,46.48332381356106]]],[[[4.870873667766967,46.47492759821974],[4.871019950391243,46.47494294709489],[4.871268900830024,46.474967783352895],[4.871422877498651,46.47498318586301],[4.871650348366305,46.47506592821305],[4.87183091256631,46.474651798047006],[4.871613767032074,46.47457357063462],[4.871452851806549,46.47451549846914],[4.871461103932563,46.47447483152362],[4.871460389294765,46.474461602840066],[4.871460002633162,46.474454133307525],[4.871459204600541,46.47443847408182],[4.871448808120303,46.47440144516413],[4.871426267323605,46.47435623856276],[4.871422821475271,46.474350800685144],[4.871418271473974,46.47434357947689],[4.871398284954738,46.47431202177973],[4.871397611846897,46.47431140230847],[4.870903097141077,46.47380915949986],[4.870203716629483,46.473958956573526],[4.869998718523783,46.47400293334296],[4.869990525254595,46.47400351777605],[4.870082673815608,46.47412072285586],[4.870487276051394,46.47463578980332],[4.870591836547754,46.47476891397092],[4.870614875840748,46.47479826013326],[4.870664496062426,46.47484617606177],[4.870671754494504,46.47485254232493],[4.870687884349632,46.47486668957476],[4.870701324872797,46.474878448941126],[4.87074973613923,46.474902515906905],[4.870758046863581,46.47490535218291],[4.870788919686791,46.47491601551714],[4.870822321925751,46.474920602699854],[4.870873667766967,46.47492759821974]]],[[[4.872923219775514,46.47257659505873],[4.872959377908781,46.47261212075828],[4.872996832376567,46.47265122802754],[4.87310038787685,46.472751220424755],[4.873231929981131,46.4728689482307],[4.873350259041971,46.47297013935524],[4.87351372393917,46.47309112646489],[4.873660803699945,46.47312600417738],[4.873875824315776,46.47317661079958],[4.873934871759384,46.47318392898161],[4.873984343150402,46.473185729722076],[4.874834143700271,46.473172330407074],[4.874903708238584,46.473140474887806],[4.87493661009931,46.473111562738616],[4.874930885315257,46.47308913897761],[4.874883575208305,46.473028847252486],[4.874818470260458,46.472974251720096],[4.874773271561476,46.47292986783668],[4.874644859286509,46.4727781337204],[4.874581356945944,46.47270946072705],[4.874299546923069,46.47243756627174],[4.874162097832502,46.47228075576628],[4.874061078728277,46.4721521702743],[4.874028132668533,46.47210010928397],[4.87400653056462,46.47205569839705],[4.873995233680504,46.471954554056396],[4.873998230212455,46.47186722633759],[4.874007560804514,46.47175556569867],[4.874033792394414,46.47146042391317],[4.874046751285089,46.47132915839543],[4.874056554535485,46.47120469993684],[4.874055113282648,46.47116275059109],[4.874030660778861,46.471027775250995],[4.874001662479529,46.47093502758541],[4.873977769899162,46.47084669971578],[4.873724988559007,46.47047074648055],[4.873437334215206,46.47003961068972],[4.873427549389939,46.47002040590336],[4.873153416803495,46.46960327892329],[4.872990581755552,46.46929529415529],[4.872900942318107,46.46912202620727],[4.87129518857476,46.46968443672909],[4.871106492147828,46.46975471967709],[4.871281606636307,46.470656522236595],[4.871309452042466,46.47079180277566],[4.871770688941598,46.471160743725754],[4.87218305968983,46.471492113426166],[4.872261639403241,46.47158999377514],[4.872333747563173,46.47167023618189],[4.872417435969015,46.47177640929715],[4.87247910173221,46.47186384824828],[4.872611355028199,46.47204416423105],[4.872651208278042,46.472096202480145],[4.872697096685353,46.47213796381442],[4.872482218916642,46.472266053026125],[4.872689351156164,46.472398395158486],[4.872923219775514,46.47257659505873]]],[[[4.874124681899305,46.471131075575784],[4.874129604303699,46.47116810400269],[4.874133941768195,46.47125260932551],[4.874125395197015,46.47134534226644],[4.874122190128577,46.47138106286353],[4.874111923453664,46.47145788148546],[4.874109976822053,46.4714733155161],[4.874085506005465,46.47166412649042],[4.874085099278147,46.47166746577987],[4.874082218163736,46.47168985058549],[4.874074252087316,46.47183742709294],[4.874066475415262,46.47198292886151],[4.874081429140793,46.472061495529005],[4.874085216109437,46.4720692695757],[4.874099650675327,46.47209857604503],[4.874112994207048,46.47211889333014],[4.874135000829903,46.47215230892984],[4.874164439560471,46.472193348712736],[4.874170965782867,46.4722011678991],[4.874220858582658,46.472260787045464],[4.874236076164927,46.47227873173856],[4.874314623948658,46.47237174744465],[4.874501392779912,46.47256008412549],[4.874587741528456,46.472641082340296],[4.874658319520669,46.47271459314032],[4.87472311497134,46.472688130137534],[4.87477839550219,46.47266551610982],[4.874815442203944,46.4727003060975],[4.87493024129498,46.47264942399727],[4.874969789915346,46.47263184175875],[4.874978574615043,46.472640884833666],[4.875121794879444,46.47278724155683],[4.875326436308368,46.47286584764818],[4.875429442909157,46.472904238594616],[4.875543065593505,46.472982176424004],[4.875356498228029,46.47312214609928],[4.875249619283203,46.47320244185467],[4.875341839247306,46.47324938648828],[4.875630582924987,46.47339659677924],[4.876177444268009,46.47367224293589],[4.876336280863975,46.473722866753846],[4.876449725020975,46.47372352589893],[4.877037569493748,46.47360632668407],[4.877406256224233,46.473530645127674],[4.877494175866748,46.47349803609214],[4.877992232125412,46.47331385326466],[4.878087193970896,46.473254827331296],[4.878154005565944,46.47320364981585],[4.878172871022922,46.47317983124033],[4.878196197996323,46.473137925155925],[4.878234543798395,46.473062716193546],[4.878268905877353,46.473000542902795],[4.878303816953189,46.47293917121341],[4.878355089639085,46.47285699439856],[4.878402986667423,46.4727865822621],[4.878519115730826,46.472630561925875],[4.878593961538365,46.472547727239174],[4.878586730469284,46.47253838867761],[4.878525342479368,46.472459324883886],[4.878443499336551,46.47235411648586],[4.878308778264988,46.47217844111259],[4.878302499637013,46.47217025779931],[4.878277000467457,46.472137711007655],[4.878061282432108,46.471862397280006],[4.877973091025407,46.47175450070673],[4.877800812028371,46.47157836118331],[4.877736977771638,46.471609944226294],[4.877652633302542,46.47152288064372],[4.877601266756471,46.47146977225739],[4.877575014330343,46.471441831309704],[4.877397861585219,46.47125280108656],[4.877351921078252,46.47120203535595],[4.877264919731587,46.47110591799654],[4.877251506775916,46.47109118659534],[4.877251370290152,46.471091008695936],[4.877247424595669,46.471086209693006],[4.877167446851344,46.47098961658883],[4.877138961728813,46.4709536058477],[4.877074097170603,46.47087189630552],[4.877006711226893,46.47078131113173],[4.876967977061603,46.47074294672685],[4.876949083046548,46.47072425213864],[4.876881637075853,46.470662220345616],[4.87662087204456,46.47042232126159],[4.876549546493337,46.47035359768454],[4.876508287936491,46.47031383345615],[4.876436909572121,46.470251145427135],[4.876327341062724,46.47029852058153],[4.876263906895965,46.47024317787519],[4.876201635670663,46.47019511177873],[4.876184840951288,46.47005172453739],[4.875282150817832,46.46989414760231],[4.875099903007654,46.4698030145254],[4.874862668014971,46.46968603240569],[4.87474151341312,46.46962767286507],[4.874559485488319,46.46949357156366],[4.873478804242162,46.46997173793672],[4.873546496038498,46.470067634251095],[4.873645293920774,46.47020760549974],[4.873765379345305,46.47037145662183],[4.873797245516249,46.47041488859496],[4.873828571623279,46.470461571964634],[4.873968029276306,46.470669420020705],[4.874034984311453,46.47079694299236],[4.874064839374135,46.470853918497475],[4.874088781195024,46.470947469649076],[4.87409626101062,46.47100201993569],[4.874119201614915,46.471089192476384],[4.874124681899305,46.471131075575784]]],[[[4.876214959735353,46.47848086554967],[4.876391797368559,46.47866017523748],[4.876485284357494,46.47875501590263],[4.876536728135775,46.47880641221039],[4.87679706349786,46.47906298195571],[4.876818110742764,46.47907596677158],[4.876946392428142,46.47915510376026],[4.876981413965956,46.47916497676951],[4.877159031798542,46.47921529120494],[4.877323349297898,46.479261770673595],[4.877515189908265,46.47931617432024],[4.877537618140249,46.47932760511659],[4.877830948225593,46.4794781576677],[4.878190688145619,46.4797473221347],[4.878141839865886,46.47976758021416],[4.878462273343361,46.48001217001514],[4.8784992035251,46.480035792027316],[4.878529596567007,46.48005510801476],[4.878901324451049,46.48002107518085],[4.879260459177632,46.47987511007365],[4.878863080550394,46.47946731824711],[4.878568450911183,46.479161777839195],[4.878540685588258,46.47917331295262],[4.87836498465744,46.478970479303214],[4.878270076540226,46.47886098193858],[4.878200984426037,46.478781774352],[4.878117090679212,46.47868542632096],[4.878059810039551,46.47861980536897],[4.878003742600978,46.478555335372995],[4.878578467436435,46.47834350017496],[4.878406954254334,46.47814483109114],[4.878358472372112,46.47808861316512],[4.878311489062072,46.478034262075504],[4.878293296392782,46.478013304385144],[4.878280396484844,46.47799838451461],[4.878183718753142,46.47788666440701],[4.87813385356698,46.47783191025842],[4.878058176156782,46.477758305142856],[4.877884556024,46.47758921316305],[4.87775330000106,46.47746148789204],[4.877565367609781,46.47727425618171],[4.877306011433268,46.4770156905493],[4.877042639994343,46.47707604086504],[4.876095575387365,46.477280651365454],[4.875940057928095,46.47731544972492],[4.875687086790213,46.47736742970039],[4.875642978242412,46.47741553087132],[4.875756307203077,46.47761353770002],[4.87584062900749,46.47776041004015],[4.87585179626365,46.4777856266794],[4.876031522157395,46.4781930386465],[4.876077473092304,46.47829703655827],[4.876158929421097,46.47840603594175],[4.876214959735353,46.47848086554967]]],[[[4.875906626460103,46.47360283108578],[4.875662513992743,46.47348731436454],[4.875325178317071,46.47331081798379],[4.875017072179459,46.47315779984497],[4.874995050273798,46.473146722208696],[4.874847508080883,46.473208409654866],[4.873963669098345,46.47322146657527],[4.873886237269793,46.473217872581955],[4.873669081034556,46.47317720877633],[4.873856722049648,46.47325051185297],[4.87425757122306,46.473367154543666],[4.874379322709626,46.473397132610565],[4.874483020057414,46.47341767907133],[4.874610248337778,46.47343630820847],[4.874873121755748,46.473471896759484],[4.875408559820927,46.47355948603418],[4.875613408888973,46.47360233014577],[4.876032168343763,46.473708855013534],[4.876255941629475,46.473763636927494],[4.875906626460103,46.47360283108578]]],[[[4.876946912641207,46.470089108013376],[4.876964004286787,46.470104679726845],[4.877283453079149,46.470379281974864],[4.87762098402103,46.47025123958206],[4.878008950864866,46.47009633672002],[4.87827558320093,46.469987832067375],[4.878446287111819,46.46944072727143],[4.878465934054781,46.46936393405735],[4.878733743823569,46.468903681879084],[4.878935949909359,46.46855610572026],[4.879012462094286,46.46842343396204],[4.878565231277241,46.46841655671659],[4.878045092505092,46.46848428392778],[4.8773323048057,46.46866623166567],[4.87672489229009,46.46887238453714],[4.876958848960079,46.46923503998263],[4.877093153359108,46.46944819317431],[4.877105148033842,46.4694671812223],[4.876971431956586,46.469521168626436],[4.876496225115844,46.46971307875751],[4.876590141541943,46.46979052849511],[4.876660846578145,46.4698488140123],[4.876824767668022,46.46998690238727],[4.876924845505389,46.47006911448378],[4.876946912641207,46.470089108013376]]],[[[4.878521880883829,46.47315373819191],[4.87890228410228,46.473198824301946],[4.879104079232616,46.47320595425525],[4.879163072071982,46.47316247066409],[4.878874326086514,46.472417468702865],[4.878843629305179,46.472445985489294],[4.87869325686951,46.4725653699137],[4.878590146620323,46.472660288490665],[4.878587745456902,46.47266248966767],[4.878403234437725,46.472933844068436],[4.878312512080504,46.47307809770775],[4.878306747260194,46.47311133854774],[4.878333134543998,46.47312801826388],[4.878351660870057,46.4731397832247],[4.878521880883829,46.47315373819191]]],[[[4.879440839338251,46.47226439902432],[4.879558995948976,46.472224085328925],[4.879650740304573,46.47219285279395],[4.879754123972742,46.47215512374538],[4.879823392749885,46.472129935271695],[4.880202112963438,46.47198265313467],[4.88035780130208,46.471911727392],[4.880555591637667,46.47182173405968],[4.880604859961458,46.47179876574906],[4.880724565497613,46.47174293311833],[4.879721652800568,46.470539515179986],[4.879533994172097,46.47060943480645],[4.878450913273713,46.47101734256127],[4.878525977568768,46.471205887903395],[4.878542169823068,46.47124831530603],[4.878562953018594,46.471302916871885],[4.878681362183495,46.47161441684676],[4.878767272690998,46.47183773122073],[4.878785168347229,46.47188418377373],[4.878792327921714,46.47189901782324],[4.878806076305062,46.47192725417136],[4.878831798461678,46.471996546109835],[4.878955366235797,46.472329037585205],[4.879011909784403,46.47235071558714],[4.879032781305503,46.47235865889476],[4.879440839338251,46.47226439902432]]],[[[4.879865343763854,46.47216320185537],[4.879805549059935,46.4721871536445],[4.879471820814937,46.47230469156375],[4.879442458460489,46.47231138940862],[4.879372606119924,46.47232721986756],[4.87924106012447,46.47235730534256],[4.879204193468426,46.47236565774674],[4.879090686636755,46.47239337474559],[4.879052417725423,46.472402650868716],[4.879003324525589,46.4724647964484],[4.879274157391224,46.47316280549501],[4.879372470408572,46.47322000487814],[4.879411611517098,46.473220892323575],[4.879532289113314,46.47322341098128],[4.879574166413456,46.47322425336519],[4.879648136514003,46.47322573875293],[4.879710100900871,46.47321931520529],[4.879783627363049,46.47321171064154],[4.879819219486725,46.47320797264304],[4.880030243715706,46.473172705877815],[4.880167217125162,46.47314874511461],[4.880637745874008,46.473055074414795],[4.881031524419789,46.47299274890077],[4.881427413995534,46.472908500014164],[4.881339862686043,46.472596404522484],[4.881406644013402,46.47259359364058],[4.881372340190468,46.47220379089977],[4.881594235258816,46.47224193015661],[4.881638606289373,46.47225083709611],[4.881678323943315,46.47225711851885],[4.881604992440481,46.47202846495945],[4.881605122732145,46.47202846281396],[4.881759118296265,46.472029439650164],[4.881949657335329,46.47202404987431],[4.882214154334931,46.471993392597554],[4.882364236481908,46.47196407915441],[4.88247606035712,46.47195566177995],[4.882457322807844,46.472009562714156],[4.882793839041444,46.47202212260182],[4.882891140028742,46.47193288021112],[4.882989300818097,46.47185722428535],[4.8825520823096,46.471181870312144],[4.881690692990084,46.47142150650715],[4.8813586509389,46.47151209110546],[4.881295007769761,46.471534035431006],[4.880423328930876,46.471936859694466],[4.880247966677254,46.47201945820063],[4.879865343763854,46.47216320185537]]]]}}]}
