{"type": "FeatureCollection","name": "aoc_geojson","features": [{"type":"Feature","properties":{"dt":"Angers","type_prod":"Vins","categorie":"Vin tranquille","type_denom":"appellation","signe":"AOC","id_app":1028,"app":"Fiefs Vendéens","id_denom":2344,"denom":"Fiefs Vendéens Vix","insee":"85177","cvi":"1B712S, 1R712S, 1S712S","nomcom":"LES VELLUIRE-SUR-VENDEE","insee2011":"85177","nomcom2011":"LE POIRE-SUR-VELLUIRE","id_aire":1689,"crinao":null,"grp_name1":null,"grp_name2":null},"geometry":{"type":"MultiPolygon","coordinates":[[[[-0.893822955416589,46.41971862398858],[-0.89381693730091,46.419771300020365],[-0.893800116439882,46.41991738545502],[-0.89379955910974,46.41992236304136],[-0.893787233965429,46.42002366794883],[-0.893758158619771,46.42026474495415],[-0.893747707671869,46.42035029878788],[-0.893739090851301,46.4204213651074],[-0.893732399711496,46.420477399855116],[-0.893727367751005,46.42051832197205],[-0.893713272344923,46.4206350137409],[-0.89368136639053,46.42069028624385],[-0.893648926657182,46.42076000186365],[-0.893611816597951,46.42082455767596],[-0.893547183349924,46.420943695416696],[-0.893492878166278,46.42103218833192],[-0.893462484026489,46.421090384298324],[-0.893430079631514,46.42114964056968],[-0.893412927147649,46.42119061566809],[-0.893331643538941,46.42127921776035],[-0.893253832499592,46.421367160349355],[-0.893230006171456,46.42139682323163],[-0.893182100160984,46.421448945171015],[-0.893064909645948,46.421586104050824],[-0.892814266618237,46.42187188508615],[-0.892751360283439,46.42192938703878],[-0.892713073366246,46.42196468206076],[-0.892699983913374,46.42197856185823],[-0.892682167700908,46.4219919718396],[-0.892580441450396,46.422077303949195],[-0.892419109762097,46.42220794422984],[-0.892409862758381,46.422215382003344],[-0.892211885414478,46.42235682868512],[-0.891888380340264,46.42254970845426],[-0.891689768325248,46.42266584207429],[-0.891616032023469,46.42264464631522],[-0.891541780223048,46.422625361360225],[-0.891381437818419,46.422598103926966],[-0.89121527705036,46.422569692383945],[-0.891187461077312,46.422561715683045],[-0.891093843457975,46.42253777175999],[-0.89103787915481,46.42252264102945],[-0.890937566639321,46.42249622064495],[-0.890859191736282,46.42246481472459],[-0.890806405150478,46.422432085345214],[-0.890768704680396,46.42239884147022],[-0.890827930517486,46.42232442682741],[-0.890867096498176,46.42226304756576],[-0.891015058780394,46.421952193892096],[-0.891038553340989,46.42189775006723],[-0.891100847104974,46.42173109165421],[-0.891153365035614,46.421573601852344],[-0.891202623663525,46.4214307382205],[-0.891223301181992,46.42136421942087],[-0.891242495463318,46.42131163515947],[-0.891323646957623,46.42106941410624],[-0.891334392511623,46.421019011257975],[-0.891371409603559,46.420839781576774],[-0.891401509206336,46.42068603137987],[-0.891419204399768,46.420623400778254],[-0.891485786258349,46.42041088689283],[-0.891510899869982,46.420335291288275],[-0.891563361794084,46.42014597816851],[-0.891614208495206,46.419972407177404],[-0.891620490521098,46.419938023919215],[-0.891637353016379,46.41988200302305],[-0.891658760134569,46.41981293484691],[-0.891680222631901,46.41973367719261],[-0.891747243882235,46.41950176461201],[-0.891779668424929,46.41940256921175],[-0.891809187552515,46.41929553921728],[-0.891819086130963,46.419266171434046],[-0.891866789167151,46.41919476365175],[-0.892134450424961,46.418743779541316],[-0.892315789837755,46.418541053366525],[-0.892628883024612,46.4183377981559],[-0.892784692545264,46.418237727994125],[-0.893445439571621,46.4185915796297],[-0.893929498180001,46.4187911617585],[-0.893916932391792,46.418900048009014],[-0.893822955416589,46.41971862398858]]],[[[-0.891608482091822,46.41977696487968],[-0.891526530497354,46.420062758728896],[-0.891449066831166,46.420332892636914],[-0.891407961776656,46.420504147813105],[-0.891370143154186,46.420619123946196],[-0.891298196827276,46.42091728817756],[-0.891272376469851,46.42104330477194],[-0.891267171421045,46.421059890615794],[-0.891159596244811,46.42139956943731],[-0.89108738642945,46.421659336154896],[-0.891051723021871,46.42176982098649],[-0.891003649767829,46.42188361401435],[-0.890867732535422,46.422178730464495],[-0.890782801811059,46.42230036167996],[-0.890740580377957,46.42236094355105],[-0.890615239788446,46.42213892756535],[-0.890517989673289,46.42188484992236],[-0.890485635375094,46.42170717485694],[-0.890481764599587,46.4215980383804],[-0.890578514912878,46.421274687035734],[-0.890598950481523,46.42121025019934],[-0.890632362458731,46.420984082608285],[-0.890636410977399,46.42092750718772],[-0.890649757350393,46.42080570270949],[-0.890658157212151,46.42068217364847],[-0.890627467686743,46.42052418588814],[-0.89060789690491,46.42042523144021],[-0.890571481828676,46.42017962743908],[-0.890523798428375,46.41991493410609],[-0.890499278829164,46.419764849912326],[-0.890488549623684,46.41970030381513],[-0.890460562082465,46.4195984809315],[-0.890441611878384,46.41954296026631],[-0.890353577127907,46.41937051968841],[-0.890290290167948,46.41926908910652],[-0.890107145655667,46.418985844871685],[-0.890017853160016,46.41885059104779],[-0.890165947859747,46.4185654279797],[-0.890182384011826,46.41852718250106],[-0.890268914756912,46.418354919693705],[-0.890349012596769,46.418191170479446],[-0.890414856333012,46.41810724416728],[-0.890444734965621,46.4180655650867],[-0.890572251070151,46.41789406800791],[-0.892197071502505,46.418594599244415],[-0.892077489607439,46.41872742125381],[-0.892053775776702,46.41876230910811],[-0.892027829627464,46.41880610836537],[-0.891882106935401,46.41905495067018],[-0.891781565114927,46.41921714457812],[-0.891760355555486,46.41925059459203],[-0.891676379040891,46.41954087532521],[-0.891608482091822,46.41977696487968]]],[[[-0.89196645000563,46.424408126608704],[-0.89196620865199,46.424455917284035],[-0.89196616203805,46.424477195584174],[-0.891965916541883,46.424495685846395],[-0.891964998102187,46.42455774419448],[-0.891964880876087,46.42455792850435],[-0.891965216271778,46.42458090672863],[-0.891965182447948,46.42458226021566],[-0.891965492181651,46.42460487869304],[-0.89196185593263,46.42465990746046],[-0.891806601134111,46.42466385100292],[-0.89079200894389,46.424652565258604],[-0.890793931977019,46.42467404684099],[-0.890795804037317,46.42470761099618],[-0.890796229068091,46.42474465040511],[-0.890795028543677,46.424788146286424],[-0.89079624808945,46.424876547224684],[-0.890797985255425,46.425039849712874],[-0.890803948437202,46.42544705895491],[-0.890770865202874,46.42546396432513],[-0.890696720062555,46.42541880045187],[-0.890605995173904,46.42537149722779],[-0.890529594669121,46.425338581147415],[-0.89045548965814,46.425312258251054],[-0.890382652464087,46.425292743894076],[-0.890301998161805,46.42528061830966],[-0.890139384649041,46.42526732027257],[-0.890044092463499,46.42526200446955],[-0.889852068305912,46.425247635185286],[-0.889823685192044,46.425246348952015],[-0.88975086859207,46.42524540551619],[-0.889692405193389,46.42524280069586],[-0.889608682819747,46.425229697358894],[-0.889536797680267,46.42521438732417],[-0.889457060484798,46.425189517977635],[-0.889412050001362,46.425168964268806],[-0.889372948984011,46.4251307189517],[-0.88934926364077,46.42509474294639],[-0.889329252956701,46.42503898779856],[-0.889328019293558,46.42495401331389],[-0.88933509016932,46.424791672875074],[-0.889337877297427,46.424717379972634],[-0.889340217444148,46.42467339452067],[-0.889340554513567,46.42463605869453],[-0.889342980746865,46.424596938698905],[-0.889355406761315,46.42448228821703],[-0.889362044270768,46.42438153867572],[-0.889368552615416,46.42431189715025],[-0.889373927072299,46.424270242452806],[-0.889382996217619,46.424188973736555],[-0.889391476361472,46.423976909593904],[-0.889377440361721,46.423858653393616],[-0.889367428815592,46.423785878640224],[-0.889349138635941,46.4236884130488],[-0.889332343222614,46.42361740219177],[-0.88937715455582,46.42357665699766],[-0.889644310134028,46.423300869699005],[-0.889854781027873,46.42296697076758],[-0.889976523015209,46.42287338580099],[-0.890412834469423,46.42261508900413],[-0.890641992542358,46.4224775408902],[-0.890754405194096,46.422465232795155],[-0.890842285598207,46.4225239022061],[-0.891123933629355,46.42260688652409],[-0.89116844589613,46.422616818155305],[-0.891445700190313,46.42266560230088],[-0.891527700968421,46.42268020538752],[-0.891645425990176,46.42271495673495],[-0.891718622891628,46.4227560051009],[-0.891779604836465,46.422793954023014],[-0.891872980599305,46.42286018861946],[-0.891988218986505,46.423892685956346],[-0.89198808893087,46.423892690392826],[-0.891987990952835,46.42389314451289],[-0.891977567616156,46.42405406712526],[-0.891977704699652,46.424066954693735],[-0.891978444412165,46.42415591299489],[-0.891978183732889,46.4241632244872],[-0.891969436517519,46.42434581740231],[-0.89196917583613,46.42435312889441],[-0.89196645000563,46.424408126608704]]],[[[-0.890585581253579,46.42220566231867],[-0.89064777791061,46.42231551447119],[-0.890684619808194,46.42237511306887],[-0.890661772115421,46.42242583836319],[-0.890488581024637,46.42252370291851],[-0.889934981641017,46.42284478038919],[-0.889807033730096,46.42294092093648],[-0.889783820373899,46.422979217030075],[-0.889734194464701,46.423062138995014],[-0.88960340882096,46.423275758404124],[-0.889335263094995,46.42354680112157],[-0.889304383233719,46.42357814600569],[-0.889242424958171,46.42351002701391],[-0.889212327376994,46.423488333825254],[-0.889185395071789,46.42347446640763],[-0.889111519514399,46.423436685182295],[-0.889110405827925,46.42343203506385],[-0.889090465756573,46.42334616557775],[-0.889093904368147,46.42326454787927],[-0.889117325781666,46.42312491017766],[-0.889133021398978,46.42305612750634],[-0.889194685955532,46.422831161298795],[-0.88887055683809,46.422788657575005],[-0.888539480799013,46.422723670562135],[-0.888467109443501,46.42269782836344],[-0.888431649437401,46.42266856439253],[-0.888399706489761,46.42263377122255],[-0.888374180222375,46.42259389096573],[-0.888353136386591,46.42254556364338],[-0.888335002584506,46.42248135995082],[-0.888326867932458,46.42243124033487],[-0.888337861128658,46.422376952761056],[-0.888388801617748,46.422206355614286],[-0.888399954715397,46.42216711852794],[-0.888428595977053,46.422080584918824],[-0.888443942932676,46.42202885360199],[-0.888456346627042,46.4220126536621],[-0.889011280112589,46.421073792878744],[-0.889142985067182,46.42085482346881],[-0.889309645418024,46.42056479173624],[-0.889386470722062,46.42042820166],[-0.889226206625977,46.42029951389596],[-0.88909374478151,46.420204227402174],[-0.889057467387879,46.420161648517066],[-0.889037576918433,46.420111208422846],[-0.889050450013455,46.420061364410834],[-0.889128840441346,46.41991381233282],[-0.889289710843786,46.419707191365575],[-0.889318296240923,46.41967294948473],[-0.889347324857028,46.41963761061959],[-0.889443422063377,46.419519025605794],[-0.889474737291173,46.41947919112678],[-0.889585759777039,46.41935054064087],[-0.889864646011024,46.41905857475461],[-0.889909537526386,46.41902449795694],[-0.889935926196599,46.4190015100777],[-0.889967733767751,46.41898870530378],[-0.890003614931,46.41898549841486],[-0.890038454085076,46.418996932238564],[-0.890060684559061,46.419016188741104],[-0.89029337472244,46.41938366174964],[-0.890381450831945,46.419573140352],[-0.890445631923498,46.41980229078842],[-0.890453457761285,46.41985719909948],[-0.890480951930675,46.420010607771005],[-0.89049178814438,46.42006568388839],[-0.890495999672494,46.42009366879289],[-0.890524767106992,46.42024847652492],[-0.890588883633883,46.420681470749216],[-0.890581613598213,46.420839130213196],[-0.890577311912172,46.42092140858744],[-0.890540437167105,46.42115752119395],[-0.890533397123062,46.42120139653688],[-0.890499235274915,46.42133112324957],[-0.89048215030825,46.42138038983404],[-0.890427986632811,46.421582472210325],[-0.890425136742444,46.42168877257262],[-0.890445861418948,46.421824020356674],[-0.890478817158649,46.421946139130846],[-0.890544523244896,46.422116185685354],[-0.890585581253579,46.42220566231867]]]]}}]}
