{"type": "FeatureCollection","name": "aoc_geojson","features": [{"type":"Feature","properties":{"dt":"Pau","type_prod":"Vins","categorie":"Vin tranquille","type_denom":"appellation","signe":"AOC","id_app":9,"app":"Béarn","id_denom":61,"denom":"Béarn","insee":"64168","cvi":"1B101S, 1R101S, 1S101S","nomcom":"CARRESSE-CASSABER","insee2011":"64168","nomcom2011":"CARRESSE-CASSABER","id_aire":75,"crinao":null,"grp_name1":null,"grp_name2":null},"geometry":{"type":"MultiPolygon","coordinates":[[[[-1.013730828047755,43.49968217922723],[-1.013793078733414,43.49963086680344],[-1.014488487000164,43.49908612238337],[-1.014784068387989,43.49884977697484],[-1.01551444793702,43.4995063841096],[-1.015041503674908,43.49967335950159],[-1.014939653749027,43.49970875297254],[-1.014831255712852,43.499749613929716],[-1.014216790271582,43.5000448861395],[-1.013522431940658,43.500379958661235],[-1.01309985608136,43.50001580240651],[-1.013729602741563,43.499700061711124],[-1.013709482406512,43.49968486155929],[-1.013730828047755,43.49968217922723]]],[[[-1.011202906727042,43.4997263119594],[-1.011265018914614,43.49978815452796],[-1.011226603462884,43.49981398970557],[-1.01106407307996,43.49989135330837],[-1.009831281263184,43.4994187055449],[-1.009675539336403,43.49935933535375],[-1.009664409992448,43.499341729878424],[-1.009567336043875,43.49930730492269],[-1.009844631259517,43.498993095144165],[-1.00975007137874,43.4989273174798],[-1.009955514168813,43.49852874260708],[-1.009979894307687,43.49848090568051],[-1.011209446408709,43.49880466808071],[-1.011121900109852,43.49898285564386],[-1.011035207231123,43.499120112419476],[-1.01099565574179,43.4991828348155],[-1.011046297353912,43.499344467062215],[-1.011072240506261,43.49944305218344],[-1.011121470557802,43.49958446728045],[-1.011156539881997,43.49965956248196],[-1.011202906727042,43.4997263119594]]],[[[-1.005004819526065,43.49941168206258],[-1.004672910241433,43.49939917324372],[-1.004554998122841,43.49939596290533],[-1.004515137879427,43.49935851863719],[-1.004753439333831,43.498816585352465],[-1.005014209236665,43.498163916614196],[-1.005843567321158,43.498218756267455],[-1.005875995820697,43.49824368252617],[-1.005958388211492,43.49831784063583],[-1.006004558366324,43.49839784189944],[-1.006161296884465,43.49882464057021],[-1.006303000856358,43.4993764937622],[-1.006141000043872,43.499394103214236],[-1.00577834827482,43.499434083112355],[-1.005004819526065,43.49941168206258]]],[[[-1.003378398132482,43.497711677399934],[-1.003338374092289,43.49773576737325],[-1.003585993677433,43.49824524350804],[-1.00371788225254,43.49832649323071],[-1.003825455089756,43.49840864112251],[-1.003957266911981,43.49847457884852],[-1.00403342732815,43.49849843048297],[-1.004120683704047,43.49850926010808],[-1.004278704374626,43.49851801563042],[-1.004320329490324,43.4988541191824],[-1.00433741181177,43.498966005187356],[-1.00439609055149,43.49934967466752],[-1.004377159025671,43.499401182559076],[-1.004309991910483,43.49942114087781],[-1.004230703815941,43.49943587157614],[-1.004109030856298,43.49944261905539],[-1.003897480352042,43.49944178644413],[-1.003538750159868,43.499431526213435],[-1.002794450095374,43.49927803600079],[-1.002718990549808,43.499264247180115],[-1.001814001006494,43.49920217631183],[-1.00183454964877,43.49950951059181],[-1.001724047728445,43.49959133470144],[-1.00128063352013,43.499916249560194],[-1.000983415123489,43.500371524756694],[-1.000910397857054,43.50048340410271],[-1.000600908110244,43.50040906698831],[-1.000172007468846,43.500320668813565],[-0.999667068576375,43.5002385884732],[-0.999301854030423,43.50018324031556],[-0.999109051874692,43.50015666265043],[-0.998642608397257,43.49937967888209],[-0.999040776347382,43.49906950727247],[-0.999238167042073,43.49892033892704],[-0.999448372688376,43.498761508572166],[-0.999692418386366,43.498623049439765],[-0.999878466439207,43.498517179164175],[-0.999624553615411,43.498332686029954],[-0.999267731001034,43.498086678009784],[-0.999227027049129,43.4980139496343],[-0.999539201143136,43.49783739302105],[-0.999859356406601,43.497651081925014],[-0.999951982703101,43.49758090997367],[-1.00007414884369,43.497455145943455],[-1.000217709643322,43.4972758920844],[-1.000259987724843,43.49722019019913],[-1.000354751442941,43.49711498583169],[-1.000414960281358,43.49706799090412],[-1.000528070727693,43.496993458882365],[-1.000870958305591,43.4968173859901],[-1.001027905982464,43.49676285557516],[-1.001679199085993,43.4968980799286],[-1.001564603408402,43.497185720297516],[-1.001593046709315,43.497196110933835],[-1.001719782129632,43.49690865286812],[-1.001853449764996,43.49659283200836],[-1.002354387463851,43.496646311370846],[-1.003145879224685,43.49672815342792],[-1.003291981768664,43.49742704591643],[-1.003305035372135,43.49751845108348],[-1.003349452093075,43.49761419294556],[-1.003378398132482,43.497711677399934]]],[[[-0.995490844728706,43.50462457410549],[-0.99518444192982,43.50460370791188],[-0.995028541960024,43.50458828412084],[-0.994398006535521,43.50452116695001],[-0.993974320476018,43.50447777400806],[-0.993467292375402,43.50441763131089],[-0.994535434995623,43.503205267430936],[-0.995339077670279,43.503362844239916],[-0.995595025121558,43.503416379021],[-0.995838322484886,43.50347308215166],[-0.996057415570444,43.503512750098224],[-0.996501127249559,43.503619897597176],[-0.996162067096669,43.50470721114419],[-0.995605707514533,43.50463006915124],[-0.995490844728706,43.50462457410549]]],[[[-0.988707813745795,43.50159205798803],[-0.988788448242475,43.501512878494445],[-0.989134222508404,43.501236743783146],[-0.989257871491892,43.50109625431992],[-0.989296410139238,43.50110411457568],[-0.989566344160606,43.50118642575887],[-0.98960617556373,43.50111847676129],[-0.99004229466357,43.50116133782666],[-0.990483172867785,43.501196094448474],[-0.990860150962713,43.501230229431904],[-0.990984205894808,43.50124701160633],[-0.991046085019109,43.50126662370887],[-0.991179830652754,43.501337370188295],[-0.99127403954905,43.50141795041519],[-0.991532695018136,43.501241767311],[-0.991850061612283,43.50154528706415],[-0.991896876240609,43.501581398634826],[-0.990828586439331,43.50225593066358],[-0.990129832631723,43.50270271547315],[-0.989696593231517,43.502489487272506],[-0.989146194359467,43.50222687892085],[-0.989012818780221,43.50216323300988],[-0.988583611353826,43.50193309652906],[-0.988614453269263,43.50179449169757],[-0.988636541386403,43.501718728053376],[-0.988671343784016,43.50164249650359],[-0.988707813745795,43.50159205798803]]],[[[-0.984834666955359,43.49961267028144],[-0.98538307820199,43.49985086840515],[-0.985408229851652,43.499886968360656],[-0.985856934328845,43.50026828200256],[-0.986011098460843,43.500396208113585],[-0.98615736795116,43.500513794386556],[-0.986395619381853,43.50070673152293],[-0.985372565993944,43.50107433631426],[-0.985362708176821,43.501064248957064],[-0.985397891677845,43.50103268670474],[-0.985249208395858,43.50090527879764],[-0.984881012747651,43.500676578806136],[-0.984606165292534,43.500446607875546],[-0.984433065863339,43.50030613353821],[-0.984088459705172,43.5002479051024],[-0.983696201806496,43.50038402818972],[-0.98365450123541,43.50037159780929],[-0.983488878861913,43.50005698382207],[-0.984446682688306,43.49945712504978],[-0.98446221314997,43.49945979713955],[-0.984834666955359,43.49961267028144]]],[[[-0.983878494550753,43.50076766474572],[-0.984009203068918,43.500698449535534],[-0.984073065091923,43.50062538549648],[-0.984083250781453,43.500474299316096],[-0.984204346079733,43.500455614427224],[-0.984228365503496,43.50043437229937],[-0.984410178400544,43.50041147324746],[-0.984869401339886,43.50079816976537],[-0.98509655807256,43.50090260387913],[-0.985241473046357,43.501034564700404],[-0.985424751713351,43.501310962052706],[-0.985620747527976,43.501431765394784],[-0.985821486046285,43.501494289251966],[-0.985913657722527,43.50162764846564],[-0.98672378952553,43.50164766903063],[-0.986741469397289,43.50162602890791],[-0.987728492259211,43.50174826775668],[-0.987891857472169,43.501805406599715],[-0.988449276775837,43.501978578302285],[-0.988457596431185,43.50211619240597],[-0.987847078742817,43.5020783903255],[-0.987322794151124,43.50204912351985],[-0.986972941789201,43.502059921620145],[-0.986368898645861,43.5021991603226],[-0.986317035023995,43.50226142477484],[-0.986239100485709,43.50220483504672],[-0.986118316849959,43.50214603759501],[-0.985732039940551,43.50204214187469],[-0.985440955183105,43.50195104989814],[-0.985204689321026,43.50175821758267],[-0.984917591179359,43.501539057232534],[-0.984979888017792,43.50144343885869],[-0.98426888617239,43.50094888817128],[-0.983691448173535,43.50081147471185],[-0.983878494550753,43.50076766474572]]],[[[-0.981891314387837,43.49925123835281],[-0.982060959867712,43.49943841690785],[-0.982154657617669,43.49958325343015],[-0.981962444507233,43.49967922909634],[-0.982500443312834,43.49995304702845],[-0.982755466059852,43.5000400663479],[-0.983253741139739,43.50032092587109],[-0.983128333103293,43.50052723439297],[-0.981912398812114,43.50019076628315],[-0.981204690819393,43.500007318502476],[-0.980840519942517,43.49990241417472],[-0.980609830605983,43.49984503541563],[-0.980477633916416,43.49947856248117],[-0.979990804578385,43.49871432838591],[-0.97968867545854,43.49822950872711],[-0.979852876029079,43.49837040663844],[-0.980399254706295,43.498458352344635],[-0.980479729365943,43.49842855157891],[-0.981093392484223,43.49853203951292],[-0.981341779230158,43.498698399668775],[-0.981531673608325,43.49887961009879],[-0.981891314387837,43.49925123835281]]],[[[-0.982076213154934,43.498403686275665],[-0.982070780526472,43.498382445778],[-0.982469343948027,43.49830528221174],[-0.982642737767039,43.49881599566701],[-0.982937119757787,43.49874437040445],[-0.98281690145804,43.49920749895814],[-0.982696455420699,43.49963703427609],[-0.982812628687483,43.49968123065869],[-0.982644925189247,43.49992719859029],[-0.982131101966226,43.499682581346036],[-0.98226812515891,43.499586651396164],[-0.982176519711411,43.499461286431696],[-0.982065930478689,43.49933697925414],[-0.981909081175531,43.49918086017558],[-0.981761098876114,43.49904909830638],[-0.981466571946606,43.49875273051336],[-0.981325200643507,43.49862883290185],[-0.981122720407549,43.49848204635158],[-0.981173293501856,43.49839577949758],[-0.982076213154934,43.498403686275665]]]]}}]}
