{"type": "FeatureCollection","name": "aoc_geojson","features": [{"type":"Feature","properties":{"dt":"Colmar","type_prod":"Vins","categorie":"Vin mousseux \"Crémant\"","type_denom":"appellation","signe":"AOC","id_app":2,"app":"Crémant d'Alsace","id_denom":3,"denom":"Crémant d’Alsace","insee":"67363","cvi":"1B001M 1, 1B001M 3, 1B001M 4, 1B001M 5, 1B001M 6, 1B001M 7, 1B001M00, 1S001M00","nomcom":"OSTHOFFEN","insee2011":"67363","nomcom2011":"OSTHOFFEN","id_aire":16,"crinao":null,"grp_name1":null,"grp_name2":null},"geometry":{"type":"MultiPolygon","coordinates":[[[[7.541085084884044,48.59625977021404],[7.540921943210448,48.59616896132059],[7.540875850509514,48.596135582018626],[7.540748389092366,48.596169461894796],[7.541085084884044,48.59625977021404]]],[[[7.542459055853983,48.59543206055749],[7.542297041905815,48.59552321505773],[7.542319771455996,48.59556910937422],[7.543145366883464,48.595869412300154],[7.543244955914057,48.595904080594615],[7.543279273224665,48.59586753979822],[7.543289427221998,48.59592346517631],[7.543368482419421,48.59595630497951],[7.543504045731086,48.596006357400746],[7.543776624983545,48.596113794607675],[7.543895435183692,48.59616331544928],[7.54395456709276,48.59618727535526],[7.544011660459915,48.596211223031766],[7.544070370717335,48.59623501879337],[7.544130354105773,48.596259396585296],[7.544323949695751,48.596334801460245],[7.544407174062048,48.596326485154584],[7.54465120451234,48.596119296189926],[7.54485506578515,48.59624719740874],[7.544972851396219,48.59632243528505],[7.545166873242042,48.59644494559342],[7.545223809998235,48.59648115249523],[7.545338683316648,48.59655569044031],[7.545492515081566,48.596651805046115],[7.545649604517217,48.596747885038305],[7.545703653260803,48.59676960569417],[7.54584507105736,48.5968213239114],[7.545870283578144,48.59683009103017],[7.546358562308476,48.59700919652957],[7.546537308863222,48.59706840682981],[7.547628362609144,48.59600106012568],[7.546949793160708,48.59577517550483],[7.546877616564388,48.59575117523677],[7.546856866887532,48.59570466532629],[7.546818185933504,48.595742545433495],[7.546801357379469,48.5956942637528],[7.54660846364253,48.5956175745635],[7.546445492072682,48.59555226514386],[7.546325524816273,48.59550351183421],[7.546262065372982,48.59548134036318],[7.546051443750178,48.59539757937272],[7.545924651065937,48.59534530235968],[7.545436952873701,48.595153919485874],[7.545353804879158,48.59512087707486],[7.54528304387262,48.59509438903655],[7.545210424292176,48.59506526895539],[7.545138617092143,48.59503611778005],[7.545035771947792,48.59499680013812],[7.544956134436938,48.595008854244256],[7.544918653641782,48.594990194202424],[7.544867247045819,48.595041084172],[7.544978676066266,48.59493059544481],[7.545484923443881,48.594355227473585],[7.545597999867452,48.59422151890853],[7.543870373136919,48.59373045282284],[7.543779741509899,48.59385519284926],[7.543474526157699,48.594277448196316],[7.543243770536654,48.59447791100433],[7.54315254938412,48.59455365771854],[7.542889052972172,48.594785374396636],[7.54283074075738,48.594831841984345],[7.542800975163257,48.59488325573256],[7.542772693758128,48.594932990942326],[7.542688180188517,48.59506254177848],[7.542647273901396,48.59513113992845],[7.542459055853983,48.59543206055749]]],[[[7.54430168242437,48.58791961455944],[7.544271848657146,48.587932648329435],[7.544197701464271,48.58796557641521],[7.544143570974128,48.58798972032236],[7.544021134901643,48.58804368563638],[7.543916372449452,48.58809003749907],[7.543892559162678,48.58810671545325],[7.543843425128641,48.58814148048643],[7.543621319008429,48.58792975961713],[7.543590626089535,48.587942285431566],[7.543486399609327,48.5880088893652],[7.543700446561243,48.58821695397596],[7.543729304626591,48.58826306452009],[7.543790963725853,48.58836315396908],[7.543822567672021,48.58841429536029],[7.543923511994715,48.58857577448756],[7.543958273048509,48.58863355282784],[7.543989357036339,48.58868183078676],[7.54402673141554,48.58874311330565],[7.544038131142348,48.58876177922241],[7.544084391370308,48.588836237399555],[7.544165900113388,48.58896782449623],[7.544211924565639,48.58897075072208],[7.544234207869226,48.58897242189223],[7.544229988622905,48.58898952231425],[7.544311886124664,48.58900828686803],[7.544429597698724,48.589035954092104],[7.544545661583898,48.58906341387831],[7.544591432726274,48.58907436871513],[7.544655876343427,48.589089204993435],[7.544678297333312,48.5890940243874],[7.544754689611411,48.58911038612506],[7.545103195618261,48.58918698569673],[7.545209076843485,48.5892097884109],[7.545261455137949,48.589221751842594],[7.545248572584052,48.589265763578126],[7.545243931938637,48.589282699949536],[7.545230853868075,48.589329151906924],[7.545218135076197,48.589375049513755],[7.545212939621182,48.58939498045556],[7.545207869444611,48.5894116629375],[7.545208997710595,48.58945279639275],[7.545209221099923,48.58948351261409],[7.545208868182738,48.58949821272141],[7.545209753686899,48.58954593289542],[7.545210250572818,48.589575106926254],[7.545210240885754,48.589593758396205],[7.544139377804782,48.589597659218164],[7.544098704617144,48.58959849290575],[7.544114591154377,48.58965005470883],[7.544132398514677,48.589704966966494],[7.544144725422021,48.58974369014404],[7.544150853787468,48.58976264761486],[7.544159792596242,48.58979050785608],[7.544181346937227,48.589860414005656],[7.544196531162776,48.58990857876508],[7.544205532412914,48.58993715742966],[7.544221177387276,48.58998593528776],[7.544220205823413,48.590012282156636],[7.544224678568717,48.59009662672644],[7.544226541989532,48.59012277513849],[7.544227671178699,48.59014985263048],[7.544229804215598,48.590207256068844],[7.544233350015456,48.59027154334898],[7.544197534066055,48.59027201120359],[7.544162967651564,48.59027279169841],[7.544071389408191,48.59027394906309],[7.544029052247541,48.59027439579172],[7.543980631185979,48.59027516511966],[7.543907390421032,48.59027634235534],[7.543798364889237,48.59027834649545],[7.543820404238547,48.590339764569045],[7.543850186172479,48.590377730585516],[7.543879077935494,48.5904148295966],[7.543942181241689,48.590479904215876],[7.543954042022052,48.590499183219826],[7.543997752782943,48.590570855555725],[7.544060261412076,48.590647846278614],[7.544127760042051,48.59073068307925],[7.544134568735082,48.590743397516285],[7.544114872352589,48.59074180763671],[7.544011813989857,48.59073277166685],[7.542491995907159,48.590601632151916],[7.54247646189651,48.59075593907529],[7.542484212100647,48.590788890495475],[7.542425820380463,48.590820314253705],[7.542388363135636,48.59107880526166],[7.542487019385005,48.591379759908996],[7.542544595883854,48.591423421954666],[7.542702237424484,48.59144632182782],[7.542789223584643,48.59145795527443],[7.542867665609664,48.59146973490483],[7.542945639170307,48.5914808115707],[7.543238579160767,48.59152268842912],[7.543546412996189,48.59156714900384],[7.543670543330339,48.59158421015142],[7.543747658193134,48.59159477850808],[7.543828638762453,48.591607631832225],[7.543933845829518,48.591622622717104],[7.543991186099603,48.591630702967485],[7.544062560768734,48.591640859784086],[7.54421115191092,48.59166275206095],[7.544269230968068,48.59163242061378],[7.544310475092409,48.591638142534286],[7.544358798336907,48.591683148534266],[7.545316319698776,48.59181873290537],[7.545383973193712,48.59179073794391],[7.545424388697932,48.59172594146661],[7.545437222644249,48.591704817530896],[7.545554358664011,48.59152878566302],[7.545625392848576,48.59142245291518],[7.545736927316532,48.59125231134643],[7.545830964655927,48.59110590466083],[7.545864356379099,48.59105876615439],[7.545962352358359,48.59091572193739],[7.546004601200483,48.59085797311719],[7.546038110041308,48.590807496292435],[7.546093371609881,48.59073068889927],[7.54614850037459,48.590652354814736],[7.546195162214271,48.59058443585112],[7.54620267629886,48.59057243529171],[7.546214150476667,48.590554426687305],[7.546267623585174,48.59047111012021],[7.546302803569885,48.59041642459731],[7.546344747696791,48.590350487977204],[7.546364134098813,48.59032037345138],[7.546382122309239,48.59029292534142],[7.546445256823655,48.590194192195135],[7.54646389331014,48.59016482713622],[7.546495511162168,48.590116044264796],[7.546510562464896,48.59009231250907],[7.546523895320078,48.59007225054187],[7.546539250915876,48.59005202112212],[7.546590503776565,48.589985368004086],[7.546608085296744,48.589962620699055],[7.546616864346372,48.58995111234001],[7.546625822865075,48.58994166946307],[7.546672911608805,48.589892745422986],[7.546753631620542,48.58980883710485],[7.546837702010428,48.589721286611606],[7.546848323899785,48.589712230612356],[7.546939086151427,48.5896360472793],[7.547054903125734,48.58953872280888],[7.547078458528446,48.58951908072259],[7.547111026895044,48.58949062433959],[7.547216744928352,48.58939900192889],[7.547284200893741,48.58934064882618],[7.547345228993909,48.58928803774967],[7.547377572134252,48.589233550385245],[7.547399574205255,48.58919603731267],[7.547402839196043,48.589186722020955],[7.547416985331592,48.58913851695366],[7.54742478098204,48.58911100795211],[7.54751656353011,48.58877466018979],[7.54737567553957,48.588424055299626],[7.547293707229052,48.58828257640592],[7.54720845186856,48.58813608735098],[7.546548844206716,48.588038143584306],[7.546045299384939,48.58799189434805],[7.545927875928814,48.58799097806141],[7.545876497316852,48.587990509796725],[7.545806789402055,48.587994796922295],[7.545753731374544,48.587998447410335],[7.545612737918425,48.58800762240484],[7.545540640193893,48.5880125413551],[7.545473368794159,48.588016735129],[7.545438569410188,48.58801950720553],[7.545103202372363,48.58805656581823],[7.545095159906023,48.58804371837464],[7.544857177756041,48.58771024796821],[7.544808827244347,48.58773056717177],[7.544778556418855,48.58774325737878],[7.544743107758172,48.58775731683192],[7.544721427779292,48.58776571413958],[7.544707237385707,48.58777121218977],[7.544671038895451,48.58778602109864],[7.544632794316429,48.58780072800331],[7.544594213816272,48.58781625865338],[7.544481846257534,48.58785947788521],[7.544384380325572,48.587891315180315],[7.544311507242996,48.58791545474953],[7.54430168242437,48.58791961455944]]],[[[7.546210947310422,48.59813362932247],[7.54627376223101,48.59814834712174],[7.546338904603884,48.59816639975915],[7.546532160644985,48.598219018648436],[7.54666360968127,48.5982544483923],[7.546727565015458,48.59827290661667],[7.54679116885303,48.59829200895745],[7.546856366216622,48.598310689930436],[7.546914580605222,48.59832873685825],[7.546973982338742,48.59834637795308],[7.547030087572064,48.59836828973309],[7.54707646056105,48.598386068555655],[7.547132292394495,48.598409522468124],[7.547190912869064,48.598432239012574],[7.547247822831038,48.59845402982239],[7.547307396258277,48.598478331697976],[7.547364282901663,48.59849985304252],[7.547422903577957,48.598522569471044],[7.547382721138227,48.598561948650335],[7.547714879895858,48.598693498812764],[7.548073986463467,48.598872492037415],[7.54836645224807,48.5990161905325],[7.548699996636627,48.599215171093086],[7.548994909090809,48.59942445851858],[7.549087351888362,48.59952679148411],[7.549104637558012,48.59954748428723],[7.549142567495029,48.59959937337777],[7.548978332207133,48.59974936772036],[7.548748369059444,48.59998711184922],[7.54877991064935,48.59999833935797],[7.549090218768707,48.600108106355556],[7.549557050421837,48.600269729670984],[7.549830492688578,48.60034450422686],[7.550236923741203,48.60045356408746],[7.551103806617027,48.60066952235894],[7.551553885237127,48.600783665118946],[7.551603221847285,48.60077456870238],[7.551625609207733,48.60076956717813],[7.55171509609869,48.600748842618984],[7.551801880220615,48.60072984326748],[7.55189742078219,48.60070843634932],[7.552022253808226,48.60068176344038],[7.552034603511421,48.60067849757538],[7.552138283783865,48.6006710149347],[7.55227413128834,48.60066320187231],[7.552330224765555,48.60066150512825],[7.552418586915534,48.60065596014305],[7.552630626340336,48.600643247716896],[7.552842165686188,48.60062947283485],[7.552902125629658,48.60062537525297],[7.552960562403569,48.60062250727693],[7.553002665566448,48.6006192735009],[7.553162806089341,48.60060962831671],[7.55326415053058,48.600603405437546],[7.553347200741646,48.600597702732344],[7.553418916683744,48.60059288445914],[7.553444077042951,48.60059165077764],[7.553502490299905,48.600588513128415],[7.553574698388875,48.60058466703434],[7.553760647560675,48.60057655565118],[7.553911431032989,48.600585828700346],[7.553968407422701,48.600589593572785],[7.554023743424549,48.600593241032605],[7.554160646161403,48.600602234408505],[7.554251211635409,48.600607956489924],[7.554342566055936,48.60061337798361],[7.554430272600201,48.60061902921553],[7.554577424054966,48.600628710833725],[7.554635259831021,48.600632983087216],[7.554727497463468,48.600643866668264],[7.554877094791148,48.6006629149267],[7.554955014206505,48.600673175421825],[7.555024122157625,48.600680529707894],[7.555209183406241,48.600699660812076],[7.555307889049846,48.600709935791684],[7.555501715114986,48.600731433764096],[7.555603311133728,48.60074213839271],[7.555669052434444,48.600748269752415],[7.55570141570195,48.60075486882605],[7.555779999682577,48.600768076692894],[7.555857029323558,48.600782154971895],[7.556046068611282,48.600814197164716],[7.556096937391783,48.60082270011456],[7.556195870767461,48.60084026389546],[7.55622816376684,48.60084605460586],[7.556242591647311,48.60084793458132],[7.556300084701165,48.60085762528027],[7.556365842397727,48.60086862113415],[7.556431920275926,48.600878613564824],[7.556568778874502,48.60090112118176],[7.556709285497115,48.60092339876295],[7.55675150712453,48.600930881243855],[7.556796939189914,48.60093779018482],[7.556841582349907,48.60094499964368],[7.556928822100465,48.60095931673052],[7.556986690305576,48.600968632323806],[7.557074422377637,48.600983921561955],[7.55716334960978,48.600998894632376],[7.557227826503255,48.60100921828868],[7.557301005576036,48.601021190670075],[7.557444824961395,48.601044061269555],[7.557959427811989,48.60115949194095],[7.557986440687041,48.60116548456008],[7.558089547504049,48.601188833581254],[7.558243743022211,48.60122319899889],[7.55838422916008,48.60125457573882],[7.558580061795305,48.60129905800117],[7.558895516157501,48.601369318683766],[7.559022831896637,48.601394532035705],[7.559163005905657,48.601422315774464],[7.55931706193595,48.60145506336058],[7.559541087982967,48.60150035534301],[7.559760106999615,48.60154430716293],[7.559847294591056,48.601562678763436],[7.559989500468777,48.60159038365179],[7.560067923254824,48.60160638811233],[7.560205309807017,48.60163490826014],[7.560321455973184,48.6016582059188],[7.56035721870374,48.60166638534639],[7.560461538325845,48.6016895957726],[7.560768677888234,48.60175791795916],[7.560859334990134,48.601778678643136],[7.560993700842255,48.60181461202583],[7.561059243386826,48.60183246137164],[7.561157181931438,48.601857267472795],[7.561265948906878,48.60188940695691],[7.561379582566446,48.601921269580195],[7.561592913671339,48.60150267184273],[7.561839925099696,48.60097961447895],[7.562098704777172,48.600427992829204],[7.561960696958544,48.600406346522725],[7.561737167835649,48.60037140184596],[7.561665269859517,48.60036010385707],[7.561526864043118,48.60033856242924],[7.561430346391257,48.60033469601665],[7.561103595700556,48.60032181994668],[7.560956249106868,48.60031458662232],[7.560852396704725,48.60031073074798],[7.560716330355447,48.60030666859271],[7.560634131108349,48.600303423740094],[7.560484019613555,48.60029719689207],[7.560385135453236,48.60029423131062],[7.560126852400572,48.600286025214544],[7.560035217009712,48.600282060564666],[7.559872997498835,48.60027251294811],[7.559867940256105,48.600283068605286],[7.559718445749052,48.600290152250324],[7.559605213700063,48.600295575040555],[7.559488588031906,48.60028076476549],[7.559245033540751,48.600249826950474],[7.559134993139922,48.60023575498806],[7.559042997150498,48.60022297340349],[7.558917888100209,48.6002043431139],[7.558752237341726,48.6001787972615],[7.558618856109156,48.60015877183706],[7.557958989630825,48.60005990444404],[7.557890077023727,48.600050111632584],[7.557797612888718,48.60003662623478],[7.557815831847726,48.600002500122244],[7.557946214143151,48.59970277922257],[7.558150321905934,48.59900972977656],[7.558062330196644,48.59901481444378],[7.557971909232755,48.599020082258114],[7.557906210279243,48.59902377173689],[7.557799159496675,48.59902994711749],[7.557746840891786,48.5990328533657],[7.557701435115634,48.59903558474752],[7.557654795156412,48.59903818320931],[7.557506775175409,48.59904655922671],[7.557357560083741,48.599055251165375],[7.55727888683364,48.59905970782308],[7.557208735474678,48.59906374774677],[7.55715683080337,48.599066727972115],[7.557093178266737,48.59907051877883],[7.556985705470517,48.59907652938854],[7.556905016912592,48.59908124322839],[7.556714418414301,48.59909206076467],[7.556614662910995,48.59909777532247],[7.556515719741912,48.59910345866994],[7.555981901946065,48.59914148141818],[7.555930489331868,48.59914543337259],[7.555973628726499,48.59898096641717],[7.556013887000193,48.59883021519294],[7.555951041639489,48.59878243615246],[7.553162297346827,48.59906323234172],[7.55311622956565,48.59910986686424],[7.553151621915636,48.59926366696555],[7.553190195035497,48.599444646082944],[7.553134095310873,48.59945093871203],[7.553015089953879,48.59893110300222],[7.552883312819183,48.59834408958728],[7.552702058159567,48.598354543033594],[7.552584869425677,48.59836128209234],[7.552421048851685,48.598370707251085],[7.552338337916729,48.59837558554802],[7.552268187093145,48.59837962256268],[7.552060983947901,48.598391608973266],[7.551934078129387,48.59839907975723],[7.551849437686277,48.59840051760259],[7.551839375520783,48.59834107521785],[7.551852947095012,48.598187923399756],[7.551864800268823,48.598038441405],[7.551844757243853,48.59803758678282],[7.55127017035271,48.59838448614792],[7.550922299506634,48.5985924192354],[7.550551234766188,48.59882889990964],[7.550447112639201,48.598896856386034],[7.550170217470304,48.598697965452594],[7.549872875223767,48.59848417857672],[7.549445107090699,48.59826078441623],[7.549130826619929,48.598109904016454],[7.548956393795272,48.59802539406312],[7.548865693975101,48.597980569200644],[7.548781000837866,48.597939208667704],[7.548725801369423,48.59791834426614],[7.548578480567723,48.5978644223476],[7.548520016278786,48.59784350253382],[7.548494631060499,48.59783276031971],[7.548454045962814,48.597815931977294],[7.548394543210151,48.59778775360151],[7.548332978442442,48.59775929366096],[7.548265750785853,48.59773132058992],[7.548192782177441,48.5977029363496],[7.548122305312789,48.59767508747605],[7.548053593721761,48.59764879287514],[7.547980969059223,48.59761967454499],[7.547905102933382,48.59759077024481],[7.547823714702013,48.597559283942154],[7.547747356713558,48.597529407241105],[7.547674349636912,48.59750057366343],[7.547603131237953,48.59747356377116],[7.547572286667918,48.59746095781686],[7.547528382295501,48.597448130478014],[7.547464740185222,48.597428579502925],[7.547394091801052,48.59740812510298],[7.547327942535601,48.59738785902057],[7.547192527510298,48.59734897764843],[7.547157722909158,48.59733769434034],[7.546989433291436,48.597281599031845],[7.546924393575205,48.59726002888789],[7.546866813196458,48.59723988541799],[7.546800500451858,48.59721773317561],[7.546737632203271,48.59719770173236],[7.546678778836552,48.59717697613909],[7.546615418671085,48.59715597232668],[7.546551160379797,48.597134011705094],[7.546484457345212,48.597112054420286],[7.546420605328096,48.59709007819828],[7.546355136507419,48.59706825385958],[7.546329502018216,48.597059322767656],[7.546299626402243,48.5970484814841],[7.546180233310474,48.59700637351753],[7.546123137695044,48.59698711218677],[7.546067588747143,48.59696689068616],[7.545959451175791,48.59692768596167],[7.545911939394665,48.596910851295746],[7.545863615316035,48.59689404766471],[7.54580609817,48.5968746221009],[7.545749666912016,48.59685362327542],[7.545701811522791,48.596837522476505],[7.545601312698451,48.59680649496899],[7.545625583243686,48.59678096950255],[7.544655860496142,48.59618227933232],[7.544588486925909,48.59623702296561],[7.544519371034792,48.59629516689178],[7.544389997415049,48.59640084451406],[7.54435252307733,48.596386959410886],[7.544285838070454,48.59636049519482],[7.544224268853166,48.59633662858554],[7.544164324332069,48.59631269985896],[7.544101153986284,48.59628916467994],[7.543988567710796,48.596245623188395],[7.543934660610057,48.59622551820427],[7.543874341386735,48.59620196406323],[7.543819497267932,48.59618045321356],[7.543754179454321,48.59615564839827],[7.543698460723223,48.59613345010503],[7.543643288579545,48.596112852726044],[7.543579197207907,48.5960880910583],[7.543515621237654,48.596064571083495],[7.543457934303075,48.59604316869806],[7.543394272657906,48.596018660820576],[7.543274619106396,48.5959734965898],[7.543220595586359,48.59595204422713],[7.54320034360117,48.59594407816267],[7.543098450807578,48.59590634430129],[7.54303278210554,48.595882183226],[7.542910692237304,48.59583711172873],[7.542848374329354,48.59581399385889],[7.542784392863605,48.59579048900505],[7.542654305757401,48.59574247913216],[7.542250245130981,48.59559438065884],[7.542155727950847,48.59559934260485],[7.541410611316124,48.59599604608833],[7.541085765461141,48.59607981217786],[7.540875978101819,48.59613548704508],[7.540922078597071,48.59616895615053],[7.541085212476273,48.59625967524028],[7.541469318725289,48.5963609663283],[7.541685205840674,48.59643345167294],[7.542023726067132,48.596580721827415],[7.542163402195193,48.59665467569107],[7.542231709681781,48.5966904496135],[7.542356031584551,48.59675652025222],[7.542424768890752,48.596792547955964],[7.542480275830087,48.596821692723836],[7.542547341865132,48.596857243596666],[7.54261436900457,48.5968923454139],[7.542660043118964,48.59691618935081],[7.542683872212473,48.59692780311201],[7.542750314024063,48.596960854889915],[7.542816646751841,48.59699264938315],[7.542881331503057,48.59702423649607],[7.542951991181761,48.59705892905663],[7.543014067541145,48.5970886335253],[7.54304980752175,48.59710600915485],[7.543487980454711,48.59734173183127],[7.543630747473374,48.59740430333037],[7.544239875848885,48.59763763585499],[7.544321840377253,48.59766639946664],[7.544463602996585,48.597717385339784],[7.544522081125893,48.59773848675413],[7.544590650646298,48.597763166934534],[7.544654533919984,48.597785503338585],[7.544797486530022,48.59781734188045],[7.544948843600972,48.597852102684755],[7.545020773046036,48.597868545094265],[7.545140473353313,48.597895415369216],[7.545165014838139,48.59790114484829],[7.54530794466782,48.59793271336483],[7.545382389392744,48.59794996043498],[7.545462130013492,48.59796718523111],[7.545566420059681,48.59799022917256],[7.545608832795897,48.59799996070006],[7.545672764469662,48.598013464799585],[7.54574389762359,48.5980301174289],[7.545809141523593,48.59804465251178],[7.545944628361461,48.59807497309105],[7.54601106748281,48.59808919207169],[7.546073827669846,48.59810328135568],[7.546141985198615,48.5981185157884],[7.546210947310422,48.59813362932247]]],[[[7.546804653707724,48.59179804883934],[7.546847490220672,48.59170955253917],[7.546866893414633,48.5916655616405],[7.546888881908071,48.59161849850861],[7.546893146679227,48.591611307471204],[7.547047360363923,48.5916603722148],[7.54783369390305,48.59190781225719],[7.5479331536131,48.591941039887736],[7.54799450859648,48.591962479973674],[7.548115172686383,48.592000572807606],[7.54828732044867,48.59205435613315],[7.548753398779034,48.59220348546683],[7.549135576108599,48.592324918120106],[7.549463693637987,48.59242913623449],[7.549559648660343,48.59245952330015],[7.549749973567776,48.59252080837463],[7.549824412475871,48.592505255592975],[7.550701606568544,48.59138424383432],[7.550676950254938,48.59134437123621],[7.55070098927591,48.591311555015416],[7.550774239041574,48.591291722156306],[7.550931452305109,48.59108946227987],[7.55112256650494,48.5908272479321],[7.551293817713816,48.59052876145797],[7.551491345458794,48.590148266733564],[7.551573117119951,48.58991258231986],[7.551641408936543,48.589699939408476],[7.55175959081578,48.58925517485359],[7.551762370126542,48.589216865038175],[7.551681992917262,48.589215617262404],[7.551896181158748,48.5892187701198],[7.551831314931984,48.58925531222168],[7.551818656625102,48.589301839159596],[7.551788709448602,48.58942129009225],[7.551713110335884,48.58970449275587],[7.551658008510838,48.58987203011708],[7.551626138849007,48.58996470403196],[7.55159636982677,48.59005342311067],[7.551570396206436,48.59013893339867],[7.551560087706083,48.59016095257917],[7.551527974974066,48.59022273064937],[7.551483366818508,48.59030480954559],[7.551351892189623,48.59054527967546],[7.55129799776331,48.59064240060055],[7.551187834170339,48.590842139365705],[7.551146661052424,48.59090282244278],[7.550986629924349,48.59111951679388],[7.550914458858702,48.591212651692764],[7.550852354500772,48.591290354166844],[7.550796857193393,48.59136437983425],[7.550611878033785,48.59160347266063],[7.550189071144019,48.59214404795871],[7.549902248483697,48.592514711234735],[7.549934019656352,48.592570800366055],[7.553318689657916,48.59353687673773],[7.553389418502439,48.593511462485125],[7.553413458604639,48.593370973591746],[7.553435164219063,48.592969547960266],[7.553442496049223,48.5927962709044],[7.553400272331535,48.59276527086616],[7.553336806533282,48.592190506253],[7.553327565464279,48.592159234241734],[7.553248597493638,48.59186519107462],[7.553215265621154,48.59174437889124],[7.55318377743857,48.591630704274266],[7.553148813331291,48.59150517914334],[7.553116270477245,48.59137938107203],[7.553080125326355,48.591212183757044],[7.553008937526601,48.590890451264855],[7.552983713710888,48.59077383359793],[7.552915425886581,48.59048073258708],[7.552900434696321,48.590392736007445],[7.552894662102458,48.59036853931148],[7.552887599134031,48.590306098514816],[7.552879448544621,48.59019837786174],[7.552866400810328,48.590081203768385],[7.552859602097797,48.58998901904606],[7.552845231810923,48.58980981501496],[7.552810501962794,48.58946217821143],[7.55280024999358,48.589334985726374],[7.552790850172781,48.58922695242124],[7.552783897078406,48.58917045412585],[7.552839039533829,48.589134554134944],[7.552829920470418,48.588495896483934],[7.552827673985941,48.58838110180188],[7.552820490398625,48.58823297802849],[7.552761753066059,48.58819008591877],[7.552541610198239,48.58818400919854],[7.552397844571103,48.58818005333745],[7.552397875479753,48.58817104190324],[7.552321092208825,48.5881689361861],[7.552271673524421,48.58816758470593],[7.551984204919521,48.58816039058493],[7.551733886285641,48.588154026067095],[7.551628121936402,48.588151317484474],[7.551281066887579,48.588142978956206],[7.55112796129289,48.58813937911033],[7.550891528182169,48.58813338232063],[7.550772714220194,48.5881305417707],[7.550702491067099,48.58812890473445],[7.550284166722962,48.58811626320417],[7.549999713126538,48.588110931171144],[7.549707004954093,48.58810438260376],[7.549610627837064,48.58810185362305],[7.54947956090317,48.5880986697477],[7.549334202592659,48.588095131558],[7.549001408441436,48.588086781338],[7.548864203319544,48.5880832910312],[7.548726966989958,48.58807944135181],[7.547901339213889,48.58805903746293],[7.54779270917554,48.588056164799696],[7.547369676862754,48.58804558530697],[7.547230425874734,48.588041991170755],[7.547166794116755,48.58804118118356],[7.547221416299216,48.5881258604719],[7.547395449192199,48.58842654267925],[7.547531362919464,48.58877148117069],[7.547574936909832,48.58883685050744],[7.547512764360453,48.589115391550315],[7.547519517826152,48.58928686786429],[7.547370770665273,48.589352204673034],[7.546919827577351,48.589747338982036],[7.546598664462232,48.59009804383344],[7.546421758029177,48.59038331374249],[7.546357076813797,48.5904830070121],[7.546283647711776,48.59058988246736],[7.546273680970734,48.59060648191022],[7.546186941790774,48.59073368863442],[7.546157510684938,48.59077481920245],[7.546128407625215,48.59081503619806],[7.546049540825409,48.59093437321265],[7.546016431029306,48.59097537407803],[7.545948654998432,48.59108167268242],[7.545889456074535,48.591164757427826],[7.545833607766819,48.59124420005635],[7.545805378854437,48.591285104331995],[7.545777110888355,48.591325559581804],[7.545748178871917,48.591367752144556],[7.545717700341029,48.59141090484082],[7.545631903786847,48.59153492137311],[7.545500997916254,48.59172130083497],[7.545450748355389,48.59179953804654],[7.54536195713829,48.59194538330471],[7.5453886944733,48.59199049329069],[7.54642459426633,48.592282372754994],[7.546497550126888,48.59226381532067],[7.54660234968909,48.592114653966306],[7.546655065803068,48.59203668232375],[7.546780478696986,48.591838708221076],[7.546804653707724,48.59179804883934]]],[[[7.551191379964863,48.598354794751586],[7.551493897883701,48.5981689596147],[7.551823829878221,48.59797036102138],[7.551729636353663,48.597932249407755],[7.551583257283507,48.59786577089977],[7.551480893675558,48.59781806062669],[7.550494557352074,48.59879106363411],[7.550909074884383,48.598534088965124],[7.551191379964863,48.598354794751586]]]]}}]}
