{"type": "FeatureCollection","name": "aoc_geojson","features": [{"type":"Feature","properties":{"dt":"Angers","type_prod":"Vins","categorie":"Vin tranquille","type_denom":"appellation","signe":"AOC","id_app":1028,"app":"Fiefs Vendéens","id_denom":2343,"denom":"Fiefs Vendéens Pissotte","insee":"85176","cvi":"1B711S, 1R711S, 1S711S","nomcom":"PISSOTTE","insee2011":"85176","nomcom2011":"PISSOTTE","id_aire":1688,"crinao":null,"grp_name1":null,"grp_name2":null},"geometry":{"type":"MultiPolygon","coordinates":[[[[-0.815055160844197,46.50475622600916],[-0.814746762013708,46.50494988737897],[-0.814289162099109,46.505237235929144],[-0.814104939191387,46.50535282729236],[-0.814052540438939,46.505385768175636],[-0.813871205392825,46.50549973018506],[-0.813853623927216,46.50548544222928],[-0.813665736526837,46.50533422090663],[-0.813344713502996,46.50506411713063],[-0.812997535654857,46.50479335275782],[-0.812916943877374,46.50453352520337],[-0.812859548511495,46.50431971143904],[-0.81281197862387,46.50413622079904],[-0.812779026808093,46.50397505032603],[-0.812716026036089,46.50366433199754],[-0.812752156035539,46.503620936236715],[-0.812939549324566,46.503563748484694],[-0.813018286453049,46.503539665362126],[-0.813426734002947,46.50341379799166],[-0.813629428678935,46.50335141059423],[-0.813672622645558,46.50333806916567],[-0.813771659862818,46.50330744821551],[-0.813866877574495,46.50327821676213],[-0.814381411232901,46.503104991954125],[-0.814425149371587,46.50308451020442],[-0.814702766754695,46.50295480175343],[-0.814724874167563,46.50294423733249],[-0.816121333198214,46.50415826797136],[-0.815386064745488,46.5045483799167],[-0.815055160844197,46.50475622600916]]],[[[-0.813973468110152,46.4993271662004],[-0.814055093991183,46.49935563337958],[-0.814088989577361,46.499368024409165],[-0.81443016471603,46.49949005708615],[-0.814101769573162,46.499841517063984],[-0.814023416483277,46.499925087407654],[-0.814010901734086,46.49993839662884],[-0.814065501272572,46.499963078178865],[-0.814122793873098,46.49998893190719],[-0.814185592185379,46.500018838871895],[-0.814503397980346,46.50016130431073],[-0.814499958944938,46.50016439407773],[-0.814992430034195,46.50038315371148],[-0.815022799264087,46.500356356755205],[-0.81518264924134,46.500429900761475],[-0.815261384563045,46.50046179922526],[-0.815077221434423,46.500628325710075],[-0.814832229732018,46.50081175755968],[-0.81454999437288,46.501033844512314],[-0.814337974245586,46.50122023117464],[-0.814146813018033,46.50140808470187],[-0.813894467394825,46.50151639429639],[-0.813737341976299,46.501679491646456],[-0.813576993486957,46.50180961123985],[-0.813390212106718,46.50194259605846],[-0.813307807373595,46.501992584843],[-0.812934519693382,46.50219724196637],[-0.812721052983038,46.50206273945385],[-0.812492714149478,46.50194703325549],[-0.812258303155462,46.502119558474064],[-0.812100364914932,46.50203603008762],[-0.81205265916088,46.50200913427611],[-0.811934166181065,46.50195944817804],[-0.811805932479928,46.501906751368054],[-0.81171776259942,46.50187435391335],[-0.811643131066846,46.50185259321712],[-0.81150220087885,46.501818079165396],[-0.811512063540569,46.50169406442196],[-0.81152048632647,46.50165024102356],[-0.811571142810039,46.50147672537906],[-0.811632902671704,46.50127345040598],[-0.811656353971424,46.501117880575684],[-0.811658288779624,46.50106156244384],[-0.811654648175036,46.5010244519503],[-0.811641381956534,46.50098784286129],[-0.811627991170665,46.5009569173754],[-0.811562875954635,46.50083603483247],[-0.811521844474819,46.500708579266586],[-0.811520177095227,46.50070340618908],[-0.811526177532011,46.50055031165711],[-0.811530647539865,46.50047984555765],[-0.811534018272693,46.50043285512304],[-0.811540222995034,46.500347997305475],[-0.811546332216355,46.50017966378309],[-0.811521650905311,46.50007131549003],[-0.81150388072528,46.49998338099359],[-0.811495399345536,46.49991812487987],[-0.811493597445802,46.49987743719369],[-0.811496503284941,46.49979954081659],[-0.811513457633638,46.49951004450622],[-0.811510851639093,46.499465326891574],[-0.811500266394082,46.499373727008795],[-0.811483718929719,46.499305133968384],[-0.811591763374114,46.49907678569585],[-0.811992445259992,46.499196750091976],[-0.81205498847562,46.49921557821851],[-0.81207374708794,46.499218738654406],[-0.812235065294854,46.49889170092508],[-0.812435564061657,46.498936216166456],[-0.812674775185518,46.49899106861403],[-0.812903719045431,46.49904283750946],[-0.812958815897975,46.49905785688992],[-0.813188213976096,46.499110511576234],[-0.813423233714744,46.4991651417902],[-0.813528615777437,46.49918984148359],[-0.813643088816926,46.49922505565887],[-0.813751302147092,46.499258495364074],[-0.813973468110152,46.4993271662004]]],[[[-0.812945783109068,46.50509482839527],[-0.812943655894881,46.50510734007525],[-0.812940494364165,46.50512745886748],[-0.812928684870578,46.50543814917987],[-0.812913783339498,46.50578860863399],[-0.812912831771069,46.50581045667994],[-0.812905918281331,46.5062022988506],[-0.812903309180518,46.50622284995224],[-0.81290249129228,46.50622981879057],[-0.812888258985158,46.50630629010503],[-0.812863847064617,46.50638841992436],[-0.812854054312988,46.50641452956603],[-0.812847812958296,46.5064316860121],[-0.812786443956135,46.50655101876617],[-0.81276650684444,46.50658702276855],[-0.812757800662672,46.50660813789652],[-0.812733969578802,46.50667618490009],[-0.812717466893192,46.50674074198412],[-0.812706299567505,46.50679385230524],[-0.812697011302454,46.50688314020861],[-0.81269476805055,46.50692197953226],[-0.812693384501212,46.506933925487346],[-0.812690993668219,46.5069557313945],[-0.812699068430886,46.50701514124561],[-0.812716394512775,46.50708920731708],[-0.812884643448084,46.507566076106556],[-0.812920268992895,46.50767027270274],[-0.812936713347975,46.50771867543421],[-0.812944900913993,46.507742382129415],[-0.81298225350814,46.50784886498382],[-0.813029541532249,46.50798350369578],[-0.813043377438443,46.50802261785746],[-0.81306075709266,46.50806945681779],[-0.813072123856259,46.50809008247601],[-0.811549920917535,46.508658504936214],[-0.811388256199077,46.508613413042745],[-0.811321466638727,46.508595627351916],[-0.811144351886359,46.50854618232122],[-0.811129857372689,46.508542428674964],[-0.811073163102419,46.5085271008088],[-0.811053500213785,46.50852225741934],[-0.81098771267318,46.50850759336775],[-0.81068103989158,46.50843524295419],[-0.81067438199819,46.50843339152474],[-0.810417741378753,46.50833151574387],[-0.810323160911491,46.508293470949084],[-0.8103135114353,46.50828991625286],[-0.810296773722321,46.508282090409935],[-0.810097808131239,46.50818901869944],[-0.809978174134482,46.508132516898655],[-0.809971186584088,46.5081296847735],[-0.809655035281216,46.508002025333006],[-0.809637001411853,46.507994332759765],[-0.809568171055706,46.50796228031074],[-0.809508947928064,46.50793504608903],[-0.809293175661377,46.50783685389963],[-0.809155061272348,46.50777745148281],[-0.809020108514639,46.50772218056187],[-0.808951908610651,46.507693532439305],[-0.808915481934654,46.507678609793516],[-0.80883888697987,46.50764753693338],[-0.808819027883865,46.50763801193033],[-0.808805101547091,46.50763117397404],[-0.808591354740632,46.50754697638321],[-0.808514841895096,46.507517072527286],[-0.808520759693923,46.507385076424136],[-0.80852447962819,46.507303817705825],[-0.808533039017772,46.50711809447582],[-0.808539119376053,46.506980954408],[-0.808539422363108,46.50695353879569],[-0.80854010200798,46.506897893767814],[-0.80853816363886,46.50686829911322],[-0.808536357311817,46.506840593201865],[-0.808529498244865,46.506763022596076],[-0.808525983122789,46.50675196118452],[-0.808520635587039,46.506718423414306],[-0.808518782410466,46.50670685586388],[-0.808540517298151,46.50666664589304],[-0.808552765505935,46.506643880544395],[-0.808716396275314,46.506427746880476],[-0.808819730964297,46.50628853713784],[-0.808834578731249,46.50627307738298],[-0.808864052403977,46.5062240451624],[-0.808873060069739,46.50620535437188],[-0.808901402687336,46.506147615313154],[-0.808903258658209,46.506142414913825],[-0.808911189202977,46.50611952298362],[-0.809309387335433,46.50591576296665],[-0.809554754514993,46.50580246851478],[-0.809994241966277,46.50563843774158],[-0.810197375515263,46.50557468997767],[-0.811052658849469,46.505298165983504],[-0.812728013886678,46.50424792366643],[-0.812804022982254,46.50454675888078],[-0.812820433292575,46.504611479904284],[-0.812862480212434,46.50477387943196],[-0.812865338517424,46.50478487250556],[-0.812945783109068,46.50509482839527]]],[[[-0.805253842566686,46.504989825564316],[-0.805828049065664,46.50518057078284],[-0.805547179759075,46.50557630610845],[-0.805409925271116,46.50577019111518],[-0.805322465243278,46.50588443836176],[-0.805278194378874,46.505940362946184],[-0.805258250484969,46.505966990157944],[-0.80520332416443,46.5060385949609],[-0.805161133866807,46.50609066392693],[-0.805129762186276,46.50612939109031],[-0.805100338062558,46.50616796324243],[-0.805068131522716,46.50620969312006],[-0.805005080390065,46.506290222707186],[-0.804932254009556,46.50638595241357],[-0.803083661898407,46.505726294945354],[-0.803049815343826,46.50558931246647],[-0.803021397630919,46.50547585860455],[-0.803007461096133,46.50541835633824],[-0.802995087747156,46.505368284449766],[-0.802983426832585,46.50530971480278],[-0.802962095344764,46.50522856904118],[-0.802935854820144,46.50512946661491],[-0.802926190413478,46.505092015636535],[-0.802902820409649,46.50499849708691],[-0.802882462153365,46.504916327280874],[-0.802870708707144,46.504835854391025],[-0.802870877405781,46.50472604675939],[-0.802883739515303,46.504693345205354],[-0.802894621195802,46.50467342063008],[-0.802962309302243,46.5045807480259],[-0.802974449604534,46.50456763291075],[-0.803312671432153,46.50420217871651],[-0.803355210444759,46.50415136091146],[-0.803391382562526,46.50409723918093],[-0.80341609386358,46.50404539205341],[-0.803461419012896,46.50395220135425],[-0.803491860644163,46.50386275142816],[-0.803545595019404,46.503665608854796],[-0.803583374615211,46.50358402808717],[-0.803605199959845,46.50355256060295],[-0.803628542906052,46.50352600081884],[-0.803674364302646,46.503484809745515],[-0.803746314357002,46.503432652121674],[-0.803760463077687,46.5034258706633],[-0.803836495122537,46.50338917295811],[-0.804001063321239,46.503322843522604],[-0.80413897387417,46.50327299720017],[-0.804156939120825,46.50326852266636],[-0.804651642927984,46.503145585105116],[-0.804660113924079,46.503143500056765],[-0.804710867197332,46.50311873183288],[-0.80473860059707,46.50309896712243],[-0.80476321853966,46.50307011088626],[-0.804797169637897,46.503017865577206],[-0.804838303466244,46.503186247537876],[-0.804860636285629,46.50333217724348],[-0.804881472627431,46.5036324026883],[-0.804893274068422,46.503672396724205],[-0.804945243409654,46.50373981092862],[-0.804975252900011,46.50376198007928],[-0.80503738540397,46.50379732317163],[-0.805173843847748,46.50385939959896],[-0.805282746806085,46.50388957907498],[-0.805672174504274,46.50395467931052],[-0.805687627777418,46.5039572297216],[-0.8057731482662,46.503961052471396],[-0.805753346024525,46.503978479832526],[-0.805733184422588,46.50399636990658],[-0.804826460975723,46.50481321036907],[-0.804848595505062,46.504823561741915],[-0.805253842566686,46.504989825564316]]],[[[-0.801999558898518,46.500170942688655],[-0.802030649626494,46.50018433204378],[-0.802101784830201,46.500245880926265],[-0.802178961639782,46.50031543232557],[-0.802296040667325,46.50041800277682],[-0.802360408420368,46.500477973731925],[-0.802654365522338,46.500743056752846],[-0.802820701759449,46.50089293857261],[-0.802929858541541,46.50099045329396],[-0.803047365739274,46.50109724583541],[-0.803484044022555,46.50148982587704],[-0.803572956319119,46.50157034463283],[-0.803681378266273,46.501668514223525],[-0.803819756872682,46.50179372296614],[-0.804014960508204,46.501966171261095],[-0.80403202213457,46.501986157342294],[-0.80435202251347,46.50236035190143],[-0.804490783986187,46.502522778949434],[-0.804689117807524,46.502758677455844],[-0.804715516589944,46.50280206188355],[-0.804729617971782,46.5028338658882],[-0.804735057008066,46.50286875296443],[-0.804731530243692,46.50289303048247],[-0.80471264372193,46.50292917828759],[-0.804685512620408,46.502978131399864],[-0.804644762945523,46.503022760032195],[-0.804618208094343,46.50304257562828],[-0.804581576608686,46.50305830940314],[-0.804123041109946,46.503181304664125],[-0.804049686480401,46.50320772654549],[-0.803924904727409,46.50325488196427],[-0.803782896822588,46.503315231614636],[-0.803673595942305,46.50336908335886],[-0.803625900718125,46.50340213320645],[-0.803598127631876,46.50342694732054],[-0.803568535656991,46.50345001898248],[-0.803522114354056,46.50347139709183],[-0.803475738433954,46.50348781544835],[-0.803422088646288,46.50349915708168],[-0.803382145035677,46.50350111767489],[-0.803310769663233,46.503499797282814],[-0.803213372167457,46.50351097225073],[-0.803172479196798,46.50351990587822],[-0.803135602118477,46.50353213150876],[-0.803084783372003,46.50355410654069],[-0.802881005963992,46.503664740812425],[-0.802787478182089,46.50370517533811],[-0.802702948685559,46.503736115082475],[-0.802529410555288,46.503782457427576],[-0.802460354282395,46.50379566352673],[-0.802383010405323,46.503807973423],[-0.802245425045439,46.50381949320052],[-0.802152736543628,46.503787779722444],[-0.801959734195002,46.50326709801654],[-0.801772030151942,46.50275868039604],[-0.801741547796298,46.50267919117131],[-0.801662872149705,46.50253955304098],[-0.80165960498912,46.502533892180374],[-0.801571198530132,46.50240260104795],[-0.801533894610686,46.502346957878224],[-0.801264725568694,46.501943208879894],[-0.801160265014712,46.501783874207845],[-0.801046291059877,46.501609800982756],[-0.800956037489412,46.501476317164766],[-0.800878215435356,46.50136008903498],[-0.800793972662541,46.50123415800894],[-0.800766932461178,46.50115157914955],[-0.800769660703742,46.50107278798838],[-0.800817427372673,46.50095093978823],[-0.800881586079556,46.50077400589444],[-0.800898088853854,46.50074857569308],[-0.800928246036013,46.50070366974483],[-0.800957102015683,46.50066818260963],[-0.801007312226762,46.50062441254029],[-0.801220565600132,46.50048317584639],[-0.801524109988956,46.5002944909999],[-0.801635315035714,46.50023805360762],[-0.801822604850924,46.500175658816225],[-0.801876753852872,46.50016403076979],[-0.801924729494284,46.500157476184604],[-0.801964829159527,46.500159657702056],[-0.801982994324092,46.50016554401502],[-0.801999558898518,46.500170942688655]]],[[[-0.799489438512763,46.49809725659914],[-0.799531665625168,46.498133715074935],[-0.799737244497364,46.498307447553394],[-0.799769927854955,46.49832123525489],[-0.799882136267623,46.4983690689324],[-0.7999015369807,46.49837770908936],[-0.799959701521827,46.4984030898958],[-0.799978978291068,46.49841182431196],[-0.800080237596015,46.49845614553566],[-0.800088685919952,46.498457487236536],[-0.800267042681166,46.498476706693026],[-0.800358749008131,46.49848699850383],[-0.801067303706809,46.498565116912765],[-0.801112589754356,46.498570551826646],[-0.801229270796409,46.4986020085386],[-0.801333048762214,46.49863001800141],[-0.801425809738843,46.49865541899103],[-0.801434361591994,46.49866198581835],[-0.801528891863199,46.49873519722347],[-0.80184226695323,46.498977549266705],[-0.801868271164916,46.49899850015375],[-0.801910839536227,46.49903233213134],[-0.801943586562984,46.49905450102529],[-0.802130272928209,46.49917621090145],[-0.802203086083477,46.49921318319333],[-0.802327625972567,46.499273044862264],[-0.802402025843515,46.49930843169022],[-0.802576317414973,46.499394673882485],[-0.802721129079693,46.49947937279682],[-0.802737605709093,46.49949847701271],[-0.802808654604783,46.49957562419819],[-0.802936791689861,46.49971505770198],[-0.803053307759934,46.49984135545543],[-0.803160319539834,46.499956790920656],[-0.803209753445899,46.50001040713287],[-0.803244661045744,46.50004855038757],[-0.803256127449372,46.50006133054425],[-0.803366586157803,46.50018124873142],[-0.803372334282889,46.50018691711151],[-0.803409897105213,46.50021821072136],[-0.803490943617461,46.50028519843874],[-0.803539522647119,46.500324689505035],[-0.803615318778832,46.50038752474362],[-0.803557441881109,46.50042055300785],[-0.803402583229954,46.50050990763507],[-0.803629018887763,46.500649223556614],[-0.803770824252362,46.50073753719893],[-0.803807952808119,46.500760731692544],[-0.804564371780911,46.501114355942306],[-0.804145645303927,46.501487543621785],[-0.804424821726973,46.50175762208958],[-0.804098760582493,46.501956620149365],[-0.80393357422566,46.501810217542086],[-0.803160439090851,46.501108717517326],[-0.803105320505104,46.501059707800074],[-0.802877032314897,46.50085644635132],[-0.80283776671586,46.500821332809245],[-0.802792889562426,46.500780636450855],[-0.80265994072208,46.50066020412305],[-0.802493619760425,46.50051239503162],[-0.802246019147424,46.50029048317681],[-0.802155990461951,46.50021261499078],[-0.802127055902512,46.50018148462269],[-0.802065732925045,46.500135205104],[-0.802013062488979,46.500111896199805],[-0.801942134151978,46.500105692155266],[-0.801883447115714,46.50011215241751],[-0.801787145901767,46.50012960035227],[-0.80169378201864,46.50015921079558],[-0.8016012261438,46.50019104801123],[-0.801593651575824,46.500189136444284],[-0.801471028811825,46.50025406712301],[-0.801273420838728,46.5003818924706],[-0.801134597586143,46.50047098087471],[-0.800953432329474,46.50058563768715],[-0.800899018324557,46.50062341741508],[-0.800852595530274,46.500687795805746],[-0.800804807192253,46.500758800502695],[-0.800773937755549,46.50084402688128],[-0.800758220430424,46.50089007514298],[-0.800710624346846,46.50102372721134],[-0.800696674153483,46.501061422936],[-0.800690999785813,46.50110921055525],[-0.800694980531005,46.50117001912051],[-0.800706237048891,46.501207868026285],[-0.800724409005957,46.50125314959662],[-0.80074002671124,46.50128427252698],[-0.800781110807605,46.50134546958183],[-0.800847984464049,46.50144511388019],[-0.80104076556086,46.501734571246836],[-0.801110659282251,46.501840064810935],[-0.801235654570456,46.50202801493994],[-0.801279062228344,46.50209256022319],[-0.801477250637829,46.50239770337982],[-0.801523155530883,46.502466222227255],[-0.799568505940901,46.502580187234656],[-0.799541160102713,46.50254188160907],[-0.799293141486235,46.50221657620408],[-0.799248155725294,46.50215370540224],[-0.799106308394006,46.50196550229242],[-0.7990274331266,46.50185471699529],[-0.798942053466444,46.50172179088879],[-0.798943017308964,46.501716890782745],[-0.798971208902266,46.501572616131696],[-0.798987552630543,46.501499953314486],[-0.799003576003715,46.50143018592079],[-0.799043143173319,46.50125434136248],[-0.799142256723965,46.50079227616751],[-0.799173078322194,46.50065765008722],[-0.799172567425023,46.50064657871084],[-0.799177388440664,46.500640829154044],[-0.799357361071753,46.5004303862249],[-0.799463571806494,46.500296678834616],[-0.799492993408478,46.500261804327565],[-0.799497659023308,46.50025569932494],[-0.799527016394681,46.50021803231422],[-0.799562324428151,46.50017584024358],[-0.798721616498636,46.499786583136405],[-0.798338517025943,46.49960757185041],[-0.798371694642414,46.499544175755],[-0.798450033684415,46.499394537957535],[-0.798486393854784,46.49932436496778],[-0.798504763714759,46.49929012857616],[-0.79852874080827,46.49924831352413],[-0.798561380173922,46.49917907554586],[-0.79862147978429,46.49904870487596],[-0.798652609566966,46.498976542122946],[-0.798663680288811,46.4989518337466],[-0.798669785340976,46.49893828867652],[-0.798675212138907,46.4989299948152],[-0.798682059057204,46.49892147344016],[-0.798696702204501,46.49890494002251],[-0.798753282200485,46.49878775792322],[-0.798763145920101,46.49876633503878],[-0.798909563276027,46.49863264351174],[-0.799016486519931,46.49853353006591],[-0.799397322784345,46.49818217544588],[-0.799489438512763,46.49809725659914]]]]}}]}
