{"type": "FeatureCollection","name": "aoc_geojson","features": [{"type":"Feature","properties":{"dt":"Angers","type_prod":"Vins","categorie":"Vin tranquille","type_denom":"appellation","signe":"AOC","id_app":1028,"app":"Fiefs Vendéens","id_denom":2342,"denom":"Fiefs Vendéens Mareuil","insee":"85213","cvi":"1B710S, 1R710S, 1S710S","nomcom":"RIVES DE L'YON","insee2011":"85043,85213","nomcom2011":"CHAILLE-SOUS-LES-ORMEAUX,SAINT-FLORENT-DES-BOIS","id_aire":1687,"crinao":null,"grp_name1":null,"grp_name2":null},"geometry":{"type":"MultiPolygon","coordinates":[[[[-1.380032579089597,46.58260066375657],[-1.37992119302162,46.58264839605514],[-1.379623615758197,46.58279758682473],[-1.379644796707622,46.58281048368901],[-1.379823377888842,46.58310665969271],[-1.379892777877034,46.58323269297571],[-1.379929973404614,46.583299897725674],[-1.380040938873195,46.583469430792285],[-1.380109861299593,46.58360576303995],[-1.380129751852394,46.583652978515126],[-1.380147382471606,46.583694869571545],[-1.380123766217892,46.583702086497055],[-1.380080757284729,46.58371049678199],[-1.380064204142123,46.583716090547505],[-1.380048288491077,46.58372147953961],[-1.379981916516945,46.58374349994006],[-1.379924771450022,46.58364783987615],[-1.379913217473831,46.58363755051102],[-1.379895078162358,46.58363644130367],[-1.379885957681829,46.5836385039316],[-1.379877474695261,46.58364036178873],[-1.37984606303087,46.58366284735368],[-1.379827466629624,46.583677176808045],[-1.37980209668896,46.583696725595146],[-1.379770663090183,46.5837221879923],[-1.379719495568637,46.583764097553484],[-1.379704398363415,46.583771529356966],[-1.37969521261655,46.58377440610765],[-1.379666764322138,46.58378334101277],[-1.37959525609979,46.58380330324578],[-1.379536910279955,46.583827541233184],[-1.37829673255887,46.58278822299585],[-1.378341041390459,46.58272935175039],[-1.378375527123432,46.58267193860978],[-1.37840042781813,46.58263031344815],[-1.378431406148537,46.582589447683915],[-1.37846734704234,46.58254198904411],[-1.378476330332604,46.58253172519066],[-1.378493231937027,46.58251259097365],[-1.378508352592999,46.582477833204635],[-1.378522117066374,46.58246522198626],[-1.378534287762762,46.582453934315176],[-1.378574421851581,46.582419571939624],[-1.378615888872188,46.582383895980726],[-1.378631616525184,46.58236967651156],[-1.378686348123143,46.58232005568649],[-1.378686740375943,46.58230380786758],[-1.378686813079146,46.58229983706573],[-1.378695225021462,46.58227435425799],[-1.378738235475898,46.582228608942266],[-1.378786128462064,46.58218015162564],[-1.378882680216753,46.582112246301456],[-1.378918488902195,46.58208264863914],[-1.379002996215916,46.58197236763041],[-1.379011400427095,46.58195166474708],[-1.379369792423496,46.58184307422127],[-1.380296481641659,46.582517331739325],[-1.380186255844859,46.582543736854035],[-1.38013422878392,46.58255871505358],[-1.380032579089597,46.58260066375657]]],[[[-1.377095525331224,46.57581945432724],[-1.37700561956644,46.57601209688033],[-1.376960058283719,46.576105735930334],[-1.376849823379733,46.57633667198044],[-1.376785779448584,46.5764769208747],[-1.376730574642901,46.57659049831349],[-1.376689945757956,46.576677184824455],[-1.376493781924257,46.57663499956734],[-1.376465633933577,46.57664274995427],[-1.376444025167576,46.57666350693967],[-1.376352342484563,46.576777217178794],[-1.376296547630688,46.57684446327914],[-1.376167150840367,46.57700308397139],[-1.376105679979349,46.576978651451775],[-1.375998498159207,46.57694361258685],[-1.375947748682669,46.57703294048212],[-1.375902185298612,46.57712170923373],[-1.375847928742716,46.577219467985145],[-1.375808906521613,46.577301763898504],[-1.375784169718157,46.577369805660084],[-1.375742052562927,46.577467280347236],[-1.37571567265209,46.57752465326122],[-1.375689589412526,46.577584089007786],[-1.375655523548255,46.577646715915286],[-1.375599202621722,46.57773670761929],[-1.375503436899836,46.57792001343536],[-1.375156441792157,46.57786763260015],[-1.374852001229549,46.57782237097358],[-1.374719993656588,46.57780063525222],[-1.374734909325149,46.57773729811028],[-1.37474825993471,46.57767726737153],[-1.374759633106563,46.57761704170602],[-1.374761434011708,46.577584146554045],[-1.374765718483935,46.57755773971539],[-1.374894894851248,46.57730200313713],[-1.375002790555973,46.57709063820385],[-1.37511260495466,46.576878748834396],[-1.375182303349425,46.57673882589538],[-1.375111495285871,46.576725120935045],[-1.375045757570285,46.576711041647584],[-1.374998018960575,46.57669961067697],[-1.375009132910023,46.576678443729264],[-1.374989446587677,46.57667270353224],[-1.374975997628939,46.576659961122665],[-1.374968089880321,46.57664619514718],[-1.374987569500742,46.57657294371575],[-1.374998584803864,46.57653103865243],[-1.375021309769545,46.57645423616899],[-1.375041716142113,46.57638275291823],[-1.375055696709067,46.57631918090574],[-1.375071292825959,46.5762529318185],[-1.375098256882893,46.576160546031325],[-1.37512334982532,46.57608554676793],[-1.375129995043916,46.57606085324772],[-1.375154354549549,46.575999499527924],[-1.375184371466301,46.57593369085617],[-1.375228529386421,46.57584858341902],[-1.375246960312937,46.57581433070767],[-1.375294928508538,46.57572456839054],[-1.375342128544379,46.575636639070495],[-1.375408606697976,46.57551361293216],[-1.375444982525815,46.57544720020624],[-1.376176013582948,46.575612856845645],[-1.377095525331224,46.57581945432724]]],[[[-1.373852577154087,46.57635554001767],[-1.373882624961436,46.57633563324436],[-1.373940620253475,46.57629409633933],[-1.374011460762395,46.576231777271445],[-1.374118162273723,46.576119388576586],[-1.37421212059615,46.57602092418317],[-1.374284568821491,46.5759558379771],[-1.374350599246595,46.57589225968707],[-1.374752946077996,46.57600700582935],[-1.37501647062869,46.57608025559807],[-1.374994225242361,46.576146758987214],[-1.374958607229254,46.576279516582666],[-1.374934502864557,46.57637981916263],[-1.374904296689027,46.576501818439446],[-1.374848660544411,46.576668618761126],[-1.374784367746216,46.57683998865834],[-1.3747221637791,46.576988552726945],[-1.374694831947268,46.577061743649494],[-1.37467363671879,46.577123427121755],[-1.374373538220924,46.57708656563666],[-1.374154657531166,46.57705949384081],[-1.374049639457353,46.577044841783035],[-1.373778478618155,46.577008405370655],[-1.373532226568322,46.576979222569726],[-1.373429294807283,46.5771873299448],[-1.373386717644832,46.57728238628581],[-1.373327542378754,46.577398728836506],[-1.373272004145399,46.577508258833355],[-1.373262787777152,46.57752538502487],[-1.373090193567858,46.57748193213566],[-1.372943037783159,46.57744093347807],[-1.372872368383882,46.57741919562542],[-1.372806211771627,46.5773966539522],[-1.37273681072335,46.57737117007556],[-1.372665309483162,46.57734396279925],[-1.372606245054491,46.57731691136805],[-1.372536722212318,46.57728502911404],[-1.372499378800642,46.57726787902623],[-1.372570713097933,46.57721492102211],[-1.372632470246564,46.57716972397101],[-1.372674088076676,46.57714080800605],[-1.372716168420197,46.577117645990306],[-1.372757488130692,46.57709478357926],[-1.372796490161739,46.57707074719998],[-1.372819280560928,46.577053282527565],[-1.372842628603086,46.577036247443125],[-1.372853944989363,46.57702246792435],[-1.372878308257958,46.576998540192534],[-1.3730215935178,46.57687753963477],[-1.373171383456899,46.576751240007624],[-1.373247368046392,46.57668944627414],[-1.373274888730831,46.576667381739384],[-1.373327103465079,46.57663364146199],[-1.373379194452544,46.57660324262378],[-1.373430589852747,46.576573952537395],[-1.373491705499625,46.57654519261696],[-1.373530481153867,46.576528108628914],[-1.373568067358008,46.5765206293986],[-1.373589204174277,46.576513508526375],[-1.373629875553559,46.576508616779385],[-1.373656487479727,46.57650615639015],[-1.373702958767039,46.57651321743853],[-1.373719362144422,46.576483010554725],[-1.37373283756002,46.576463557098535],[-1.373750816845524,46.57645294964007],[-1.373784529286583,46.576436329697316],[-1.373829888494519,46.57642142879296],[-1.373838335425542,46.576412628706805],[-1.37385299065879,46.57639809013567],[-1.373863003126575,46.57638273708002],[-1.373864113478363,46.57636889677064],[-1.373852577154087,46.57635554001767]]],[[[-1.373441262509258,46.58505750149796],[-1.373528604036626,46.58503432273159],[-1.373853321534022,46.585285691409126],[-1.374246787728254,46.58561117564853],[-1.374381611077978,46.58572785668779],[-1.374391020428779,46.58573588385111],[-1.374456812478031,46.58579929133592],[-1.374502522491207,46.58586671317071],[-1.374659767238296,46.58614829103882],[-1.374835635526163,46.58651014000589],[-1.374769746186932,46.586512208501325],[-1.374691201263188,46.58650980085148],[-1.374591177037986,46.586502172223796],[-1.374181288445613,46.58645399482244],[-1.374099680768016,46.5864411525835],[-1.373937660840123,46.58641569278065],[-1.373633646811052,46.58635516916061],[-1.373389486356455,46.58630209652956],[-1.373056184586881,46.586238452388876],[-1.373000193532067,46.58622859827193],[-1.37280433010075,46.586193788993725],[-1.372637972403778,46.5861664190088],[-1.372611292386152,46.586158330305956],[-1.372572406088206,46.58614646954844],[-1.372446872172141,46.586114382736376],[-1.372318747210034,46.58606958899674],[-1.372225665498829,46.58601651196274],[-1.372193144360262,46.58598132130503],[-1.372187619323066,46.585967914992516],[-1.372170848475039,46.58592851516971],[-1.372139276758894,46.585814018435386],[-1.372129460652024,46.58573584521949],[-1.37212209382489,46.58569301984521],[-1.372683971729235,46.585528157757075],[-1.372779841793436,46.585500415106175],[-1.372875465417553,46.585472862153935],[-1.373072841719634,46.58541427518415],[-1.373070799797321,46.585408401229856],[-1.373097589325408,46.58540972199116],[-1.37313387936219,46.585392553056366],[-1.373228829742126,46.58535988516217],[-1.373224740641591,46.585118714813746],[-1.373373110988792,46.585081840469755],[-1.373371329844604,46.58507595655132],[-1.373441262509258,46.58505750149796]]],[[[-1.372093488628722,46.58672020112322],[-1.37175234782309,46.58657857495684],[-1.371743903068973,46.58656627218828],[-1.371817142764336,46.586429463595145],[-1.371917660794776,46.586238224986566],[-1.372013989590099,46.58605345906181],[-1.372022979146318,46.58605789517883],[-1.372142959037055,46.58607459323568],[-1.372239313435169,46.58609841655745],[-1.372359918767359,46.586142415573136],[-1.372423418784962,46.58617083102481],[-1.372464390323062,46.58618910523042],[-1.372486230718412,46.5861988218311],[-1.372635511871829,46.58623342794366],[-1.372763149620997,46.58625100506651],[-1.372860006212434,46.58626479851253],[-1.372920511023506,46.58627222563452],[-1.37293425355044,46.58627395493156],[-1.372994417225075,46.58628527287218],[-1.37307010543904,46.586299334133535],[-1.373394563005768,46.58635709376753],[-1.373462463708786,46.58637028008797],[-1.373519722602487,46.58638125788741],[-1.373763689589961,46.58642378637541],[-1.373838784280658,46.58643696801374],[-1.373929678875086,46.58645306267915],[-1.374144749014616,46.586489209984485],[-1.374285130170726,46.58651234044329],[-1.374344084848183,46.5865216297342],[-1.374552454847589,46.58655415463724],[-1.374674877640652,46.58657355234757],[-1.374679687160266,46.58657968118669],[-1.37463989262231,46.58678744880936],[-1.374570890565853,46.58707605394703],[-1.374555523081556,46.58713868666687],[-1.374405603899959,46.587131973521934],[-1.374243738219816,46.5871263481896],[-1.374180514765581,46.587124166028715],[-1.374076909616111,46.587555047904964],[-1.374076924078303,46.58755522771581],[-1.373948587787692,46.588007165387054],[-1.373907735056042,46.58800502965728],[-1.373797835012847,46.58798848904069],[-1.373731272167053,46.58797732588377],[-1.373699861359093,46.58796247423708],[-1.373643932710012,46.58791275760885],[-1.373610254711621,46.58789573805896],[-1.373581336153197,46.58788097147873],[-1.373521107353241,46.58785748172031],[-1.373492506704184,46.587848294240594],[-1.373466463303266,46.58784000100526],[-1.37335713675923,46.587819199516],[-1.373326985215726,46.58781349818612],[-1.373216289113706,46.587795183824],[-1.373184608879999,46.587789991796505],[-1.373109643160839,46.587775181465545],[-1.373017384988279,46.58775679346811],[-1.372999570874469,46.587753235784675],[-1.372855929181523,46.587717242091074],[-1.372824017415477,46.587710796270734],[-1.373124650116959,46.58698254101656],[-1.373044390687877,46.58696207120116],[-1.372611921969402,46.5868543293464],[-1.372571745307843,46.586844321521475],[-1.372181035161173,46.5867418360193],[-1.372169538606537,46.58673875825686],[-1.372096634583375,46.586710521640164],[-1.372093488628722,46.58672020112322]]],[[[-1.371609219474454,46.59464772710037],[-1.371833242367876,46.5945198582332],[-1.371879522134219,46.594584553938866],[-1.371947245665923,46.594667007759305],[-1.371953566974368,46.59468868037744],[-1.371976686145135,46.59473541297035],[-1.372017173527832,46.5947801292556],[-1.372074453731114,46.59487750125816],[-1.372136014588411,46.594984178754395],[-1.372159526217426,46.59502602651633],[-1.372184473742939,46.59506132633547],[-1.372210328538094,46.59508838495787],[-1.372277499244059,46.5951493063329],[-1.3723571305405,46.595222016264465],[-1.372395577560001,46.59525436533375],[-1.372470765580014,46.59529784576084],[-1.372547815759459,46.59538237781331],[-1.372647780333567,46.59548993236051],[-1.3726519805205,46.59550311874678],[-1.372668995936197,46.595612219611674],[-1.372672954969029,46.595637048643574],[-1.372699084444019,46.59567077011754],[-1.372716231117811,46.59569365231555],[-1.372720791977083,46.595716203808394],[-1.372728141510783,46.595744149819744],[-1.372733089659411,46.595789412285995],[-1.37276240130839,46.59585782226367],[-1.372780539855018,46.595927200278545],[-1.372802150168279,46.59599094454599],[-1.372805773306491,46.59603111728882],[-1.372813437533014,46.59612479368519],[-1.372827604942079,46.5962391437158],[-1.372839428303777,46.596374776001035],[-1.372861671381215,46.59650982975411],[-1.372885366462828,46.59667107087319],[-1.372914064614149,46.596855477847555],[-1.372930821765536,46.59699714411777],[-1.372947059223606,46.59716976254222],[-1.372912259658919,46.59719580210133],[-1.372892103109543,46.59718593090573],[-1.372870055219985,46.59717694361413],[-1.372827290686853,46.59717064175993],[-1.372591306106135,46.59716126192279],[-1.372561097406622,46.59716304746413],[-1.372524543965963,46.59719005572971],[-1.372498247215408,46.59719656158686],[-1.37245293803992,46.597197661531816],[-1.372348226211969,46.59720030966827],[-1.372321492305462,46.59718022861842],[-1.372298330284514,46.597162265630146],[-1.372271603644489,46.597142274473846],[-1.372240746104478,46.59712622876764],[-1.372202983430899,46.59710891378896],[-1.372165936775024,46.59709887615022],[-1.372116745877871,46.59708912211898],[-1.372053461250086,46.59708143961065],[-1.371990307068062,46.597073752084356],[-1.371951339275638,46.59706910848755],[-1.371780441008858,46.59708330286622],[-1.371767227556529,46.597067033889154],[-1.371750559503944,46.597041968912166],[-1.371751110450572,46.59700325997777],[-1.37155651428393,46.596963528972694],[-1.371512712268977,46.59696547279275],[-1.37150330573184,46.59697214483629],[-1.371409845832093,46.59694550420823],[-1.371298339713157,46.59693849097409],[-1.371197370674863,46.59692422134251],[-1.371071518594778,46.59691288607402],[-1.371007981365005,46.59690205629709],[-1.370870031247393,46.59687855750035],[-1.37073632719664,46.59685579818279],[-1.370451196462659,46.596807889777146],[-1.370340443339001,46.596805355941285],[-1.370352978364988,46.59677412534001],[-1.370369748771646,46.59672559850434],[-1.370389928256891,46.59666088916588],[-1.370402089585955,46.59661524379173],[-1.37040641890051,46.596599116328555],[-1.370413123600823,46.59655557315822],[-1.370414714870897,46.596502124950206],[-1.370412854402079,46.59646107324961],[-1.370400205379287,46.59641763795261],[-1.370385815700452,46.59638184437668],[-1.370358771380087,46.59632858797961],[-1.370324100219238,46.596261825086714],[-1.370273950681931,46.59616850868767],[-1.370244668020879,46.59611344394184],[-1.370213773712765,46.59607250904888],[-1.370190051051554,46.596039416598316],[-1.370203010507193,46.59602160683607],[-1.370216981572403,46.596016383845104],[-1.370231040425033,46.59600736987772],[-1.370236216967816,46.595993644963215],[-1.370272532179326,46.595898559514694],[-1.370277874124727,46.59585759347293],[-1.370292202076659,46.59584378960012],[-1.370306397092707,46.59584135366915],[-1.370342039253101,46.59570859802955],[-1.370360383904651,46.595682917148785],[-1.370375090033996,46.59566242538905],[-1.370389745924867,46.595639681008294],[-1.37039121292736,46.59559119751889],[-1.370475737873243,46.59540904922673],[-1.370538173309454,46.59527923816101],[-1.370794523590052,46.59512055729684],[-1.370950550504154,46.59502396518567],[-1.371036016601505,46.59497236328484],[-1.371223483411873,46.59486654366224],[-1.37141033351955,46.594761198169515],[-1.371609219474454,46.59464772710037]]],[[[-1.361964058050174,46.57985887545911],[-1.362106041004649,46.57997565726724],[-1.362299154273662,46.580141261279934],[-1.362379389002018,46.58021052711847],[-1.362508156983973,46.58031906482526],[-1.362642394014762,46.58042892692568],[-1.362530485436348,46.58050939764163],[-1.362349111072387,46.58064346953398],[-1.362101827657562,46.58082821099312],[-1.361861883521016,46.58100500661671],[-1.361650659406768,46.58116321155822],[-1.361587696553682,46.581200061247536],[-1.36149698112513,46.58125943206669],[-1.361445103162528,46.58129098928318],[-1.361425902483837,46.581302723385036],[-1.361313150589171,46.58136293414706],[-1.361234073911915,46.58140761241264],[-1.361167808084331,46.58144242341479],[-1.361055099501055,46.58150155007429],[-1.360940738195165,46.5815629039605],[-1.360698189263116,46.58167793189196],[-1.360518736665675,46.581767558174704],[-1.360498607099182,46.581764447626924],[-1.360479137354753,46.58175977884778],[-1.360457396538687,46.581746358877616],[-1.360371325124687,46.581654859083606],[-1.360317926639307,46.58168214500796],[-1.36030313402267,46.58166566457653],[-1.360237133961999,46.58170380157513],[-1.360166788940268,46.58173831652165],[-1.36009522506893,46.581777206565704],[-1.360035913432509,46.58180904639859],[-1.359857980114252,46.581899695857444],[-1.359815484343049,46.58192431150557],[-1.359725452623486,46.581969406130376],[-1.359661758105431,46.58201836681375],[-1.359644469441494,46.58202948664239],[-1.359590749996685,46.58204298672782],[-1.359561988077692,46.58205129723425],[-1.359536607805985,46.58206263520758],[-1.35933356665421,46.58218436101262],[-1.35916867988575,46.58228605534117],[-1.359135671829688,46.58226260344255],[-1.359063011973396,46.58228620377089],[-1.359009781411939,46.58230744050743],[-1.358970371852311,46.582329773879565],[-1.358670784747779,46.582508383666685],[-1.358648011257244,46.582521245370195],[-1.358594434607907,46.582554489153424],[-1.358540468126614,46.58258450124528],[-1.358495623414906,46.58261082910293],[-1.358410936357647,46.58265409573122],[-1.358332552052883,46.58269604001439],[-1.358263195836386,46.582733131268945],[-1.358205229979845,46.58276383662875],[-1.358201732367881,46.58276099389605],[-1.35794366159076,46.582927288516416],[-1.357622825368636,46.583128077575275],[-1.357495001234596,46.58321248573047],[-1.357475740661943,46.583225123197565],[-1.357443350212688,46.583197949881736],[-1.357371071507061,46.58312837767884],[-1.357352234380066,46.5831022212145],[-1.35733074762892,46.5830723780647],[-1.357126043939338,46.58294814948539],[-1.357018181716133,46.58288173588286],[-1.356915216396649,46.58281603750855],[-1.356784259262681,46.582737246636135],[-1.356705741185388,46.58269099796867],[-1.356655862284975,46.58265285710249],[-1.356614899171211,46.58261825447746],[-1.356607093724125,46.58261061579647],[-1.356575980747661,46.58257978638184],[-1.356546014854617,46.58254368278984],[-1.356530438187252,46.582517402052325],[-1.356516699921628,46.58249447817979],[-1.356521771383855,46.58247778196483],[-1.356539022227412,46.58245638346139],[-1.356557301040845,46.5824363887033],[-1.356611448507796,46.58240862521056],[-1.356688485810325,46.582367815603625],[-1.356811123750123,46.58231174224129],[-1.356972164290585,46.58225014808853],[-1.357172718968956,46.58217568599024],[-1.357300076220282,46.58210996333359],[-1.357441171375446,46.58203614207711],[-1.357524379961351,46.58199401463773],[-1.357599950648263,46.581957769273984],[-1.357686418813813,46.58191551755117],[-1.357755287363933,46.58188214260944],[-1.357834290444003,46.5818479306781],[-1.357944666226489,46.58179881612029],[-1.358102099810275,46.58172978246343],[-1.358257964667794,46.581652601866686],[-1.358314193901793,46.58163125122642],[-1.358370862558339,46.58161538485625],[-1.358436394906603,46.581589351049004],[-1.358478939443735,46.58158655786644],[-1.358518106066121,46.58158894349456],[-1.358601126229763,46.581593445965524],[-1.358685797570284,46.581598967640254],[-1.358749600399386,46.58160194764365],[-1.358794630284751,46.58159752657516],[-1.358830872062547,46.581596055569726],[-1.358868341295755,46.581587052761506],[-1.358950555637187,46.5815619161273],[-1.358977896100115,46.58155708680623],[-1.359001045615107,46.58152770756181],[-1.359087335332137,46.5814750906911],[-1.359264352720313,46.58137464758553],[-1.359310277258814,46.58134385934963],[-1.359351287375113,46.58132029248048],[-1.359441722554017,46.58127860962089],[-1.359493203286434,46.58124697831168],[-1.359532438898115,46.581222487],[-1.359624634621688,46.58116197923235],[-1.359683636589546,46.58112465034624],[-1.359767761317086,46.58108419967807],[-1.359799133190824,46.581069296596176],[-1.359896414256718,46.58100697152764],[-1.360034013313977,46.58092877100014],[-1.360073551813476,46.58090643228646],[-1.36025817597648,46.58081282189258],[-1.3603445170784,46.58077066302944],[-1.360464560134256,46.58070025537831],[-1.360591174106743,46.580626981874616],[-1.360765056620398,46.580526655712944],[-1.360926034001733,46.58043502768715],[-1.360966011495081,46.58041817295246],[-1.361002906278943,46.580411806551375],[-1.361031644451816,46.58042441857592],[-1.361069339007881,46.58044760109028],[-1.361403688531467,46.58020038377475],[-1.361609083572516,46.58004781225602],[-1.36173503901697,46.5799647327155],[-1.361875275481291,46.57987055730471],[-1.361917558939011,46.57986452621585],[-1.361964058050174,46.57985887545911]]],[[[-1.361107728908324,46.579298491860506],[-1.361293803038231,46.57938942514733],[-1.36149078453654,46.57948589426796],[-1.361529522970992,46.57950579029572],[-1.361772685705865,46.57969212239723],[-1.361860969301987,46.57979327637088],[-1.361860983619642,46.579813025515236],[-1.361844042178894,46.579828461184675],[-1.361752035569845,46.57989942474663],[-1.361585944524018,46.58001695066473],[-1.361405874603721,46.58014772479389],[-1.36123612928812,46.58027025924101],[-1.361089858907517,46.58037728916506],[-1.361061390242441,46.58037945659406],[-1.361041831272776,46.580381825459135],[-1.361023882757173,46.58037818097209],[-1.360989227921968,46.58036191670122],[-1.360964585061406,46.58036123283046],[-1.360932388330587,46.580375626617766],[-1.360824541496259,46.580436641974984],[-1.360626250429673,46.58054899090751],[-1.360474307078776,46.580635855265385],[-1.360445412390641,46.58065228739171],[-1.360397578436491,46.58067882021675],[-1.360230855739307,46.58076895296622],[-1.360202657418136,46.580782653051116],[-1.360009956277181,46.58087666136221],[-1.35983632348909,46.5809801330959],[-1.359632511230305,46.58110360246294],[-1.359387158580873,46.581252191614645],[-1.359325885397846,46.58128076913617],[-1.359291650498936,46.58129911787186],[-1.35923030410776,46.58134636560315],[-1.359092040623204,46.58141467047765],[-1.358974764742325,46.581477215550215],[-1.358936823079262,46.58149011418115],[-1.358911760667258,46.58150378461775],[-1.358883297359256,46.58152561073647],[-1.35880686211553,46.581554314740536],[-1.358770482767916,46.581555700799825],[-1.358640479734441,46.581549200855314],[-1.358483564853505,46.58154471803271],[-1.358450615888958,46.5815203619005],[-1.358418713902115,46.58153681786016],[-1.358348890225481,46.58156968853614],[-1.358129625582979,46.58166686975019],[-1.357922690543424,46.581761236144075],[-1.357803198818871,46.581817371311956],[-1.357702814158148,46.58186222738097],[-1.357552601718292,46.58193161667325],[-1.357441615082624,46.58198454169295],[-1.357352930677048,46.582025254373065],[-1.35729552413809,46.58205314237487],[-1.357270280989447,46.582064564786215],[-1.357241996794491,46.58208863815917],[-1.357197151863317,46.5821149655109],[-1.357112850776483,46.582153256524414],[-1.357020906009786,46.58219409309719],[-1.356989179821187,46.58220458999146],[-1.356861809468296,46.58225056316561],[-1.356677471060332,46.58232990819149],[-1.356468454958146,46.58241794816245],[-1.356464628777682,46.58242079928584],[-1.356425581750175,46.582379089533745],[-1.356369006936839,46.58234715546719],[-1.356326342223811,46.58228150515662],[-1.356179945721611,46.58203114635371],[-1.356169776412434,46.58201358758348],[-1.356024189525264,46.58178475101412],[-1.356022685101332,46.581734938296485],[-1.356049567266319,46.58170478632364],[-1.356026508785878,46.581647136936986],[-1.356064135205139,46.58162866009256],[-1.356125719339813,46.5816055735895],[-1.356194683817323,46.58158482127152],[-1.35629181605396,46.58155650331184],[-1.356575600380872,46.581498983242895],[-1.356916505956898,46.58143288422092],[-1.356945484012779,46.58142727157631],[-1.356841370088626,46.58119045363665],[-1.357006884956448,46.58114230621285],[-1.357308782512745,46.58105460520706],[-1.357588076826356,46.58097046975649],[-1.357695430208624,46.581130149212484],[-1.357772336331764,46.58124607825802],[-1.357841855143155,46.581359583230984],[-1.357963694526645,46.5814617163149],[-1.35809926383562,46.58137935708233],[-1.358141932852422,46.5813568998254],[-1.358273731192056,46.58131562618393],[-1.358143073213707,46.581154039373246],[-1.358090622220683,46.58108542576921],[-1.358047899513426,46.58101743354649],[-1.358025370802322,46.58098600696673],[-1.358298073380646,46.58084900422957],[-1.35870991944314,46.58064654875414],[-1.35884135656935,46.580581209799135],[-1.358860049920516,46.580587621857696],[-1.359601760556582,46.58021901576885],[-1.359792063483457,46.580104898900736],[-1.360029156724546,46.57996266552827],[-1.360307661548059,46.57980027591721],[-1.360240914334276,46.579739332431444],[-1.360605934297497,46.57948806260337],[-1.360580502223495,46.579469372516186],[-1.360953771723205,46.57921174484574],[-1.361107728908324,46.579298491860506]]],[[[-1.355124738999638,46.58475257448313],[-1.355058214731938,46.58479568808724],[-1.355024076160958,46.584816917511795],[-1.354965871810379,46.584852860624935],[-1.354931633195813,46.58487120804441],[-1.354822562771356,46.58492856626672],[-1.354717910097495,46.58495942346478],[-1.354586652290108,46.58499778619118],[-1.354422099770113,46.5850352516074],[-1.354069490577617,46.58511558522038],[-1.354079227832507,46.58509997412604],[-1.354279790343173,46.58492577757205],[-1.35435698668348,46.58483951264432],[-1.354439351713146,46.584745926660936],[-1.354503166759697,46.5846608021668],[-1.35454560997936,46.584606070326245],[-1.354572406586668,46.58456338694255],[-1.354600637545488,46.584520648957216],[-1.354687748904822,46.5844226436098],[-1.354770409527041,46.58432949698765],[-1.354841311397965,46.58425285004252],[-1.35521960076259,46.58469909351008],[-1.35518036790478,46.584723673234166],[-1.355124738999638,46.58475257448313]]],[[[-1.354382574753334,46.58608050687337],[-1.353822817850393,46.58567453316012],[-1.353456560937115,46.58538834897793],[-1.353602154530547,46.58534114549384],[-1.353745925193124,46.58530221762021],[-1.35386818324919,46.585270691396715],[-1.354040252273707,46.5852274397526],[-1.354239400415114,46.585184239439805],[-1.35433848557207,46.58516225194329],[-1.354508347888916,46.58514045637243],[-1.354571456378952,46.58513471775146],[-1.354599927788927,46.58513255193786],[-1.354631581457076,46.585140725955846],[-1.35473372015401,46.58522548600435],[-1.355043033349242,46.585484885871296],[-1.355231175061209,46.58563581097247],[-1.354787633141619,46.585884097663374],[-1.35468116468741,46.58593477343121],[-1.354608484788639,46.58598434345157],[-1.354556069766445,46.58600112800653],[-1.354382574753334,46.58608050687337]]],[[[-1.35314927339546,46.58389095893542],[-1.35312491078848,46.58375652480945],[-1.353112130173654,46.583665477775625],[-1.353079163932888,46.583513425058776],[-1.3531642843571,46.58345589756507],[-1.353198968833676,46.58344312489139],[-1.353301884854879,46.58341837717731],[-1.353548742073259,46.58336506582113],[-1.353910559477433,46.583290425057406],[-1.354345394792301,46.58320479762393],[-1.354364475004332,46.58320623576465],[-1.354377385606905,46.58321719733231],[-1.354411494039603,46.583267482510614],[-1.354545157134898,46.58347648413723],[-1.354635470978896,46.58363086285483],[-1.354728110097243,46.58384368029226],[-1.354758080043733,46.583899443573515],[-1.354799938967999,46.58399587671895],[-1.354774482161241,46.58402588388108],[-1.35482903387233,46.58412075172099],[-1.354716837146617,46.58427463207683],[-1.354593813349476,46.584435417397984],[-1.354527225985127,46.584516950070125],[-1.354469309020467,46.58458588812498],[-1.354421871234596,46.58464685213269],[-1.354377653480449,46.58470065947115],[-1.35429515248501,46.58479091389949],[-1.354205777167694,46.58486555808078],[-1.354167017952361,46.58489769458458],[-1.354067609103599,46.58498588686667],[-1.353982405134273,46.58506199535205],[-1.353935648856286,46.585092271763095],[-1.353896236468603,46.58512605626967],[-1.353845179399778,46.58515162655076],[-1.353786289321889,46.585180651205185],[-1.353669078519192,46.585216404136474],[-1.353515394957025,46.58526057887367],[-1.353373497647862,46.585304936191605],[-1.353327088575538,46.58523987822719],[-1.353342480529309,46.58524425249956],[-1.353351474472099,46.58523732709699],[-1.353367030153541,46.5851244603514],[-1.353367582540767,46.585093777927256],[-1.353317080857053,46.58502824442374],[-1.353333186935771,46.58495656927294],[-1.353337085998884,46.584939917862705],[-1.353317874805863,46.584938484513],[-1.353305686595319,46.584822164388335],[-1.353289405697898,46.5846645169081],[-1.353291072698592,46.58464939331748],[-1.353302871212539,46.58454514650325],[-1.353285054990398,46.58437321871919],[-1.353276763182821,46.58419118902059],[-1.353184788885986,46.584194147524485],[-1.35316197855888,46.58402845185129],[-1.353152744607823,46.58398335216687],[-1.353140283608643,46.58391754354666],[-1.35314927339546,46.58389095893542]]],[[[-1.346223030891763,46.57881047644725],[-1.346320231213,46.578887765450204],[-1.346541332729722,46.57906387381921],[-1.346597205984594,46.57911333404313],[-1.346619365145006,46.57908949612843],[-1.346662243838202,46.5790499912094],[-1.346705136838704,46.57901066608858],[-1.346776275170677,46.57893365451998],[-1.346815519286848,46.57889122150545],[-1.346883518735141,46.57881748543616],[-1.347047831707926,46.57864792522416],[-1.347065357052555,46.57863156789453],[-1.347179960439049,46.57852404666226],[-1.347306923218202,46.57842390130677],[-1.347338825807053,46.57839761881081],[-1.347378939620186,46.578364441092766],[-1.347450825479704,46.57830498578786],[-1.347498927615918,46.57826212568309],[-1.347550410493125,46.57821084047984],[-1.347608894966591,46.57817516090041],[-1.347660995673402,46.578131607670784],[-1.347702488862092,46.578115692030664],[-1.347745420378349,46.57809322872274],[-1.347781830571765,46.578074259741825],[-1.347831361335049,46.57803946141533],[-1.347902197043823,46.57798978518267],[-1.347976687475482,46.57793347700392],[-1.348073781359887,46.577858904822826],[-1.348147011736024,46.57780156224685],[-1.34826651872144,46.57771125819777],[-1.348405558006329,46.577601904921124],[-1.348519001810403,46.577511019422204],[-1.348616319026169,46.57743598732641],[-1.349094761791348,46.577734332250586],[-1.349325636324429,46.577878861451595],[-1.349399883614526,46.57792257168288],[-1.349487911888086,46.57797179999354],[-1.349542332150055,46.57799489121143],[-1.349608106372119,46.57802422405896],[-1.349658269136923,46.578044771690074],[-1.349720598883658,46.5780686442545],[-1.349791535028232,46.57809056629023],[-1.349849478821431,46.57810865364561],[-1.349891033050667,46.578122945336865],[-1.349934669159153,46.57813219792223],[-1.350015209828627,46.57815483677907],[-1.350108008639692,46.578173762949106],[-1.350193723601217,46.57819241734279],[-1.350275870764943,46.57820570633822],[-1.350351801694476,46.5782213960041],[-1.350659236041725,46.57828148800488],[-1.350754548561732,46.57830076897049],[-1.350928497334752,46.57833031560975],[-1.351054195059129,46.57835177735158],[-1.351174809723358,46.578370185796075],[-1.351312629947835,46.57838460298932],[-1.351431285484976,46.5783965025049],[-1.351662922338972,46.57846380371543],[-1.351657071786294,46.57849856544494],[-1.351315857520787,46.57872085382611],[-1.351093698186052,46.57886195944337],[-1.350947086439835,46.57895510100365],[-1.350773208342953,46.57907525134302],[-1.350895609414045,46.57921407341619],[-1.351041310759183,46.579358051278874],[-1.351337973514471,46.57964797078467],[-1.351499759799929,46.5798017070969],[-1.351486940261756,46.579811483319915],[-1.351279907159119,46.579853987479446],[-1.351076727856184,46.57989562323306],[-1.351015635638493,46.57990687465973],[-1.350934962576437,46.57992022347181],[-1.350782936495247,46.579926095487956],[-1.350688888354014,46.57993246780899],[-1.350467060101066,46.579942076150104],[-1.350407948914297,46.5799470294551],[-1.350354364385159,46.57995240382828],[-1.350273439923249,46.5799740583316],[-1.350203477175351,46.57999213962745],[-1.350164056088735,46.580006173738404],[-1.350140283584115,46.580016366293144],[-1.349832670226169,46.57971865382361],[-1.349701287166546,46.57960650489856],[-1.349626229777011,46.579544518946705],[-1.3495217708754,46.57945831010459],[-1.349469645136287,46.57941159449046],[-1.349438293592254,46.57937770627559],[-1.349392234742576,46.579408495521385],[-1.349331921736088,46.57944911526017],[-1.349131969598776,46.57959162696273],[-1.3489756638776,46.57969117640641],[-1.348825931325775,46.57978461401301],[-1.348609529919968,46.57990953355895],[-1.348394211739484,46.58003819905758],[-1.348296012687,46.58010226225081],[-1.348258251252478,46.58012561136006],[-1.348221916807314,46.580137363130525],[-1.34819062644759,46.58014513559629],[-1.348151177000257,46.580157186099925],[-1.348125743795179,46.5801466096756],[-1.348098270550202,46.58013178212559],[-1.348065268526211,46.580096874122624],[-1.347875750075654,46.580180189256936],[-1.347655516489276,46.58027684568767],[-1.347460836593536,46.58036432417154],[-1.347275527839572,46.580443059427],[-1.347019136780353,46.580553713767635],[-1.346796173752372,46.58031022196772],[-1.34673670647387,46.58027144944757],[-1.346714186480767,46.58024822697165],[-1.346693315526715,46.580217817595035],[-1.346645375177849,46.58022018016835],[-1.346376531146452,46.57999168738416],[-1.346024844517548,46.57969699263229],[-1.346042468917904,46.57968514073588],[-1.345973829022977,46.57962976244308],[-1.345896262548995,46.57956741862407],[-1.345863553541225,46.57954106604],[-1.345825914625021,46.57951030153382],[-1.34565702152689,46.57937215844093],[-1.345635078727221,46.579364334672164],[-1.345607158072816,46.57937008464811],[-1.345588858342584,46.57935220266036],[-1.345568198372952,46.579332606721714],[-1.34554052511452,46.579315261149524],[-1.345210554026627,46.57910892752483],[-1.345036767518196,46.57899135020209],[-1.345855301080049,46.57848347515354],[-1.346046597792247,46.57865160841499],[-1.346223030891763,46.57881047644725]]]]}}]}
