{"type": "FeatureCollection","name": "aoc_geojson","features": [{"type":"Feature","properties":{"dt":"Bordeaux","type_prod":"Vins","categorie":"Vin tranquille","type_denom":"appellation","signe":"AOC","id_app":64,"app":"Premières Côtes de Bordeaux","id_denom":123,"denom":"Premières Côtes de Bordeaux","insee":"33554","cvi":"1B153D","nomcom":"YVRAC","insee2011":"33554","nomcom2011":"YVRAC","id_aire":122,"crinao":null,"grp_name1":null,"grp_name2":null},"geometry":{"type":"MultiPolygon","coordinates":[[[[-0.495457440226542,44.87616780221196],[-0.495678730005014,44.87625302749551],[-0.495989651119364,44.87640365164688],[-0.49645498657168,44.87667071517174],[-0.496930918490425,44.87695519716371],[-0.496564105002652,44.87784202436697],[-0.496391915892248,44.8782580473174],[-0.496432945443506,44.87828793714087],[-0.496628558197127,44.878467426902475],[-0.496632588804605,44.87847108506401],[-0.496708951822356,44.8785370822142],[-0.496541076947812,44.87872946558082],[-0.496536746940049,44.87873320689735],[-0.496049208239542,44.87901938364486],[-0.496108399177666,44.87909051838646],[-0.496008400036355,44.87913341238564],[-0.495729879137885,44.87926502227899],[-0.495572218726255,44.879261336202404],[-0.495435146294014,44.8792524052555],[-0.495310521224366,44.87924794875192],[-0.494756556736278,44.87928594130732],[-0.494352618064537,44.87930884363081],[-0.494063666326816,44.879315777771616],[-0.49359535401965,44.879318623905064],[-0.493630438743192,44.87886222105319],[-0.493674252962053,44.87828342759127],[-0.493695925728717,44.878008593026046],[-0.493520837855807,44.877895954059696],[-0.49353615178109,44.87763501834099],[-0.493410255735649,44.87735969200737],[-0.493988338952971,44.877465052015424],[-0.494357307732073,44.87752805685345],[-0.494415354279683,44.87701307222945],[-0.494534500146249,44.87604438025559],[-0.495457440226542,44.87616780221196]]],[[[-0.493216009584716,44.87941284583077],[-0.493935738554044,44.879392624020156],[-0.494364067004758,44.8793888724062],[-0.494490253794796,44.87938787345959],[-0.494716155942239,44.8793882407427],[-0.494931910326053,44.87938442099044],[-0.494534387512983,44.8800659172826],[-0.494446240868657,44.88020757135366],[-0.494436209311816,44.88022356850746],[-0.494259233953199,44.880508159587336],[-0.494147085691899,44.880697973461984],[-0.494028539150116,44.88090718472313],[-0.494013140610101,44.8809347062239],[-0.493934293448943,44.88106696472032],[-0.493893904085167,44.881132853979835],[-0.493854591619384,44.88119771797618],[-0.493746596021453,44.88137487365433],[-0.493630325380568,44.881565717937406],[-0.493562009935922,44.8816778176894],[-0.49340567105949,44.88193363948795],[-0.494137859873017,44.882393828911546],[-0.49411073427216,44.882446773668846],[-0.494059869431221,44.88254597761366],[-0.494039516722262,44.882585551250486],[-0.49399848769033,44.88266560992427],[-0.492808341388705,44.883303464524516],[-0.492551846210779,44.883410580285585],[-0.492616707481021,44.883310125593106],[-0.492642046009175,44.88327120646289],[-0.492961159236481,44.88277720673946],[-0.492903279503682,44.88275766916321],[-0.492853566294237,44.882741028853665],[-0.492859574937691,44.88272759176268],[-0.492735548419331,44.882684000137424],[-0.492964410590113,44.882304141622136],[-0.492258491631006,44.88206418858777],[-0.491365688262324,44.881735932181414],[-0.491938386187908,44.88124089800053],[-0.492926571452711,44.88045034204275],[-0.492327435110699,44.87960402089305],[-0.492619681407031,44.8794850556491],[-0.493216009584716,44.87941284583077]]],[[[-0.489527882271709,44.874468055075695],[-0.489807226006608,44.87460049250968],[-0.490029719723044,44.87469920900134],[-0.490794994314126,44.87506978501369],[-0.491138808820262,44.87523606002511],[-0.491056708653311,44.87536490384598],[-0.490723655598923,44.87591557244152],[-0.490569881229087,44.87616977714223],[-0.490188354975432,44.87680325872948],[-0.48989047033585,44.87729604158954],[-0.48921954152635,44.87644962137577],[-0.487368984831369,44.87573553109293],[-0.487544374340272,44.87521100698011],[-0.48769481570589,44.87489689038586],[-0.488198957200698,44.874186565472094],[-0.489421490688033,44.87443255773183],[-0.489527882271709,44.874468055075695]]],[[[-0.484833999059261,44.87824088121894],[-0.484508835193643,44.878142223283696],[-0.484499308833027,44.878154148103924],[-0.484424090394609,44.87813082489333],[-0.484432026079205,44.87811777843504],[-0.484337016639078,44.87808804700502],[-0.484276734317148,44.878188893400974],[-0.484243760320243,44.87817839297785],[-0.484120013062301,44.878139019282756],[-0.484104906159472,44.87816517827296],[-0.484077756089657,44.87821172238847],[-0.483911262709931,44.87816981510946],[-0.483619996169033,44.878096496280484],[-0.483555601893276,44.87826587382357],[-0.483532824959128,44.878260370322316],[-0.483289199652916,44.878201056244485],[-0.483251364691881,44.87819187967853],[-0.4831919025986,44.87817734368897],[-0.483168519224734,44.87822944702111],[-0.48304393191806,44.878196947772004],[-0.483014044764838,44.8782586278482],[-0.483700189298349,44.87844491379675],[-0.483538052126737,44.87877939849096],[-0.48293716648809,44.878741480120574],[-0.482709017807567,44.87874161006718],[-0.48210866983562,44.87877360491237],[-0.480946242512546,44.878804751823886],[-0.480712406673009,44.87877450475399],[-0.480512627669333,44.878741566998286],[-0.480340883216985,44.8787130669621],[-0.480101405605657,44.87867767836307],[-0.479812529595841,44.878624461915216],[-0.479485245195641,44.878546674063756],[-0.478695857187402,44.878338634843686],[-0.478231492366494,44.87824549340988],[-0.477206574986232,44.878077809537466],[-0.477180438827429,44.87807331121682],[-0.477156873720664,44.8770549550652],[-0.477139354676552,44.876318219783876],[-0.477121098919967,44.875587996514625],[-0.477106529387346,44.87504610192471],[-0.477090195638014,44.87429779446094],[-0.477073165061706,44.87361800130415],[-0.477077467413199,44.87333155073457],[-0.478506533391599,44.87342041651106],[-0.4786344087126,44.87342848451556],[-0.478648912859953,44.873429381693555],[-0.479218029392109,44.87346489270888],[-0.480741449631536,44.87353004383042],[-0.480821851268744,44.87290766561358],[-0.480906440493165,44.87225884055124],[-0.48098215377365,44.872273949221885],[-0.481212586366106,44.87232944550237],[-0.481929351161117,44.87250189163917],[-0.482647052106026,44.87266484114172],[-0.482638681470152,44.8726769998941],[-0.482576470873234,44.872771236790314],[-0.482574026637797,44.87277473811847],[-0.482515978840734,44.87286253582368],[-0.482557108327027,44.87287584484043],[-0.482549781185019,44.872886438770315],[-0.482132945215268,44.87355857867425],[-0.482131994646482,44.87383735487728],[-0.482130393352825,44.87428332727745],[-0.482129550206373,44.87466799318543],[-0.481360063318397,44.874577770002865],[-0.481151337552915,44.87555871304186],[-0.481832409458805,44.87581095711994],[-0.482068918061693,44.875847696463325],[-0.482128377430059,44.8754456002282],[-0.482128692588062,44.87522398099796],[-0.482603653151433,44.87529207960535],[-0.483383611154601,44.87540377537423],[-0.48351447532265,44.87506180116546],[-0.483732235886018,44.87452306683259],[-0.484627716002328,44.87490113218465],[-0.48570992344829,44.87593031486021],[-0.486075452281798,44.87604437351912],[-0.487118449042525,44.87636028859669],[-0.48759902248098,44.876524530457466],[-0.488560976859688,44.87691886210444],[-0.489409049506674,44.8777257408621],[-0.489678140025879,44.87775828575539],[-0.49047929142066,44.878099799572915],[-0.491731074028713,44.87863702633782],[-0.491731572337195,44.8793721384394],[-0.491795336950581,44.879785686459506],[-0.491673427044307,44.87983097807874],[-0.491581132445302,44.87985109498464],[-0.491360831813588,44.8798491031024],[-0.491113947755456,44.87981712513268],[-0.49083316439631,44.8797598070072],[-0.490120188796909,44.87963803384926],[-0.489806340137279,44.879556518730496],[-0.489394634064948,44.87942400605945],[-0.489019565639384,44.87929358458383],[-0.488776704266071,44.879222271936555],[-0.488570067593937,44.87916478044033],[-0.488360269840089,44.87908702032123],[-0.488066277717251,44.87894557600937],[-0.48751316839621,44.87865474006072],[-0.487311331453539,44.878564291077375],[-0.487086776188955,44.87849375154678],[-0.48696997680946,44.87847444010637],[-0.485834575222691,44.878414126616335],[-0.485434891241695,44.878425868067374],[-0.48530832822045,44.87844525348687],[-0.485201400808951,44.87848078484669],[-0.485094890764482,44.87858425496228],[-0.485037336554858,44.87865554626124],[-0.484945036701893,44.87868782426179],[-0.484544839066801,44.87873418540146],[-0.484646239538702,44.87856067127425],[-0.484771083550624,44.8783482993709],[-0.48481990252317,44.878264935787364],[-0.484828150612744,44.87825079802532],[-0.484833999059261,44.87824088121894]]],[[[-0.484646654922351,44.88080821038245],[-0.485000888412795,44.88016857731896],[-0.485025873222511,44.88012390338375],[-0.484986847411703,44.88010782535128],[-0.485268336235945,44.8796134089665],[-0.485589730276903,44.87902689556769],[-0.485887785462662,44.87847490993042],[-0.486316773626926,44.878494149548814],[-0.486577269880607,44.87849443792875],[-0.486841574895368,44.87851929948253],[-0.487066912600867,44.87854736742265],[-0.48711687691307,44.87856201955453],[-0.487221466076129,44.87859288963721],[-0.487401446012715,44.87867429238975],[-0.487935319463016,44.878943202872755],[-0.488117819886814,44.87903452888832],[-0.488281483036304,44.87911644311751],[-0.488442086560814,44.87918583618748],[-0.488562981933643,44.879228178797696],[-0.489124178541858,44.879398172171015],[-0.489255199863404,44.8794443413517],[-0.489684467379849,44.87959630950397],[-0.489856172622933,44.879648498716016],[-0.489956293048468,44.87966860206532],[-0.490520854684394,44.87978251692635],[-0.491078983426009,44.87989690170414],[-0.490739089632207,44.87998356546537],[-0.490443981225911,44.88008107635516],[-0.490321788112708,44.880146292371435],[-0.490183875548037,44.88023390227804],[-0.49004341403618,44.880335561106236],[-0.489641479560678,44.880653713624845],[-0.489335173090642,44.88089531848905],[-0.489063249963968,44.881127279973974],[-0.48896589400839,44.88121893054226],[-0.488278192654736,44.88168124373159],[-0.48820143074765,44.88163931606492],[-0.488101119956826,44.88159172973825],[-0.488461327173457,44.88088358402635],[-0.488055131290658,44.88072358591853],[-0.487716029096563,44.880590677669645],[-0.487654458071807,44.88056674738604],[-0.487471561586027,44.880927936216985],[-0.487038525570295,44.88080716985],[-0.486959626398033,44.880804241311644],[-0.486902161227399,44.88104216665724],[-0.486883091579417,44.881120811520844],[-0.486911621378561,44.88115154809684],[-0.486985736684676,44.88119986829532],[-0.487288992611639,44.88129443163115],[-0.487045618883546,44.881796217840744],[-0.487439202636082,44.88193066093823],[-0.487596244956497,44.88198547748958],[-0.487392707009542,44.882020802077975],[-0.487129214634957,44.88208270340658],[-0.486869513926535,44.88216890808379],[-0.486638321859033,44.88224268095295],[-0.486270245594359,44.88236572385821],[-0.48578493395357,44.882511553261836],[-0.485621219312161,44.882569686449635],[-0.485600378205038,44.88257700997368],[-0.485347728243103,44.88266659442588],[-0.484897961514248,44.882643946945734],[-0.484838835471809,44.882641026853044],[-0.483645588044252,44.88258133289852],[-0.483647636336457,44.88257757360825],[-0.484141714536427,44.88169716428157],[-0.484363608870896,44.88130835159061],[-0.484560023350469,44.880962425334246],[-0.484646654922351,44.88080821038245]]],[[[-0.471467573685511,44.88203255806429],[-0.47165316345707,44.88207577936979],[-0.471731902953757,44.88203925063461],[-0.472029774271274,44.88119306583045],[-0.472264173712396,44.88050117101091],[-0.472365223060765,44.88019844621227],[-0.47206961461743,44.88018390203369],[-0.471874655174162,44.880167380286316],[-0.471655607109408,44.88014872779089],[-0.471163589821611,44.880081925923534],[-0.470986035023305,44.88005782884738],[-0.470719174490057,44.87988097483626],[-0.471081218911888,44.878619400178366],[-0.471174298276042,44.87862009395392],[-0.471540058273242,44.8787053541298],[-0.472666339190561,44.87896265352587],[-0.472576046168958,44.878499100674624],[-0.47234777046133,44.877317452544204],[-0.472934916565296,44.87749626646421],[-0.473067156177745,44.87756242297299],[-0.473180641207036,44.877645027605205],[-0.473674928270193,44.878074307165704],[-0.473784036115606,44.87814145725286],[-0.473976933033726,44.878216889271684],[-0.474384444683091,44.87836842431189],[-0.474547003782582,44.878353061482294],[-0.475890216404084,44.87831857266511],[-0.476441312257483,44.87825273638736],[-0.477141174236401,44.8781637617192],[-0.477247250083796,44.87815737421081],[-0.477442371802978,44.87817045664289],[-0.478005687875731,44.87827726309777],[-0.478570579940205,44.878384918587095],[-0.47929567905068,44.87857415600255],[-0.479976937709677,44.87873700598194],[-0.480014370664182,44.87874583577785],[-0.479902263867604,44.878845060129414],[-0.480012721771699,44.879074831787605],[-0.480280733909096,44.879030739703055],[-0.480320634305705,44.87902417133422],[-0.480437327144321,44.879005011087685],[-0.480449359714724,44.8790396009983],[-0.480464266483955,44.87908374380386],[-0.480752829650823,44.879928688334424],[-0.480822142128653,44.880132623140796],[-0.481147112163911,44.88107997548907],[-0.481357789021254,44.881698993564555],[-0.481563921509888,44.8823059875944],[-0.481613240835215,44.88245728732273],[-0.481620714665128,44.88247967348514],[-0.481622567773122,44.88248502267194],[-0.481672741884038,44.8827297520094],[-0.481046587632487,44.88341908731944],[-0.480397928421663,44.88351296815077],[-0.479987770745678,44.883914343706515],[-0.479865868260416,44.884033611661685],[-0.479785120315189,44.884123561373194],[-0.479675904210274,44.8842450449125],[-0.479566196901722,44.884409712103945],[-0.478092016260387,44.88398007210974],[-0.478046735384242,44.8840430441522],[-0.477732093433177,44.88394881226813],[-0.477300351040138,44.88465879956015],[-0.477718496833976,44.88479692361953],[-0.477792253346349,44.88482110851415],[-0.477924656854257,44.884864994893285],[-0.478322231454506,44.88499637135185],[-0.478385639949374,44.88564488367993],[-0.478453302984707,44.88630065281702],[-0.478592428202303,44.88659189268586],[-0.4785502313526,44.88668009253563],[-0.478444133904728,44.886901061660545],[-0.478393119240943,44.88701675457111],[-0.478367075924607,44.88707515854348],[-0.478321879011128,44.88716201035673],[-0.478279367244779,44.88724310033233],[-0.478208390976054,44.887349685480935],[-0.478066478689107,44.887434701062524],[-0.478043384818776,44.88744867257444],[-0.478038243551499,44.88745162744233],[-0.478088047750871,44.88753108649595],[-0.478103268652254,44.88755575358032],[-0.478115944381674,44.88757617456181],[-0.477850262787008,44.887787363256066],[-0.477725948358545,44.887886336627275],[-0.477552523375329,44.88804587821573],[-0.477356189546023,44.88826534721925],[-0.477321353604033,44.88831077844206],[-0.477192873307306,44.88847756317975],[-0.477148507848855,44.88845516072756],[-0.477148111533854,44.88845490277622],[-0.476901556775304,44.888330506994755],[-0.476804412764357,44.888438361386974],[-0.476476435653603,44.888270462647874],[-0.476577900396471,44.88816481640451],[-0.476424911567736,44.888089579610536],[-0.476262941843578,44.888010568389056],[-0.47620962927065,44.88798493102934],[-0.476234220989198,44.88795829595956],[-0.475923601598544,44.887806524702896],[-0.476256318493034,44.88749248539797],[-0.475919931473016,44.88731763891905],[-0.475200486914166,44.888031669092754],[-0.475089462968072,44.88794006640675],[-0.474976208523881,44.88787998593233],[-0.475168318488237,44.887665880706976],[-0.47509592863119,44.88762696134061],[-0.475264131701088,44.887458755343054],[-0.474707462494963,44.88713317877309],[-0.47451541856807,44.88702086035477],[-0.474507721981607,44.88702759002757],[-0.474417836022985,44.88710529463309],[-0.474062887941036,44.88687010153004],[-0.474013631764974,44.88691607307202],[-0.473842876611885,44.88679948242816],[-0.473761844537566,44.88674379973731],[-0.473656278319467,44.88682010185151],[-0.473458043428752,44.88698446859243],[-0.473137394353888,44.886836338339066],[-0.472899487505513,44.88669778492904],[-0.472886181858099,44.88664872446613],[-0.47293466655144,44.886577994149846],[-0.473074814385647,44.886421393863756],[-0.473180388898857,44.88632679736966],[-0.473348274242014,44.88619438261569],[-0.473517360911605,44.88608752453162],[-0.473740739490899,44.885960762569944],[-0.474363879372992,44.885681439122074],[-0.474604260420679,44.885571356374875],[-0.474857568871525,44.88545510060297],[-0.475311509267486,44.88525019155972],[-0.475449802594938,44.885223421307124],[-0.475583719553348,44.88508918262223],[-0.475632811234461,44.885040601941796],[-0.475984399710142,44.88481041636769],[-0.476112100329669,44.884692503444526],[-0.476151978076656,44.88461798565306],[-0.476228108316073,44.88431225181225],[-0.4764650787427,44.883840432997594],[-0.476841525764626,44.88315858702418],[-0.477005793691125,44.882728787922495],[-0.477074876240499,44.88245058110246],[-0.47709355172318,44.88238375662331],[-0.476979169912399,44.882366701934686],[-0.4767373733406,44.88235751354448],[-0.476753435302381,44.88242442142624],[-0.476450283608699,44.88324573281056],[-0.476313430201226,44.883209734683554],[-0.476055009177942,44.88369745545385],[-0.476394161116202,44.883862030311995],[-0.476134629111634,44.8843870964694],[-0.476080658648149,44.88462697828439],[-0.47603837639992,44.884687241998044],[-0.47571860613915,44.884909221706245],[-0.475564178485798,44.884810597536784],[-0.475240755528627,44.88502890505941],[-0.474980601664186,44.88489339595188],[-0.474207648951327,44.8844913165406],[-0.473947120510299,44.88435581691546],[-0.473867147474701,44.884378597195955],[-0.473752794904655,44.884411195146555],[-0.473501715358904,44.88437300045833],[-0.473302014173828,44.88431084736728],[-0.473025354231779,44.88419729938753],[-0.472689031251297,44.88405371439569],[-0.472433282981651,44.88394005150553],[-0.471866255792491,44.88368796532129],[-0.471599499203984,44.88356842657957],[-0.471582522537651,44.88355219496597],[-0.471367887431838,44.88334694222852],[-0.471325451684835,44.88330645305148],[-0.471240134034866,44.883224407152106],[-0.471196493025313,44.88318287416929],[-0.471049456688389,44.883025253871985],[-0.470949252823862,44.88291771834553],[-0.470830315633211,44.88279013074582],[-0.470579497190684,44.88251625423976],[-0.470434506741983,44.88236091245379],[-0.470379169397102,44.88228396673638],[-0.470230326211455,44.88202943149117],[-0.470040865630749,44.8817576009756],[-0.470037884293299,44.88173399227929],[-0.470064125430749,44.881721726476044],[-0.470591450798854,44.881830417505306],[-0.471020796373112,44.88192892236618],[-0.471396585042167,44.882016123183945],[-0.471467573685511,44.88203255806429]]],[[[-0.471725183310892,44.88502175959285],[-0.471959714998468,44.88522269466205],[-0.472013147976585,44.885268787712214],[-0.472027999202384,44.88528139079017],[-0.472169060625249,44.88540377931821],[-0.472438354238548,44.8856378722993],[-0.472801734574717,44.88538903372016],[-0.47293759161988,44.88550103994188],[-0.472977240473969,44.885533324631965],[-0.473133531078243,44.885662084776754],[-0.472817653669759,44.88586735149517],[-0.472731750480424,44.88592339103319],[-0.472407820150911,44.8861337750144],[-0.472104018060602,44.88633145209736],[-0.472049855191957,44.88630430739483],[-0.47198593329461,44.886254667170554],[-0.471772250762851,44.8860895790724],[-0.471453628809182,44.885832694373036],[-0.471294253818747,44.88570934558821],[-0.470966860446255,44.885458141254354],[-0.470832317506838,44.88535501368276],[-0.470803569469985,44.885332931627836],[-0.471363175254989,44.884917906323814],[-0.471493069844224,44.88482300150021],[-0.471725183310892,44.88502175959285]]],[[[-0.47146674408684,44.883506429518214],[-0.471530911786278,44.88356624592057],[-0.471585408080124,44.88361726251496],[-0.471818435346013,44.88373253914497],[-0.471970281666416,44.88378961281852],[-0.471986629483958,44.88379568032492],[-0.472168391467284,44.883869121294],[-0.472562707460375,44.88404036320058],[-0.472529587231539,44.88406438034968],[-0.47184379093857,44.88456627082879],[-0.47179114396528,44.88456359169863],[-0.471391134827794,44.88422661144796],[-0.471377885755374,44.884215310017524],[-0.471087009680943,44.88397026418435],[-0.470646440229333,44.884280720417905],[-0.470509958167506,44.88437979553881],[-0.4703192297637,44.884517966869396],[-0.470148833674631,44.884634413794146],[-0.469866289109878,44.88433340935338],[-0.469739683535466,44.884198670279844],[-0.469621605633683,44.88407267665882],[-0.47030497876705,44.88367280344506],[-0.471130136661071,44.88319215904539],[-0.471249614090254,44.88330386812424],[-0.47136543110362,44.88341172622932],[-0.47146674408684,44.883506429518214]]],[[[-0.469952921855874,44.87767957026228],[-0.470655658566116,44.877925977900304],[-0.470839315435046,44.877962771780865],[-0.47071273885065,44.87832622375495],[-0.470602885794918,44.87864039702927],[-0.470142456449967,44.87995506320357],[-0.470086823661829,44.8801212738829],[-0.469667090270875,44.88070675611068],[-0.469009963206805,44.8804297162502],[-0.469621815270353,44.87990086531934],[-0.46891473338011,44.87965215289034],[-0.468468756741793,44.8800285582076],[-0.468215147746184,44.879832178628895],[-0.467976602087426,44.87964569179904],[-0.467912692843275,44.879589921051036],[-0.467855237220498,44.879527820389654],[-0.467712920633881,44.87934166082504],[-0.467663441150009,44.87927940099828],[-0.467630890009207,44.87923878205209],[-0.467528634017366,44.87911012963862],[-0.467610352665684,44.87907260952622],[-0.467632523914166,44.87906218374294],[-0.467738274439289,44.87879824942801],[-0.467749153206184,44.87877123367749],[-0.467893676506157,44.87840866683482],[-0.467486748084278,44.87824780782169],[-0.467339023784492,44.87818942837779],[-0.467141783282001,44.87811123692965],[-0.467502775322926,44.87771342985019],[-0.46787520781628,44.87708860952234],[-0.468741454541597,44.87725538930038],[-0.468999123482937,44.8773453874969],[-0.469952921855874,44.87767957026228]]],[[[-0.468602635247221,44.87574181847008],[-0.468618841345869,44.87574563777483],[-0.469268694653178,44.875949005836944],[-0.470099627681274,44.87620285401341],[-0.470168374382747,44.8753900647736],[-0.470197560734741,44.87511806779997],[-0.470240628281319,44.8746954949946],[-0.469511824496933,44.874592562901086],[-0.469209555480872,44.874549742054114],[-0.469140517594818,44.87454009430639],[-0.468996671595477,44.874519717356904],[-0.468842869827399,44.874498209474105],[-0.468616944458859,44.874466338670864],[-0.468585492164842,44.87446191444038],[-0.468587724733827,44.8743873145735],[-0.468601731387109,44.87429405214474],[-0.468624798588851,44.874212042018975],[-0.468668568273107,44.874089731575125],[-0.46870945477981,44.87400689411504],[-0.468795414401699,44.87385974333643],[-0.46899681032002,44.87358714053496],[-0.469040127272042,44.87351287858521],[-0.469223319947734,44.87317343382037],[-0.469389716565967,44.872894444291454],[-0.469617422671253,44.87286912091252],[-0.46961527026317,44.872834311367065],[-0.469713919622732,44.87283095671581],[-0.470139997475933,44.87281628249654],[-0.47021060629389,44.87280217859425],[-0.470293391230522,44.87276363156463],[-0.470379822212342,44.87277174328694],[-0.470429918496656,44.87277639503619],[-0.47100053218379,44.87283019555315],[-0.471709113785307,44.87290157656542],[-0.471869057424906,44.87291793155372],[-0.471959674092834,44.87282776917793],[-0.47226161775466,44.87252750120872],[-0.47250674338044,44.8722921851957],[-0.472572250907464,44.8722386761885],[-0.472640666117097,44.87218300336462],[-0.47314444994673,44.87177142538249],[-0.473458365872786,44.87180603001594],[-0.474192116052308,44.87188489823052],[-0.474501693421118,44.8719046756531],[-0.474741962462628,44.8719104005593],[-0.475367140583163,44.871887579175265],[-0.475413325380478,44.87188433036434],[-0.475387632395559,44.872095658356066],[-0.475396282384389,44.872024552119726],[-0.475539590486544,44.87204448687564],[-0.475539093375842,44.87204873814593],[-0.475708601898141,44.87205379319878],[-0.475878858263987,44.87205864432751],[-0.475880371805887,44.872046250299334],[-0.476113364068733,44.872057246977384],[-0.476191909910924,44.87206082472735],[-0.476175205484353,44.87214101524925],[-0.476145452553179,44.87229290048421],[-0.476089506997139,44.872592774319976],[-0.476088010780707,44.87259930992363],[-0.476028379462188,44.87291948637188],[-0.475998274096376,44.87307183322545],[-0.475969156581717,44.87322171585499],[-0.47596247889072,44.87325508967392],[-0.476143185081682,44.87326898582946],[-0.476978734010181,44.87333356272594],[-0.476971659814635,44.873520065339996],[-0.476980096585568,44.873963018195475],[-0.47699353950254,44.87454811604197],[-0.477012184863141,44.875266250545764],[-0.477020258557347,44.87543335317747],[-0.477030142728582,44.87600396312805],[-0.477039577835378,44.876321886545476],[-0.477058127254822,44.877069133739894],[-0.477061935630247,44.8772594412185],[-0.476601638505742,44.87737903293394],[-0.475577450290669,44.87764632818154],[-0.475556498265776,44.87765185086981],[-0.475711787841626,44.87791816329495],[-0.475892870888694,44.87822638535506],[-0.475759764640916,44.878238394519975],[-0.475129515342342,44.878260293279475],[-0.474341043668073,44.87829390071856],[-0.473846427913843,44.87809894977993],[-0.473740456469142,44.878033323773785],[-0.47324073176354,44.87761448851022],[-0.473163839004644,44.877551737094414],[-0.473106511229611,44.87751838378016],[-0.473829302953458,44.87614980014523],[-0.473379746731812,44.87611935082569],[-0.472895298083766,44.87608215102735],[-0.472932673942726,44.87567237152487],[-0.473047558558793,44.87566093581833],[-0.473136841347222,44.874904187131655],[-0.472601458315594,44.87495924236687],[-0.471948774603179,44.87502355226836],[-0.471986600317075,44.87443045282124],[-0.472009654594788,44.874028782373784],[-0.471389947802245,44.87405438693711],[-0.471313340358787,44.87405759428639],[-0.471363771131999,44.87457160000416],[-0.471392093067111,44.87485729944166],[-0.471432526580471,44.87529573596426],[-0.471453058537375,44.87551697211786],[-0.470614071478423,44.87543407558524],[-0.47062032563423,44.87602696739507],[-0.470622169705441,44.87636414317939],[-0.470646924426368,44.87649386452895],[-0.470684083028344,44.876608958836215],[-0.470807416173105,44.876912325043],[-0.470896663751907,44.877144119472646],[-0.470907159566207,44.877215437597904],[-0.470901494365355,44.87727752805132],[-0.470714878407085,44.87787519017296],[-0.470633252029442,44.87785881729531],[-0.46993630358072,44.87761376064039],[-0.469330716452723,44.87740099118161],[-0.468875492745897,44.877240024914634],[-0.468742270473667,44.87720093064596],[-0.467914365424619,44.87701465826823],[-0.468255581256413,44.87640784483218],[-0.468390886401006,44.87616695846788],[-0.46852809487747,44.87591997432408],[-0.468586288692568,44.87579108485994],[-0.468602635247221,44.87574181847008]]],[[[-0.468865008239197,44.88045930043413],[-0.469378712998871,44.88066773603801],[-0.469402906245887,44.88067770422383],[-0.469546447631363,44.88073594163315],[-0.469582826799508,44.88076463455849],[-0.469598287298608,44.880817863530794],[-0.469568206442177,44.88098940340521],[-0.469525134841985,44.88125219159437],[-0.469477168325202,44.88127595093623],[-0.46875021131685,44.88177009657914],[-0.46870057848782,44.88180382097756],[-0.468197252686139,44.88123231975178],[-0.467794755385411,44.88083178052042],[-0.46783911587429,44.88081119870669],[-0.467424297688327,44.88043681796536],[-0.468242540097125,44.8799308164278],[-0.46831969195276,44.87999779882638],[-0.468695334477044,44.88038430525842],[-0.468729751329875,44.880399721827914],[-0.468865008239197,44.88045930043413]]],[[[-0.466863275434839,44.87861938790093],[-0.466958942750788,44.878684531051285],[-0.467104614906599,44.87878352962884],[-0.467282794707889,44.87894090228598],[-0.467409525534296,44.87908411085315],[-0.467697116236027,44.879448948147505],[-0.46782014402936,44.87961218880523],[-0.467309244828593,44.87987346024788],[-0.466984508761243,44.88003978441858],[-0.466068671379219,44.879409423550285],[-0.466384241688453,44.87901475122367],[-0.466715022734032,44.87859554047791],[-0.466730197390663,44.87857650155374],[-0.466772874026563,44.87856561568579],[-0.466863275434839,44.87861938790093]]],[[[-0.46557394430796,44.88594107919026],[-0.465523749226104,44.88600888540646],[-0.465336515461237,44.88625931972376],[-0.465304211394018,44.886302775296784],[-0.465210870159436,44.886443754899396],[-0.465164147215285,44.88651442654402],[-0.465010978969713,44.88674586270474],[-0.464746815418106,44.88706854123078],[-0.464743967644459,44.88707169423887],[-0.464673095405159,44.88715573639094],[-0.464595499725689,44.8872479190073],[-0.464578105606691,44.887268018201425],[-0.464556830476081,44.88729301494659],[-0.464539942440948,44.8873130983387],[-0.464218413894749,44.887166772872355],[-0.464048064437106,44.88708926769502],[-0.463992461701359,44.88714345337168],[-0.463949289397804,44.8871279479496],[-0.463807447059014,44.887076859534524],[-0.464286331805057,44.886497035683874],[-0.464319992136956,44.886457052829],[-0.464461321105548,44.88651626747261],[-0.464641138553107,44.88629346307527],[-0.464765496216935,44.88613331138648],[-0.46479630271284,44.88609639145165],[-0.46485749156445,44.886021843823876],[-0.464886500064133,44.8859866021663],[-0.465002907716704,44.8858455336676],[-0.465039996204119,44.88579949556384],[-0.465161089279569,44.88564809692861],[-0.465049201909759,44.88560373537945],[-0.465400822645253,44.885170180235725],[-0.465077661329713,44.885036255240706],[-0.465105262024895,44.885002859887294],[-0.465163233176901,44.88493165687632],[-0.46543676301876,44.885056316587324],[-0.465630663276124,44.8851416456635],[-0.466124689013755,44.88535116260905],[-0.466082621166886,44.885402763863766],[-0.465822395332213,44.88572126678911],[-0.465700031798124,44.885870542957186],[-0.465643063706969,44.8858471777998],[-0.46557394430796,44.88594107919026]]],[[[-0.464386691619351,44.88763564864734],[-0.464438524549182,44.88764358380409],[-0.464539592617663,44.887666654700425],[-0.464584652319477,44.887681920763306],[-0.464658744010952,44.88771772951668],[-0.46471775232603,44.887755631194835],[-0.464766941459082,44.88779465042009],[-0.464799167711854,44.887829963393834],[-0.464813142283351,44.88785917708423],[-0.464818178990046,44.88789146351119],[-0.464815883119371,44.887915867901874],[-0.464808023014846,44.887936390514824],[-0.464796828258679,44.88798297212305],[-0.464789361013064,44.88805295902289],[-0.464789631788397,44.88811891930655],[-0.464787997612365,44.888246401727045],[-0.464791512478314,44.88830946699964],[-0.46481100853516,44.888563541080046],[-0.46482303043992,44.88868428878885],[-0.464827213861346,44.88875201950821],[-0.464822566631109,44.888818403675955],[-0.464816054491713,44.88884843706976],[-0.464783177019116,44.88899347701009],[-0.464755267017993,44.889065003200024],[-0.464559154879503,44.88903642740136],[-0.464358560011924,44.88900916273801],[-0.463827490382489,44.888933090731065],[-0.463756063744747,44.888921981546765],[-0.46393438761767,44.888545478298894],[-0.463864403975403,44.88852693423431],[-0.46429677604092,44.88763304755595],[-0.464324452488417,44.8876316430809],[-0.464386691619351,44.88763564864734]]],[[[-0.463731023731938,44.88186213562856],[-0.463924490925759,44.88199200046455],[-0.464006221050204,44.8820469469765],[-0.463712417452098,44.882338915632644],[-0.463688342566887,44.88236165644281],[-0.463579735880444,44.88246886496868],[-0.463792048131265,44.882575431557626],[-0.463876121199721,44.88261903995407],[-0.463758475374074,44.88273383055052],[-0.463716879576378,44.882774601606855],[-0.463649438568966,44.88284024147208],[-0.463358262024694,44.88311942003609],[-0.463087823875807,44.88336496644583],[-0.462996705283973,44.883324280872124],[-0.462957287345625,44.883307937081696],[-0.462606028261244,44.88315595670379],[-0.462515054694674,44.88311760938009],[-0.46228079314599,44.883018934686255],[-0.462561399665316,44.88271629691263],[-0.462563543748997,44.88271406712343],[-0.462276431668857,44.882566212970566],[-0.462070998661559,44.88246014997001],[-0.462283129856554,44.882237242853826],[-0.462382959775472,44.88220961587646],[-0.462711328545176,44.88210789937499],[-0.462983811696852,44.88201261179713],[-0.463110276292521,44.881966759796065],[-0.463358359941713,44.881858173677294],[-0.463408461457518,44.88188743170622],[-0.463356022746792,44.88193874918989],[-0.463547166518059,44.882043969461996],[-0.463731023731938,44.88186213562856]],[[-0.463355980537829,44.88193872595476],[-0.463336738660246,44.88195762092091],[-0.463356022746792,44.88193874918989],[-0.463355980537829,44.88193872595476]]],[[[-0.463263898649489,44.887270637015526],[-0.463268270783436,44.887249051779484],[-0.46401939132846,44.886331342436705],[-0.464113468848036,44.88637058322684],[-0.464170860846468,44.886394656909054],[-0.463588304103774,44.887116591786196],[-0.463394788669807,44.88735171770047],[-0.463275467058961,44.887297853150166],[-0.4632659147796,44.88728481325079],[-0.463263898649489,44.887270637015526]]],[[[-0.462463982316172,44.88686210874945],[-0.462242663020129,44.88675771252931],[-0.462408161086092,44.88651841590062],[-0.462650426749636,44.88662945816414],[-0.462905613739965,44.88674649542993],[-0.462707632611717,44.886977073087564],[-0.462463982316172,44.88686210874945]]],[[[-0.462017385916503,44.87536102218122],[-0.462121946646597,44.87528701561087],[-0.462332435428486,44.87513652623708],[-0.462401413815791,44.875089764480805],[-0.462445205592972,44.87506001020667],[-0.462581091695904,44.87498223211295],[-0.462635414947169,44.87495061712312],[-0.462873332040397,44.874813329709895],[-0.462990099201897,44.87474615105224],[-0.46320470892681,44.87464401629519],[-0.463483981040849,44.8745114750637],[-0.463578537527548,44.87447256586893],[-0.463782235844798,44.87438464907748],[-0.463851876510533,44.87435480840225],[-0.464142304629906,44.87423056882998],[-0.464224916261233,44.87419527626131],[-0.464332607858364,44.87410431715658],[-0.464422048228678,44.87403798994839],[-0.464511312540147,44.873981130844186],[-0.464658129918494,44.87388958080926],[-0.464751931003724,44.87383230950137],[-0.464873930808615,44.873757575477576],[-0.46505343305373,44.87364734073273],[-0.465174332466319,44.87357327156174],[-0.46518203514409,44.87356870525128],[-0.465442057627328,44.873210826944884],[-0.465432082979429,44.873178604800515],[-0.465395972074197,44.873055636040235],[-0.465387042933451,44.872997246208065],[-0.465357520528727,44.87276547612612],[-0.465332617679379,44.87257772100659],[-0.465366734100248,44.872569896613726],[-0.465584829670481,44.87254902718318],[-0.465859651464274,44.872529359704906],[-0.466243106963922,44.872501792435116],[-0.466720562726124,44.872469484997055],[-0.467197069727027,44.87239106323105],[-0.467391281833599,44.87235904044319],[-0.467506404439225,44.87267149744662],[-0.46786265763485,44.87258520460215],[-0.467959313575045,44.87256190694274],[-0.468159735321681,44.87251346699183],[-0.468247454341151,44.87249937034319],[-0.468394681242131,44.87247611398903],[-0.468488396771409,44.87247291461081],[-0.468491849560631,44.87250416879105],[-0.468636294885067,44.87251587586821],[-0.468896903793564,44.872536929154485],[-0.468930135675082,44.87253940509276],[-0.468916439274699,44.87277297623137],[-0.468895990409201,44.87313103531526],[-0.469066771389942,44.87322428929105],[-0.468916313468557,44.873490523614905],[-0.468833129303775,44.87363335205668],[-0.468737556331881,44.87377260233343],[-0.468706112771007,44.8737806145769],[-0.46851197200222,44.874213675817906],[-0.468527625485714,44.874362336870234],[-0.4685281050644,44.874363944059844],[-0.468146303389709,44.87438155388046],[-0.467709131313716,44.874229212069324],[-0.467549851913473,44.87445129034094],[-0.467899335942576,44.87464287196847],[-0.468051610766349,44.87472580128254],[-0.468028084268964,44.874763486086145],[-0.467897612424385,44.8747318752518],[-0.467824383827662,44.874882052047646],[-0.467937611736341,44.8749114981964],[-0.467875790930173,44.875012472968855],[-0.467776331946975,44.87497818058564],[-0.467730489219703,44.87496239991079],[-0.467690780974176,44.8750335745436],[-0.467838501770787,44.875073568637276],[-0.46861450996069,44.87528192005806],[-0.468571467603857,44.87544061666805],[-0.468459929027844,44.875727623457735],[-0.46835413375479,44.87593532434875],[-0.468157076280604,44.87633981760071],[-0.468014344835304,44.87658976757169],[-0.467433918671801,44.87635313118827],[-0.467140252097171,44.87673270322503],[-0.467085091454003,44.87681229100338],[-0.467355325864185,44.87700725180495],[-0.467324032864322,44.87703003874877],[-0.467090387003025,44.87729796802493],[-0.46705060473731,44.87734337010132],[-0.466922759355165,44.877255890963205],[-0.466750419547668,44.877371402263286],[-0.466937548239049,44.877519844083594],[-0.46684612989683,44.87758497340205],[-0.466599577758611,44.877761020773875],[-0.466908133989031,44.87804688954137],[-0.466596897801858,44.8782099973226],[-0.466559990416159,44.878228092856],[-0.466312926901014,44.87800816372097],[-0.466137123415089,44.87818461384468],[-0.466314443444047,44.87834661090486],[-0.466235672260158,44.878382596071965],[-0.466074728332314,44.878442596244035],[-0.465902103854688,44.87849818452204],[-0.465828730109965,44.8785107496162],[-0.465731066790966,44.87852407314345],[-0.465614199422275,44.87853430128036],[-0.465529548857919,44.87853667414133],[-0.465483839279024,44.87853539777178],[-0.465380588209891,44.87853213295776],[-0.465303265263746,44.87853616939326],[-0.465235378653807,44.878545228290484],[-0.46517164835551,44.878560015242584],[-0.465117498799805,44.87858216331974],[-0.464969938442145,44.87865571274029],[-0.46459051241456,44.87841053269702],[-0.464502162939414,44.87835299970335],[-0.464164195749077,44.878132569123395],[-0.463863087015348,44.877936311235075],[-0.464124642243075,44.87776908439042],[-0.464306332313811,44.87761399278316],[-0.463994623499724,44.87741229849212],[-0.463593331776595,44.877151486120624],[-0.463447281458137,44.877255627503295],[-0.462575967691521,44.87666756016922],[-0.461931212528932,44.87624455034485],[-0.461914471013568,44.876256698146456],[-0.461321318777036,44.875887229316746],[-0.46138685998721,44.87582786841453],[-0.46148045437471,44.87574248882569],[-0.461703898448109,44.875580061203046],[-0.461939418756396,44.87541617494417],[-0.462017385916503,44.87536102218122]]],[[[-0.462800513489138,44.892622069484645],[-0.462999589307321,44.89234729830227],[-0.463197652055834,44.89207463111871],[-0.463222203742145,44.892041061056794],[-0.463431650792754,44.891774166506906],[-0.463637073692009,44.89151604871918],[-0.463840585540319,44.891257809900516],[-0.464041449363718,44.89099983354423],[-0.464122171424668,44.89089043079663],[-0.46422291249847,44.890741831364004],[-0.464343390740715,44.8905617944107],[-0.464434633114889,44.890419529320475],[-0.464483253910434,44.89033230660431],[-0.464495130853593,44.890302916888594],[-0.464505587494312,44.89026284706667],[-0.464608212153824,44.88976298588751],[-0.464645032939951,44.889650987542275],[-0.464692297011185,44.8895048677655],[-0.464705804900889,44.88945262644394],[-0.464727778767071,44.88940814167658],[-0.464750835835011,44.88936272188319],[-0.464891115353707,44.88899227086485],[-0.464906533658657,44.88891554702776],[-0.46492403486515,44.88881712907393],[-0.464902529132307,44.88856131527893],[-0.464867450101795,44.88820273636592],[-0.465843262587243,44.88849671017553],[-0.466124367584124,44.88860824506289],[-0.466521404114949,44.88804781931809],[-0.465001977225074,44.88771458621825],[-0.465016799351667,44.887689790814726],[-0.465443768010773,44.88721981780444],[-0.46546564282588,44.887204535248],[-0.465480409396202,44.887197315150736],[-0.465505474705912,44.88719058461849],[-0.465530203149686,44.887190713811236],[-0.465934343264437,44.8872931806578],[-0.466386575942343,44.8874107265933],[-0.466998726981016,44.88756815654057],[-0.467499229609189,44.887697438307264],[-0.468198462190218,44.887879178031],[-0.468222611159495,44.887876080368954],[-0.468261411163853,44.88785774503341],[-0.46829042673924,44.88783493896045],[-0.468417314985413,44.88766046464013],[-0.468454521316114,44.88765326395886],[-0.468710250580344,44.887717280116384],[-0.469524362765923,44.88778862784746],[-0.469365244731795,44.88817986161486],[-0.469356152918361,44.888198891033284],[-0.469295470209176,44.888324614470314],[-0.469196685607871,44.88851686670778],[-0.469153584016051,44.88860094522185],[-0.469152595431628,44.88860340939634],[-0.468934661974117,44.889027662583736],[-0.468905817225924,44.8890839886662],[-0.468899009604935,44.889096908525744],[-0.46870859935428,44.88946812081076],[-0.468687572744842,44.889509422614026],[-0.468660403015689,44.889562091427734],[-0.469140424684409,44.88968578813671],[-0.469361895675025,44.8897430331843],[-0.469545487635809,44.88979046688942],[-0.469826452686466,44.889862614152236],[-0.469522677842649,44.89020673010519],[-0.469785836737061,44.890335309414986],[-0.470250636627033,44.889944342603606],[-0.47030495649436,44.8899719339967],[-0.470369215717801,44.89000444169046],[-0.470560695106859,44.89010146442442],[-0.470896502216107,44.889754721690245],[-0.471080245121061,44.88956485805147],[-0.471092400056813,44.88955231156743],[-0.471097573031577,44.88956215330958],[-0.471276981617749,44.88975093552392],[-0.47155065421461,44.8900370749946],[-0.471554242112271,44.890045884831196],[-0.471547847984542,44.890059332671],[-0.47098757915821,44.89040913070505],[-0.470972922628893,44.89042427879741],[-0.470973176378214,44.890440672994416],[-0.470985901391421,44.890455776031715],[-0.471004839215248,44.89047293784837],[-0.471028617282662,44.89048841625131],[-0.471291114160587,44.89063080146313],[-0.471362740476972,44.890669657139085],[-0.471436099958772,44.89066276690779],[-0.471705912572401,44.890573039443964],[-0.472103925068665,44.890440729532244],[-0.472132307245882,44.89043227158493],[-0.472117964312737,44.890409468811924],[-0.472072736927826,44.89033626268162],[-0.472084650377926,44.89033210495094],[-0.47210438515749,44.89032526930219],[-0.472047321894367,44.89022674869419],[-0.472009354091737,44.89024010263408],[-0.471996122226571,44.89021681449094],[-0.471987524999703,44.89021924630279],[-0.471812871942641,44.890273284281285],[-0.471662899637774,44.89009313510636],[-0.471433411349921,44.88986338211449],[-0.471247264837875,44.88967021461401],[-0.471872405547676,44.88923186940429],[-0.472443879115678,44.88883602432993],[-0.472630212968697,44.8889461819244],[-0.472714692228742,44.88899608003863],[-0.473068530564747,44.88920094156757],[-0.473241844545132,44.889303484745255],[-0.473408460968231,44.88940227188699],[-0.473434985165763,44.88938224602446],[-0.473510311790706,44.88942558072061],[-0.473738312889143,44.88955750395602],[-0.473963948220703,44.88939327069021],[-0.474236820764423,44.889568038451145],[-0.474041524762426,44.88969401240844],[-0.474159360168296,44.88979117086431],[-0.473919386650903,44.889926563654484],[-0.474020289656915,44.8902477540822],[-0.473904105194882,44.89028167091024],[-0.474000030351576,44.89046720370075],[-0.474075403296916,44.89098412650732],[-0.473528924756386,44.89108972676642],[-0.473573523775104,44.891484416360846],[-0.472987442865229,44.89155250060259],[-0.472445552319918,44.891615594576464],[-0.472382111721865,44.891622986280495],[-0.47164196460976,44.89170913020401],[-0.471574692994662,44.89169149730198],[-0.471517475028882,44.89167652398255],[-0.470601171290246,44.891435981184856],[-0.470314164978738,44.89135239873883],[-0.469676606480824,44.8910678969309],[-0.469662395797773,44.8910841123606],[-0.469649971875192,44.89109846951201],[-0.46917208048252,44.89164286901418],[-0.469159661873756,44.891657316060964],[-0.469134673317144,44.89171451304368],[-0.469107929735695,44.89175563310815],[-0.469007034404381,44.891920013455184],[-0.468832791108466,44.89220222145207],[-0.468698419782525,44.89242190067693],[-0.468681353700398,44.89244730746299],[-0.468661530158854,44.8924711782163],[-0.468647033766275,44.89248893449619],[-0.468622905074672,44.89251699522653],[-0.468577830578593,44.892569232117495],[-0.468541645771489,44.8926114581113],[-0.468398966807901,44.892776782848784],[-0.468331214651849,44.89285595350877],[-0.468233559614336,44.89296823171815],[-0.468185795114161,44.89301388348029],[-0.468152812314642,44.893040238033976],[-0.468101258478254,44.89307996999485],[-0.468014221459546,44.89314252968905],[-0.467963800738154,44.89318213606232],[-0.4679409188717,44.89319961346304],[-0.467916937049566,44.89321775607004],[-0.467851093268857,44.89327244386333],[-0.467842449428532,44.893280284083865],[-0.467807511102158,44.8933119266613],[-0.467774291422687,44.89334675991638],[-0.467752769247133,44.89337392792694],[-0.467725573438984,44.893407761906445],[-0.467703291967463,44.89343495362414],[-0.467682408132887,44.89345399074363],[-0.467661150220068,44.89347312966504],[-0.467636894218114,44.89349299307971],[-0.467618054543483,44.89350818123184],[-0.467576278641218,44.893533818919856],[-0.467509685010664,44.89357023524845],[-0.467305711031509,44.89367934457707],[-0.467193863023163,44.893740515572496],[-0.46700355040957,44.89384297926628],[-0.466846664228817,44.893932412615165],[-0.466830519712365,44.89392967240461],[-0.466778206502867,44.89392022108939],[-0.4659985956954,44.89378072292348],[-0.465771537184695,44.894298079192716],[-0.46539781723124,44.89429478530881],[-0.465200475875331,44.89430202658806],[-0.464781000311451,44.8943153893127],[-0.464702522241129,44.89431955084199],[-0.464603118226492,44.89434824753731],[-0.46453471239729,44.89436768561378],[-0.464508221529467,44.894369864134916],[-0.464482339919181,44.89436959035941],[-0.464451669394495,44.89436568092456],[-0.464421647025307,44.89435994882732],[-0.464273961233696,44.8943212991671],[-0.464100503396996,44.89427182783601],[-0.464046612592812,44.89425530487653],[-0.463672931694594,44.894129438962906],[-0.463262589870179,44.89398885417287],[-0.463091124945251,44.89392850460378],[-0.462780984528393,44.89382138160726],[-0.462838693674053,44.8936841292614],[-0.462946994168292,44.893423725175985],[-0.46305033788767,44.89317546172847],[-0.462875144552291,44.89317173426716],[-0.462864235417335,44.893173696735936],[-0.462808519133854,44.89312758027087],[-0.462717140371256,44.89315070782359],[-0.462574819443022,44.89295859246883],[-0.462605224338675,44.89290276028859],[-0.462666574018371,44.89281216743297],[-0.462800513489138,44.892622069484645]]],[[[-0.461105187721939,44.874245031949485],[-0.461103322500274,44.87432574809996],[-0.461144436283343,44.87463475128816],[-0.461148025068738,44.8747422434331],[-0.461123733888313,44.87482924648055],[-0.461088044278569,44.874891731698675],[-0.461031911472166,44.874955665535836],[-0.460809133686827,44.875128885492465],[-0.460544239745027,44.875291251935245],[-0.460404840234031,44.875367604930894],[-0.460134901966993,44.87503509501387],[-0.459190922886244,44.87423550329347],[-0.459355265878671,44.874489747595184],[-0.459485315677136,44.87474073493489],[-0.459565838213663,44.87562942741041],[-0.459119381185181,44.875690116284936],[-0.458337009173202,44.875748113813295],[-0.458094640750098,44.875776393803484],[-0.457905067952032,44.875803749257614],[-0.457709999695489,44.87585299464325],[-0.457431814219998,44.87594177847725],[-0.457153068869499,44.87605851638489],[-0.456914447603836,44.87615381678115],[-0.456659553889765,44.87626890924759],[-0.456153408821995,44.87648419915675],[-0.455849252797579,44.876639124948305],[-0.455603784429925,44.87674680186724],[-0.455254075399926,44.87689683585241],[-0.4548643610931,44.87713823444543],[-0.454857399504926,44.87714250657319],[-0.454467749156298,44.877452933926136],[-0.454334352586657,44.877540537375694],[-0.453927251210019,44.87773434933639],[-0.453863692565543,44.877770482920674],[-0.453615744934358,44.877930682424505],[-0.453380574493142,44.877983420775124],[-0.452994822475681,44.878073196805204],[-0.452299049164916,44.87814873340007],[-0.451952108472519,44.87815862344704],[-0.451110259062157,44.877961215470236],[-0.451125651783572,44.877723089733735],[-0.451129845087853,44.87763671426681],[-0.451150427431703,44.877192412313256],[-0.451059125872903,44.87698770448656],[-0.450870900628951,44.876585763258134],[-0.450189027969726,44.87649133882706],[-0.450213169564626,44.87625321181522],[-0.450227196552136,44.876128860528574],[-0.449934431288986,44.87604874268664],[-0.448955967290243,44.87607158421363],[-0.448865091182306,44.876083961022054],[-0.448864704162617,44.87607766464288],[-0.448859934404417,44.87607429818311],[-0.448799575554002,44.87607590349924],[-0.448794046777688,44.87607256062336],[-0.448779395562769,44.876007408490814],[-0.448773061194114,44.87597858666535],[-0.44876674576467,44.875974817633384],[-0.448758075872247,44.87596986008453],[-0.448749225981372,44.87590011179301],[-0.448754621774826,44.87579612579335],[-0.448782199338428,44.875551944627354],[-0.448791302419111,44.87548353097531],[-0.448800491963998,44.875410338272935],[-0.448811289549664,44.87532619107223],[-0.448877554430881,44.874771155149745],[-0.448884569383684,44.8746749592963],[-0.448899186404945,44.87446119089867],[-0.44891492125444,44.87423468084596],[-0.448971384192703,44.873718160497],[-0.449005866876206,44.87335129167204],[-0.44901974407623,44.87319972912384],[-0.449084008612937,44.87247614096267],[-0.449098526245662,44.872316447729645],[-0.449176264606631,44.87161415979761],[-0.449207919747509,44.871083811221425],[-0.450114608063916,44.870964785270296],[-0.451028432872393,44.87085057659235],[-0.45097806988827,44.87027276106821],[-0.451707604226642,44.870438602813635],[-0.452356952966902,44.86888699279142],[-0.452430817495761,44.8687157196492],[-0.453050457430997,44.86890002101097],[-0.453562571127853,44.869048283034395],[-0.454109995843077,44.869066031137685],[-0.455251427072855,44.869851851719254],[-0.455285527899566,44.869961097088634],[-0.456853900702788,44.87032626429413],[-0.458402151098447,44.87068536822608],[-0.458195235251118,44.870932798463286],[-0.45914348876495,44.87146775881324],[-0.458973044043083,44.871663315908755],[-0.459217597458163,44.8717509504182],[-0.459054863740451,44.871948249925715],[-0.45942036270467,44.87212899365356],[-0.459533333652667,44.87201876926058],[-0.459657441389826,44.87189801393237],[-0.459668182500601,44.87188722509477],[-0.459789386921941,44.87176872301071],[-0.460033625064409,44.87153057992932],[-0.460053671734328,44.87154121995743],[-0.460577868185761,44.871816865286334],[-0.460857622579926,44.87209914046336],[-0.461447934806912,44.87267597598359],[-0.461920306928597,44.87312202804017],[-0.461149580638536,44.87342985809893],[-0.461563082845605,44.873852243764965],[-0.461259920290102,44.87401048863256],[-0.46119635948348,44.87404644647552],[-0.461179472073903,44.874093205051345],[-0.461152107437196,44.874130377113886],[-0.461125882377869,44.87417986015701],[-0.461105187721939,44.874245031949485]]],[[[-0.460326725331369,44.86529042359805],[-0.460332999664835,44.865090070638544],[-0.460339218492231,44.86488881821769],[-0.460932485022986,44.8649600752883],[-0.461638432875522,44.86504610841849],[-0.461615547910377,44.86546398975741],[-0.461612954427818,44.86550822967147],[-0.461606057050564,44.86563677632806],[-0.461625714772326,44.86565346619844],[-0.462095789314034,44.865748927688415],[-0.462070951472778,44.86580233298875],[-0.461988792577187,44.86598036087479],[-0.461910329820828,44.86615052301954],[-0.46182851050847,44.866327909337215],[-0.461752760513929,44.866492759740105],[-0.461644599037623,44.86648964535376],[-0.461575670068363,44.866487740238256],[-0.461476637450813,44.86648470138972],[-0.461058851064024,44.866472769985045],[-0.460852536969989,44.86645622422756],[-0.46081247906091,44.86645395889579],[-0.459877442013352,44.8663768656951],[-0.459912852744988,44.86574879427665],[-0.459915876065924,44.86569300563441],[-0.459928027949262,44.865476968752006],[-0.459939139777295,44.86528106114463],[-0.460326725331369,44.86529042359805]]],[[[-0.459720670450388,44.89221891367222],[-0.459402458796236,44.89217800195576],[-0.459216929225928,44.89268503664683],[-0.459102569346611,44.892995462299545],[-0.458806329977867,44.893002529481215],[-0.458352065157901,44.89289564915786],[-0.457976670083398,44.892809471462975],[-0.45793532921425,44.892786696864064],[-0.457653175732625,44.89260884456767],[-0.457419825941171,44.89253779710399],[-0.457398080223716,44.8925675834253],[-0.456983945293967,44.89311174345153],[-0.456653089310174,44.893544622908536],[-0.456610826534565,44.89359947066929],[-0.456254197143016,44.894064783756136],[-0.455931449116585,44.89448127677003],[-0.455765717183943,44.894692902896814],[-0.455599720824467,44.89489408295124],[-0.455358099379814,44.89518899915287],[-0.455204941548506,44.89537635095156],[-0.455040174273979,44.895579023891194],[-0.455005717972786,44.89560010304378],[-0.454964558635476,44.895604988772945],[-0.454736986520728,44.89550437610071],[-0.454137929995979,44.8952453535196],[-0.453745029504272,44.89507886739877],[-0.453364235440571,44.894911282420004],[-0.453738741802481,44.89398220212676],[-0.453789305045498,44.89383355189043],[-0.453904129416934,44.89349310790703],[-0.453983510300339,44.89326272262177],[-0.454013190673034,44.89317645476142],[-0.452794725575491,44.89280872444991],[-0.452723327723636,44.89277958302684],[-0.45284454038286,44.89254285092181],[-0.453025924801434,44.89164627552647],[-0.453065201645146,44.891450212794624],[-0.453108330796166,44.89134144733061],[-0.453171421128565,44.89123566576019],[-0.453362364347771,44.89097639666264],[-0.453751369888978,44.89113570439284],[-0.453961597913922,44.89126380408778],[-0.454009567219925,44.89119661354419],[-0.454128632344325,44.89103015077897],[-0.454156278706046,44.89099116946972],[-0.454121762227469,44.89098034751483],[-0.454107215583334,44.89096647093093],[-0.454106731570682,44.89094008060556],[-0.454208227805531,44.89079714519365],[-0.454205407735325,44.89077605456189],[-0.454187020720125,44.89076157652079],[-0.453839168347426,44.89062820646382],[-0.453795527949387,44.890611269714114],[-0.453647109206692,44.890554244679905],[-0.453676822359817,44.89052412115169],[-0.453953890513879,44.89024297572607],[-0.454283380059771,44.88986818507607],[-0.454588473051172,44.889523441825226],[-0.454850557638231,44.88914119415261],[-0.454989333461828,44.8889367167918],[-0.455244347026207,44.88856324964154],[-0.455358501436585,44.888397478985105],[-0.455521889112618,44.888160422149085],[-0.455798734531742,44.88775869702759],[-0.455965570794983,44.887515944621356],[-0.455981737865874,44.88753761099026],[-0.456251204711984,44.887892768411085],[-0.456272309466809,44.88792049934226],[-0.456297977665523,44.88795439663715],[-0.456385297980733,44.88806919529303],[-0.456719535765785,44.88773489340595],[-0.4567603977733,44.88769441839287],[-0.456993250204734,44.88746150444617],[-0.456852416989131,44.88739172088135],[-0.456359385705873,44.88714247897481],[-0.456356243734206,44.8871408645126],[-0.456344473811401,44.88713501266209],[-0.456460739250351,44.88701594770602],[-0.456477047535862,44.887021387863825],[-0.456678579528345,44.887088740971365],[-0.45677626876707,44.88691510020506],[-0.456803371649836,44.8869229077813],[-0.456813958129083,44.88690338237411],[-0.457037771755114,44.886962020189266],[-0.457319289289595,44.88659934795016],[-0.456944225097049,44.886456111533434],[-0.456994134506189,44.88638967022914],[-0.457033357734236,44.88634113526257],[-0.457432300676547,44.886118998823775],[-0.457680448771548,44.88598014356139],[-0.458012886399162,44.88576503316796],[-0.458036572726166,44.88577294686437],[-0.458780064906442,44.886025822406665],[-0.458924767450395,44.88582530052626],[-0.459047558270905,44.88586770615937],[-0.459107787033241,44.88578363904067],[-0.45898765337127,44.88574115067778],[-0.458977003760986,44.88575346861339],[-0.458714942887891,44.885660428844886],[-0.458390676178925,44.88554535448012],[-0.458365410610716,44.885536498735384],[-0.459107026412116,44.88505584665045],[-0.459313266494656,44.884922078571826],[-0.459477126635854,44.88500763331514],[-0.46019086806648,44.88538245885043],[-0.460254561231392,44.885416251340715],[-0.460167787116107,44.886253746509176],[-0.460167557333656,44.88625618693738],[-0.460124419012357,44.886641987587865],[-0.460080165466962,44.886787740790524],[-0.459933701488699,44.88673769284163],[-0.459885540593019,44.88672144017057],[-0.459816405289634,44.88669809082697],[-0.459679188305294,44.886871975214255],[-0.459476482303593,44.88713099192795],[-0.459769721585404,44.88722377939803],[-0.459829481212271,44.88724309521518],[-0.459864783399716,44.88725434146166],[-0.459704658641337,44.88749463805111],[-0.459677112158963,44.88753514981564],[-0.45949024557444,44.8879092079262],[-0.459452704112559,44.88798499805299],[-0.459377909322757,44.88814125557464],[-0.459454787042933,44.88815445065633],[-0.459861649064281,44.88825180789698],[-0.460126168435417,44.888316651087855],[-0.460363423425545,44.888371078452266],[-0.460395445558596,44.888378461483256],[-0.46058736768334,44.88814807718524],[-0.460630553664347,44.888095992726],[-0.460636568329304,44.888088685656506],[-0.460361399703265,44.88803616176285],[-0.460501679590632,44.88786875984174],[-0.459680827415465,44.887700225730974],[-0.459737447474343,44.88758229512629],[-0.459856579057472,44.88741113728013],[-0.460021296767145,44.88717132813323],[-0.460123848556595,44.88691020532478],[-0.460188680859278,44.88666647998773],[-0.460189735458456,44.88665274872884],[-0.46060440390799,44.886580882735316],[-0.460883791129657,44.88657244259337],[-0.461482597305228,44.88651402776396],[-0.462426476154059,44.886963042681764],[-0.4624804295898,44.88698686400996],[-0.462666242152378,44.88707668634742],[-0.463410835392163,44.887426828662704],[-0.463276894101604,44.88759818235121],[-0.463783951849412,44.88778450302353],[-0.463116607045823,44.88863651209999],[-0.462848498815997,44.888538262760385],[-0.462515047371498,44.88895258720049],[-0.463002797356386,44.889164838108734],[-0.4636056425349,44.889423963798386],[-0.464059307689613,44.88955219940165],[-0.463646637467081,44.890081741118806],[-0.463253198718955,44.889912602300996],[-0.4628655464736,44.890367010366596],[-0.46364146196305,44.89087875454341],[-0.463879885612372,44.891044257933764],[-0.463425646557192,44.891609161567914],[-0.462955531706085,44.89219429494344],[-0.462855366729404,44.89232151640241],[-0.462641078027294,44.89264560752475],[-0.46254097548587,44.89279851127744],[-0.462448431532088,44.89295063845768],[-0.462417154093818,44.893010823623335],[-0.462351842428414,44.89316047918713],[-0.462328746436422,44.893112894518936],[-0.462289332240585,44.89306590889548],[-0.46188882465468,44.89273936302597],[-0.461762967801039,44.89263523237222],[-0.461705212677464,44.89258070759137],[-0.461644921208343,44.89251589793655],[-0.461595569761987,44.89242497246818],[-0.461552601992147,44.89232654811853],[-0.461544630863425,44.89229804801244],[-0.461461703091793,44.89228963899175],[-0.461456453251808,44.89204431261506],[-0.461455500052387,44.89193024894058],[-0.461445277964752,44.891900196839664],[-0.461425426743665,44.89186819195038],[-0.46139257982696,44.891835150328625],[-0.46133969107016,44.89180399529519],[-0.461159572523055,44.8917183184707],[-0.461084429012181,44.89193262620606],[-0.460515465397288,44.89188385412225],[-0.460409374579228,44.89212472041384],[-0.459805445020361,44.89203675678965],[-0.459720670450388,44.89221891367222]],[[-0.459837877842959,44.891967067381785],[-0.459805409144631,44.89203675156417],[-0.459805445020361,44.89203675678965],[-0.459837877842959,44.891967067381785]],[[-0.461639533480773,44.889692119696214],[-0.461970134142835,44.88980455487589],[-0.462043237192652,44.889731890420585],[-0.462311268523155,44.889477590361025],[-0.461899190118208,44.88946232441922],[-0.461846631145599,44.88953714185777],[-0.460944040395529,44.8893243923095],[-0.460987647522526,44.88935926140986],[-0.461150421012413,44.889451607247025],[-0.461159099631437,44.88945665379736],[-0.461417943695702,44.88958349418369],[-0.461408169645439,44.88959767760272],[-0.461639533480773,44.889692119696214]],[[-0.458409415907231,44.887015272569585],[-0.457912063567437,44.88682556173395],[-0.457780332503346,44.88710705722305],[-0.458272092954034,44.88723070409947],[-0.458409415907231,44.887015272569585]],[[-0.45720964378962,44.89191079245582],[-0.457294429236449,44.89194113627194],[-0.457543371688851,44.89203071379084],[-0.457616044647791,44.89192625315977],[-0.45770935703148,44.891792581274515],[-0.457729935714602,44.89176238062991],[-0.45749365450195,44.8916745721328],[-0.457102049617369,44.89152887612235],[-0.456987387152965,44.89155065126623],[-0.456892376041037,44.89158271898549],[-0.456833306429715,44.89162403134457],[-0.456787362501125,44.89166232144723],[-0.456615376833032,44.89159945519446],[-0.456157297979112,44.891430411652415],[-0.456053694133324,44.8915761182332],[-0.456667427848531,44.89178988213569],[-0.456690567777067,44.891788891249504],[-0.456707844331436,44.891779160960674],[-0.456761093313435,44.891797689971895],[-0.45678798453714,44.89175882158791],[-0.45720964378962,44.89191079245582]]],[[[-0.459656790258647,44.895894602366035],[-0.459685193713679,44.895886417429715],[-0.45990249338437,44.8958388207033],[-0.460137111949627,44.89578834061869],[-0.460163661462286,44.8957809343073],[-0.460306862395484,44.89582702908433],[-0.460761282153368,44.895966791790265],[-0.460966459135386,44.89603096072198],[-0.460969594001462,44.89600779195446],[-0.460975465283741,44.89590568178563],[-0.46098133986747,44.895809789882314],[-0.460994048034236,44.89565204201563],[-0.4610053141258,44.89554489712603],[-0.461039104361376,44.89529114376289],[-0.461064464606598,44.89512885589662],[-0.461284964049676,44.89514550316374],[-0.461362546663727,44.895151465590175],[-0.461380305814159,44.89505709567214],[-0.461388700858025,44.89501438682104],[-0.461414558551236,44.894878669110774],[-0.461415940503036,44.894870244747565],[-0.461184348277164,44.89484024518319],[-0.461271221823481,44.89463927001009],[-0.461503182929465,44.89439790281355],[-0.461512383877063,44.8943805830163],[-0.461485961668692,44.89437771188297],[-0.461522490054629,44.89429780697675],[-0.46153723435921,44.894265534452956],[-0.46154060880057,44.894258580023596],[-0.46155746245724,44.89426048779578],[-0.461601440218271,44.89396847557116],[-0.461636393771139,44.89374595782806],[-0.461846356569544,44.89372138646639],[-0.461895391731542,44.89371472047082],[-0.462046453092123,44.893684865893874],[-0.462072117856433,44.89368163226051],[-0.462094956567114,44.8936819113603],[-0.462114126696369,44.89368437765126],[-0.462152079681172,44.89369536042459],[-0.462379269766147,44.8937711866033],[-0.462535780082335,44.89382344213451],[-0.462906028626078,44.89394923853997],[-0.462979522217117,44.89397524414286],[-0.463055567767592,44.893999457789],[-0.463191996273416,44.89404062309766],[-0.463550779391934,44.894153166796904],[-0.46362926428679,44.894179917482084],[-0.463680927102172,44.89419732124176],[-0.463901254598453,44.894272817828245],[-0.463929739774106,44.8942844559139],[-0.463945752682909,44.89429738436461],[-0.463954300735989,44.8943126185225],[-0.463958495094258,44.89432510464033],[-0.463958326394762,44.89434700939381],[-0.463958399749856,44.89443442482266],[-0.46361942238319,44.89439011713702],[-0.463386484605784,44.894362957933915],[-0.462869496801118,44.894300138809974],[-0.462846892991146,44.89443305181884],[-0.46283280916333,44.89451297810907],[-0.46264068425265,44.89449382680045],[-0.462609922823531,44.89461167356414],[-0.462563799871921,44.89478875852021],[-0.462510542085557,44.894998149166696],[-0.462027667995784,44.89494579752205],[-0.462008965105866,44.89509264758968],[-0.462003037106185,44.895138343694676],[-0.461992676104254,44.89521698218426],[-0.462406266110473,44.895262212376444],[-0.462559722517305,44.89527725304817],[-0.462836381138422,44.89531016998268],[-0.462975176286073,44.89532801054554],[-0.463352128214646,44.89537122584802],[-0.463770609396449,44.89542170573058],[-0.463908506967431,44.89543732011528],[-0.46390647337933,44.89545982378996],[-0.463897657155438,44.89558807123294],[-0.463883136727465,44.895747137926556],[-0.463777498476603,44.89574268340135],[-0.463637681449411,44.89573911485755],[-0.463612635803289,44.89590022217258],[-0.463582560766042,44.89589980862756],[-0.463576056028251,44.89595462511779],[-0.463604779158183,44.89595778448362],[-0.463604223446317,44.895967264566025],[-0.463876432268394,44.895995811796716],[-0.463872905037885,44.89611731537402],[-0.463342920105255,44.89607220671428],[-0.462934138085769,44.89603719377422],[-0.462930693584279,44.89610462186563],[-0.462927113778712,44.89617601951811],[-0.462918370441302,44.896330129395466],[-0.462907011942703,44.896491170071926],[-0.462920806933137,44.89649281257914],[-0.462919419119841,44.896519621912525],[-0.463227153998688,44.89655057743393],[-0.46352647033797,44.89658071328891],[-0.463631360023921,44.89659149995437],[-0.463757665501231,44.89660414177482],[-0.463861399670219,44.8966146939125],[-0.463856853905471,44.89672586532522],[-0.463852674373617,44.89687992311162],[-0.463853819669431,44.89698469859519],[-0.463916532113726,44.89699004181355],[-0.464167648671427,44.897015731841826],[-0.464309565299931,44.897028606935905],[-0.464443526020007,44.8970420004782],[-0.46453651426069,44.89705099478981],[-0.464729128235871,44.897071750052255],[-0.464843113995633,44.89708198138164],[-0.464964050184812,44.897093888227346],[-0.4650976037823,44.89710684308958],[-0.46508612513004,44.89724121200533],[-0.465085502972471,44.897249612722206],[-0.465059687139749,44.89739614490269],[-0.466026856452482,44.89750456207451],[-0.466051612496555,44.897427095777935],[-0.465890646863502,44.897407607807885],[-0.46577922888442,44.89739585542359],[-0.465564165671779,44.89736886332535],[-0.465575890992697,44.8973062233501],[-0.465579005628546,44.89728891291652],[-0.465603317240378,44.89715910001181],[-0.465819620363895,44.89718154722499],[-0.465833953816877,44.897154964530614],[-0.465856896254322,44.89702762757881],[-0.465875973713439,44.89690545808574],[-0.465639211248929,44.896878152258985],[-0.465665681587596,44.896734032762375],[-0.465526685860984,44.896719175688574],[-0.465396873984265,44.89670520336193],[-0.465222617446512,44.89668603923501],[-0.465061139433694,44.89667053148028],[-0.464963440389432,44.89665916124768],[-0.464606888760862,44.89662000078151],[-0.464289617131843,44.8965886256565],[-0.46430794971005,44.896448185143164],[-0.464148750507458,44.89643260498476],[-0.464095563133002,44.8964275054446],[-0.464056494868421,44.89642313691872],[-0.463923987639621,44.89640861615468],[-0.463924704885915,44.896346319880365],[-0.463926206033423,44.89622280671242],[-0.464347627538767,44.896265352344564],[-0.464761880887121,44.89630884107501],[-0.465097333468047,44.89634514477092],[-0.465430575302305,44.896382597932174],[-0.465467998676072,44.896064833011366],[-0.465110117053545,44.896022561538466],[-0.465131288397593,44.89574955370011],[-0.46515130950541,44.895476401532754],[-0.465170062176221,44.895225819330335],[-0.465213076103054,44.89523249756374],[-0.465557545293714,44.89528555118925],[-0.465552179368646,44.895327985657545],[-0.465549331592822,44.89534961358306],[-0.466131006751977,44.89544338553779],[-0.466338199982384,44.895478552716426],[-0.466459572191777,44.89549756381616],[-0.466500114510889,44.89556271747967],[-0.466542181041538,44.89562791366139],[-0.466576650927005,44.89568712865029],[-0.466598568185225,44.895734028452516],[-0.466602459813015,44.89575391391583],[-0.46659642196855,44.895785464739554],[-0.466592634166321,44.895816494698096],[-0.466594118475451,44.89584051079942],[-0.466598400868627,44.89586056430518],[-0.466611963766756,44.89589537832347],[-0.466668425189048,44.89599653409645],[-0.466695244639017,44.896042740087786],[-0.466742459970738,44.89610507180053],[-0.46680778549647,44.89617116381327],[-0.466851085485549,44.896219378546725],[-0.466890081593131,44.89626565486926],[-0.466912639472063,44.89629829542182],[-0.466930999051289,44.89633070658785],[-0.466940730059218,44.89635275285835],[-0.466952211590752,44.89638465783543],[-0.466960961768929,44.89642160479256],[-0.466975493397931,44.89653362271656],[-0.466980161185905,44.89655375430431],[-0.466984751138471,44.896572626620724],[-0.467004385646447,44.89661950754128],[-0.467017381862713,44.89664514682764],[-0.46703647154274,44.89668321284471],[-0.467105222238777,44.89678623773408],[-0.467180686075618,44.89688094200052],[-0.467218783063782,44.89693112154762],[-0.467237785556278,44.89696162004966],[-0.467248109280081,44.89698094414631],[-0.467254051140951,44.896997070589826],[-0.467263656979519,44.89702939461537],[-0.467268537145385,44.897071419114525],[-0.467267176114499,44.897110934880594],[-0.467256411262795,44.89715831454459],[-0.467236468065945,44.89720489938789],[-0.467214085683458,44.897248946875884],[-0.467186906814366,44.89729539719057],[-0.467173518308963,44.89731879631347],[-0.467091508551701,44.89740742351702],[-0.467055081986499,44.897439653009876],[-0.467031420550507,44.8974630124317],[-0.467016559380993,44.897481050225956],[-0.467008700310913,44.897495444737984],[-0.467000817426495,44.89751560777533],[-0.46698558310238,44.89759530039133],[-0.466982615859303,44.897627296097134],[-0.466990227412101,44.897707356755106],[-0.467011254624497,44.89774599314683],[-0.467086000960837,44.89787830065908],[-0.467146017132346,44.89797537998091],[-0.467168685502419,44.898015947777004],[-0.467242013417166,44.898174524907596],[-0.467283710555992,44.898276772476414],[-0.467338703359437,44.898415644805894],[-0.467346416757825,44.89844811807044],[-0.467350821953862,44.898470150418966],[-0.467347813451927,44.89848916992018],[-0.467339758168935,44.89850654460034],[-0.467327106513799,44.89852956024498],[-0.467288296692808,44.898578626861486],[-0.467111596442599,44.898790793919076],[-0.46705363691368,44.898770073451374],[-0.466991528961691,44.89874993310543],[-0.466965295033357,44.898743993183636],[-0.466943315217231,44.89873918211793],[-0.466839857712284,44.89872087361175],[-0.466833733106362,44.898720253761006],[-0.466737648851404,44.898710456725425],[-0.466591667898759,44.89869960403173],[-0.466506106957725,44.898693894184],[-0.466476180503369,44.89869591001879],[-0.466456654977042,44.89870003439064],[-0.46643061243684,44.898709499163715],[-0.466371221554766,44.8987394713797],[-0.466336897071202,44.898756494552025],[-0.466321106971989,44.898759510937865],[-0.466293256668761,44.89876434579409],[-0.466217167191664,44.898770326188604],[-0.466187977772608,44.8987719584477],[-0.466088345404381,44.89877245536124],[-0.466052005241005,44.89876917389092],[-0.465996454135663,44.89876279715074],[-0.465971000179698,44.898763321401994],[-0.46594989480587,44.898766503664724],[-0.465922624231524,44.89877456470612],[-0.465891979475594,44.898789580312226],[-0.465837992412254,44.89882082548676],[-0.465819370633208,44.89882726469315],[-0.465791135033502,44.89883202132714],[-0.465763782737134,44.898832604788474],[-0.465737152564312,44.898826406583744],[-0.465708401767115,44.89881666970591],[-0.465707229434632,44.89881616557115],[-0.465674287414986,44.89880016088358],[-0.46567152974197,44.898798624776],[-0.465649920278286,44.898787493386976],[-0.465638124712116,44.89878128270779],[-0.465614683651796,44.89877128994378],[-0.46558837760663,44.898764180371835],[-0.465554980282446,44.89875927481504],[-0.465516127034241,44.89875841477438],[-0.465479840754267,44.89876216091776],[-0.465377786249848,44.89877886455486],[-0.46535615112234,44.89877962995655],[-0.46533422144756,44.89877562810523],[-0.465310924937302,44.89876797392748],[-0.465282046423815,44.89875616813339],[-0.465246146837994,44.89873538907058],[-0.46523565879256,44.898725712922634],[-0.465229602655194,44.89872004404061],[-0.465214941878156,44.898698241596314],[-0.465192606311816,44.89866919859855],[-0.465174373017797,44.898644984247774],[-0.465170683772086,44.89864068343571],[-0.465147694517656,44.89861337314199],[-0.465134756280414,44.89860097968981],[-0.465127042598556,44.89859310949711],[-0.465108683547645,44.8985791729174],[-0.465086187148034,44.89856599631163],[-0.465058503335005,44.8985550543938],[-0.465024833890253,44.89854574122118],[-0.464970272065896,44.898536899822986],[-0.464928611329604,44.898533693919084],[-0.465038225479458,44.89818988398987],[-0.465078863954882,44.89805956165823],[-0.465083267793736,44.89804464428552],[-0.465099786836728,44.89799185824427],[-0.465122357877426,44.897920047918234],[-0.464979814652477,44.89790322799197],[-0.464607596625038,44.89785689587436],[-0.464613039462422,44.8978218490101],[-0.464505786018841,44.897809785128544],[-0.464402829818796,44.89779749693215],[-0.464368678611648,44.89732875937217],[-0.463935242999263,44.89734228344762],[-0.463868567509139,44.89734463407261],[-0.463867160123762,44.89745940257284],[-0.463869097090017,44.89747844788591],[-0.463740491187629,44.89747786404649],[-0.463594091601742,44.89747864626087],[-0.463610730273985,44.897563291933984],[-0.463501573416991,44.89756967125742],[-0.463515335228825,44.89769396999708],[-0.463536216209053,44.89769331858991],[-0.463634546636708,44.897690251001514],[-0.463634571954946,44.89773377886475],[-0.463624973485093,44.89784321536907],[-0.463503007787165,44.897851616460045],[-0.463498240683017,44.897971536559474],[-0.463497638544796,44.89798642538053],[-0.463497329143872,44.89799373486884],[-0.463459263541639,44.89799330016251],[-0.463397725904929,44.89799467911009],[-0.463384371284721,44.89799401424787],[-0.463352543224453,44.89798987019049],[-0.463291211463433,44.89797610225748],[-0.463253401746084,44.897961330192715],[-0.463223400185908,44.897937482654385],[-0.46318481494563,44.89790398950402],[-0.463172667951968,44.897898240148265],[-0.463152720363898,44.89789552787721],[-0.463124642508379,44.89789667406264],[-0.463109622897443,44.89789984620279],[-0.463092680794179,44.89790884607805],[-0.463066309936025,44.89793147802107],[-0.4630413097327,44.897945505670194],[-0.4630229565053,44.897950133600354],[-0.462995604609967,44.89795071638001],[-0.462954440702986,44.89794938680631],[-0.462930139177459,44.89794392641317],[-0.462897794703962,44.8979314170442],[-0.462852149676213,44.89790679563659],[-0.462791502259592,44.89786714124893],[-0.462766958473757,44.897851594781514],[-0.46273417334904,44.89783810777633],[-0.462639019855601,44.897806378741286],[-0.46262670079448,44.89779784093187],[-0.462621617394717,44.89778943794126],[-0.462618174783069,44.89778296644817],[-0.462617761809894,44.89778243859964],[-0.46261277281426,44.89777556472805],[-0.462609244859502,44.89777387232984],[-0.462607274395702,44.897772762206415],[-0.462603724229252,44.89777071001526],[-0.462568777874076,44.897759182917426],[-0.462500570410741,44.89773877977396],[-0.462471763139585,44.89773427089783],[-0.462436355304093,44.897733752959866],[-0.462399608608785,44.8977300323949],[-0.462369695702067,44.8977260987013],[-0.462342653459012,44.8977193718356],[-0.462313451980324,44.897708476595504],[-0.462099492390465,44.89760691302387],[-0.462025985460839,44.897574598595284],[-0.461972183046935,44.8975533854664],[-0.461837026784668,44.897508303488976],[-0.461765734844005,44.897481056748234],[-0.461726379491707,44.89746588177588],[-0.46161027289141,44.897421287020144],[-0.46160170402757,44.89741803945735],[-0.461573686218059,44.89740782809818],[-0.461529323319374,44.897391637611356],[-0.461528927013066,44.89739137960358],[-0.461526588033995,44.89739046119455],[-0.461526225035171,44.89739074287621],[-0.461526236137658,44.89739092277269],[-0.46150639115318,44.89741452244092],[-0.461472046206568,44.89745587747666],[-0.461285737388615,44.89767905862782],[-0.460747733361511,44.897498013910024],[-0.460504107702819,44.897414945759365],[-0.460402737458171,44.89738106549237],[-0.460091097779317,44.89727452189361],[-0.459740894917883,44.89715944609485],[-0.459374894809105,44.89704107637984],[-0.45928348318172,44.897014455016006],[-0.459238398368892,44.897005045229896],[-0.459208039849869,44.89700004313485],[-0.459154891218525,44.89699557086681],[-0.459017462652211,44.896987596184175],[-0.458739133316588,44.89697085327194],[-0.458501922846683,44.89695472131374],[-0.458417817435448,44.896947878552986],[-0.458368723053592,44.896941296954985],[-0.458319775398877,44.89693092567697],[-0.458283356214295,44.89692016412511],[-0.458687872003054,44.89662070733091],[-0.459194534145085,44.89623830910195],[-0.459435487319097,44.896056146388915],[-0.459633934814525,44.895906399497214],[-0.459656790258647,44.895894602366035]]],[[[-0.455905126625028,44.894640528819814],[-0.456466403883167,44.894878998943376],[-0.45685441169712,44.895040040479095],[-0.45748049362645,44.89518195090392],[-0.457512254402703,44.89512950264839],[-0.457699090951657,44.89482222882203],[-0.456933688835108,44.89449954948666],[-0.45623437100248,44.89420598969859],[-0.456539707918212,44.8938156321785],[-0.456664293683049,44.893646200861596],[-0.456800430771473,44.893460548416265],[-0.457124155177289,44.893016895806355],[-0.457397089969359,44.89263790862985],[-0.457425178701964,44.89261846891743],[-0.457454071330539,44.89261207170325],[-0.45748492891553,44.8926190413105],[-0.457600448625823,44.89266050394397],[-0.457620837646499,44.89267041307195],[-0.457928889270751,44.89286115717266],[-0.4587804600961,44.89305794884827],[-0.459066912746923,44.89305253850087],[-0.459659284343765,44.89330182931007],[-0.460158652192006,44.89351084790393],[-0.460519025021326,44.89366165302814],[-0.4611322545279,44.89380493457909],[-0.460946761868505,44.89430007558518],[-0.460820545142816,44.89464016238243],[-0.46076180096483,44.89479772307317],[-0.460664932286119,44.89505866960254],[-0.460473106020507,44.89535880463207],[-0.460256324080325,44.895698379109874],[-0.460191878905442,44.89573274121872],[-0.46011023556471,44.895759618507945],[-0.459658885791037,44.895860741620176],[-0.459578216878687,44.895878756264544],[-0.459242385932778,44.89613840580858],[-0.459011199618472,44.89631242323746],[-0.458890861889227,44.89640268875605],[-0.458680398123134,44.89656118983934],[-0.458366571496866,44.89678302111988],[-0.458189080504824,44.89690877144979],[-0.458174290792097,44.89690950248953],[-0.458153063666024,44.896910704404526],[-0.458142070452618,44.896911317185875],[-0.4581405518525,44.89691136448734],[-0.458115154120253,44.89691278642237],[-0.458077392216824,44.896935771931794],[-0.458055547869738,44.89695781103472],[-0.458042560468238,44.896987775288096],[-0.458026252575836,44.897000900189745],[-0.458022990996441,44.89700352516981],[-0.458017193864669,44.897008211789306],[-0.45796267388901,44.8970123431742],[-0.45790864702726,44.897012133359404],[-0.457383182688188,44.89692314660947],[-0.456953096046292,44.89671529195521],[-0.456901341626394,44.89670257419386],[-0.456510127637314,44.89660696995553],[-0.455941924325363,44.89648479084565],[-0.455858277198627,44.89646684702974],[-0.455666303297051,44.896425509046765],[-0.455347855503243,44.896306998196216],[-0.455313579943164,44.896250748013586],[-0.455302149230583,44.89623190800205],[-0.45524336638015,44.89613595621984],[-0.455220488433529,44.89609800633706],[-0.455148546120887,44.89597984370665],[-0.455133751454393,44.89595579123768],[-0.455116465711868,44.89592217335031],[-0.455113029620964,44.895915791576925],[-0.455108191508897,44.895898999405034],[-0.455101876479866,44.89587675581818],[-0.455048773834679,44.89569393083631],[-0.455283537371986,44.89543581792611],[-0.455337361259074,44.89536483973252],[-0.455469702029026,44.895197691915826],[-0.455731327485622,44.894863220527114],[-0.455905126625028,44.894640528819814]],[[-0.458468462827904,44.89586304480878],[-0.458519282558288,44.89586677882843],[-0.458570797515555,44.89586328147659],[-0.458615001902983,44.89585226142907],[-0.458670924690317,44.89582771861024],[-0.458718527977572,44.89579162907813],[-0.458858249735618,44.89561478425361],[-0.458699219026071,44.895564855011344],[-0.458720613306505,44.895535529976605],[-0.458331911068152,44.895412727640995],[-0.4583106164576,44.89544367167003],[-0.458103485459527,44.895378567539154],[-0.458033621246266,44.89547311780472],[-0.458175500727073,44.8955225007658],[-0.458108582315687,44.89562164561908],[-0.458142296231958,44.89563789872854],[-0.458423010526055,44.895853826418275],[-0.458468462827904,44.89586304480878]]],[[[-0.447568134028865,44.88619617724916],[-0.447294451544057,44.88618602218599],[-0.447296614863309,44.886171715995175],[-0.447315915147528,44.88604639011509],[-0.447570817065714,44.886004678386975],[-0.447589670746627,44.88591541443668],[-0.447635376670247,44.88569995913659],[-0.447971511301464,44.88570943507265],[-0.44804012257514,44.88538611501806],[-0.448050492422893,44.885350645975784],[-0.448058043168706,44.88532499749691],[-0.448075270918407,44.885264982938764],[-0.448103599915289,44.885169026009066],[-0.448107649795219,44.88515448095477],[-0.448155861365048,44.88499220867463],[-0.448100270642334,44.8849849235279],[-0.4480952810839,44.88500274210247],[-0.447885880851867,44.88498031808648],[-0.447929075776618,44.88485397951118],[-0.447765230155822,44.884830230357615],[-0.448047350020054,44.884513706268166],[-0.448120836506738,44.88445329589051],[-0.448199008425032,44.88438868449364],[-0.448397671076268,44.884224081336974],[-0.448810326258868,44.88431751242585],[-0.449745597229093,44.88454231796891],[-0.449823584047825,44.88440669627215],[-0.449100285225952,44.88414718741014],[-0.448981212860108,44.88410321368749],[-0.448897995183878,44.88407335611685],[-0.449084544916611,44.883816934932604],[-0.449242666083055,44.88387132061531],[-0.449301335130159,44.88389157694576],[-0.449682522145849,44.88402987124766],[-0.449899710926068,44.88371517980249],[-0.449848242470524,44.883694519750094],[-0.449799486299675,44.883674676580775],[-0.449752677753198,44.88365558394298],[-0.449776321884671,44.88362574021774],[-0.449248741313307,44.883438193805326],[-0.449477865533954,44.88321865988706],[-0.449850845497715,44.882846316324326],[-0.450440087338689,44.882509244874335],[-0.450546977294484,44.88242319151066],[-0.450679592533131,44.882316421675256],[-0.450769785835396,44.88224332376578],[-0.450859535403934,44.88205173130276],[-0.451603889626518,44.88228290622926],[-0.4516444235235,44.88221856145588],[-0.451670358051678,44.88221360941627],[-0.451604413516363,44.882031814513674],[-0.451465642784201,44.88164906277474],[-0.451550601689984,44.88163308302997],[-0.451797200010518,44.881586572414],[-0.45168009103039,44.881308678279034],[-0.451114060853192,44.881386029189706],[-0.451270865738924,44.880794740409605],[-0.451286174869207,44.88062943427219],[-0.451278319000997,44.88032245833771],[-0.451210324155996,44.88011963901801],[-0.451187879144032,44.88005148501442],[-0.451171524550777,44.88000197677711],[-0.451143936474704,44.87991821163641],[-0.451152357040506,44.87990055658546],[-0.451159760715862,44.87988491580019],[-0.451307816757336,44.87957183016253],[-0.451346889303943,44.879471392700864],[-0.451411851520359,44.879050042821476],[-0.451402257231585,44.87878899232166],[-0.45138555252733,44.87865343015421],[-0.451377289666195,44.87810494473282],[-0.451500941942923,44.878143185581585],[-0.451617981996762,44.87817901844666],[-0.451988464144504,44.87821183523314],[-0.452052309666514,44.878217419549145],[-0.452199335219328,44.87821527971655],[-0.452689145740437,44.87816660860149],[-0.453305586612345,44.87810570423554],[-0.453323032694486,44.87824088268064],[-0.45336478347853,44.87823345542115],[-0.453401891192976,44.878348285727064],[-0.454091493421401,44.87827131213622],[-0.454060146645831,44.87807095870961],[-0.454572770178816,44.87823227078706],[-0.455241663440185,44.878442697881496],[-0.456005166443747,44.8786827086354],[-0.456274015975118,44.87872606586051],[-0.45651690830828,44.878755451074724],[-0.4570256764644,44.87884162166848],[-0.457010243948661,44.87888121468578],[-0.456985636651393,44.878944705062466],[-0.45698006586186,44.8789592077494],[-0.456967605674206,44.87899149853406],[-0.457153262652431,44.87902383668186],[-0.457220887696867,44.87887474353955],[-0.457907146490869,44.87901495099948],[-0.458083933774421,44.87905143913931],[-0.458304337442618,44.87910459208878],[-0.458222920216881,44.87935685326285],[-0.458204422385071,44.87941456611417],[-0.458190691627175,44.87945708028141],[-0.458109251666993,44.879721328123395],[-0.458048461389044,44.87991959505931],[-0.458510176399588,44.88011203563821],[-0.458710296012627,44.88019384753833],[-0.458720842940387,44.88019838538878],[-0.458762584590058,44.88021546923328],[-0.45889951189535,44.880271492866875],[-0.458969725160245,44.88030012600335],[-0.459217073491945,44.8804016435357],[-0.459069093582698,44.88078314036497],[-0.458900859777527,44.88121240130797],[-0.459865915229415,44.881679789370516],[-0.459904308973224,44.88169805864923],[-0.459973283707322,44.88173123588357],[-0.460195432371203,44.88183714191022],[-0.4601788917573,44.881858745830506],[-0.460006783832482,44.88208328491393],[-0.459865201617503,44.88226018959225],[-0.459761805955798,44.8824705101738],[-0.459661146419876,44.88267587884117],[-0.459576741253309,44.8828488380134],[-0.459479146933891,44.88304843334816],[-0.459380529722949,44.88324995300532],[-0.45928123588049,44.883452845465534],[-0.459187365384729,44.88364502467488],[-0.459168791214108,44.883683003671436],[-0.459529646642444,44.8838303698616],[-0.459870854636422,44.88396744274742],[-0.459911543961874,44.883985910893216],[-0.459664783704806,44.884369045889635],[-0.459572907522582,44.88451339925656],[-0.459428102139453,44.88470599464602],[-0.459376505409758,44.88474500287033],[-0.459265855901806,44.88481928629067],[-0.458823632049193,44.885122535353275],[-0.458376135755797,44.88540819300287],[-0.458342825667176,44.885429237645305],[-0.458313046624095,44.88541502514301],[-0.458077017628597,44.88530621285811],[-0.45766990583419,44.88511801596161],[-0.457364944327745,44.88534695924389],[-0.456993400625905,44.88562483807302],[-0.456950339402933,44.885604910657854],[-0.456828694822911,44.885550210657875],[-0.456670658347946,44.885478890033276],[-0.456260117244839,44.88529052449745],[-0.455936057227187,44.88514164150576],[-0.455392936689517,44.88555445013696],[-0.455045500304999,44.88582255960766],[-0.454680553359431,44.88571991578677],[-0.454212115052609,44.885591742905575],[-0.453906040355259,44.885506370157934],[-0.453855732188,44.88549225455441],[-0.453247748259259,44.885302631689],[-0.452747280794674,44.885166797717595],[-0.452479953809103,44.885093013019784],[-0.452226793420286,44.88502076975609],[-0.452558152770767,44.88456544846872],[-0.452572384987305,44.88456806988023],[-0.45304122330562,44.884653519674146],[-0.453585360348685,44.88418914234201],[-0.453603419413488,44.884173620440684],[-0.454001849462051,44.88383201250608],[-0.454212099314711,44.88365207780289],[-0.45424580581416,44.88355099502491],[-0.454316308462421,44.88331872313562],[-0.453528485733152,44.88320346120627],[-0.453503928226434,44.88319989949902],[-0.453442096762284,44.88321065509853],[-0.453345809026752,44.88334946248699],[-0.453291359895238,44.88341631363834],[-0.452804972850612,44.88409599346283],[-0.452502772174784,44.88451832572119],[-0.45230700030351,44.884791531996285],[-0.452184083232249,44.8849632493957],[-0.451498454496649,44.884840378151694],[-0.451384629852978,44.88481994539633],[-0.451205442911372,44.88478793660945],[-0.451115086935603,44.88493881382714],[-0.45100882500369,44.88511550932981],[-0.450982264949328,44.885159773139534],[-0.451895729648272,44.88533882723513],[-0.451693671698218,44.88560267502929],[-0.451623252185148,44.88569435442942],[-0.451104294510621,44.88558558342939],[-0.450743357800359,44.88550470153908],[-0.45071480993266,44.88552902033485],[-0.45054705240372,44.88567049743957],[-0.450450524378202,44.88575199294023],[-0.450442538836282,44.88575818911776],[-0.450234894131353,44.885925147985795],[-0.450169482108942,44.88598080280804],[-0.451316618727076,44.886092308191536],[-0.451141030299162,44.88631874295386],[-0.451022067003833,44.88647447480308],[-0.45037730969019,44.88645369356394],[-0.450049592186336,44.88644306194017],[-0.449867070403114,44.88643728941471],[-0.449799595580148,44.886447046689845],[-0.449571954735565,44.886480616599826],[-0.449476215847931,44.886494586473795],[-0.449311277489454,44.88652737887066],[-0.449178282638019,44.8865539514623],[-0.449029885169902,44.88658361596601],[-0.449006236942877,44.88658867652835],[-0.448936744205185,44.886602731626944],[-0.448628264477559,44.88666377459853],[-0.448481351584581,44.886692851507604],[-0.448391560150027,44.886710781198026],[-0.447745732638033,44.88681492465635],[-0.44760341628502,44.88683836027144],[-0.447781085202233,44.88735301662935],[-0.447570102646058,44.887385434047694],[-0.447184652871801,44.88744417708692],[-0.447014945610701,44.88693522062694],[-0.447358324526137,44.88687886609874],[-0.447387346176686,44.886435203692905],[-0.447559904629483,44.886421192899554],[-0.447607501609754,44.886199370438085],[-0.447568134028865,44.88619617724916]],[[-0.45241176990457,44.882547247438175],[-0.45238653667968,44.88253063904872],[-0.451653903341906,44.882298473814615],[-0.451506713505335,44.88255773120201],[-0.451449800009345,44.88265872353364],[-0.451697067256569,44.882728087321375],[-0.452203353224801,44.88286617745],[-0.452233659196898,44.88287046185074],[-0.452280505331569,44.88278510267428],[-0.45241176990457,44.882547247438175]]],[[[-0.445598900789859,44.88939089266903],[-0.44579657523459,44.88928409248335],[-0.445916693869268,44.88919637169947],[-0.44605257338467,44.88902471009707],[-0.446216909648477,44.888827201551],[-0.446320474003519,44.88872386268105],[-0.446518650439241,44.88857577042373],[-0.44703469682273,44.888172680253774],[-0.447130970449743,44.888093088370454],[-0.447183378436129,44.88806091010734],[-0.447303223032459,44.8880121282087],[-0.447663199704486,44.88793489026479],[-0.44838177907792,44.88777666841628],[-0.448386295456864,44.88777589727206],[-0.448598161468375,44.88773308703764],[-0.44879837600588,44.887692530916446],[-0.449082722344461,44.887634760855725],[-0.449550338320535,44.887539212097025],[-0.449594451501707,44.88784839631961],[-0.449722900364628,44.887840619520034],[-0.449796787743699,44.88783616040055],[-0.449824827649414,44.887834477895765],[-0.449820073336386,44.887781905177135],[-0.449848001111685,44.88774129410878],[-0.449885364612352,44.887687142075166],[-0.449882607170457,44.88766704078818],[-0.44987254680086,44.887590030091616],[-0.449843467820432,44.887593367073144],[-0.449822099303249,44.887474711680255],[-0.449920836997942,44.887441452694716],[-0.450012712234924,44.88740173798857],[-0.450074854742642,44.88741656899355],[-0.450100327946115,44.88742262642692],[-0.45024367905665,44.88717484560175],[-0.450762072357879,44.88690945833621],[-0.450812938886569,44.886883184024605],[-0.451044874093194,44.88657938695526],[-0.451144443600588,44.88644841034144],[-0.451169077503874,44.88641610228114],[-0.45118595270612,44.88639367833433],[-0.451754161029778,44.88565865139452],[-0.452826422325084,44.88590891193531],[-0.453160076819376,44.88533023241027],[-0.454526770054458,44.885723800663364],[-0.455287639818169,44.885975076801685],[-0.45572926950183,44.886112461179366],[-0.456173868685371,44.88624245163567],[-0.45616764030567,44.8862524687238],[-0.455607369090213,44.88699204930095],[-0.455675045619552,44.88701643796477],[-0.455697642592949,44.88714866258254],[-0.455921289492188,44.887414495457904],[-0.45593521502408,44.88743064413048],[-0.45555012512058,44.887890262352954],[-0.455318158716569,44.88821795251467],[-0.455168512939736,44.88845584298621],[-0.454668490271793,44.88827836689934],[-0.454573947624829,44.88825003727404],[-0.454258091280265,44.88869163477297],[-0.454925474224276,44.88885083659363],[-0.454592026434053,44.88936498908409],[-0.453954375215107,44.890096424322515],[-0.453561013220285,44.890551966537934],[-0.453387082633333,44.89075393072086],[-0.453165228119405,44.8910176761216],[-0.453105611173235,44.891099557775135],[-0.453085306576724,44.8910909970506],[-0.452895708970842,44.891038496220666],[-0.452503342321439,44.89092957747126],[-0.452485157376425,44.89092455554755],[-0.451999164116365,44.8907836701575],[-0.451988223296958,44.89080365667639],[-0.45186254722714,44.89103584023728],[-0.452355637907786,44.89118695957065],[-0.452637135949926,44.89126805524602],[-0.452927805758985,44.89136220282328],[-0.452955636506263,44.89131384354962],[-0.452991120159103,44.8913218420413],[-0.452936707044317,44.89154387970012],[-0.452902049776769,44.891722315268986],[-0.452790730996415,44.89225568753968],[-0.452736455109214,44.89256648977767],[-0.452646793131096,44.89274113863879],[-0.452474696163505,44.893059570314115],[-0.452470589102049,44.89306699782024],[-0.452466124559428,44.89307479692651],[-0.452453242603558,44.89306942981356],[-0.452415009593155,44.8930538563515],[-0.450609448188104,44.89231756108752],[-0.450457792021148,44.892257388007394],[-0.450044786950435,44.892091244458264],[-0.449508209485794,44.89187621875039],[-0.44918749111632,44.89174487493042],[-0.449152809206646,44.89173135296805],[-0.448578832300287,44.891551280190676],[-0.448223100574711,44.89153087827994],[-0.448014289657446,44.89151843877061],[-0.447911609090539,44.89151243565833],[-0.447388172557172,44.891486244968426],[-0.446991778594623,44.891466380896944],[-0.445796128352469,44.89140671066349],[-0.445603049504898,44.89095687487055],[-0.445435641679892,44.89064628914024],[-0.445330125462093,44.890451659761325],[-0.445300111031177,44.89039644632991],[-0.445274566731759,44.890352088838085],[-0.445009176127649,44.88980842841128],[-0.444990326914904,44.88980495795381],[-0.445036628653878,44.889741428172066],[-0.445137806373249,44.88964870863487],[-0.445250116941137,44.88957006272767],[-0.445389015944944,44.889490861835554],[-0.445598900789859,44.88939089266903]],[[-0.45078751175939,44.890111371065714],[-0.450667290963613,44.890079870972805],[-0.45002778623883,44.889835964915356],[-0.449657201746351,44.890285106849475],[-0.450497519656127,44.89064020068316],[-0.45062265152831,44.890411460341035],[-0.450647601858898,44.8903657146176],[-0.450723541626799,44.89022763248038],[-0.45078751175939,44.890111371065714]]]]}}]}
