{"type": "FeatureCollection","name": "aoc_geojson","features": [{"type":"Feature","properties":{"dt":"Bordeaux","type_prod":"Vins","categorie":"Vin tranquille","type_denom":"dénomination géographique complémentaire","signe":"AOC","id_app":685,"app":"Côtes de Bordeaux","id_denom":2077,"denom":"Côtes de Bordeaux Cadillac","insee":"33554","cvi":"1R167S","nomcom":"YVRAC","insee2011":"33554","nomcom2011":"YVRAC","id_aire":1452,"crinao":null,"grp_name1":null,"grp_name2":null},"geometry":{"type":"MultiPolygon","coordinates":[[[[-0.496632588804605,44.87847108506401],[-0.496708946216609,44.87853699226825],[-0.496541071342315,44.878729375634855],[-0.496536746940049,44.87873320689735],[-0.496049202634804,44.87901929369887],[-0.496108399177666,44.87909051838646],[-0.496008394431671,44.87913332243964],[-0.495729879137885,44.87926502227899],[-0.495572218726255,44.879261336202404],[-0.495435146294014,44.8792524052555],[-0.495310521224366,44.87924794875192],[-0.494756556736278,44.87928594130732],[-0.494352612462488,44.879308753684725],[-0.494063660725229,44.8793156878255],[-0.493595348418813,44.87931853395894],[-0.493630433142344,44.87886213110708],[-0.493674252962053,44.87828342759127],[-0.493695925728717,44.878008593026046],[-0.493520837855807,44.877895954059696],[-0.493536146180516,44.877634928394905],[-0.493410255735649,44.87735969200737],[-0.49398833335169,44.877464962069375],[-0.494357302130194,44.8775279669074],[-0.494415348677763,44.87701298228343],[-0.494534500146249,44.87604438025559],[-0.495457440226542,44.87616780221196],[-0.495678724401147,44.876252937549566],[-0.495989651119364,44.87640365164688],[-0.49645498657168,44.87667071517174],[-0.496930912884481,44.87695510721784],[-0.496564105002652,44.87784202436697],[-0.496391915892248,44.8782580473174],[-0.496432945443506,44.87828793714087],[-0.496628558197127,44.878467426902475],[-0.496632588804605,44.87847108506401]]],[[[-0.494259233953199,44.880508159587336],[-0.49414708009004,44.88069788351585],[-0.494028533548427,44.88090709477698],[-0.494013135008433,44.88093461627774],[-0.49393428784739,44.88106687477416],[-0.493893904085167,44.881132853979835],[-0.493854591619384,44.88119771797618],[-0.493746596021453,44.88137487365433],[-0.493630325380568,44.881565717937406],[-0.493562004334903,44.88167772774321],[-0.493405665458697,44.88193354954174],[-0.494137859873017,44.882393828911546],[-0.494110728670185,44.88244668372265],[-0.494059869431221,44.88254597761366],[-0.494039516722262,44.882585551250486],[-0.49399848769033,44.88266560992427],[-0.492808335788733,44.88330337457825],[-0.492551846210779,44.883410580285585],[-0.492616707481021,44.883310125593106],[-0.492642046009175,44.88327120646289],[-0.492961159236481,44.88277720673946],[-0.492903279503682,44.88275766916321],[-0.492853560694248,44.88274093890741],[-0.492859574937691,44.88272759176268],[-0.492735548419331,44.882684000137424],[-0.492964410590113,44.882304141622136],[-0.492258491631006,44.88206418858777],[-0.491365688262324,44.881735932181414],[-0.491938386187908,44.88124089800053],[-0.492926565852833,44.880450252096566],[-0.492327429511866,44.879603930946864],[-0.492619675807741,44.879484965702915],[-0.493216009584716,44.87941284583077],[-0.493935738554044,44.879392624020156],[-0.494364067004758,44.8793888724062],[-0.494490253794796,44.87938787345959],[-0.4947161503396,44.87938815079664],[-0.494931910326053,44.87938442099044],[-0.494534387512983,44.8800659172826],[-0.494446240868657,44.88020757135366],[-0.494436209311816,44.88022356850746],[-0.494259233953199,44.880508159587336]]],[[[-0.491673427044307,44.87983097807874],[-0.491581132445302,44.87985109498464],[-0.491360826216279,44.87984901315616],[-0.491113947755456,44.87981712513268],[-0.49083316439631,44.8797598070072],[-0.490120188796909,44.87963803384926],[-0.48980633454249,44.879556428784184],[-0.489394634064948,44.87942400605945],[-0.489019560045882,44.87929349463748],[-0.488776704266071,44.879222271936555],[-0.488570067593937,44.87916478044033],[-0.488360269840089,44.87908702032123],[-0.488066277717251,44.87894557600937],[-0.48751316839621,44.87865474006072],[-0.487311325862846,44.87856420113096],[-0.487086770598628,44.87849366160035],[-0.486969971219322,44.87847435015993],[-0.485834569634378,44.87841403666985],[-0.485434891241695,44.878425868067374],[-0.485308322632978,44.87844516354036],[-0.485201395221647,44.87848069490017],[-0.485094890764482,44.87858425496228],[-0.485037336554858,44.87865554626124],[-0.484945031114978,44.87868773431526],[-0.484544833480523,44.87873409545491],[-0.484646233952279,44.8785605813277],[-0.484771083550624,44.8783482993709],[-0.48481990252317,44.878264935787364],[-0.484828150612744,44.87825079802532],[-0.484833999059261,44.87824088121894],[-0.484508835193643,44.878142223283696],[-0.484499308833027,44.878154148103924],[-0.484424090394609,44.87813082489333],[-0.484432020493169,44.87811768848849],[-0.484337011053197,44.87808795705847],[-0.484276728731354,44.878188803454414],[-0.484243760320243,44.87817839297785],[-0.484120013062301,44.878139019282756],[-0.484104906159472,44.87816517827296],[-0.484077756089657,44.87821172238847],[-0.483911257124724,44.87816972516288],[-0.4836199905843,44.87809640633389],[-0.483555596308629,44.87826578387698],[-0.483532819374518,44.87826028037569],[-0.483289199652916,44.878201056244485],[-0.483251359107728,44.878191789731915],[-0.4831919025986,44.87817734368897],[-0.483168519224734,44.87822944702111],[-0.48304393191806,44.878196947772004],[-0.483014044764838,44.8782586278482],[-0.483700183713453,44.87844482385017],[-0.483538052126737,44.87877939849096],[-0.48293716648809,44.878741480120574],[-0.482709017807567,44.87874161006718],[-0.48210866983562,44.87877360491237],[-0.480946242512546,44.878804751823886],[-0.480712406673009,44.87877450475399],[-0.480512627669333,44.878741566998286],[-0.480340877637444,44.878712977015326],[-0.480101405605657,44.87867767836307],[-0.479812529595841,44.878624461915216],[-0.479485245195641,44.878546674063756],[-0.478695857187402,44.878338634843686],[-0.478231486790379,44.878245403463005],[-0.477206569411777,44.87807771959056],[-0.477180438827429,44.87807331121682],[-0.477156868146388,44.87705486511831],[-0.477139354676552,44.876318219783876],[-0.477121093345895,44.87558790656779],[-0.477106523813352,44.87504601197788],[-0.477090195638014,44.87429779446094],[-0.477073159487907,44.873617911357364],[-0.477077467413199,44.87333155073457],[-0.478506533391599,44.87342041651106],[-0.478634403136318,44.87342839456885],[-0.478648912859953,44.873429381693555],[-0.479218029392109,44.87346489270888],[-0.480741449631536,44.87353004383042],[-0.480821851268744,44.87290766561358],[-0.480906440493165,44.87225884055124],[-0.480982148193722,44.87227385927532],[-0.481212580785803,44.87232935555583],[-0.481929351161117,44.87250189163917],[-0.482647052106026,44.87266484114172],[-0.482638675887531,44.872676909947614],[-0.482576470873234,44.872771236790314],[-0.482574021055269,44.87277464817197],[-0.482515978840734,44.87286253582368],[-0.482557108327027,44.87287584484043],[-0.482549781185019,44.872886438770315],[-0.482132945215268,44.87355857867425],[-0.482131994646482,44.87383735487728],[-0.482130393352825,44.87428332727745],[-0.482129544624369,44.87466790323885],[-0.481360057737635,44.87457768005625],[-0.481151331972389,44.87555862309521],[-0.481832409458805,44.87581095711994],[-0.482068918061693,44.875847696463325],[-0.48212837184798,44.8754455102816],[-0.482128692588062,44.87522398099796],[-0.482603653151433,44.87529207960535],[-0.483383611154601,44.87540377537423],[-0.48351447532265,44.87506180116546],[-0.483732235886018,44.87452306683259],[-0.484627716002328,44.87490113218465],[-0.48570992344829,44.87593031486021],[-0.486075452281798,44.87604437351912],[-0.487118449042525,44.87636028859669],[-0.48759902248098,44.876524530457466],[-0.488560976859688,44.87691886210444],[-0.489409049506674,44.8777257408621],[-0.489678140025879,44.87775828575539],[-0.49047929142066,44.878099799572915],[-0.491731068430931,44.87863693639161],[-0.491731572337195,44.8793721384394],[-0.491795331352583,44.87978559651329],[-0.491673427044307,44.87983097807874]]],[[[-0.490739089632207,44.87998356546537],[-0.490443981225911,44.88008107635516],[-0.490321788112708,44.880146292371435],[-0.490183875548037,44.88023390227804],[-0.490043408440933,44.880335471159896],[-0.489641473966044,44.88065362367849],[-0.489335167496474,44.88089522854267],[-0.489063249963968,44.881127279973974],[-0.488965888414781,44.88121884059586],[-0.488278187062184,44.88168115378513],[-0.488201425155224,44.88163922611845],[-0.488101119956826,44.88159172973825],[-0.488461327173457,44.88088358402635],[-0.488055125698559,44.880723495972084],[-0.487716029096563,44.880590677669645],[-0.487654458071807,44.88056674738604],[-0.487471555994841,44.88092784627052],[-0.487038519979816,44.88080707990351],[-0.486959626398033,44.880804241311644],[-0.486902161227399,44.88104216665724],[-0.486883091579417,44.881120811520844],[-0.486911615788251,44.88115145815033],[-0.486985736684676,44.88119986829532],[-0.487288992611639,44.88129443163115],[-0.487045613292957,44.88179612789421],[-0.487439202636082,44.88193066093823],[-0.487596239365006,44.881985387543075],[-0.487392707009542,44.882020802077975],[-0.487129214634957,44.88208270340658],[-0.486869508336191,44.882168818137245],[-0.486638316269052,44.88224259100638],[-0.486270245594359,44.88236572385821],[-0.48578493395357,44.882511553261836],[-0.485621219312161,44.882569686449635],[-0.485600372616686,44.88257692002707],[-0.485347722655148,44.882666504479246],[-0.484897955927015,44.882643856999074],[-0.484838835471809,44.882641026853044],[-0.483645582459032,44.882581242951794],[-0.483647636336457,44.88257757360825],[-0.484141714536427,44.88169716428157],[-0.484363603284652,44.88130826164398],[-0.484560023350469,44.880962425334246],[-0.484646654922351,44.88080821038245],[-0.485000888412795,44.88016857731896],[-0.485025867635324,44.88012381343717],[-0.48498684182458,44.8801077354047],[-0.485268330648421,44.87961331901995],[-0.485589724688923,44.87902680562118],[-0.485887785462662,44.87847490993042],[-0.486316768037833,44.87849405960235],[-0.486577269880607,44.87849443792875],[-0.486841569305431,44.878519209536094],[-0.487066907010567,44.8785472774762],[-0.487116871322687,44.87856192960811],[-0.487221466076129,44.87859288963721],[-0.487401446012715,44.87867429238975],[-0.487935319463016,44.878943202872755],[-0.488117814294781,44.879034438941915],[-0.488281477444001,44.87911635317112],[-0.488442086560814,44.87918583618748],[-0.488562976340877,44.879228088851306],[-0.489124172948178,44.87939808222466],[-0.489255194269508,44.87944425140536],[-0.489684461785251,44.87959621955764],[-0.489856172622933,44.879648498716016],[-0.489956293048468,44.87966860206532],[-0.490520849088437,44.879782426980064],[-0.491078977829147,44.879896811757895],[-0.490739089632207,44.87998356546537]]],[[[-0.48989047033585,44.87729604158954],[-0.48921954152635,44.87644962137577],[-0.487368984831369,44.87573553109293],[-0.487544374340272,44.87521100698011],[-0.48769481570589,44.87489689038586],[-0.488198957200698,44.874186565472094],[-0.489421490688033,44.87443255773183],[-0.489527876677873,44.87446796512951],[-0.489807226006608,44.87460049250968],[-0.490029719723044,44.87469920900134],[-0.490794994314126,44.87506978501369],[-0.491138803223768,44.87523597007897],[-0.491056708653311,44.87536490384598],[-0.490723650003027,44.87591548249535],[-0.490569881229087,44.87616977714223],[-0.490188349380305,44.87680316878326],[-0.48989047033585,44.87729604158954]]],[[[-0.479987770745678,44.883914343706515],[-0.479865862681107,44.88403352171474],[-0.479785120315189,44.884123561373194],[-0.479675898631249,44.88424495496553],[-0.479566196901722,44.884409712103945],[-0.478092016260387,44.88398007210974],[-0.478046729807847,44.88404295420516],[-0.477732093433177,44.88394881226813],[-0.477300351040138,44.88465879956015],[-0.477718496833976,44.88479692361953],[-0.477792253346349,44.88482110851415],[-0.477924651277976,44.88486490494622],[-0.478322225877575,44.88499628140479],[-0.478385634372277,44.88564479373286],[-0.478453302984707,44.88630065281702],[-0.478592428202303,44.88659189268586],[-0.478550225775136,44.88668000258852],[-0.478444133904728,44.886901061660545],[-0.478393113663698,44.887016664623985],[-0.478367070347398,44.887075068596374],[-0.478321873433983,44.887161920409625],[-0.478279367244779,44.88724310033233],[-0.478208390976054,44.887349685480935],[-0.478066473112344,44.88743461111538],[-0.478043379242049,44.88744858262729],[-0.478038243551499,44.88745162744233],[-0.478088042174064,44.88753099654882],[-0.478103268652254,44.88755575358032],[-0.478115938804817,44.887576084614665],[-0.477850262787008,44.887787363256066],[-0.477725942782283,44.8878862466801],[-0.477552517799329,44.88804578826854],[-0.477356189546023,44.88826534721925],[-0.477321353604033,44.88831077844206],[-0.477192873307306,44.88847756317975],[-0.477148507848855,44.88845516072756],[-0.477148105958461,44.888454812829],[-0.476901556775304,44.888330506994755],[-0.476804412764357,44.888438361386974],[-0.476476430079304,44.888270372700624],[-0.47657789482202,44.888164726457276],[-0.476424905993538,44.888089489663315],[-0.476262936269647,44.88801047844181],[-0.47620962927065,44.88798493102934],[-0.476234220989198,44.88795829595956],[-0.475923596025177,44.88780643475564],[-0.476256318493034,44.88749248539797],[-0.475919931473016,44.88731763891905],[-0.475200486914166,44.888031669092754],[-0.475089462968072,44.88794006640675],[-0.474976202952026,44.88787989598502],[-0.475168318488237,44.887665880706976],[-0.475095923059167,44.88762687139331],[-0.475264131701088,44.887458755343054],[-0.474707462494963,44.88713317877309],[-0.47451541856807,44.88702086035477],[-0.474507716410587,44.887027500080286],[-0.474417830452101,44.88710520468578],[-0.474062887941036,44.88687010153004],[-0.474013631764974,44.88691607307202],[-0.473842876611885,44.88679948242816],[-0.473761838967769,44.886743709789975],[-0.473656278319467,44.88682010185151],[-0.473458037859418,44.88698437864508],[-0.473137394353888,44.886836338339066],[-0.472899487505513,44.88669778492904],[-0.472886176289715,44.886648634518764],[-0.472934660982985,44.886577904202476],[-0.473074808816982,44.88642130391641],[-0.473180388898857,44.88632679736966],[-0.473348274242014,44.88619438261569],[-0.473517360911605,44.88608752453162],[-0.473740739490899,44.885960762569944],[-0.474363879372992,44.885681439122074],[-0.474604254849649,44.88557126642763],[-0.474857568871525,44.88545510060297],[-0.475311503695354,44.885250101612506],[-0.475449802594938,44.885223421307124],[-0.475583713980796,44.88508909267505],[-0.475632805661835,44.8850405119946],[-0.475984399710142,44.88481041636769],[-0.476112094756311,44.884692413497376],[-0.47615197250324,44.8846178957059],[-0.476228108316073,44.88431225181225],[-0.4764650787427,44.883840432997594],[-0.476841520190251,44.88315849707709],[-0.477005793691125,44.882728787922495],[-0.477074876240499,44.88245058110246],[-0.47709355172318,44.88238375662331],[-0.476979164337882,44.882366611987635],[-0.4767373733406,44.88235751354448],[-0.476753435302381,44.88242442142624],[-0.476450278034942,44.88324564286347],[-0.476313430201226,44.883209734683554],[-0.476055009177942,44.88369745545385],[-0.476394155542473,44.88386194036488],[-0.476134629111634,44.8843870964694],[-0.476080653074846,44.88462688833724],[-0.47603837082668,44.88468715205088],[-0.4757186005664,44.88490913175906],[-0.475564178485798,44.884810597536784],[-0.475240755528627,44.88502890505941],[-0.47498059609262,44.884893306004656],[-0.474207648951327,44.8844913165406],[-0.473947114940441,44.884355726968195],[-0.473867141904969,44.8843785072487],[-0.473752794904655,44.884411195146555],[-0.473501709789758,44.884372910511054],[-0.473302014173828,44.88431084736728],[-0.473025348663415,44.88419720944024],[-0.472689031251297,44.88405371439569],[-0.472433282981651,44.88394005150553],[-0.471866250226034,44.883687875373965],[-0.471599493637967,44.88356833663223],[-0.471582516971663,44.88355210501863],[-0.471367881866214,44.883346852281164],[-0.471325451684835,44.88330645305148],[-0.471240128469458,44.88322431720476],[-0.471196493025313,44.88318287416929],[-0.471049456688389,44.883025253871985],[-0.470949247258952,44.882917628398175],[-0.470830315633211,44.88279013074582],[-0.470579497190684,44.88251625423976],[-0.470434501177952,44.88236082250642],[-0.470379163833167,44.882283876789],[-0.470230326211455,44.88202943149117],[-0.470040860067409,44.881757511028205],[-0.470037884293299,44.88173399227929],[-0.470064119867375,44.88172163652867],[-0.470591450798854,44.881830417505306],[-0.471020796373112,44.88192892236618],[-0.471396585042167,44.882016123183945],[-0.471467568119858,44.88203246811698],[-0.47165316345707,44.88207577936979],[-0.471731902953757,44.88203925063461],[-0.472029768704802,44.88119297588319],[-0.472264168145618,44.88050108106368],[-0.472365217493855,44.88019835626504],[-0.472069609050996,44.880183812086464],[-0.471874655174162,44.880167380286316],[-0.471655601543639,44.88014863784365],[-0.471163584256637,44.88008183597626],[-0.470986035023305,44.88005782884738],[-0.470719174490057,44.87988097483626],[-0.471081218911888,44.878619400178366],[-0.471174298276042,44.87862009395392],[-0.471540052707802,44.878705264182585],[-0.472666333623292,44.87896256357871],[-0.472576040601878,44.87849901072748],[-0.472347764894734,44.87731736259706],[-0.472934916565296,44.87749626646421],[-0.473067156177745,44.87756242297299],[-0.473180635639074,44.877644937658104],[-0.473674928270193,44.878074307165704],[-0.473784030546627,44.878141367305766],[-0.473976933033726,44.878216889271684],[-0.474384444683091,44.87836842431189],[-0.474547003782582,44.878353061482294],[-0.475890216404084,44.87831857266511],[-0.476441312257483,44.87825273638736],[-0.477141174236401,44.8781637617192],[-0.477247244509267,44.87815728426391],[-0.477442371802978,44.87817045664289],[-0.478005687875731,44.87827726309777],[-0.478570579940205,44.878384918587095],[-0.47929567905068,44.87857415600255],[-0.479976937709677,44.87873700598194],[-0.480014370664182,44.87874583577785],[-0.479902263867604,44.878845060129414],[-0.480012716192648,44.8790747418408],[-0.480280728329619,44.87903064975628],[-0.480320634305705,44.87902417133422],[-0.480437321564597,44.879004921140904],[-0.480449359714724,44.8790396009983],[-0.480464266483955,44.87908374380386],[-0.480752824070501,44.87992859838764],[-0.480822142128653,44.880132623140796],[-0.481147106582843,44.88107988554228],[-0.481357783439788,44.88169890361775],[-0.481563921509888,44.8823059875944],[-0.481613240835215,44.88245728732273],[-0.481620709083162,44.88247958353834],[-0.481622562191153,44.88248493272515],[-0.481672741884038,44.8827297520094],[-0.481046582051348,44.88341899737255],[-0.480397922841553,44.88351287820385],[-0.479987770745678,44.883914343706515]]],[[[-0.477012184863141,44.875266250545764],[-0.477020258557347,44.87543335317747],[-0.477030137154614,44.87600387318118],[-0.477039572261364,44.87632179659861],[-0.477058127254822,44.877069133739894],[-0.477061935630247,44.8772594412185],[-0.476601638505742,44.87737903293394],[-0.475577450290669,44.87764632818154],[-0.475556498265776,44.87765185086981],[-0.475711787841626,44.87791816329495],[-0.475892870888694,44.87822638535506],[-0.475759764640916,44.878238394519975],[-0.475129515342342,44.878260293279475],[-0.474341043668073,44.87829390071856],[-0.473846422344768,44.87809885983285],[-0.473740456469142,44.878033323773785],[-0.473240726195483,44.87761439856312],[-0.473163833436716,44.877551647147314],[-0.473106511229611,44.87751838378016],[-0.473829302953458,44.87614980014523],[-0.473379741163681,44.87611926087863],[-0.472895298083766,44.87608215102735],[-0.472932668375355,44.875672281577806],[-0.473047552991241,44.87566084587127],[-0.473136841347222,44.874904187131655],[-0.472601452748825,44.87495915241984],[-0.471948774603179,44.87502355226836],[-0.471986594751343,44.874430362874165],[-0.47200964902906,44.87402869242671],[-0.471389942237507,44.874054296990025],[-0.471313340358787,44.87405759428639],[-0.471363765567251,44.87457151005703],[-0.47139208750229,44.87485720949454],[-0.471432526580471,44.87529573596426],[-0.471453058537375,44.87551697211786],[-0.470614071478423,44.87543407558524],[-0.47062032563423,44.87602696739507],[-0.470622169705441,44.87636414317939],[-0.470646918862578,44.87649377458177],[-0.470684083028344,44.876608958836215],[-0.470807416173105,44.876912325043],[-0.470896663751907,44.877144119472646],[-0.470907154001929,44.8772153476507],[-0.470901494365355,44.87727752805132],[-0.470714872843049,44.877875100225715],[-0.470633246465539,44.87785872734807],[-0.46993630358072,44.87761376064039],[-0.469330710890952,44.877400901234324],[-0.468875487184871,44.87723993496733],[-0.468742264912859,44.87720084069864],[-0.467914365424619,44.87701465826823],[-0.468255581256413,44.87640784483218],[-0.468390886401006,44.87616695846788],[-0.46852809487747,44.87591997432408],[-0.468586288692568,44.87579108485994],[-0.468602635247221,44.87574181847008],[-0.468618841345869,44.87574563777483],[-0.469268694653178,44.875949005836944],[-0.470099627681274,44.87620285401341],[-0.470168374382747,44.8753900647736],[-0.470197560734741,44.87511806779997],[-0.470240628281319,44.8746954949946],[-0.469511824496933,44.874592562901086],[-0.469209549919578,44.87454965210691],[-0.469140517594818,44.87454009430639],[-0.468996671595477,44.874519717356904],[-0.468842869827399,44.874498209474105],[-0.468616944458859,44.874466338670864],[-0.468585492164842,44.87446191444038],[-0.468587724733827,44.8743873145735],[-0.468601725826813,44.87429396219749],[-0.468624798588851,44.874212042018975],[-0.468668562712725,44.8740896416279],[-0.46870945477981,44.87400689411504],[-0.468795408841136,44.87385965338922],[-0.468996804759162,44.873587050587766],[-0.469040127272042,44.87351287858521],[-0.469223314386554,44.87317334387319],[-0.469389716565967,44.872894444291454],[-0.469617422671253,44.87286912091252],[-0.469615264701396,44.872834221419915],[-0.469713919622732,44.87283095671581],[-0.47013999191332,44.87281619254942],[-0.470210600731165,44.872802088647134],[-0.470293391230522,44.87276363156463],[-0.470379822212342,44.87277174328694],[-0.470429912933583,44.8727763050891],[-0.471000526619797,44.872830105606084],[-0.471709108220171,44.872901486618375],[-0.471869051859512,44.87291784160669],[-0.471959674092834,44.87282776917793],[-0.47226161775466,44.87252750120872],[-0.47250674338044,44.8722921851957],[-0.472572250907464,44.8722386761885],[-0.47264066055054,44.87218291341763],[-0.473144444379407,44.871771335435554],[-0.473458365872786,44.87180603001594],[-0.474192110483296,44.87188480828363],[-0.474501687851608,44.87190458570623],[-0.474741956892733,44.871910310612435],[-0.475367135012267,44.87188748922842],[-0.475413325380478,44.87188433036434],[-0.475387626824611,44.87209556840923],[-0.475396282384389,44.872024552119726],[-0.475539590486544,44.87204448687564],[-0.475539087804656,44.8720486481991],[-0.475708601898141,44.87205379319878],[-0.475878852692256,44.8720585543807],[-0.475880371805887,44.872046250299334],[-0.476113358496626,44.87205715703058],[-0.476191909910924,44.87206082472735],[-0.476175199912138,44.872140925302446],[-0.476145452553179,44.87229290048421],[-0.476089501425017,44.87259268437317],[-0.476088005208587,44.87259921997681],[-0.476028379462188,44.87291948637188],[-0.475998274096376,44.87307183322545],[-0.475969156581717,44.87322171585499],[-0.475962473318736,44.87325499972708],[-0.476143185081682,44.87326898582946],[-0.476978734010181,44.87333356272594],[-0.476971654241008,44.873519975393194],[-0.476980096585568,44.873963018195475],[-0.47699353950254,44.87454811604197],[-0.477012184863141,44.875266250545764]]],[[[-0.474020289656915,44.8902477540822],[-0.473904105194882,44.89028167091024],[-0.474000030351576,44.89046720370075],[-0.474075403296916,44.89098412650732],[-0.473528924756386,44.89108972676642],[-0.473573523775104,44.891484416360846],[-0.472987442865229,44.89155250060259],[-0.472445546751747,44.89161550462893],[-0.472382106153794,44.89162289633295],[-0.47164196460976,44.89170913020401],[-0.471574687427878,44.89169140735441],[-0.471517469462193,44.89167643403496],[-0.470601171290246,44.891435981184856],[-0.470314159414009,44.891352308791205],[-0.469676600917145,44.89106780698326],[-0.469662395797773,44.8910841123606],[-0.469649966311553,44.89109837956437],[-0.46917208048252,44.89164286901418],[-0.469159661873756,44.891657316060964],[-0.469134667754268,44.89171442309598],[-0.469107924172859,44.89175554316045],[-0.469007034404381,44.891920013455184],[-0.468832785546025,44.892202131504334],[-0.468698419782525,44.89242190067693],[-0.468681353700398,44.89244730746299],[-0.468661530158854,44.8924711782163],[-0.468647033766275,44.89248893449619],[-0.468622899512537,44.89251690527878],[-0.468577825016526,44.89256914216974],[-0.468541640209476,44.89261136816356],[-0.468398966807901,44.892776782848784],[-0.468331209090149,44.89285586356099],[-0.46823355405278,44.89296814177036],[-0.468185795114161,44.89301388348029],[-0.468152812314642,44.893040238033976],[-0.4681012529169,44.89307988004706],[-0.468014221459546,44.89314252968905],[-0.467963795177009,44.89318204611452],[-0.46794091331059,44.89319952351523],[-0.467916937049566,44.89321775607004],[-0.467851087707885,44.89327235391552],[-0.467842449428532,44.893280284083865],[-0.467807505541251,44.89331183671347],[-0.467774291422687,44.89334675991638],[-0.467752763686309,44.89337383797912],[-0.467725567878199,44.89340767195863],[-0.467703291967463,44.89343495362414],[-0.467682408132887,44.89345399074363],[-0.467661150220068,44.89347312966504],[-0.467636888657463,44.893492903131886],[-0.467618048982861,44.89350809128402],[-0.467576273080661,44.893533728972024],[-0.467509685010664,44.89357023524845],[-0.467305711031509,44.89367934457707],[-0.467193863023163,44.893740515572496],[-0.46700355040957,44.89384297926628],[-0.46684665866939,44.89393232266728],[-0.466830514152964,44.893929582456735],[-0.46677820094355,44.89392013114152],[-0.4659985956954,44.89378072292348],[-0.465771537184695,44.894298079192716],[-0.46539781723124,44.89429478530881],[-0.465200475875331,44.89430202658806],[-0.464780994755295,44.89431529936472],[-0.464702522241129,44.89431955084199],[-0.464603112670618,44.89434815758932],[-0.464534706841524,44.89436759566578],[-0.464508215973742,44.89436977418691],[-0.464482334363497,44.89436950041141],[-0.464451663838861,44.89436559097652],[-0.464421647025307,44.89435994882732],[-0.464273961233696,44.8943212991671],[-0.464100503396996,44.89427182783601],[-0.464046612592812,44.89425530487653],[-0.463672931694594,44.894129438962906],[-0.463262589870179,44.89398885417287],[-0.463091119391841,44.893928414655704],[-0.46278097897549,44.89382129165918],[-0.462838693674053,44.8936841292614],[-0.462946994168292,44.893423725175985],[-0.4630503323344,44.89317537178041],[-0.462875138999303,44.893171644319104],[-0.462864229864364,44.89317360678787],[-0.462808513580977,44.89312749032282],[-0.462717134818523,44.893150617875506],[-0.462574819443022,44.89295859246883],[-0.462605218786146,44.89290267034053],[-0.462666568465753,44.892812077484926],[-0.462800513489138,44.892622069484645],[-0.462999583754215,44.892347208354245],[-0.463197652055834,44.89207463111871],[-0.463222198188712,44.892040971108784],[-0.463431650792754,44.891774166506906],[-0.463637068137964,44.891515958771215],[-0.463840585540319,44.891257809900516],[-0.464041449363718,44.89099983354423],[-0.464122165869907,44.890890340848685],[-0.464222906943562,44.89074174141608],[-0.464343385185632,44.89056170446278],[-0.464434633114889,44.890419529320475],[-0.464483253910434,44.89033230660431],[-0.464495125298293,44.890302826940705],[-0.464505581938999,44.89026275711876],[-0.464608206598396,44.889762895939626],[-0.464645027384475,44.889650897594414],[-0.464692291455648,44.889504777817635],[-0.464705804900889,44.88945262644394],[-0.464727778767071,44.88940814167658],[-0.464750830279394,44.88936263193533],[-0.464891109797902,44.888992180917],[-0.464906528102835,44.888915457079904],[-0.464924029309309,44.888817039126096],[-0.464902529132307,44.88856131527893],[-0.464867444546106,44.88820264641808],[-0.465843257029961,44.88849662022775],[-0.466124362026381,44.88860815511513],[-0.466521398556624,44.888047729370356],[-0.465001971669218,44.88771449627046],[-0.465016799351667,44.887689790814726],[-0.465443762454258,44.88721972785669],[-0.465465637269331,44.887204445300256],[-0.465480409396202,44.887197315150736],[-0.465505474705912,44.88719058461849],[-0.465530203149686,44.887190713811236],[-0.465934337707128,44.88729309071006],[-0.466386570384298,44.8874106366456],[-0.466998721421974,44.88756806659286],[-0.467499224049333,44.887697348359595],[-0.468198462190218,44.887879178031],[-0.468222611159495,44.887876080368954],[-0.468261411163853,44.88785774503341],[-0.468290421178102,44.88783484901281],[-0.468417314985413,44.88766046464013],[-0.468454515754732,44.887653174011234],[-0.468710250580344,44.887717280116384],[-0.469524362765923,44.88778862784746],[-0.469365239168901,44.888179771667275],[-0.469356152918361,44.888198891033284],[-0.469295470209176,44.888324614470314],[-0.469196685607871,44.88851686670778],[-0.469153578453454,44.88860085527425],[-0.469152589869033,44.88860331944872],[-0.468934656411829,44.88902757263611],[-0.468905817225924,44.8890839886662],[-0.468899004042698,44.88909681857811],[-0.46870859935428,44.88946812081076],[-0.468687572744842,44.889509422614026],[-0.468660403015689,44.889562091427734],[-0.469140419121726,44.88968569818907],[-0.469361895675025,44.8897430331843],[-0.469545482072466,44.889790376941804],[-0.469826452686466,44.889862614152236],[-0.469522677842649,44.89020673010519],[-0.469785836737061,44.890335309414986],[-0.470250636627033,44.889944342603606],[-0.47030495649436,44.8899719339967],[-0.470369215717801,44.89000444169046],[-0.470560695106859,44.89010146442442],[-0.470896496650603,44.88975463174268],[-0.471080245121061,44.88956485805147],[-0.471092394491015,44.88955222161988],[-0.471097573031577,44.88956215330958],[-0.471276976051636,44.88975084557638],[-0.47155064864803,44.890036985047075],[-0.471554242112271,44.890045884831196],[-0.471547842417964,44.89005924272346],[-0.470987573592496,44.89040904075748],[-0.470972922628893,44.89042427879741],[-0.470973170812519,44.890440583046825],[-0.470985901391421,44.890455776031715],[-0.471004839215248,44.89047293784837],[-0.471028617282662,44.89048841625131],[-0.471291108594363,44.89063071151556],[-0.471362734910631,44.89066956719154],[-0.471436099958772,44.89066276690779],[-0.471705912572401,44.890573039443964],[-0.472103919501158,44.89044063958473],[-0.47213230167833,44.8904321816374],[-0.472117958745211,44.89040937886441],[-0.472072736927826,44.89033626268162],[-0.472084644810461,44.89033201500343],[-0.472104379589993,44.89032517935466],[-0.472047321894367,44.89022674869419],[-0.472009348524401,44.89024001268656],[-0.471996122226571,44.89021681449094],[-0.471987524999703,44.89021924630279],[-0.471812866375617,44.89027319433376],[-0.471662899637774,44.89009313510636],[-0.471433405783546,44.889863292166964],[-0.471247259271817,44.889670124666445],[-0.471872405547676,44.88923186940429],[-0.472443873547785,44.88883593438249],[-0.472630207400494,44.88894609197696],[-0.472714692228742,44.88899608003863],[-0.473068530564747,44.88920094156757],[-0.473241844545132,44.889303484745255],[-0.473408460968231,44.88940227188699],[-0.473434979596228,44.88938215607703],[-0.473510311790706,44.88942558072061],[-0.473738312889143,44.88955750395602],[-0.47396394265032,44.889393180742815],[-0.474236815193584,44.88956794850375],[-0.474041524762426,44.88969401240844],[-0.474159360168296,44.88979117086431],[-0.473919386650903,44.889926563654484],[-0.474020289656915,44.8902477540822]]],[[[-0.472529581663983,44.884064290402364],[-0.47184379093857,44.88456627082879],[-0.47179114396528,44.88456359169863],[-0.471391134827794,44.88422661144796],[-0.471377885755374,44.884215310017524],[-0.471087004115707,44.88397017423698],[-0.470646440229333,44.884280720417905],[-0.470509958167506,44.88437979553881],[-0.47031922419964,44.884517876921954],[-0.470148833674631,44.884634413794146],[-0.469866289109878,44.88433340935338],[-0.469739677972366,44.88419858033237],[-0.469621605633683,44.88407267665882],[-0.47030497876705,44.88367280344506],[-0.471130131095843,44.88319206909804],[-0.471249608524823,44.88330377817688],[-0.47136543110362,44.88341172622932],[-0.47146674408684,44.883506429518214],[-0.47153090622037,44.88356615597323],[-0.471585408080124,44.88361726251496],[-0.471818435346013,44.88373253914497],[-0.471970281666416,44.88378961281852],[-0.471986629483958,44.88379568032492],[-0.472168385900325,44.883869031346656],[-0.472562707460375,44.88404036320058],[-0.472529581663983,44.884064290402364]]],[[[-0.472104012493502,44.88633136214995],[-0.472049855191957,44.88630430739483],[-0.47198593329461,44.886254667170554],[-0.471772245196307,44.88608948912498],[-0.471453623243174,44.88583260442562],[-0.471294253818747,44.88570934558821],[-0.470966860446255,44.885458141254354],[-0.470832317506838,44.88535501368276],[-0.470803569469985,44.885332931627836],[-0.471363169689216,44.884917816376415],[-0.471493064278252,44.88482291155282],[-0.47172517774453,44.885021669645475],[-0.471959714998468,44.88522269466205],[-0.472013147976585,44.885268787712214],[-0.472027999202384,44.88528139079017],[-0.472169060625249,44.88540377931821],[-0.472438354238548,44.8856378722993],[-0.472801729006593,44.8853889437728],[-0.47293759161988,44.88550103994188],[-0.47297723490555,44.88553323468464],[-0.473133531078243,44.885662084776754],[-0.472817648101561,44.885867261547816],[-0.472731750480424,44.88592339103319],[-0.472407814583344,44.88613368506701],[-0.472104012493502,44.88633136214995]]],[[[-0.469667084708237,44.88070666616331],[-0.469009963206805,44.8804297162502],[-0.469621809707867,44.879900775372015],[-0.46891473338011,44.87965215289034],[-0.468468751181143,44.880028468260186],[-0.468215147746184,44.879832178628895],[-0.467976596527603,44.87964560185163],[-0.467912692843275,44.879589921051036],[-0.46785523166088,44.879527730442234],[-0.467712920633881,44.87934166082504],[-0.467663435590724,44.87927931105086],[-0.467630884449978,44.87923869210466],[-0.467528634017366,44.87911012963862],[-0.467610347106504,44.8790725195788],[-0.467632518354952,44.87906209379552],[-0.467738268879931,44.878798159480596],[-0.467749153206184,44.87877123367749],[-0.467893676506157,44.87840866683482],[-0.467486742525378,44.878247717874274],[-0.467339018225834,44.87818933843038],[-0.467141777723666,44.87811114698223],[-0.467502775322926,44.87771342985019],[-0.46787520781628,44.87708860952234],[-0.468741454541597,44.87725538930038],[-0.468999117921702,44.87734529754959],[-0.469952921855874,44.87767957026228],[-0.470655658566116,44.877925977900304],[-0.470839315435046,44.877962771780865],[-0.470712733286573,44.87832613380771],[-0.470602885794918,44.87864039702927],[-0.470142456449967,44.87995506320357],[-0.470086823661829,44.8801212738829],[-0.469667084708237,44.88070666616331]]],[[[-0.46875021131685,44.88177009657914],[-0.46870057848782,44.88180382097756],[-0.468197252686139,44.88123231975178],[-0.467794755385411,44.88083178052042],[-0.46783911587429,44.88081119870669],[-0.467424297688327,44.88043681796536],[-0.468242540097125,44.8799308164278],[-0.468319686392352,44.87999770887897],[-0.468695334477044,44.88038430525842],[-0.46872974576877,44.88039963188051],[-0.468865002677869,44.880459210486755],[-0.469378712998871,44.88066773603801],[-0.469402900683676,44.88067761427645],[-0.469546442068917,44.88073585168579],[-0.469582826799508,44.88076463455849],[-0.46959828173607,44.88081777358343],[-0.46956820087967,44.88098931345782],[-0.469525134841985,44.88125219159437],[-0.469477168325202,44.88127595093623],[-0.46875021131685,44.88177009657914]]],[[[-0.468706107210594,44.873780524629666],[-0.46851197200222,44.874213675817906],[-0.468527619925531,44.87436224692299],[-0.468528099504214,44.8743638541126],[-0.468146303389709,44.87438155388046],[-0.467709131313716,44.874229212069324],[-0.467549846354847,44.874451200393636],[-0.467899330383372,44.87464278202117],[-0.468051610766349,44.87472580128254],[-0.468028078709541,44.87476339613889],[-0.467897606865174,44.87473178530451],[-0.467824383827662,44.874882052047646],[-0.467937611736341,44.8749114981964],[-0.467875790930173,44.875012472968855],[-0.467776331946975,44.87497818058564],[-0.467730489219703,44.87496239991079],[-0.467690775415267,44.8750334845963],[-0.467838496211637,44.87507347868999],[-0.46861450996069,44.87528192005806],[-0.468571467603857,44.87544061666805],[-0.468459923467635,44.875727533510464],[-0.468354128194729,44.875935234401446],[-0.468157076280604,44.87633981760071],[-0.468014344835304,44.87658976757169],[-0.467433913113172,44.87635304124091],[-0.467140252097171,44.87673270322503],[-0.467085091454003,44.87681229100338],[-0.467355325864185,44.87700725180495],[-0.467324027305803,44.877029948801386],[-0.467090381444854,44.87729787807754],[-0.46705060473731,44.87734337010132],[-0.466922759355165,44.877255890963205],[-0.466750419547668,44.877371402263286],[-0.466937548239049,44.877519844083594],[-0.46684612989683,44.87758497340205],[-0.46659957220118,44.87776093082645],[-0.466908133989031,44.87804688954137],[-0.466596897801858,44.8782099973226],[-0.466559990416159,44.878228092856],[-0.466312921344018,44.87800807377353],[-0.466137123415089,44.87818461384468],[-0.466314443444047,44.87834661090486],[-0.466235666703248,44.87838250612449],[-0.466074728332314,44.878442596244035],[-0.465902098298301,44.878498094574546],[-0.465828724553695,44.8785106596687],[-0.46573106123485,44.87852398319594],[-0.465614199422275,44.87853430128036],[-0.465529548857919,44.87853667414133],[-0.465483839279024,44.87853539777178],[-0.465380588209891,44.87853213295776],[-0.465303265263746,44.87853616939326],[-0.465235378653807,44.878545228290484],[-0.46517164835551,44.878560015242584],[-0.465117493244668,44.8785820733722],[-0.464969932887236,44.87865562279275],[-0.46459051241456,44.87841053269702],[-0.464502162939414,44.87835299970335],[-0.464164195749077,44.878132569123395],[-0.463863087015348,44.877936311235075],[-0.464124636689608,44.87776899444286],[-0.464306332313811,44.87761399278316],[-0.463994623499724,44.87741229849212],[-0.463593331776595,44.877151486120624],[-0.463447281458137,44.877255627503295],[-0.462575967691521,44.87666756016922],[-0.46193120697913,44.87624446039723],[-0.461914471013568,44.876256698146456],[-0.461321313228246,44.875887139369105],[-0.461386854438322,44.87582777846689],[-0.46148045437471,44.87574248882569],[-0.461703892898736,44.875579971255426],[-0.461939413206664,44.875416084996566],[-0.462017380366651,44.875360932233626],[-0.462121946646597,44.87528701561087],[-0.462332429878151,44.875136436289516],[-0.462401408265351,44.87508967453323],[-0.462445200042464,44.875059920259105],[-0.462581086145185,44.87498214216537],[-0.462635414947169,44.87495061712312],[-0.462873326489227,44.874813239762354],[-0.462990093650546,44.874746061104716],[-0.46320470892681,44.87464401629519],[-0.463483975488731,44.8745113851162],[-0.463578531975282,44.87447247592144],[-0.463782235844798,44.87438464907748],[-0.463851870957841,44.87435471845477],[-0.46414229907676,44.87423047888251],[-0.464224916261233,44.87419527626131],[-0.464332607858364,44.87410431715658],[-0.464422042675104,44.87403790000097],[-0.464511306986436,44.873981040896766],[-0.464658129918494,44.87388958080926],[-0.464751931003724,44.87383230950137],[-0.464873930808615,44.873757575477576],[-0.465053427499183,44.87364725078532],[-0.465174326911586,44.873573181614354],[-0.465182029589344,44.87356861530388],[-0.465442057627328,44.873210826944884],[-0.465432077424322,44.873178514853144],[-0.46539596651916,44.873055546092864],[-0.465387037378434,44.87299715626069],[-0.465357520528727,44.87276547612612],[-0.46533261212449,44.872577631059244],[-0.465366728545306,44.87256980666638],[-0.465584829670481,44.87254902718318],[-0.465859645908546,44.87252926975759],[-0.466243106963922,44.872501792435116],[-0.466720557169023,44.87246939504977],[-0.46719706416917,44.87239097328379],[-0.467391281833599,44.87235904044319],[-0.467506398880845,44.87267140749937],[-0.467862652075908,44.87258511465493],[-0.467959313575045,44.87256190694274],[-0.468159729762269,44.87251337704463],[-0.468247454341151,44.87249937034319],[-0.468394675682347,44.87247602404183],[-0.468488396771409,44.87247291461081],[-0.468491849560631,44.87250416879105],[-0.468636289324892,44.87251578592103],[-0.468896903793564,44.872536929154485],[-0.468930130114435,44.8725393151456],[-0.468916439274699,44.87277297623137],[-0.468895990409201,44.87313103531526],[-0.469066771389942,44.87322428929105],[-0.468916313468557,44.873490523614905],[-0.468833129303775,44.87363335205668],[-0.468737556331881,44.87377260233343],[-0.468706107210594,44.873780524629666]]],[[[-0.466984508761243,44.88003978441858],[-0.466068671379219,44.879409423550285],[-0.466384241688453,44.87901475122367],[-0.466715017176334,44.87859545053044],[-0.466730197390663,44.87857650155374],[-0.466772868468775,44.878565525738345],[-0.466863275434839,44.87861938790093],[-0.466958942750788,44.878684531051285],[-0.467104614906599,44.87878352962884],[-0.467282794707889,44.87894090228598],[-0.467409525534296,44.87908411085315],[-0.467697110676671,44.87944885820009],[-0.46782013846979,44.87961209885781],[-0.467309244828593,44.87987346024788],[-0.466984508761243,44.88003978441858]]],[[[-0.467236468065945,44.89720489938789],[-0.467214085683458,44.897248946875884],[-0.467186901254059,44.89729530724261],[-0.467173518308963,44.89731879631347],[-0.467091508551701,44.89740742351702],[-0.467055081986499,44.897439653009876],[-0.467031414990432,44.89746292248372],[-0.467016559380993,44.897481050225956],[-0.467008700310913,44.897495444737984],[-0.467000817426495,44.89751560777533],[-0.466985577542367,44.89759521044336],[-0.466982610299291,44.89762720614917],[-0.466990221852068,44.897707266807124],[-0.467011254624497,44.89774599314683],[-0.467086000960837,44.89787830065908],[-0.467146017132346,44.89797537998091],[-0.467168685502419,44.898015947777004],[-0.467242007856683,44.89817443495962],[-0.467283710555992,44.898276772476414],[-0.467338697798776,44.898415554857905],[-0.467346411197149,44.89844802812247],[-0.467350816393176,44.898470060470984],[-0.467347807891244,44.898489079972194],[-0.467339758168935,44.89850654460034],[-0.467327106513799,44.89852956024498],[-0.467288291132212,44.89857853691349],[-0.467111596442599,44.898790793919076],[-0.46705363691368,44.898770073451374],[-0.466991528961691,44.89874993310543],[-0.466965295033357,44.898743993183636],[-0.466943309657171,44.89873909216993],[-0.466839857712284,44.89872087361175],[-0.466833733106362,44.898720253761006],[-0.466737643291677,44.898710366777415],[-0.466591667898759,44.89869960403173],[-0.466506101398371,44.89869380423597],[-0.466476174944063,44.898695820070756],[-0.466456649417766,44.89869994444262],[-0.46643061243684,44.898709499163715],[-0.466371215995623,44.89873938143167],[-0.466336891512112,44.89875640460401],[-0.466321106971989,44.898759510937865],[-0.466293251109741,44.898764255846054],[-0.466217167191664,44.898770326188604],[-0.466187972213756,44.898771868499665],[-0.466088345404381,44.89877245536124],[-0.466051999682371,44.89876908394285],[-0.465996448577118,44.89876270720268],[-0.465971000179698,44.898763321401994],[-0.46594989480587,44.898766503664724],[-0.465922624231524,44.89877456470612],[-0.465891979475594,44.898789580312226],[-0.465837992412254,44.89882082548676],[-0.465819365074941,44.89882717474509],[-0.465791135033502,44.89883202132714],[-0.465763782737134,44.898832604788474],[-0.465737152564312,44.898826406583744],[-0.465708396209027,44.89881657975783],[-0.465707223876546,44.89881607562309],[-0.465674287414986,44.89880016088358],[-0.46567152974197,44.898798624776],[-0.465649920278286,44.898787493386976],[-0.465638124712116,44.89878128270779],[-0.465614683651796,44.89877128994378],[-0.465588372048739,44.89876409042376],[-0.465554974724609,44.89875918486696],[-0.465516127034241,44.89875841477438],[-0.465479835196551,44.89876207096968],[-0.465377780692294,44.898778774606775],[-0.46535615112234,44.89877962995655],[-0.465334215890077,44.89877553815714],[-0.465310919379857,44.89876788397939],[-0.465282040866418,44.89875607818529],[-0.465246141280654,44.89873529912249],[-0.465235653235238,44.89872562297455],[-0.465229602655194,44.89872004404061],[-0.46521493632087,44.89869815164821],[-0.465192600754568,44.89866910865045],[-0.465174373017797,44.898644984247774],[-0.465170683772086,44.89864068343571],[-0.465147694517656,44.89861337314199],[-0.465134750723267,44.898600889741715],[-0.465127037041422,44.89859301954901],[-0.465108683547645,44.8985791729174],[-0.465086187148034,44.89856599631163],[-0.465058503335005,44.8985550543938],[-0.465024833890253,44.89854574122118],[-0.464970266509018,44.89853680987488],[-0.464928611329604,44.898533693919084],[-0.465038225479458,44.89818988398987],[-0.465078858397878,44.89805947171015],[-0.465083267793736,44.89804464428552],[-0.465099786836728,44.89799185824427],[-0.465122352320367,44.89791995797015],[-0.464979814652477,44.89790322799197],[-0.46460759106881,44.89785680592626],[-0.464613033906188,44.897821759062],[-0.464505786018841,44.897809785128544],[-0.464402829818796,44.89779749693215],[-0.464368678611648,44.89732875937217],[-0.463935242999263,44.89734228344762],[-0.463868567509139,44.89734463407261],[-0.463867160123762,44.89745940257284],[-0.463869091535009,44.89747835793778],[-0.463740491187629,44.89747786404649],[-0.463594091601742,44.89747864626087],[-0.463610724719384,44.89756320198585],[-0.463501573416991,44.89756967125742],[-0.463515335228825,44.89769396999708],[-0.463536216209053,44.89769331858991],[-0.463634546636708,44.897690251001514],[-0.463634571954946,44.89773377886475],[-0.463624967930441,44.89784312542093],[-0.463503002232707,44.897851526511886],[-0.463498240683017,44.897971536559474],[-0.463497632990334,44.89798633543237],[-0.463497329143872,44.89799373486884],[-0.463459257987237,44.89799321021436],[-0.463397725904929,44.89799467911009],[-0.463384371284721,44.89799401424787],[-0.463352537670224,44.897989780242334],[-0.463291205909302,44.89797601230929],[-0.463253401746084,44.897961330192715],[-0.463223400185908,44.897937482654385],[-0.46318481494563,44.89790398950402],[-0.463172667951968,44.897898240148265],[-0.463152714809998,44.89789543792904],[-0.463124642508379,44.89789667406264],[-0.463109617343611,44.89789975625462],[-0.463092680794179,44.89790884607805],[-0.463066309936025,44.89793147802107],[-0.463041304178973,44.89794541572201],[-0.4630229565053,44.897950133600354],[-0.462995599056312,44.89795062643183],[-0.462954440702986,44.89794938680631],[-0.462930139177459,44.89794392641317],[-0.462897794703962,44.8979314170442],[-0.462852144122793,44.89790670568839],[-0.462791502259592,44.89786714124893],[-0.462766952920479,44.89785150483332],[-0.46273417334904,44.89783810777633],[-0.462639014302533,44.897806288793085],[-0.462626695241432,44.89779775098368],[-0.462621617394717,44.89778943794126],[-0.462618169230037,44.897782876499974],[-0.462617756256862,44.897782348651454],[-0.462612767261236,44.89777547477984],[-0.462609244859502,44.89777387232984],[-0.462607268842688,44.89777267225823],[-0.462603718676243,44.89777062006705],[-0.462568777874076,44.897759182917426],[-0.462500570410741,44.89773877977396],[-0.462471757586792,44.89773418094961],[-0.462436355304093,44.897733752959866],[-0.462399608608785,44.8977300323949],[-0.462369690149438,44.8977260087531],[-0.462342653459012,44.8977193718356],[-0.462313451980324,44.897708476595504],[-0.462099486838281,44.89760682307564],[-0.462025979908776,44.897574508647054],[-0.461972183046935,44.8975533854664],[-0.461837021232914,44.89750821354074],[-0.461765729292369,44.8974809668],[-0.461726379491707,44.89746588177588],[-0.461610267340029,44.89742119707192],[-0.46160170402757,44.89741803945735],[-0.461573680666737,44.89740773814994],[-0.461529323319374,44.897391637611356],[-0.461528921461816,44.89739128965534],[-0.461526588033995,44.89739046119455],[-0.461526225035171,44.89739074287621],[-0.461526230586414,44.89739083282444],[-0.46150639115318,44.89741452244092],[-0.461472040655404,44.89745578752841],[-0.461285731837727,44.89767896867955],[-0.460747733361511,44.897498013910024],[-0.460504107702819,44.897414945759365],[-0.460402731908728,44.89738097554406],[-0.460091092230385,44.89727443194529],[-0.459740889369523,44.89715935614652],[-0.459374889261343,44.8970409864315],[-0.45928348318172,44.897014455016006],[-0.459238398368892,44.897005045229896],[-0.45920803430238,44.896999953186516],[-0.459154891218525,44.89699557086681],[-0.459017457105028,44.896987506235824],[-0.458739133316588,44.89697085327194],[-0.458501917300328,44.89695463136534],[-0.458417817435448,44.896947878552986],[-0.458368723053592,44.896941296954985],[-0.458319769852818,44.89693083572859],[-0.458283356214295,44.89692016412511],[-0.458687866456436,44.89662061738253],[-0.459194528597692,44.896238219153624],[-0.459435481771337,44.89605605644063],[-0.459633934814525,44.895906399497214],[-0.459656784710547,44.89589451241775],[-0.459685193713679,44.895886417429715],[-0.459902487835883,44.89583873075501],[-0.460137111949627,44.89578834061869],[-0.460163655913384,44.895780844359024],[-0.460306862395484,44.89582702908433],[-0.460761282153368,44.895966791790265],[-0.460966459135386,44.89603096072198],[-0.460969588451247,44.89600770200622],[-0.460975465283741,44.89590568178563],[-0.46098133986747,44.895809789882314],[-0.460994048034236,44.89565204201563],[-0.461005308575574,44.89554480717782],[-0.461039104361376,44.89529114376289],[-0.461064459056318,44.89512876594842],[-0.461284964049676,44.89514550316374],[-0.461362541112967,44.89515137564199],[-0.46138030026338,44.89505700572396],[-0.461388695307236,44.89501429687285],[-0.461414558551236,44.894878669110774],[-0.461415934952219,44.894870154799385],[-0.461184348277164,44.89484024518319],[-0.461271221823481,44.89463927001009],[-0.461503182929465,44.89439790281355],[-0.461512378326138,44.89438049306813],[-0.461485961668692,44.89437771188297],[-0.461522490054629,44.89429780697675],[-0.46153723435921,44.894265534452956],[-0.461540603249612,44.89425849007545],[-0.46155746245724,44.89426048779578],[-0.461601434667245,44.893968385623026],[-0.461636393771139,44.89374595782806],[-0.461846356569544,44.89372138646639],[-0.461895391731542,44.89371472047082],[-0.462046453092123,44.893684865893874],[-0.462072117856433,44.89368163226051],[-0.462094951015325,44.8936818214122],[-0.462114126696369,44.89368437765126],[-0.462152079681172,44.89369536042459],[-0.462379264213894,44.893771096655215],[-0.462535780082335,44.89382344213451],[-0.462906028626078,44.89394923853997],[-0.462979516663882,44.89397515419477],[-0.463055567767592,44.893999457789],[-0.463191996273416,44.89404062309766],[-0.463550773837765,44.89415307684885],[-0.463629258732493,44.89417982753404],[-0.463680927102172,44.89419732124176],[-0.463901254598453,44.894272817828245],[-0.463929739774106,44.8942844559139],[-0.463945747128094,44.89429729441659],[-0.463954300735989,44.8943126185225],[-0.463958495094258,44.89432510464033],[-0.463958320839921,44.89434691944578],[-0.463958399749856,44.89443442482266],[-0.46361942238319,44.89439011713702],[-0.463386479051859,44.894362867985855],[-0.462869496801118,44.894300138809974],[-0.462846887438079,44.89443296187074],[-0.462832803610278,44.89451288816098],[-0.46264068425265,44.89449382680045],[-0.462609922823531,44.89461167356414],[-0.462563799871921,44.89478875852021],[-0.462510542085557,44.894998149166696],[-0.462027662443978,44.8949457075739],[-0.462008965105866,44.89509264758968],[-0.462003037106185,44.895138343694676],[-0.461992676104254,44.89521698218426],[-0.462406260558029,44.8952621224283],[-0.462559722517305,44.89527725304817],[-0.462836381138422,44.89531016998268],[-0.46297517073271,44.89532792059744],[-0.463352128214646,44.89537122584802],[-0.463770609396449,44.89542170573058],[-0.463908506967431,44.89543732011528],[-0.463906467824462,44.895459733841896],[-0.463897657155438,44.89558807123294],[-0.463883131172606,44.89574704797848],[-0.463777498476603,44.89574268340135],[-0.463637675894947,44.89573902490946],[-0.463612635803289,44.89590022217258],[-0.46358255521165,44.89589971867947],[-0.463576050473863,44.895954535169686],[-0.463604779158183,44.89595778448362],[-0.463604217891883,44.89596717461793],[-0.463876426713522,44.89599572184863],[-0.463872899483006,44.89611722542593],[-0.463342914551229,44.89607211676616],[-0.462934138085769,44.89603719377422],[-0.462930693584279,44.89610462186563],[-0.462927108225343,44.89617592956998],[-0.462918364887932,44.89633003944732],[-0.462907011942703,44.896491170071926],[-0.462920806933137,44.89649281257914],[-0.46291941356645,44.896519531964366],[-0.4632271484448,44.89655048748578],[-0.4635264647836,44.89658062334079],[-0.463631354469383,44.89659141000625],[-0.463757665501231,44.89660414177482],[-0.463861399670219,44.8966146939125],[-0.463856853905471,44.89672586532522],[-0.463852674373617,44.89687992311162],[-0.463853814114497,44.896984608647074],[-0.463916532113726,44.89699004181355],[-0.464167648671427,44.897015731841826],[-0.464309565299931,44.897028606935905],[-0.464443520464122,44.89704191053013],[-0.464536508704655,44.89705090484171],[-0.464729128235871,44.897071750052255],[-0.464843108439103,44.89708189143356],[-0.464964044628088,44.89709379827929],[-0.4650976037823,44.89710684308958],[-0.46508612513004,44.89724121200533],[-0.465085497415536,44.89724952277414],[-0.465059687139749,44.89739614490269],[-0.466026856452482,44.89750456207451],[-0.466051612496555,44.897427095777935],[-0.465890646863502,44.897407607807885],[-0.46577922888442,44.89739585542359],[-0.465564165671779,44.89736886332535],[-0.465575885434971,44.89730613340206],[-0.465579005628546,44.89728891291652],[-0.465603317240378,44.89715910001181],[-0.465819620363895,44.89718154722499],[-0.465833953816877,44.897154964530614],[-0.465856890696173,44.897027537630805],[-0.465875973713439,44.89690545808574],[-0.465639205691144,44.89687806231098],[-0.465665676029782,44.89673394281434],[-0.465526685860984,44.896719175688574],[-0.465396873984265,44.89670520336193],[-0.465222617446512,44.89668603923501],[-0.465061139433694,44.89667053148028],[-0.464963434832752,44.89665907129964],[-0.464606883204758,44.896619910833465],[-0.464289617131843,44.8965886256565],[-0.464307944154441,44.896448095195076],[-0.464148744952106,44.89643251503668],[-0.464095557577736,44.89642741549652],[-0.464056494868421,44.89642313691872],[-0.463923987639621,44.89640861615468],[-0.463924704885915,44.896346319880365],[-0.463926206033423,44.89622280671242],[-0.464347627538767,44.896265352344564],[-0.464761880887121,44.89630884107501],[-0.465097327911183,44.89634505482288],[-0.465430575302305,44.896382597932174],[-0.465467993118642,44.896064743063356],[-0.465110117053545,44.896022561538466],[-0.465131288397593,44.89574955370011],[-0.465151303948546,44.89547631158473],[-0.465170062176221,44.895225819330335],[-0.465213070546116,44.89523240761575],[-0.465557539736217,44.89528546124127],[-0.465552179368646,44.895327985657545],[-0.465549326035332,44.89534952363507],[-0.466131001193546,44.89544329558984],[-0.466338194423618,44.89547846276848],[-0.466459572191777,44.89549756381616],[-0.466500108951854,44.89556262753174],[-0.46654217548243,44.89562782371346],[-0.466576650927005,44.89568712865029],[-0.466598568185225,44.895734028452516],[-0.466602459813015,44.89575391391583],[-0.466596416409339,44.89578537479161],[-0.466592634166321,44.895816494698096],[-0.466594118475451,44.89584051079942],[-0.466598400868627,44.89586056430518],[-0.466611963766756,44.89589537832347],[-0.466668419629701,44.8959964441485],[-0.466695239079622,44.89604265013984],[-0.466742454411262,44.896104981852595],[-0.466807779936882,44.896171073865325],[-0.466851085485549,44.896219378546725],[-0.466890081593131,44.89626565486926],[-0.466912639472063,44.89629829542182],[-0.466930999051289,44.89633070658785],[-0.466940730059218,44.89635275285835],[-0.466952211590752,44.89638465783543],[-0.466960956209071,44.89642151484461],[-0.466975487838039,44.896533532768615],[-0.466980155626003,44.896553664356354],[-0.466984751138471,44.896572626620724],[-0.4670043800865,44.89661941759334],[-0.467017381862713,44.89664514682764],[-0.46703647154274,44.89668321284471],[-0.467105222238777,44.89678623773408],[-0.467180686075618,44.89688094200052],[-0.467218783063782,44.89693112154762],[-0.467237785556278,44.89696162004966],[-0.467248103719708,44.89698085419838],[-0.467254051140951,44.896997070589826],[-0.467263656979519,44.89702939461537],[-0.467268537145385,44.897071419114525],[-0.467267176114499,44.897110934880594],[-0.46725640570239,44.897158224596645],[-0.467236468065945,44.89720489938789]]],[[[-0.46557394430796,44.88594107919026],[-0.465523749226104,44.88600888540646],[-0.465336515461237,44.88625931972376],[-0.465304205837817,44.88630268534903],[-0.465210870159436,44.886443754899396],[-0.465164147215285,44.88651442654402],[-0.465010973413939,44.88674577275697],[-0.464746809862723,44.887068451282985],[-0.464743967644459,44.88707169423887],[-0.464673089849885,44.88715564644314],[-0.464595494170529,44.88724782905948],[-0.464578105606691,44.887268018201425],[-0.464556830476081,44.88729301494659],[-0.464539942440948,44.8873130983387],[-0.464218413894749,44.887166772872355],[-0.464048064437106,44.88708926769502],[-0.463992461701359,44.88714345337168],[-0.463949289397804,44.8871279479496],[-0.463807447059014,44.887076859534524],[-0.464286331805057,44.886497035683874],[-0.464319992136956,44.886457052829],[-0.464461321105548,44.88651626747261],[-0.464641138553107,44.88629346307527],[-0.464765496216935,44.88613331138648],[-0.464796297157474,44.886096301503905],[-0.46485749156445,44.886021843823876],[-0.464886500064133,44.8859866021663],[-0.465002902161031,44.88584544371985],[-0.465039990648392,44.88579940561608],[-0.465161083723662,44.88564800698089],[-0.465049201909759,44.88560373537945],[-0.465400817089009,44.885170090288014],[-0.465077661329713,44.885036255240706],[-0.465105262024895,44.885002859887294],[-0.465163233176901,44.88493165687632],[-0.465436757462469,44.885056226639605],[-0.465630663276124,44.8851416456635],[-0.466124689013755,44.88535116260905],[-0.466082621166886,44.885402763863766],[-0.465822389775239,44.885721176841415],[-0.465700031798124,44.885870542957186],[-0.46564305815027,44.885847087852085],[-0.46557394430796,44.88594107919026]]],[[[-0.464796822703125,44.88798288217523],[-0.464789355457514,44.88805286907507],[-0.46478962623284,44.88811882935872],[-0.464787997612365,44.888246401727045],[-0.464791506922736,44.88830937705183],[-0.464811002979526,44.888563451132214],[-0.46482303043992,44.88868428878885],[-0.464827208305667,44.88875192956039],[-0.464822566631109,44.888818403675955],[-0.464816054491713,44.88884843706976],[-0.464783171463483,44.888993387062236],[-0.464755267017993,44.889065003200024],[-0.464559154879503,44.88903642740136],[-0.464358560011924,44.88900916273801],[-0.463827490382489,44.888933090731065],[-0.463756058190767,44.888921891598876],[-0.463934382063442,44.88854538835103],[-0.463864403975403,44.88852693423431],[-0.464296770486201,44.887632957608126],[-0.464324446933655,44.887631553133076],[-0.464386686064488,44.88763555869951],[-0.464438524549182,44.88764358380409],[-0.464539592617663,44.887666654700425],[-0.464584646764292,44.88768183081548],[-0.464658738455644,44.887717639568855],[-0.464717746770625,44.88775554124702],[-0.464766935903595,44.88779456047228],[-0.464799167711854,44.887829963393834],[-0.464813136727782,44.88785908713642],[-0.464818173434466,44.887891373563384],[-0.464815877563792,44.887915777954056],[-0.464808023014846,44.887936390514824],[-0.464796822703125,44.88798288217523]]],[[[-0.463646631913162,44.89008165117087],[-0.463253198718955,44.889912602300996],[-0.4628655464736,44.890367010366596],[-0.46364146196305,44.89087875454341],[-0.463879880057984,44.891044167985825],[-0.463425641003476,44.891609071619925],[-0.462955526153065,44.89219420499541],[-0.462855366729404,44.89232151640241],[-0.462641078027294,44.89264560752475],[-0.46254097548587,44.89279851127744],[-0.462448425979805,44.89295054850961],[-0.46241714854158,44.89301073367526],[-0.462351836876265,44.893160389239036],[-0.462328746436422,44.893112894518936],[-0.462289332240585,44.89306590889548],[-0.461888819103315,44.892739273077865],[-0.461762967801039,44.89263523237222],[-0.461705207126409,44.892580617643276],[-0.461644921208343,44.89251589793655],[-0.461595569761987,44.89242497246818],[-0.461552601992147,44.89232654811853],[-0.461544630863425,44.89229804801244],[-0.461461703091793,44.89228963899175],[-0.461456453251808,44.89204431261506],[-0.461455500052387,44.89193024894058],[-0.461445272414181,44.891900106891576],[-0.461425426743665,44.89186819195038],[-0.46139257982696,44.891835150328625],[-0.461339685519767,44.89180390534708],[-0.461159572523055,44.8917183184707],[-0.461084429012181,44.89193262620606],[-0.460515465397288,44.89188385412225],[-0.460409374579228,44.89212472041384],[-0.459805409144631,44.89203675156417],[-0.459837872294957,44.891966977433626],[-0.459720664902549,44.89221882372403],[-0.45940245324891,44.892177912007575],[-0.45921692367885,44.8926849466986],[-0.459102569346611,44.892995462299545],[-0.458806329977867,44.893002529481215],[-0.458352065157901,44.89289564915786],[-0.457976670083398,44.892809471462975],[-0.45793532921425,44.892786696864064],[-0.45765317018806,44.89260875461936],[-0.457419825941171,44.89253779710399],[-0.457398074679564,44.892567493476975],[-0.456983945293967,44.89311174345153],[-0.45665308376712,44.89354453296017],[-0.456610820991573,44.893599380720886],[-0.45625419160055,44.89406469380773],[-0.455931449116585,44.89448127677003],[-0.455765717183943,44.894692902896814],[-0.455599715282967,44.89489399300278],[-0.455358099379814,44.89518899915287],[-0.455204941548506,44.89537635095156],[-0.455040168733309,44.89557893394267],[-0.455005717972786,44.89560010304378],[-0.454964558635476,44.895604988772945],[-0.454736980980552,44.89550428615218],[-0.454137929995979,44.8952453535196],[-0.453745023965727,44.89507877745021],[-0.453364235440571,44.894911282420004],[-0.453738741802481,44.89398220212676],[-0.453789299507005,44.89383346194191],[-0.453904129416934,44.89349310790703],[-0.453983504761591,44.893262632673256],[-0.454013190673034,44.89317645476142],[-0.452794720038692,44.892808634501364],[-0.452723327723636,44.89277958302684],[-0.45284454038286,44.89254285092181],[-0.453025924801434,44.89164627552647],[-0.453065201645146,44.891450212794624],[-0.453108330796166,44.89134144733061],[-0.453171421128565,44.89123566576019],[-0.453362358810244,44.89097630671416],[-0.453751364350812,44.89113561444438],[-0.453961592375406,44.89126371413932],[-0.454009567219925,44.89119661354419],[-0.454128632344325,44.89103015077897],[-0.454156273167245,44.890991079521285],[-0.454121756688724,44.8909802575664],[-0.454107210044614,44.89096638098249],[-0.454106731570682,44.89094008060556],[-0.454208227805531,44.89079714519365],[-0.454205402196466,44.89077596461347],[-0.454187020720125,44.89076157652079],[-0.45383916280917,44.89062811651539],[-0.453795527949387,44.890611269714114],[-0.453647109206692,44.890554244679905],[-0.453676822359817,44.89052412115169],[-0.453953890513879,44.89024297572607],[-0.454283380059771,44.88986818507607],[-0.454588467511824,44.88952335187687],[-0.454850557638231,44.88914119415261],[-0.454989333461828,44.8889367167918],[-0.455244347026207,44.88856324964154],[-0.455358501436585,44.888397478985105],[-0.455521889112618,44.888160422149085],[-0.455798734531742,44.88775869702759],[-0.455965570794983,44.887515944621356],[-0.455981737865874,44.88753761099026],[-0.456251199170132,44.88789267846285],[-0.45627230392492,44.88792040939401],[-0.456297977665523,44.88795439663715],[-0.456385292438649,44.888069105344805],[-0.456719535765785,44.88773489340595],[-0.456760392230651,44.88769432844467],[-0.456993250204734,44.88746150444617],[-0.456852416989131,44.88739172088135],[-0.456359385705873,44.88714247897481],[-0.45635623819226,44.88714077456439],[-0.456344468269475,44.88713492271388],[-0.45646073370825,44.88701585775781],[-0.456477041993735,44.88702129791561],[-0.456678579528345,44.887088740971365],[-0.45677626876707,44.88691510020506],[-0.456803371649836,44.8869229077813],[-0.456813958129083,44.88690338237411],[-0.457037771755114,44.886962020189266],[-0.457319283746159,44.88659925800201],[-0.456944225097049,44.886456111533434],[-0.456994128963294,44.886389580280984],[-0.457033352191284,44.886341045314424],[-0.457432300676547,44.886118998823775],[-0.457680448771548,44.88598014356139],[-0.458012880854697,44.88576494321987],[-0.458036567181662,44.88577285691629],[-0.458780059360722,44.886025732458606],[-0.458924761904464,44.88582521057821],[-0.459047558270905,44.88586770615937],[-0.459107787033241,44.88578363904067],[-0.458987647825246,44.88574106072974],[-0.458977003760986,44.88575346861339],[-0.458714937342311,44.88566033889681],[-0.458390676178925,44.88554535448012],[-0.458365410610716,44.885536498735384],[-0.459107020865968,44.88505575670244],[-0.459313260948191,44.88492198862382],[-0.459477126635854,44.88500763331514],[-0.460190862518563,44.88538236890246],[-0.460254561231392,44.885416251340715],[-0.460167781568142,44.88625365656118],[-0.460167557333656,44.88625618693738],[-0.460124419012357,44.886641987587865],[-0.460080159919083,44.88678765084251],[-0.459933701488699,44.88673769284163],[-0.459885540593019,44.88672144017057],[-0.459816405289634,44.88669809082697],[-0.459679188305294,44.886871975214255],[-0.459476476756649,44.88713090197991],[-0.459769716037981,44.88722368944999],[-0.459829481212271,44.88724309521518],[-0.459864777852136,44.887254251513596],[-0.459704658641337,44.88749463805111],[-0.459677106611658,44.88753505986758],[-0.45949024557444,44.8879092079262],[-0.459452704112559,44.88798499805299],[-0.459377909322757,44.88814125557464],[-0.459454781495921,44.888154360708235],[-0.459861649064281,44.88825180789698],[-0.460126168435417,44.888316651087855],[-0.460363417877056,44.888370988504214],[-0.460395445558596,44.888378461483256],[-0.46058736768334,44.88814807718524],[-0.460630553664347,44.888095992726],[-0.460636568329304,44.888088685656506],[-0.460361394154812,44.88803607181482],[-0.460501674041972,44.88786866989371],[-0.459680821868136,44.887700135782914],[-0.459737447474343,44.88758229512629],[-0.459856579057472,44.88741113728013],[-0.460021296767145,44.88717132813323],[-0.460123848556595,44.88691020532478],[-0.460188675311238,44.88666639003973],[-0.460189735458456,44.88665274872884],[-0.46060440390799,44.886580882735316],[-0.460883791129657,44.88657244259337],[-0.461482597305228,44.88651402776396],[-0.462426470602404,44.88696295273386],[-0.4624804295898,44.88698686400996],[-0.462666236600328,44.88707659639953],[-0.463410835392163,44.887426828662704],[-0.463276894101604,44.88759818235121],[-0.4637839462955,44.88778441307567],[-0.463116607045823,44.88863651209999],[-0.462848498815997,44.888538262760385],[-0.462515047371498,44.88895258720049],[-0.463002797356386,44.889164838108734],[-0.4636056425349,44.889423963798386],[-0.464059307689613,44.88955219940165],[-0.463646631913162,44.89008165117087]],[[-0.462311268523155,44.889477590361025],[-0.461899190118208,44.88946232441922],[-0.461846631145599,44.88953714185777],[-0.460944034846016,44.88932430236144],[-0.460987647522526,44.88935926140986],[-0.461150421012413,44.889451607247025],[-0.461159094081567,44.88945656384931],[-0.461417938145405,44.88958340423566],[-0.461408169645439,44.88959767760272],[-0.461639533480773,44.889692119696214],[-0.461970134142835,44.88980455487589],[-0.462043237192652,44.889731890420585],[-0.462311268523155,44.889477590361025]],[[-0.458409410362007,44.88701518262147],[-0.457912063567437,44.88682556173395],[-0.457780332503346,44.88710705722305],[-0.458272092954034,44.88723070409947],[-0.458409410362007,44.88701518262147]],[[-0.457729930169998,44.89176229068165],[-0.457493648957733,44.89167448218451],[-0.457102044073795,44.891528786174064],[-0.456987387152965,44.89155065126623],[-0.456892370497794,44.891582629037174],[-0.456833300886561,44.89162394139626],[-0.456787362501125,44.89166232144723],[-0.456615376833032,44.89159945519446],[-0.456157297979112,44.891430411652415],[-0.456053688591426,44.89157602828485],[-0.456667427848531,44.89178988213569],[-0.456690567777067,44.891788891249504],[-0.456707844331436,44.891779160960674],[-0.456761093313435,44.891797689971895],[-0.45678798453714,44.89175882158791],[-0.457209638245836,44.89191070250752],[-0.457294429236449,44.89194113627194],[-0.457543366144521,44.89203062384255],[-0.457616039103353,44.89192616321147],[-0.45770935703148,44.891792581274515],[-0.457729930169998,44.89176229068165]]],[[[-0.463731023731938,44.88186213562856],[-0.463924490925759,44.88199200046455],[-0.464006215496504,44.882046857028826],[-0.46371241189884,44.88233882568494],[-0.463688342566887,44.88236165644281],[-0.463579735880444,44.88246886496868],[-0.463792048131265,44.882575431557626],[-0.463876115646172,44.88261895000634],[-0.463758475374074,44.88273383055052],[-0.463716879576378,44.882774601606855],[-0.463649433015759,44.882840151524356],[-0.463358262024694,44.88311942003609],[-0.463087818323448,44.88336487649805],[-0.462996705283973,44.883324280872124],[-0.462957281793481,44.883307847133935],[-0.462606028261244,44.88315595670379],[-0.462515054694674,44.88311760938009],[-0.462280787594958,44.883018844738444],[-0.462561394113865,44.882716206964844],[-0.462563538197542,44.88271397717564],[-0.462276426117877,44.882566123022784],[-0.462070993110918,44.88246006002221],[-0.462283124305595,44.88223715290604],[-0.462382959775472,44.88220961587646],[-0.462711328545176,44.88210789937499],[-0.462983806144793,44.882012521849376],[-0.463110270740265,44.88196666984833],[-0.463358354389071,44.88185808372958],[-0.463408455904792,44.881887341758514],[-0.463356005988589,44.88193873996486],[-0.463547166518059,44.882043969461996],[-0.463731023731938,44.88186213562856]],[[-0.463355980537829,44.88193872595476],[-0.463336738660246,44.88195762092091],[-0.463356005988589,44.88193873996486],[-0.463355980537829,44.88193872595476]]],[[[-0.4632659147796,44.88728481325079],[-0.463263898649489,44.887270637015526],[-0.463268270783436,44.887249051779484],[-0.46401939132846,44.886331342436705],[-0.464113468848036,44.88637058322684],[-0.464170855292074,44.88639456696125],[-0.463588298550242,44.88711650183834],[-0.463394788669807,44.88735171770047],[-0.463275467058961,44.887297853150166],[-0.4632659147796,44.88728481325079]]],[[[-0.46182851050847,44.866327909337215],[-0.461752754965377,44.866492669792734],[-0.461644593489245,44.8664895554064],[-0.461575670068363,44.866487740238256],[-0.461476637450813,44.86648470138972],[-0.461058845516584,44.86647268003764],[-0.460852536969989,44.86645622422756],[-0.460812473513868,44.86645386894839],[-0.459877436467815,44.86637677574765],[-0.459912847199456,44.86574870432922],[-0.459915870520393,44.865692915686985],[-0.459928027949262,44.865476968752006],[-0.459939134231767,44.865280971197215],[-0.460326725331369,44.86529042359805],[-0.460332994118695,44.86508998069116],[-0.460339218492231,44.86488881821769],[-0.460932485022986,44.8649600752883],[-0.461638427327296,44.86504601847117],[-0.461615547910377,44.86546398975741],[-0.461612954427818,44.86550822967147],[-0.461606057050564,44.86563677632806],[-0.461625714772326,44.86565346619844],[-0.462095789314034,44.865748927688415],[-0.462070951472778,44.86580233298875],[-0.461988787028307,44.86598027092746],[-0.461910329820828,44.86615052301954],[-0.46182851050847,44.866327909337215]]],[[[-0.462707632611717,44.886977073087564],[-0.462463976764466,44.88686201880154],[-0.462242663020129,44.88675771252931],[-0.462408161086092,44.88651841590062],[-0.462650421197655,44.88662936821626],[-0.462905613739965,44.88674649542993],[-0.462707632611717,44.886977073087564]]],[[[-0.46119635948348,44.87404644647552],[-0.461179466525518,44.87409311510373],[-0.461152107437196,44.874130377113886],[-0.461125882377869,44.87417986015701],[-0.461105187721939,44.874245031949485],[-0.461103322500274,44.87432574809996],[-0.461144430734961,44.874634661340544],[-0.461148025068738,44.8747422434331],[-0.461123728339945,44.87482915653294],[-0.461088044278569,44.874891731698675],[-0.461031905923932,44.8749555755882],[-0.460809128138934,44.87512879554481],[-0.460544234197541,44.87529116198758],[-0.460404840234031,44.875367604930894],[-0.460134901966993,44.87503509501387],[-0.459190922886244,44.87423550329347],[-0.459355265878671,44.874489747595184],[-0.459485315677136,44.87474073493489],[-0.459565832667711,44.87562933746268],[-0.459119381185181,44.875690116284936],[-0.458337009173202,44.875748113813295],[-0.458094635206488,44.87577630385567],[-0.457905067952032,44.875803749257614],[-0.457709994152488,44.87585290469543],[-0.457431814219998,44.87594177847725],[-0.457153068869499,44.87605851638489],[-0.45691444206208,44.87615372683327],[-0.456659553889765,44.87626890924759],[-0.456153408821995,44.87648419915675],[-0.455849252797579,44.876639124948305],[-0.455603784429925,44.87674680186724],[-0.455254075399926,44.87689683585241],[-0.4548643610931,44.87713823444543],[-0.454857393966367,44.87714241662519],[-0.454467749156298,44.877452933926136],[-0.454334347048898,44.87754044742765],[-0.453927245672893,44.87773425938831],[-0.453863692565543,44.877770482920674],[-0.453615744934358,44.877930682424505],[-0.453380574493142,44.877983420775124],[-0.452994816940015,44.87807310685708],[-0.452299049164916,44.87814873340007],[-0.451952102938517,44.87815853349887],[-0.451110259062157,44.877961215470236],[-0.451125646250936,44.87772299978552],[-0.451129839555219,44.877636624318605],[-0.451150421899079,44.87719232236507],[-0.451059125872903,44.87698770448656],[-0.450870895096834,44.876585673309926],[-0.450189027969726,44.87649133882706],[-0.450213169564626,44.87625321181522],[-0.450227191021097,44.87612877058037],[-0.449934425758423,44.87604865273842],[-0.448955961761245,44.876071494265354],[-0.448865091182306,44.876083961022054],[-0.448864698633765,44.8760775746946],[-0.448859928875573,44.87607420823484],[-0.448799570025254,44.876075813550955],[-0.44879404124895,44.87607247067509],[-0.448779395562769,44.876007408490814],[-0.448773055665419,44.875978496717075],[-0.44876674576467,44.875974817633384],[-0.448758075872247,44.87596986008453],[-0.448749220452721,44.875900021844735],[-0.448754616246178,44.87579603584507],[-0.44878219380976,44.87555185467909],[-0.448791296890435,44.87548344102706],[-0.448800491963998,44.875410338272935],[-0.448811289549664,44.87532619107223],[-0.448877548902137,44.8747710652015],[-0.448884563854938,44.87467486934806],[-0.448899186404945,44.87446119089867],[-0.44891492125444,44.87423468084596],[-0.448971384192703,44.873718160497],[-0.449005861347396,44.87335120172385],[-0.449019738547412,44.87319963917566],[-0.449084003084089,44.87247605101451],[-0.449098526245662,44.872316447729645],[-0.449176264606631,44.87161415979761],[-0.449207919747509,44.871083811221425],[-0.450114608063916,44.870964785270296],[-0.451028432872393,44.87085057659235],[-0.450978064356604,44.87027267112021],[-0.451707604226642,44.870438602813635],[-0.452356947433164,44.868886902843514],[-0.452430811961921,44.86871562970131],[-0.453050457430997,44.86890002101097],[-0.453562571127853,44.869048283034395],[-0.454109990306513,44.869065941189874],[-0.455251427072855,44.869851851719254],[-0.455285527899566,44.869961097088634],[-0.456853900702788,44.87032626429413],[-0.458402151098447,44.87068536822608],[-0.458195235251118,44.870932798463286],[-0.45914348876495,44.87146775881324],[-0.458973038498474,44.87166322596111],[-0.459217597458163,44.8717509504182],[-0.459054863740451,44.871948249925715],[-0.459420357159297,44.872128903705914],[-0.459533333652667,44.87201876926058],[-0.459657441389826,44.87189801393237],[-0.459668182500601,44.87188722509477],[-0.459789381376012,44.8717686330631],[-0.460033625064409,44.87153057992932],[-0.460053666187999,44.87154113000985],[-0.460577868185761,44.871816865286334],[-0.460857622579926,44.87209914046336],[-0.461447934806912,44.87267597598359],[-0.461920306928597,44.87312202804017],[-0.461149580638536,44.87342985809893],[-0.461563082845605,44.873852243764965],[-0.461259920290102,44.87401048863256],[-0.46119635948348,44.87404644647552]]],[[[-0.459865196070417,44.88226009964435],[-0.459761800408857,44.88247042022589],[-0.459661140873075,44.88267578889325],[-0.459576735706626,44.88284874806546],[-0.459479141387345,44.88304834340021],[-0.459380529722949,44.88324995300532],[-0.459281230334221,44.88345275551755],[-0.459187359838591,44.88364493472689],[-0.459168791214108,44.883683003671436],[-0.459529646642444,44.8838303698616],[-0.459870854636422,44.88396744274742],[-0.459911543961874,44.883985910893216],[-0.459664783704806,44.884369045889635],[-0.459572907522582,44.88451339925656],[-0.459428096592825,44.88470590469803],[-0.459376505409758,44.88474500287033],[-0.459265855901806,44.88481928629067],[-0.458823626503493,44.88512244540526],[-0.458376130210785,44.88540810305481],[-0.458342820122216,44.885429147697245],[-0.458313041079184,44.88541493519494],[-0.458077017628597,44.88530621285811],[-0.45766990583419,44.88511801596161],[-0.457364944327745,44.88534695924389],[-0.456993395083088,44.88562474812489],[-0.456950339402933,44.885604910657854],[-0.456828694822911,44.885550210657875],[-0.456670658347946,44.885478890033276],[-0.456260111703229,44.88529043454928],[-0.455936057227187,44.88514164150576],[-0.455392936689517,44.88555445013696],[-0.455045494765283,44.885822469659416],[-0.454680553359431,44.88571991578677],[-0.454212115052609,44.885591742905575],[-0.453906040355259,44.885506370157934],[-0.453855732188,44.88549225455441],[-0.453247748259259,44.885302631689],[-0.452747280794674,44.885166797717595],[-0.452479953809103,44.885093013019784],[-0.452226793420286,44.88502076975609],[-0.452558147235162,44.8845653585204],[-0.452572384987305,44.88456806988023],[-0.45304122330562,44.884653519674146],[-0.453585360348685,44.88418914234201],[-0.453603413876247,44.88417353049242],[-0.454001849462051,44.88383201250608],[-0.454212099314711,44.88365207780289],[-0.45424580581416,44.88355099502491],[-0.454316302924121,44.88331863318742],[-0.453528485733152,44.88320346120627],[-0.453503922689448,44.88319980955078],[-0.453442096762284,44.88321065509853],[-0.453345803490005,44.883349372538724],[-0.453291359895238,44.88341631363834],[-0.452804972850612,44.88409599346283],[-0.452502772174784,44.88451832572119],[-0.45230700030351,44.884791531996285],[-0.452184083232249,44.8849632493957],[-0.451498448962713,44.88484028820329],[-0.451384629852978,44.88481994539633],[-0.451205442911372,44.88478793660945],[-0.451115081402272,44.884938723878726],[-0.45100882500369,44.88511550932981],[-0.450982259416189,44.88515968319111],[-0.451895729648272,44.88533882723513],[-0.451693666163894,44.885602585080875],[-0.451623246650928,44.885694264481],[-0.451104294510621,44.88558558342939],[-0.450743357800359,44.88550470153908],[-0.45071480993266,44.88552902033485],[-0.45054705240372,44.88567049743957],[-0.450450524378202,44.88575199294023],[-0.450442538836282,44.88575818911776],[-0.450234894131353,44.885925147985795],[-0.450169482108942,44.88598080280804],[-0.451316618727076,44.886092308191536],[-0.451141024765654,44.88631865300542],[-0.451022067003833,44.88647447480308],[-0.45037730969019,44.88645369356394],[-0.450049592186336,44.88644306194017],[-0.449867070403114,44.88643728941471],[-0.449799595580148,44.886447046689845],[-0.449571954735565,44.886480616599826],[-0.449476210317073,44.88649449652525],[-0.449311277489454,44.88652737887066],[-0.449178282638019,44.8865539514623],[-0.44902987963975,44.88658352601744],[-0.449006231412763,44.88658858657979],[-0.44893673867518,44.88660264167835],[-0.448628264477559,44.88666377459853],[-0.448481346055298,44.88669276155902],[-0.448391560150027,44.886710781198026],[-0.447745727109917,44.88681483470773],[-0.44760341628502,44.88683836027144],[-0.447781085202233,44.88735301662935],[-0.447570097118167,44.887385344099044],[-0.447184652871801,44.88744417708692],[-0.447014945610701,44.88693522062694],[-0.447358318998634,44.886878776150084],[-0.447387346176686,44.886435203692905],[-0.447559904629483,44.886421192899554],[-0.447607501609754,44.886199370438085],[-0.447568128501094,44.88619608730052],[-0.447294446016726,44.88618593223736],[-0.447296614863309,44.886171715995175],[-0.447315909620176,44.88604630016646],[-0.447570811537957,44.88600458843835],[-0.447589665218848,44.88591532448806],[-0.447635376670247,44.88569995913659],[-0.447971511301464,44.88570943507265],[-0.44804012257514,44.88538611501806],[-0.448050486894432,44.885350556027205],[-0.448058043168706,44.88532499749691],[-0.448075265389915,44.8852648929902],[-0.448103599915289,44.885169026009066],[-0.448107644266686,44.8851543910062],[-0.448155861365048,44.88499220867463],[-0.44810026511383,44.88498483357935],[-0.4480952810839,44.88500274210247],[-0.447885880851867,44.88498031808648],[-0.447929070248401,44.88485388956261],[-0.447765230155822,44.884830230357615],[-0.448047344491681,44.88451361631961],[-0.448120830978253,44.88445320594195],[-0.448199002896428,44.8843885945451],[-0.448397665547361,44.884223991388446],[-0.448810326258868,44.88431751242585],[-0.449745591697996,44.88454222802044],[-0.449823584047825,44.88440669627215],[-0.449100285225952,44.88414718741014],[-0.448981207330279,44.884103123739],[-0.448897989654185,44.884073266168336],[-0.449084539386644,44.88381684498412],[-0.449242666083055,44.88387132061531],[-0.449301329599838,44.883891486997285],[-0.449682522145849,44.88402987124766],[-0.449899710926068,44.88371517980249],[-0.449848236939346,44.88369442980164],[-0.449799486299675,44.883674676580775],[-0.449752677753198,44.88365558394298],[-0.449776321884671,44.88362574021774],[-0.449248735783115,44.88343810385688],[-0.449477865533954,44.88321865988706],[-0.449850845497715,44.882846316324326],[-0.450440081806679,44.88250915492594],[-0.450546971762311,44.88242310156231],[-0.450679592533131,44.882316421675256],[-0.450769785835396,44.88224332376578],[-0.450859529871297,44.88205164135441],[-0.451603889626518,44.88228290622926],[-0.4516444235235,44.88221856145588],[-0.451670352517727,44.88221351946797],[-0.451604407982534,44.88203172456536],[-0.451465642784201,44.88164906277474],[-0.451550601689984,44.88163308302997],[-0.451797200010518,44.881586572414],[-0.451680085496513,44.88130858833075],[-0.451114060853192,44.881386029189706],[-0.451270860205752,44.880794650461326],[-0.451286174869207,44.88062943427219],[-0.45127831346786,44.88032236838943],[-0.451210318622988,44.880119549069754],[-0.451187879144032,44.88005148501442],[-0.451171524550777,44.88000197677711],[-0.451143936474704,44.87991821163641],[-0.451152357040506,44.87990055658546],[-0.451159755182957,44.87988482585192],[-0.451307811224225,44.87957174021428],[-0.451346883770779,44.8794713027526],[-0.451411845987133,44.879049952873245],[-0.451402257231585,44.87878899232166],[-0.45138555252733,44.87865343015421],[-0.451377289666195,44.87810494473282],[-0.451500941942923,44.878143185581585],[-0.451617981996762,44.87817901844666],[-0.451988464144504,44.87821183523314],[-0.452052309666514,44.878217419549145],[-0.452199329684924,44.87821518976838],[-0.452689145740437,44.87816660860149],[-0.453305581076179,44.878105614287435],[-0.453323027158277,44.878240792732534],[-0.45336478347853,44.87823345542115],[-0.453401891192976,44.878348285727064],[-0.454091493421401,44.87827131213622],[-0.454060146645831,44.87807095870961],[-0.454572764640607,44.87823218083901],[-0.455241663440185,44.878442697881496],[-0.456005166443747,44.8786827086354],[-0.456274015975118,44.87872606586051],[-0.45651690830828,44.878755451074724],[-0.4570256764644,44.87884162166848],[-0.457010243948661,44.87888121468578],[-0.456985636651393,44.878944705062466],[-0.456980060319722,44.87895911780146],[-0.456967600132084,44.87899140858612],[-0.45715325711001,44.879023746733914],[-0.457220887696867,44.87887474353955],[-0.457907140947239,44.87901486105157],[-0.458083933774421,44.87905143913931],[-0.458304337442618,44.87910459208878],[-0.458222914672712,44.87935676331493],[-0.458204422385071,44.87941456611417],[-0.458190686083048,44.8794569903335],[-0.458109246122971,44.87972123817548],[-0.458048461389044,44.87991959505931],[-0.458510176399588,44.88011203563821],[-0.458710290467596,44.880193757590426],[-0.458720837395338,44.880198295440884],[-0.45876257904494,44.88021537928539],[-0.45889951189535,44.880271492866875],[-0.458969725160245,44.88030012600335],[-0.459217073491945,44.8804016435357],[-0.459069093582698,44.88078314036497],[-0.458900859777527,44.88121240130797],[-0.459865915229415,44.881679789370516],[-0.459904308973224,44.88169805864923],[-0.459973278160115,44.88173114593568],[-0.460195432371203,44.88183714191022],[-0.4601788917573,44.881858745830506],[-0.460006778285187,44.882083194966064],[-0.459865196070417,44.88226009964435]],[[-0.451506707971612,44.88255764125368],[-0.451449800009345,44.88265872353364],[-0.451697061722524,44.88272799737305],[-0.452203353224801,44.88286617745],[-0.452233659196898,44.88287046185074],[-0.452280499796583,44.882785012725996],[-0.45241176990457,44.882547247438175],[-0.452386531144549,44.88253054910044],[-0.451653897807972,44.88229838386631],[-0.451506707971612,44.88255764125368]]],[[[-0.460473106020507,44.89535880463207],[-0.460256324080325,44.895698379109874],[-0.460191878905442,44.89573274121872],[-0.46011023556471,44.895759618507945],[-0.459658885791037,44.895860741620176],[-0.459578216878687,44.895878756264544],[-0.459242380385318,44.89613831586025],[-0.459011199618472,44.89631242323746],[-0.458890861889227,44.89640268875605],[-0.458680398123134,44.89656118983934],[-0.458366571496866,44.89678302111988],[-0.458189074958977,44.896908681501394],[-0.458174285246273,44.89690941254114],[-0.458153063666024,44.896910704404526],[-0.458142064906845,44.896911227237474],[-0.458140546306729,44.89691127453894],[-0.458115154120253,44.89691278642237],[-0.458077386671153,44.89693568198341],[-0.458055542324098,44.89695772108632],[-0.458042560468238,44.896987775288096],[-0.45802624703024,44.897000810241344],[-0.458022990996441,44.89700352516981],[-0.458017188319086,44.89700812184091],[-0.45796267388901,44.8970123431742],[-0.457908641481852,44.897012043411],[-0.457383182688188,44.89692314660947],[-0.456953090502443,44.89671520200677],[-0.456901341626394,44.89670257419386],[-0.456510127637314,44.89660696995553],[-0.455941924325363,44.89648479084565],[-0.455858271656558,44.89646675708123],[-0.455666297755293,44.89642541909826],[-0.455347849962008,44.8963069082477],[-0.455313579943164,44.896250748013586],[-0.45530214368943,44.896231818053536],[-0.45524336638015,44.89613595621984],[-0.455220488433529,44.89609800633706],[-0.455148540580004,44.895979753758134],[-0.455133751454393,44.89595579123768],[-0.455116460171041,44.89592208340178],[-0.455113029620964,44.895915791576925],[-0.455108191508897,44.895898999405034],[-0.455101876479866,44.89587675581818],[-0.455048773834679,44.89569393083631],[-0.455283537371986,44.89543581792611],[-0.455337361259074,44.89536483973252],[-0.455469696487705,44.895197601967354],[-0.455731321943915,44.89486313057865],[-0.455905126625028,44.894640528819814],[-0.456466398340281,44.89487890899496],[-0.45685441169712,44.895040040479095],[-0.45748049362645,44.89518195090392],[-0.457512254402703,44.89512950264839],[-0.4576990854068,44.89482213887367],[-0.456933688835108,44.89449954948666],[-0.456234365460032,44.89420589975017],[-0.456539707918212,44.8938156321785],[-0.456664293683049,44.893646200861596],[-0.45680042522819,44.89346045846789],[-0.457124155177289,44.893016895806355],[-0.457397084425202,44.89263781868155],[-0.457425178701964,44.89261846891743],[-0.457454071330539,44.89261207170325],[-0.45748492891553,44.8926190413105],[-0.457600443081338,44.89266041399568],[-0.45762083210198,44.892670323123646],[-0.457928889270751,44.89286115717266],[-0.4587804600961,44.89305794884827],[-0.459066907200049,44.89305244855262],[-0.459659284343765,44.89330182931007],[-0.460158652192006,44.89351084790393],[-0.460519025021326,44.89366165302814],[-0.4611322545279,44.89380493457909],[-0.460946756318496,44.89429998563699],[-0.460820545142816,44.89464016238243],[-0.46076180096483,44.89479772307317],[-0.460664932286119,44.89505866960254],[-0.460473106020507,44.89535880463207]],[[-0.4583106164576,44.89544367167003],[-0.458103485459527,44.895378567539154],[-0.45803361570081,44.89547302785636],[-0.458175500727073,44.8955225007658],[-0.458108576770096,44.89562155567073],[-0.458142290686311,44.89563780878019],[-0.458423010526055,44.895853826418275],[-0.458468462827904,44.89586304480878],[-0.458519277012013,44.89586668888006],[-0.458570797515555,44.89586328147659],[-0.458615001902983,44.89585226142907],[-0.458670924690317,44.89582771861024],[-0.458718522430986,44.89579153912981],[-0.458858249735618,44.89561478425361],[-0.458699213479538,44.89556476506301],[-0.45872060775994,44.89553544002827],[-0.458331905522223,44.895412637692665],[-0.4583106164576,44.89544367167003]]],[[[-0.455921283950911,44.88741440550965],[-0.45593521502408,44.88743064413048],[-0.45555012512058,44.887890262352954],[-0.455318158716569,44.88821795251467],[-0.455168507399563,44.88845575303792],[-0.454668490271793,44.88827836689934],[-0.454573947624829,44.88825003727404],[-0.454258091280265,44.88869163477297],[-0.454925468684454,44.88885074664529],[-0.454592026434053,44.88936498908409],[-0.453954375215107,44.890096424322515],[-0.453561007682481,44.890551876589484],[-0.453387077095788,44.89075384077241],[-0.45316522258219,44.89101758617313],[-0.453105605636107,44.891099467826656],[-0.45308530103963,44.89109090710211],[-0.452895703434056,44.89103840627216],[-0.452503336785293,44.89092948752276],[-0.452485157376425,44.89092455554755],[-0.451999164116365,44.8907836701575],[-0.45198821776165,44.89080356672787],[-0.45186254722714,44.89103584023728],[-0.452355632371852,44.891186869622125],[-0.452637135949926,44.89126805524602],[-0.452927800222117,44.89136211287478],[-0.452955636506263,44.89131384354962],[-0.452991114622136,44.89132175209279],[-0.452936701507416,44.89154378975162],[-0.452902044239906,44.89172222532046],[-0.452790725459677,44.892255597591145],[-0.452736455109214,44.89256648977767],[-0.452646787594542,44.89274104869024],[-0.452474690627195,44.89305948036554],[-0.452470583565745,44.89306690787168],[-0.452466124559428,44.89307479692651],[-0.452453242603558,44.89306942981356],[-0.452415009593155,44.8930538563515],[-0.450609442654856,44.892317471138874],[-0.450457786488148,44.892257298058716],[-0.450044781418115,44.89209115450959],[-0.449508203954355,44.89187612880169],[-0.44918749111632,44.89174487493042],[-0.449152809206646,44.89173135296805],[-0.448578832300287,44.891551280190676],[-0.448223095045365,44.8915307883312],[-0.448014284128435,44.89151834882187],[-0.447911603561694,44.891512345709586],[-0.447388167029168,44.89148615501963],[-0.446991773067256,44.89146629094816],[-0.445796122827024,44.89140662071465],[-0.445603043979807,44.89095678492168],[-0.4454356361551,44.89064619919138],[-0.445330119937489,44.89045156981248],[-0.445300111031177,44.89039644632991],[-0.445274566731759,44.890352088838085],[-0.445009170603623,44.88980833846243],[-0.444990326914904,44.88980495795381],[-0.445036628653878,44.889741428172066],[-0.445137800849033,44.889648618686024],[-0.445250111416748,44.88956997277883],[-0.445389015944944,44.889490861835554],[-0.445598900789859,44.88939089266903],[-0.44579657523459,44.88928409248335],[-0.445916693869268,44.88919637169947],[-0.44605257338467,44.88902471009707],[-0.446216909648477,44.888827201551],[-0.446320474003519,44.88872386268105],[-0.446518644912917,44.888575680474986],[-0.44703469682273,44.888172680253774],[-0.447130970449743,44.888093088370454],[-0.447183372908791,44.88806082015865],[-0.447303223032459,44.8880121282087],[-0.447663194176392,44.88793480031613],[-0.44838177907792,44.88777666841628],[-0.448386289927626,44.887775807323436],[-0.448598155938802,44.88773299708903],[-0.44879837600588,44.887692530916446],[-0.449082716814121,44.88763467090714],[-0.449550338320535,44.887539212097025],[-0.449594451501707,44.88784839631961],[-0.449722900364628,44.887840619520034],[-0.449796787743699,44.88783616040055],[-0.449824822117865,44.88783438794723],[-0.44982006780485,44.88778181522858],[-0.449847995580109,44.88774120416023],[-0.449885359080721,44.88768705212661],[-0.449882607170457,44.88766704078818],[-0.44987254680086,44.887590030091616],[-0.449843467820432,44.887593367073144],[-0.449822099303249,44.887474711680255],[-0.449920836997942,44.887441452694716],[-0.450012712234924,44.88740173798857],[-0.450074854742642,44.88741656899355],[-0.450100327946115,44.88742262642692],[-0.45024367905665,44.88717484560175],[-0.450762072357879,44.88690945833621],[-0.450812933353531,44.886883094076126],[-0.451044868559814,44.88657929700682],[-0.451144443600588,44.88644841034144],[-0.451169077503874,44.88641610228114],[-0.45118595270612,44.88639367833433],[-0.451754155495352,44.885658561446135],[-0.452826416788916,44.885908821986966],[-0.453160076819376,44.88533023241027],[-0.454526764515583,44.885723710715105],[-0.455287639818169,44.885975076801685],[-0.455729263960989,44.88611237123114],[-0.456173863143805,44.886242361687465],[-0.45616764030567,44.8862524687238],[-0.455607369090213,44.88699204930095],[-0.455675045619552,44.88701643796477],[-0.455697642592949,44.88714866258254],[-0.455921283950911,44.88741440550965]],[[-0.450497514123224,44.89064011073456],[-0.45062265152831,44.890411460341035],[-0.450647601858898,44.8903657146176],[-0.450723536093574,44.8902275425318],[-0.45078751175939,44.890111371065714],[-0.450667285430494,44.89007978102423],[-0.45002778623883,44.889835964915356],[-0.44965719621483,44.89028501690083],[-0.450497514123224,44.89064011073456]]]]}}]}
