{"type": "FeatureCollection","name": "aoc_geojson","features": [{"type":"Feature","properties":{"dt":"Angers","type_prod":"Vins","categorie":"Vin tranquille","type_denom":"appellation","signe":"AOC","id_app":1028,"app":"Fiefs Vendéens","id_denom":2341,"denom":"Fiefs Vendéens Brem","insee":"85035","cvi":"1B709S, 1R709S, 1S709S","nomcom":"BRETIGNOLLES-SUR-MER","insee2011":"85035","nomcom2011":"BRETIGNOLLES-SUR-MER","id_aire":1686,"crinao":null,"grp_name1":null,"grp_name2":null},"geometry":{"type":"MultiPolygon","coordinates":[[[[-1.864371873897446,46.63732335255702],[-1.864533992448422,46.6370115421233],[-1.864590878906095,46.6368994251798],[-1.864746459635161,46.63693729011141],[-1.864806702994545,46.63695187099816],[-1.86501223938094,46.637002047157615],[-1.86526250621185,46.637063222771516],[-1.865293174079215,46.6370707605204],[-1.865761222944754,46.63718573985994],[-1.865856830352773,46.637209101679844],[-1.866305415014376,46.6373187715595],[-1.86642743530624,46.63734894911704],[-1.866496980367974,46.63736647170718],[-1.866520266116738,46.63737639783555],[-1.866540955141519,46.637389501606116],[-1.866581816066052,46.63741870817679],[-1.866529699336195,46.637655659979856],[-1.866488159177116,46.63777091470588],[-1.866442435281445,46.6378935643423],[-1.866459575771672,46.63790799174012],[-1.866390868968075,46.63811181834497],[-1.866369880974464,46.638174326478264],[-1.866108641562156,46.638147178924996],[-1.866045873585694,46.63814244904807],[-1.865576720103192,46.638107356696516],[-1.86545139063302,46.63809581264181],[-1.865205108783627,46.63806748616072],[-1.864941564210403,46.638032134278525],[-1.864612947799451,46.63798240595664],[-1.864397126875168,46.63794466432519],[-1.864115714510378,46.637863339006664],[-1.864208029523379,46.637686116530375],[-1.864324572125125,46.63741819216236],[-1.864371873897446,46.63732335255702]]],[[[-1.847045140076271,46.634345028666004],[-1.847126118606739,46.63436018407089],[-1.847201798132395,46.63437466164391],[-1.847274077420768,46.63438919291751],[-1.847315301457606,46.634396198163515],[-1.847353061070939,46.63440253816303],[-1.847408602142421,46.634415883573446],[-1.847427586214986,46.63442022190926],[-1.847522721001128,46.63444578360715],[-1.847710130053187,46.63450153853011],[-1.847760751339523,46.6345169865583],[-1.847822821518446,46.63453745275287],[-1.847900852013671,46.63457239881827],[-1.848079800964828,46.63465368073626],[-1.848190851938014,46.63470202322254],[-1.848035641762115,46.63505844037958],[-1.8478468752415,46.63552462345627],[-1.847876104611383,46.63553222663781],[-1.847767857831963,46.63565327457414],[-1.847727938587527,46.63571667025585],[-1.847626818180164,46.636045266122544],[-1.847515775188576,46.63640504443253],[-1.847280194259935,46.636386330892904],[-1.846782612412603,46.63633315107238],[-1.846620524376734,46.636310242465456],[-1.846599053345566,46.63630005522189],[-1.846589599908409,46.6362748350402],[-1.846585399562738,46.63619986581234],[-1.846593968230759,46.63593626293097],[-1.846607952674169,46.63583905332494],[-1.846608631520309,46.6357350997477],[-1.846610887500984,46.63558570249802],[-1.846612406091097,46.6354926290843],[-1.846625519423738,46.63541061204404],[-1.846634311828062,46.63533888171925],[-1.84666247154646,46.635206791242],[-1.846692015455039,46.635097556140245],[-1.846725288895832,46.63496994020288],[-1.846760628669295,46.63485080696369],[-1.846807303750684,46.63469285349037],[-1.846862338278439,46.63453905671393],[-1.846935339780681,46.63432829680954],[-1.847045140076271,46.634345028666004]]],[[[-1.844839054725761,46.61272783149085],[-1.844891628147903,46.61273751391197],[-1.844902621247743,46.612738942990354],[-1.845046290079762,46.612757218163495],[-1.84504933781065,46.61275763041139],[-1.845119451658968,46.61276729183767],[-1.845124634184099,46.61276815498042],[-1.845159868505761,46.612774241145935],[-1.84516304665832,46.61277464786917],[-1.845206457376508,46.61277993679064],[-1.845209113850278,46.61278036559925],[-1.845271828088601,46.61278925766143],[-1.845272887473354,46.612789393234834],[-1.845441564306717,46.612812112114774],[-1.845534500967004,46.6128266708204],[-1.845537287865589,46.61282709409936],[-1.846089872094673,46.61290347161637],[-1.846082973509241,46.612937683798314],[-1.84654221223111,46.613022793181166],[-1.846517028223316,46.61309711261607],[-1.846515964466766,46.61309986405345],[-1.846488257242306,46.61318258992414],[-1.846411448446063,46.61340614263746],[-1.84637316076268,46.613537580438376],[-1.846363258206243,46.61357480666033],[-1.84635736956155,46.613588046689316],[-1.846345493172578,46.61360460751995],[-1.846328472768724,46.61361633425709],[-1.846315999636026,46.61362326757058],[-1.846338585179672,46.613682753811034],[-1.846339530189631,46.613699222759145],[-1.846342197637419,46.61378932273074],[-1.846345168929732,46.61382410930959],[-1.846361309278391,46.61401684233446],[-1.846363518449694,46.614016658570435],[-1.846698697410922,46.61399651029737],[-1.846793557343088,46.6144891152724],[-1.846404549668356,46.614517858078],[-1.846067993720073,46.614578388818785],[-1.845887023859821,46.61461167206192],[-1.84568540747163,46.61463951429041],[-1.845501986179554,46.61466586409818],[-1.845353815784844,46.61468819522169],[-1.845244487727304,46.61470861107342],[-1.845056870584414,46.61473342374267],[-1.844659419060355,46.61478642436684],[-1.844440814122789,46.61481462264287],[-1.844098428969597,46.614852389918816],[-1.843965089121999,46.614866333182704],[-1.843936352123737,46.61478040396589],[-1.843920804210776,46.6147410977837],[-1.843906927272899,46.61468088173345],[-1.843893608608708,46.6146181160966],[-1.843888573243149,46.61451756158354],[-1.843883481877986,46.61446337878956],[-1.843883569208095,46.61443351467514],[-1.843883710567803,46.614369006579686],[-1.843881173608424,46.614302356523915],[-1.843881151827408,46.614300643403595],[-1.843880892444259,46.614268358218624],[-1.843891189161381,46.614094533508016],[-1.843901411804305,46.61397862851094],[-1.843901446098084,46.61397754450642],[-1.843910971842469,46.61390082133645],[-1.843926120217558,46.6138093359287],[-1.843933403798295,46.613785301691465],[-1.843955193651199,46.61370517261593],[-1.843970119975661,46.613656728080606],[-1.844004515811019,46.613568216915695],[-1.844042348023295,46.61347126070823],[-1.844078009355854,46.613396949562166],[-1.84416107797198,46.6132214879054],[-1.844229702723285,46.61308813543653],[-1.844293318956045,46.612967624708375],[-1.844372631025966,46.612811717592365],[-1.844440395647922,46.612680476246624],[-1.844479641337851,46.612606734891806],[-1.844492242828701,46.61257480739186],[-1.844504081900869,46.61252992151764],[-1.844512483292355,46.61248906031527],[-1.8445175498544,46.61244897177049],[-1.844520627918173,46.61243503890828],[-1.844527571792594,46.612424821550434],[-1.844544748899297,46.6124119156783],[-1.844624180682723,46.61243065528565],[-1.844669514403912,46.61244136597412],[-1.844890406995667,46.61249326921624],[-1.844890667834091,46.61249325817365],[-1.844887238664885,46.61250765697781],[-1.844835461282675,46.612727171701344],[-1.844839054725761,46.61272783149085]]],[[[-1.843228509501097,46.61248323395621],[-1.843315514569421,46.61236074164913],[-1.843334402038299,46.612333239332976],[-1.843352125103717,46.612320581182566],[-1.843385339454641,46.61230988357822],[-1.843431075226624,46.61230307645298],[-1.843516219450721,46.612306599724064],[-1.843628517105262,46.6123078009254],[-1.843856251747517,46.61231458076198],[-1.844021246950853,46.61232392555757],[-1.844130536039512,46.61233102723321],[-1.844224177457209,46.61234763201662],[-1.844389134782289,46.61238151577908],[-1.844399338570603,46.6123873085296],[-1.844408501970353,46.61241227043735],[-1.844402069286283,46.61245025169573],[-1.84439792640131,46.612472799845584],[-1.844387904754945,46.612507234299805],[-1.844359680577409,46.6125797873768],[-1.844324215020974,46.61266509633722],[-1.844261995730772,46.61281008585807],[-1.84421595942997,46.61291045669143],[-1.844144315308871,46.61306721186825],[-1.844103189717961,46.61315952626024],[-1.84404872987251,46.613282896948625],[-1.844037264919134,46.61330701797246],[-1.844036839364729,46.61330811853815],[-1.844007215920921,46.613367920491896],[-1.843974459061789,46.613435162294515],[-1.843955219612889,46.61347927875452],[-1.843947469208946,46.613499543819366],[-1.843936691828078,46.61352697359837],[-1.843936159880375,46.61352834930495],[-1.843927130536755,46.61355335956348],[-1.843926819378574,46.61355427486112],[-1.843908797021314,46.613638484473164],[-1.843884138100278,46.613729019227485],[-1.843867369268338,46.61380379364265],[-1.843867196540854,46.61380479329366],[-1.843845550454493,46.61387625583461],[-1.84384535620233,46.61388582660795],[-1.84383075067048,46.614099437081656],[-1.843830650037313,46.61410124559584],[-1.843825316721778,46.61420738108814],[-1.843823386414492,46.61429000744715],[-1.843823332860234,46.614439221587595],[-1.84382486591864,46.614532797525314],[-1.843826441036632,46.614615095089206],[-1.843826611514675,46.614615538937585],[-1.843838208297006,46.614679550221574],[-1.843853499304521,46.614742412809726],[-1.843853733869517,46.61474357564755],[-1.843890076938845,46.614844338697075],[-1.843890588376696,46.61484567024182],[-1.843899859607815,46.61487477740736],[-1.843906802461375,46.614896856313564],[-1.843905956090866,46.61490645468589],[-1.84390291877648,46.614914973023076],[-1.843890557189322,46.61492316430225],[-1.843866881648937,46.61492633145674],[-1.842984659764176,46.61491783926187],[-1.842507587020878,46.614913307998336],[-1.842456238370245,46.6149115113063],[-1.842407041731629,46.61491476565694],[-1.842341700932934,46.6149263711324],[-1.842291593552326,46.61493850480383],[-1.842312911572314,46.61483394852306],[-1.842329792773645,46.614731023360164],[-1.842336976616621,46.61466766077691],[-1.842345216431501,46.61460145692077],[-1.842351483897678,46.614514587608646],[-1.842358440283788,46.61434288926499],[-1.842360982578235,46.614271513711756],[-1.842366183941108,46.61408599686717],[-1.842368153093237,46.61399055878331],[-1.842365145547491,46.6139083218915],[-1.842363135561091,46.613854910837546],[-1.842364188181876,46.61381823996398],[-1.842373656515415,46.61376876365954],[-1.842378846030292,46.613734443698824],[-1.842414436639502,46.61362405110814],[-1.842434370701859,46.61356420856973],[-1.842438023668558,46.61355819018018],[-1.842489668499822,46.61347517439109],[-1.842490469335538,46.613473877527866],[-1.842580529916461,46.613318058388465],[-1.842581681969554,46.61331629559954],[-1.842595580962731,46.61329450749643],[-1.842612012855605,46.613268823280464],[-1.842626491853853,46.613246198715665],[-1.842668837356096,46.61317782991701],[-1.842717725541275,46.613110898281704],[-1.842766917938541,46.61304738182877],[-1.842797101021185,46.61301588334622],[-1.842836865392331,46.61298172408923],[-1.842873180512005,46.61295880694018],[-1.842895862144826,46.61294449564022],[-1.842897224689751,46.61294362606683],[-1.842909685539264,46.61293949024996],[-1.842925768400668,46.61293339690333],[-1.842937325407614,46.612923525718394],[-1.842944476695451,46.61291122480327],[-1.842946331160353,46.61290853015822],[-1.843047535812753,46.61274998362827],[-1.843146812274019,46.61259918666096],[-1.843228509501097,46.61248323395621]]],[[[-1.844996637176322,46.63427350438693],[-1.845047975790808,46.63406059548886],[-1.845064188150994,46.63397953008799],[-1.845075655430465,46.633898124217495],[-1.84508185576903,46.63381639996473],[-1.845088279708383,46.63355216642144],[-1.845081912391862,46.63341910185386],[-1.845080803909777,46.633381710588644],[-1.845308444420273,46.63344370527818],[-1.84539033938294,46.633466220473956],[-1.845472913019408,46.63348753412759],[-1.845556034855473,46.63350765175966],[-1.845607090508584,46.63352064655511],[-1.845659519424057,46.63353141810498],[-1.845712653215057,46.633539814272005],[-1.845766369422069,46.63354593045073],[-1.845838890714856,46.63355585148713],[-1.845912380017904,46.633561942579256],[-1.845986078549539,46.633564506479885],[-1.846155558510772,46.63357348064902],[-1.84647266892696,46.63358432426502],[-1.846494340736855,46.6335850306725],[-1.846798960453185,46.633595319601724],[-1.847091416702288,46.63360431844752],[-1.847032677661941,46.63383693765939],[-1.846951680309848,46.6341547577003],[-1.84693960884273,46.6341897299664],[-1.846876663885705,46.63438256290264],[-1.846839841898891,46.63447920581811],[-1.846807959504272,46.63457690257561],[-1.846780992670917,46.634675383559866],[-1.846721165094834,46.63490904087464],[-1.84666584210802,46.635102182422806],[-1.846634712935687,46.6352406232763],[-1.846593894500935,46.635429000961246],[-1.8465795243996,46.63566280868366],[-1.846570349324197,46.63594456996647],[-1.8465580957226,46.636169808079714],[-1.845411945677578,46.63604303717291],[-1.845383849743065,46.63604079814564],[-1.845356549107096,46.63603572886837],[-1.845330573692473,46.63602789712781],[-1.845306469453858,46.63601755045737],[-1.845283140905134,46.63600121693418],[-1.84526391765575,46.63598245436056],[-1.845249369703158,46.63596177989093],[-1.845229491368435,46.63593420421679],[-1.845212411365526,46.635905698204276],[-1.845198137707035,46.63587635172785],[-1.845172953291503,46.63579956418174],[-1.845157132736386,46.63577930440834],[-1.845064865742939,46.63550544494843],[-1.844984773879909,46.63525795351664],[-1.844934747355398,46.63507883375304],[-1.844931012141859,46.63506338506774],[-1.844893469976959,46.634905297754536],[-1.844893348814781,46.63485694901823],[-1.844890627965027,46.634770640646636],[-1.844909344191069,46.63464715970818],[-1.844996637176322,46.63427350438693]]],[[[-1.842499949289836,46.62458143935],[-1.843050938963545,46.624645995615424],[-1.843159099332724,46.62466072484719],[-1.843162938418628,46.6246611939019],[-1.843166939997625,46.62466201693139],[-1.843313114934485,46.624687496719794],[-1.843484395530045,46.624705238305815],[-1.843780452983736,46.62473168263835],[-1.844029150812592,46.624754176354266],[-1.844148680901668,46.62475543291983],[-1.844532642733519,46.62476913402885],[-1.844748835749338,46.6247765831784],[-1.844991761911886,46.624788674021076],[-1.845160274463159,46.62478857798406],[-1.845320276632731,46.62478261726329],[-1.845448624251707,46.62477556052436],[-1.845358956411414,46.624944715943215],[-1.845281328696394,46.62507709613976],[-1.845246985785735,46.62513836080043],[-1.845143768107741,46.62537583920843],[-1.845058679258076,46.62555084472],[-1.844889022347156,46.6255513497928],[-1.844831477196591,46.62554332069821],[-1.844753149037479,46.625531299707404],[-1.844662973962023,46.625520050697084],[-1.844526589644746,46.625508953022795],[-1.844414484253765,46.62550287193497],[-1.844299516991152,46.625497002064385],[-1.844209416750603,46.625495402280585],[-1.844018152322356,46.6255032255643],[-1.843895313772655,46.62551040834802],[-1.843630988272526,46.62549037971805],[-1.843349964091806,46.625466636618135],[-1.843069870304587,46.625426885866155],[-1.842974640228905,46.625416210270515],[-1.842965347747954,46.62546179986688],[-1.843105237885801,46.62548285485056],[-1.843303028835286,46.62550858663673],[-1.843496596255509,46.62552953510955],[-1.843724283549485,46.62554985141365],[-1.843903402046052,46.625567351046236],[-1.84423170939523,46.62554569961571],[-1.844312122085003,46.625548791910624],[-1.844315537839228,46.62554891799471],[-1.844533127888556,46.625561721312756],[-1.84465524737391,46.62557143803416],[-1.845029159858899,46.62562949658551],[-1.845003707046246,46.62570382653769],[-1.844942281450296,46.62587548482188],[-1.844876391164827,46.62603966394438],[-1.844814822793731,46.62615539635177],[-1.844738019693129,46.62629558961205],[-1.844675408935281,46.62639963839531],[-1.844600318481827,46.62651792760187],[-1.844571516637943,46.62656939493307],[-1.844526964970732,46.62664101471226],[-1.844493816108328,46.626703942555295],[-1.844470081250075,46.62675790179077],[-1.844445181579015,46.626816420941076],[-1.844427258343401,46.62686066189769],[-1.844417496064287,46.62692593785654],[-1.844407191656986,46.62696751085529],[-1.84440390042188,46.62702899466999],[-1.84440529845722,46.62708432600913],[-1.844408011290529,46.62713824851831],[-1.844414434250562,46.627197065919724],[-1.844425211770861,46.62729737723355],[-1.844442401364024,46.627437291134726],[-1.844448074089482,46.62750678536278],[-1.844457167555822,46.62758380289257],[-1.844466738887567,46.627647087892676],[-1.844478099719565,46.62770253888317],[-1.844492066527224,46.62776518680493],[-1.844504386996287,46.62780643381373],[-1.844543857688786,46.62788929257457],[-1.844608610810394,46.62806183518409],[-1.844683161505114,46.62824145076853],[-1.844743531628862,46.62839126483067],[-1.844768030790963,46.62846041335426],[-1.844642706056755,46.62847356568965],[-1.844590149923349,46.62847452689115],[-1.844433367134426,46.628474125222134],[-1.844391663375921,46.628485181941144],[-1.844309924445756,46.62847754480488],[-1.844034863501623,46.62844155212335],[-1.84391799127809,46.628424666085195],[-1.84374419485386,46.62840234006162],[-1.843541272055605,46.62837204447004],[-1.843340266284129,46.62834121635897],[-1.84310031929483,46.628829854715725],[-1.842940548437398,46.62880034855573],[-1.842483430842265,46.628721354547324],[-1.842414036167733,46.628708232198164],[-1.84216816846817,46.62862805906495],[-1.841997170478087,46.6285636632849],[-1.841772524287949,46.62846445906529],[-1.841639335979631,46.62839819298043],[-1.841504449359346,46.62835401038572],[-1.841294608504701,46.62830190144665],[-1.841121621870289,46.628263659897705],[-1.841220294673288,46.62810865205559],[-1.84133258963356,46.62793899487578],[-1.841430397163239,46.62778898506373],[-1.841512644999702,46.62767156838101],[-1.84159189324251,46.62754841468499],[-1.841804865418564,46.62763422016672],[-1.841908375809485,46.62747034658282],[-1.842028354016188,46.62728114833616],[-1.842043724949353,46.627264079518355],[-1.842057002803167,46.62725584983293],[-1.842082829460558,46.62725178039079],[-1.842127077692381,46.627250179372226],[-1.842223969022651,46.627248606853186],[-1.842371782368983,46.627242444459306],[-1.842408687354485,46.62723925949981],[-1.842444790155831,46.62723295102808],[-1.842530591634929,46.62721714274738],[-1.842669525862402,46.62719069693082],[-1.842771664913972,46.62717013775877],[-1.842868909528297,46.62714608684549],[-1.843033986816798,46.627105904823416],[-1.843159328029466,46.62707534242488],[-1.843226678914766,46.627059682729296],[-1.843476150295472,46.62701141876191],[-1.843482392209822,46.62698742877617],[-1.84353324733356,46.62673385481569],[-1.843611745107557,46.6265759091771],[-1.843733452680656,46.62634450635888],[-1.843798572824937,46.62621130354784],[-1.843565075874231,46.62616110212164],[-1.843398426484442,46.626223273207124],[-1.843176764895143,46.62630437066063],[-1.843123850562198,46.626321855314835],[-1.843079103176031,46.62633547612807],[-1.842999832799689,46.626356962595544],[-1.842971688256211,46.62636293457859],[-1.842904097832053,46.6263758979205],[-1.842901267927403,46.62637646870659],[-1.842860083823435,46.626384525932345],[-1.842747789266618,46.62640425190823],[-1.842666282622968,46.626416811497236],[-1.842608059457735,46.62641440311678],[-1.842556806369534,46.62641233133476],[-1.842508050197586,46.626408890928545],[-1.842483588006348,46.62640622704521],[-1.842393796453196,46.626389005966445],[-1.842245550741292,46.626360906062864],[-1.842186151341147,46.62634970641168],[-1.842183486218847,46.62634918766061],[-1.842112870212111,46.62633701904051],[-1.84200680434685,46.62632084691656],[-1.841951058813639,46.626313912999855],[-1.841945369256523,46.62631325153492],[-1.841900297923001,46.62631001586243],[-1.841786700132317,46.62630336378671],[-1.841643130299109,46.62629834014151],[-1.841593075457019,46.626296487891075],[-1.841561324030998,46.62629431253948],[-1.841639735036397,46.62601043565364],[-1.841880486682972,46.625360376079264],[-1.841888952471222,46.62533782573799],[-1.842037967689083,46.625356962404325],[-1.842045299405775,46.62533491108189],[-1.842127263885498,46.62508507383621],[-1.842219675378332,46.624755588041396],[-1.842274200371255,46.624554904356],[-1.842499949289836,46.62458143935]]],[[[-1.83673223660294,46.617917391218164],[-1.836733990818133,46.61788267560969],[-1.836737302372129,46.61781397440896],[-1.836739233656957,46.617770951795855],[-1.836752964478173,46.61770605025163],[-1.838247908402802,46.61764205275251],[-1.838275792173231,46.61790817303733],[-1.838289115620583,46.618072517875824],[-1.838298790166464,46.61818117555685],[-1.838314669541945,46.61827423485264],[-1.838327287261848,46.618318897818675],[-1.838339824980303,46.61836266204285],[-1.838349153062574,46.61839537562424],[-1.838358758863989,46.61844738289354],[-1.838376740469141,46.6184919995323],[-1.838383595948512,46.618526351245514],[-1.838389777689946,46.61857372200821],[-1.838389921731887,46.618575339740154],[-1.83838704843201,46.618685700611216],[-1.838383489248349,46.61875747961864],[-1.838432189361067,46.618972110800584],[-1.838428593187117,46.61897289430875],[-1.838282719991909,46.619002064885],[-1.838224844234313,46.61902111045072],[-1.83816540318381,46.619054926749826],[-1.838110695350065,46.61909043739708],[-1.838009235922733,46.619190531489174],[-1.837878070106606,46.61931578735561],[-1.837788244337458,46.61940979632006],[-1.837635056333498,46.619512707923406],[-1.837587742750439,46.619469511349415],[-1.837140577590941,46.61918069640311],[-1.836736484028889,46.618919739561164],[-1.83690790659172,46.61878340174769],[-1.836695602596787,46.618751687860346],[-1.836695956267287,46.61869682392114],[-1.836696644742688,46.61860306439088],[-1.836697035293447,46.61854567295082],[-1.836283191185981,46.61849577215232],[-1.836202849645182,46.61848599597557],[-1.835882314366094,46.61844739688389],[-1.835859647617072,46.61848398836601],[-1.835756821741106,46.61844223445177],[-1.835240835327712,46.61828613567863],[-1.835272127855023,46.61823465578204],[-1.835322730511176,46.61814564377142],[-1.835349703140607,46.61809858631486],[-1.835396265719778,46.61801714233078],[-1.835445153108459,46.61794417025037],[-1.83545819661619,46.61792449422501],[-1.835499558201915,46.6179096660154],[-1.835536091267265,46.61789648518274],[-1.83559800713937,46.617874293268244],[-1.835621098144477,46.61786601050521],[-1.835667916303075,46.617849237662796],[-1.835699759230135,46.61783778853852],[-1.835783864416466,46.617853089370335],[-1.835798896865961,46.61783811050691],[-1.835925378691437,46.617807326613836],[-1.83673031330688,46.617960503703976],[-1.83673223660294,46.617917391218164]]]]}}]}
