{"type": "FeatureCollection","name": "aoc_geojson","features": [{"type":"Feature","properties":{"dt":"Bordeaux","type_prod":"Vins","categorie":"Vin tranquille","type_denom":"appellation","signe":"AOC","id_app":685,"app":"Côtes de Bordeaux","id_denom":1849,"denom":"Côtes de Bordeaux","insee":"33534","cvi":"1R120S","nomcom":"LE TOURNE","insee2011":"33534","nomcom2011":"LE TOURNE","id_aire":1451,"crinao":null,"grp_name1":null,"grp_name2":null},"geometry":{"type":"MultiPolygon","coordinates":[[[[-0.409636139438199,44.714071421607606],[-0.409626176435282,44.71409470741631],[-0.409112048778668,44.714557416990395],[-0.408793498388956,44.714844056714135],[-0.408739561474098,44.71489248672952],[-0.408531013508832,44.715142485722595],[-0.408511079785764,44.715163915783926],[-0.40850039691288,44.7151753287135],[-0.408447473928774,44.71519669339999],[-0.408450221047492,44.715198230832655],[-0.407987810318919,44.71545721822413],[-0.407953923133674,44.71547988886576],[-0.407721084463332,44.715635654936094],[-0.407700254321898,44.71564855169363],[-0.407662296686197,44.71567287949453],[-0.4061557943363,44.71659713611613],[-0.406143773915848,44.71660525578109],[-0.406098093920566,44.716552143192224],[-0.406003921739236,44.71644330112084],[-0.405919939554093,44.716484003442226],[-0.405334209543949,44.71689212647955],[-0.404709386552047,44.71732478810049],[-0.404052649099762,44.71776906088086],[-0.40398582626355,44.717704883010875],[-0.403857982116454,44.717659883507686],[-0.403677533294831,44.71761650162654],[-0.403453021081867,44.7175717710714],[-0.40336297189632,44.71756237488078],[-0.403146878809189,44.717562801769766],[-0.403140509463794,44.717532719655864],[-0.40312310282034,44.71749567776689],[-0.403098042488272,44.71746373731126],[-0.402872118496702,44.71728279823431],[-0.402832337724571,44.71715164539904],[-0.402760112453169,44.716960483612866],[-0.40263159963169,44.71669121227447],[-0.4025725143036,44.71659192208474],[-0.402502984164293,44.71650800183416],[-0.402295834463736,44.71630512788506],[-0.402093456339019,44.71613725095578],[-0.401845030171441,44.715960245900355],[-0.401597988908293,44.715812394342606],[-0.401249545773491,44.71561151832886],[-0.401079529428239,44.71548968409371],[-0.400943378426947,44.71538239848137],[-0.400798218587046,44.71525150965923],[-0.400740012831386,44.71519805906653],[-0.400660717648902,44.71509677579227],[-0.40060671349745,44.715012467584536],[-0.400565649038257,44.714935241129766],[-0.400500149281052,44.714811276037125],[-0.400482339603521,44.714773795668705],[-0.400436669060263,44.71469562935514],[-0.400380580570406,44.71463328251007],[-0.400465683538144,44.71456092044448],[-0.40061682671804,44.71443327247848],[-0.40061076765028,44.714420842870396],[-0.40046554107371,44.714125680293975],[-0.400534935249676,44.7140443389891],[-0.400649012672327,44.71391819030226],[-0.400569508557522,44.71388242544317],[-0.400558780831995,44.71389311803565],[-0.400514692159637,44.71387248522324],[-0.400637706026688,44.713731103248506],[-0.400667395911286,44.71367450128145],[-0.400552587861857,44.713621258012296],[-0.400407642236192,44.71355028729868],[-0.400336811303278,44.71350118946687],[-0.40053547887427,44.713313057559915],[-0.400612967689225,44.71324020840572],[-0.4006321795052,44.71321934271146],[-0.400785182773599,44.71307235317859],[-0.400844839382932,44.71310593425791],[-0.400943936902379,44.71313343718344],[-0.401039673382037,44.713149238545995],[-0.401189794089258,44.71316156620403],[-0.401276603015925,44.713155113549206],[-0.401333784041479,44.71314146127151],[-0.401361872104774,44.71316709115153],[-0.401394961249532,44.71319391901007],[-0.401436783520525,44.71322723690346],[-0.401480389215377,44.71325869771363],[-0.40153656013203,44.713278508211],[-0.401570794443525,44.71328664748384],[-0.401596047713209,44.713290467041425],[-0.401688679692876,44.71322354964924],[-0.401853866080119,44.713108804898255],[-0.401816206294921,44.713075359210215],[-0.401963297478371,44.712974867641634],[-0.402129802736305,44.712863145741935],[-0.402302113257626,44.71276593348693],[-0.402415393454103,44.71269567727051],[-0.402635513620785,44.71256779804691],[-0.403081133153588,44.71297149858092],[-0.403114094809829,44.71300247505573],[-0.403152291962179,44.71298210644152],[-0.403277265848431,44.71308639873716],[-0.403354446685396,44.71315269124705],[-0.403454686055539,44.71323665760777],[-0.4035396316323,44.71330595527645],[-0.403674551778838,44.713417961337754],[-0.403732756049355,44.71346510252725],[-0.403771849319597,44.71349715182988],[-0.403811073216404,44.713531359811896],[-0.404038306335294,44.71342704879608],[-0.404156284096181,44.71337178523116],[-0.40426477088219,44.71332258070799],[-0.40434040497184,44.71328808382982],[-0.404415965602875,44.713409033909606],[-0.404442052135663,44.71349555084019],[-0.404462628977656,44.71356619716233],[-0.404477258217229,44.71360746941107],[-0.404495246846002,44.713654135203825],[-0.40451814415695,44.71370046976543],[-0.404549105262161,44.71375475653434],[-0.404633847177452,44.71387704610884],[-0.404706957611337,44.713951212710114],[-0.404724473767034,44.71396500179415],[-0.40476903210892,44.713993368244324],[-0.404821510270334,44.71402104045863],[-0.404892139266789,44.71405419179264],[-0.404980105295246,44.71408563821525],[-0.405031919609434,44.71410233698036],[-0.405049109314509,44.714110729284236],[-0.405061412110975,44.71411981262077],[-0.405206604489442,44.71406316993272],[-0.405202730773556,44.714043013705364],[-0.405200275642783,44.71401497400253],[-0.405204338280209,44.713981867656926],[-0.405221599728807,44.713941326388394],[-0.40532651546638,44.713701551673964],[-0.405286579596656,44.71368692061284],[-0.405045038316035,44.713554767539826],[-0.404870796783439,44.71345712930476],[-0.404786003932812,44.71340918465944],[-0.404633479363285,44.71352633792883],[-0.404536681866039,44.71360582160969],[-0.404519365918599,44.71355147553285],[-0.40450706747981,44.71349859713589],[-0.404490396675909,44.71344864674463],[-0.4044842338735,44.71342198268183],[-0.404478204198457,44.71340378513688],[-0.40446857280293,44.713382454324886],[-0.40444318200309,44.71333250183988],[-0.404383824480131,44.71324124116889],[-0.404332303843824,44.71318551422008],[-0.404200160010855,44.71306927835428],[-0.403957090070441,44.71289923260414],[-0.403640651112345,44.71268827883216],[-0.403309721077952,44.71246335183054],[-0.403216103722229,44.71238855350609],[-0.403068406194331,44.712259548171204],[-0.402975996954478,44.71216083262996],[-0.402878656196804,44.712043254865996],[-0.402839388836949,44.711989493485014],[-0.402805283374364,44.71193332055557],[-0.402797705783669,44.71190832197529],[-0.40300386583539,44.71180042565469],[-0.403035082148277,44.711777478230374],[-0.40303641776601,44.711749412084984],[-0.403056221649763,44.711681939424906],[-0.403326293146578,44.711483676495135],[-0.403395503234468,44.71144955801049],[-0.403592199539288,44.71146729847072],[-0.403751506293178,44.711437257325734],[-0.403859048688716,44.711428903280165],[-0.403872540896097,44.71142632557957],[-0.403912829530885,44.711421752198405],[-0.404122650068016,44.71138069492805],[-0.404123046279709,44.711343376032616],[-0.404147977817415,44.71134188822417],[-0.404213775158249,44.71133283543953],[-0.404379006789883,44.711331807672394],[-0.40440087337511,44.711317257619115],[-0.404467968712728,44.71132339382057],[-0.404559492011983,44.711325984976924],[-0.404595947442779,44.71132071825372],[-0.404621731203494,44.711314518251704],[-0.404634635231578,44.7113147520499],[-0.404692316054446,44.71134073224125],[-0.404751431482669,44.71137162447418],[-0.404760361646196,44.71134377519541],[-0.40477866717096,44.71133302925152],[-0.404814552159525,44.711280741096964],[-0.404811103274606,44.7112676006183],[-0.404861499011003,44.71119197733506],[-0.405016813920377,44.71125262056961],[-0.405071312603451,44.71126986741524],[-0.405166972682771,44.71132829087549],[-0.40537871389175,44.71145054674561],[-0.405583696581005,44.71155507776079],[-0.405740365195138,44.71146266667023],[-0.405923460356204,44.71160643899117],[-0.405963920237062,44.71163601238856],[-0.405991674875683,44.711649846590824],[-0.406018288848031,44.71166362578035],[-0.406099595545083,44.71169158151681],[-0.406033931034838,44.711784256128084],[-0.406156830419718,44.71188554521861],[-0.406225971043021,44.7119442433906],[-0.406325910369342,44.71196684949688],[-0.406437763004636,44.71198584474685],[-0.406562767288559,44.711915223220956],[-0.406707559040678,44.71205873162241],[-0.406817389754849,44.71213825454888],[-0.406966404788055,44.712245046776474],[-0.406780046273674,44.712345943087435],[-0.406810427915614,44.71238645979265],[-0.407377511824937,44.71271692752923],[-0.407619579073074,44.71255096541074],[-0.407663700815573,44.71252203224571],[-0.408042126270893,44.71269204712837],[-0.408408240051605,44.712852797878604],[-0.408519688085338,44.712764929449555],[-0.40857184449212,44.71276224169542],[-0.408945722481524,44.71287589278067],[-0.409420214733001,44.71302320919581],[-0.409393859840394,44.71314513317417],[-0.409724258570889,44.71325444410524],[-0.40989371917181,44.71331058995954],[-0.409891165997764,44.71331850847238],[-0.409883144400757,44.71334254550611],[-0.409645811210365,44.71404958658136],[-0.409636139438199,44.714071421607606]]],[[[-0.402328694090169,44.71847881307747],[-0.402378409885356,44.71845448620658],[-0.402765431435628,44.71826470515857],[-0.403048040314113,44.718122739049214],[-0.403119813003628,44.71822488307816],[-0.403211156922069,44.7183246230306],[-0.403234635520788,44.718361748561776],[-0.403298712850975,44.7184432229051],[-0.403288556711867,44.718450834350755],[-0.403138357556957,44.718556559516394],[-0.402666590225982,44.71883095007848],[-0.402328694090169,44.71847881307747]]],[[[-0.402540542828744,44.717636953419515],[-0.402509357994671,44.717666748263525],[-0.402241490844074,44.71746934510128],[-0.40203914261209,44.717320841235605],[-0.40207315293417,44.717300151195175],[-0.402058648630607,44.717273473049666],[-0.401925122240977,44.71705292590449],[-0.401786010418337,44.71682777434075],[-0.401645636061211,44.7166068066511],[-0.401605951239033,44.716539901034125],[-0.401576833668333,44.716497271439614],[-0.401557040263355,44.71646462813336],[-0.401692128695466,44.7164288465715],[-0.401826788565632,44.7164047926862],[-0.401996681719658,44.716380286413866],[-0.402118745791299,44.71632976570105],[-0.402157467126155,44.71636191718585],[-0.402296169531003,44.716530129487545],[-0.402390704538249,44.7166450910231],[-0.402466631627036,44.71674701749938],[-0.402507612988711,44.71682280416872],[-0.402545523975324,44.716929323615865],[-0.402551927640619,44.71701013826876],[-0.402552162984599,44.71703283949165],[-0.402561484860067,44.71708040287399],[-0.402574401706455,44.717112176085436],[-0.402597971016388,44.71716335653599],[-0.402621527184072,44.717208049256286],[-0.402678236194846,44.717268033165865],[-0.402713264145382,44.717295522060546],[-0.402788377405166,44.71750308578862],[-0.402650162234519,44.71756870204532],[-0.40258071488433,44.71761156814515],[-0.402540542828744,44.717636953419515]]],[[[-0.401044725084372,44.716695291771],[-0.401022749172341,44.71668299083146],[-0.401009242575577,44.71667908046457],[-0.40098542006157,44.71667386506453],[-0.400955299876826,44.716671096000844],[-0.400933053077439,44.71667313130973],[-0.400910304902884,44.71667941732394],[-0.400882119230761,44.71668983538266],[-0.400865077037479,44.71670270451534],[-0.40085477620613,44.716714195030555],[-0.400844577441871,44.71673992023645],[-0.400841376781963,44.716755968557614],[-0.400842042140435,44.71677324977723],[-0.400846786765844,44.71678274605893],[-0.400849666338268,44.71679275021374],[-0.400813783277225,44.71680754996763],[-0.400559086398973,44.716300921806194],[-0.400247158665371,44.71633411504143],[-0.400394222232352,44.71662823060064],[-0.400026185728228,44.71636036804984],[-0.399782795392683,44.716122287590345],[-0.400173176978441,44.71586275514714],[-0.400221905548549,44.71581584124823],[-0.400395676050349,44.71564847963749],[-0.400491569688652,44.71555388862918],[-0.400584859500849,44.71546640633373],[-0.400818650851368,44.71564602640479],[-0.400957601236246,44.71552361874195],[-0.401181646002443,44.715686235939344],[-0.401241896102024,44.715723313090315],[-0.401307678243249,44.71576409504953],[-0.40145783209227,44.7158521163354],[-0.401430335305128,44.71586764980592],[-0.401151540823666,44.71602868870565],[-0.400868284974067,44.71619121564667],[-0.401104852672416,44.71665505598251],[-0.401044725084372,44.716695291771]]],[[[-0.400730802512334,44.71976309882752],[-0.400588189199583,44.71981253701456],[-0.400118542884504,44.71997808469706],[-0.39997067139243,44.72002209658814],[-0.399703991832181,44.72010165757671],[-0.399759230983697,44.719992996852994],[-0.399821811376949,44.719830132980206],[-0.399841327010942,44.71977032935222],[-0.399865591072739,44.719663611275],[-0.399878659239898,44.71957868397057],[-0.399881327429953,44.71948479450264],[-0.399884277114044,44.71935791507862],[-0.399878786999768,44.71924823613138],[-0.399869344341901,44.71915471869224],[-0.399856824209206,44.71909184404994],[-0.39993848410303,44.71905022663777],[-0.400481883944895,44.7187625634812],[-0.40081969166358,44.71913849837602],[-0.400837880526835,44.71915713354865],[-0.401197141484114,44.71954916931938],[-0.401117727730651,44.71956521668985],[-0.400706113455819,44.71964319619261],[-0.400714038257352,44.71965511794752],[-0.400774251388466,44.7197479765666],[-0.400730802512334,44.71976309882752]]],[[[-0.399761644354097,44.71951838829206],[-0.399754212992208,44.719596203742114],[-0.399736398481461,44.71968416042839],[-0.399717203429646,44.719749270846336],[-0.399654152935947,44.71994828435347],[-0.399589267461532,44.720142037525875],[-0.399535086543289,44.72029959695098],[-0.399463904039077,44.720502104180675],[-0.399411259191794,44.7206286175315],[-0.399383801832838,44.72067622941033],[-0.399296000404119,44.72081706903727],[-0.399237437944286,44.72090213188148],[-0.399199591410356,44.72095979496483],[-0.399157940218756,44.7210235223271],[-0.399091509222293,44.72112270411712],[-0.399059343364717,44.721192808501705],[-0.399007479187255,44.72131344033251],[-0.398974858821894,44.721401130662834],[-0.398943053192337,44.721483479303295],[-0.398928508693247,44.72153772333556],[-0.398912939294318,44.72160010899941],[-0.398910438776793,44.721627760331934],[-0.398904037922783,44.72168499835347],[-0.398923962524118,44.72175746807968],[-0.398661573176153,44.721933315366634],[-0.398484724639975,44.72205012494378],[-0.398332920469578,44.722148413067735],[-0.398106847594014,44.722291514332795],[-0.397938568013254,44.722393281403804],[-0.397260504941326,44.722812754095344],[-0.397227277058505,44.72284648489231],[-0.397207356329823,44.72286196491537],[-0.397246850920638,44.722888056950865],[-0.397349563556068,44.72295005605043],[-0.397485536376984,44.723016531062825],[-0.397645801584889,44.72309595741438],[-0.39764843103947,44.72310182415245],[-0.39764510242186,44.723109495808416],[-0.397506559151056,44.72321395389553],[-0.397316507272085,44.72335711923688],[-0.397106431935065,44.72352036313979],[-0.397048253480153,44.72356792598147],[-0.396870966539083,44.72371529450701],[-0.396668405826411,44.72388371368192],[-0.396580677851579,44.72395687394354],[-0.396469741290037,44.72404759737785],[-0.396320589532049,44.72417112286618],[-0.396158899373138,44.724300529719315],[-0.396055692760949,44.72438741102908],[-0.395976031895922,44.72444347217182],[-0.39535705685145,44.72408335577897],[-0.394775411612178,44.72397098281699],[-0.394588611968862,44.72433788360887],[-0.394529094755365,44.72445757632667],[-0.394474542465069,44.7245590040873],[-0.394430130638718,44.72462110202334],[-0.394365683970878,44.72470309844361],[-0.394077887729637,44.72506795887593],[-0.393951536268433,44.72511697950893],[-0.393886784698194,44.72514365573509],[-0.393701869952996,44.72507678436748],[-0.393515076830437,44.72499762484579],[-0.393309656550118,44.72489254290672],[-0.392977110482171,44.7247167440666],[-0.392750931284173,44.724625814377845],[-0.392621257221545,44.72457572124902],[-0.392934626205527,44.724075182324285],[-0.392180932930251,44.72313434736466],[-0.391932908967112,44.722844486335845],[-0.391654005587184,44.72250781139451],[-0.391675708467472,44.72247155191519],[-0.391496304318527,44.72247074115777],[-0.391368412434172,44.72246898262391],[-0.39133916045612,44.722468076621205],[-0.391288226253574,44.722466032668514],[-0.391267922435591,44.72246259967643],[-0.391249172326509,44.72250381490393],[-0.391298753263843,44.72321941163993],[-0.3906681447007,44.723156277444225],[-0.390671868443995,44.72318031353951],[-0.390661741301719,44.72318215567051],[-0.390182829063327,44.723270356614826],[-0.390203710455646,44.72334000483135],[-0.389657146993829,44.723180213255],[-0.389472618462439,44.72312584903389],[-0.389387012732436,44.72324066042117],[-0.387960704516741,44.722677418696705],[-0.387984905604926,44.72261963679739],[-0.388005135520143,44.722590361849115],[-0.388051494930935,44.72252063764804],[-0.387971343187086,44.72250146400964],[-0.387913076970008,44.722497300005664],[-0.387511632973187,44.72248030005765],[-0.387389996781862,44.72247537177474],[-0.386986601093628,44.72245743842537],[-0.386571596035297,44.72242931567009],[-0.386193402187265,44.7224016872623],[-0.385946863870931,44.72238165478999],[-0.385899492883698,44.72237580476491],[-0.38586134094582,44.72237192552338],[-0.385628897740064,44.7223340695225],[-0.385603646510378,44.722324028411265],[-0.385574917743261,44.72230030648406],[-0.385559438709907,44.72223211438911],[-0.385533856906201,44.72212205876481],[-0.385495143402593,44.72195130868302],[-0.385225623305495,44.721851777707776],[-0.385363610640695,44.721618041572235],[-0.385437544120544,44.72142888750254],[-0.385497217408343,44.721298922726874],[-0.385528115572215,44.72126418556727],[-0.385556305586523,44.72124115571082],[-0.385677654226425,44.72119094602511],[-0.385742540874883,44.721172831147],[-0.385785541444681,44.721169082770864],[-0.385826391062936,44.72117999835805],[-0.385872280453831,44.72119905009087],[-0.38594150748667,44.721240456631755],[-0.385987386139426,44.72125932842397],[-0.386015361663451,44.721264239805464],[-0.386043552376497,44.72125382551342],[-0.386064070167091,44.72123562595107],[-0.386091529145463,44.72120045316036],[-0.386102248817568,44.721170658515746],[-0.386111345835433,44.72113280340755],[-0.386119085454186,44.72109129522224],[-0.386111519844292,44.72099708902987],[-0.386096746527324,44.720972129323464],[-0.385989819018465,44.720871320772346],[-0.385967616534191,44.72084262338115],[-0.385948101306827,44.720814474566644],[-0.385925389168505,44.72076470649661],[-0.38586767642381,44.72068149612135],[-0.385799119636879,44.72062601155578],[-0.385750509790347,44.72058694800298],[-0.385716038932547,44.720549704741344],[-0.385686827662525,44.72049274623654],[-0.385691992318764,44.72042734701368],[-0.385704862181123,44.72037027275813],[-0.385716299722871,44.72032090185267],[-0.385725428098904,44.720264662941645],[-0.385725354840631,44.72021933874185],[-0.385725552215797,44.72017851187464],[-0.385707211535542,44.72008166160788],[-0.385703728272136,44.72006158302456],[-0.38601341229754,44.719845752675546],[-0.386026540588271,44.71985598429502],[-0.386073079003141,44.71989213737012],[-0.387076668915646,44.71953828792501],[-0.387153820088662,44.71950979438163],[-0.387269703738658,44.71946966241595],[-0.387300893990619,44.71945870541811],[-0.387303850158748,44.71944482777225],[-0.38769838649224,44.71932227507469],[-0.387725997708137,44.71931485176451],[-0.388474548987583,44.71908323763817],[-0.388665403335928,44.71902882399541],[-0.389042126108348,44.7190512618007],[-0.389224342766437,44.719061181533334],[-0.389474451873233,44.719077762768606],[-0.389471414981225,44.71909029127429],[-0.389606281182629,44.719107247385885],[-0.38969655185883,44.719114034730744],[-0.389735598814447,44.71911392023204],[-0.389828290298272,44.719110540744836],[-0.389920699969123,44.71910248396743],[-0.389947849357163,44.719043349732104],[-0.390180041644487,44.71910238039352],[-0.390373380683113,44.71915214769742],[-0.390480766610821,44.71917868542736],[-0.391068354149354,44.71955420546734],[-0.391130466513973,44.71959916093387],[-0.39120736135141,44.719558056615845],[-0.391250454812504,44.71953700163349],[-0.391318141140098,44.71950248725049],[-0.391516096275127,44.71940234428158],[-0.39162761397031,44.7193338658972],[-0.391773128227382,44.7192318149924],[-0.391959597374615,44.7190984112142],[-0.392095221551655,44.71899585193878],[-0.392277010874281,44.71885403032918],[-0.392445102978209,44.71870514889517],[-0.392517810449172,44.71858415207023],[-0.392569805810635,44.71849695145843],[-0.392607820370874,44.718385398432694],[-0.392619562967193,44.71835376946079],[-0.392626228296219,44.71831968285723],[-0.392632125851828,44.71828543956281],[-0.392647352998529,44.71821099046066],[-0.39265269257075,44.7181423413023],[-0.392656386944258,44.71806527200248],[-0.392668071763682,44.717957229418325],[-0.392640381337992,44.717881572726725],[-0.392665980384081,44.71779049534185],[-0.392708437557995,44.717645734833596],[-0.392786032273013,44.71744862319967],[-0.39283977979158,44.717315050934985],[-0.392886690237137,44.71719385341957],[-0.392901948740717,44.71714508538189],[-0.392911808286236,44.717107386459396],[-0.392915387239682,44.717078711094366],[-0.392933067439174,44.7169443520934],[-0.392954343433009,44.7168130367953],[-0.392965433413425,44.71676430643012],[-0.392991588349619,44.716701327017375],[-0.393033387307083,44.71662741495324],[-0.393084328557655,44.71655421382747],[-0.393114440845521,44.71651913803133],[-0.393216509324027,44.716413550910815],[-0.39333852528718,44.71629924197695],[-0.393378575773109,44.71627179129186],[-0.393425731162711,44.716248988821],[-0.393460447926217,44.7162336865981],[-0.393545832912042,44.71621610988355],[-0.393580242993875,44.716208296359426],[-0.393846513810885,44.71615985126568],[-0.393889897979431,44.71614996020459],[-0.393934009228715,44.7161269805206],[-0.393970372517964,44.71610126470533],[-0.394008322824487,44.716064146037134],[-0.394028635404358,44.71604261702803],[-0.39403998468338,44.71602334536407],[-0.394056180533498,44.71596499647985],[-0.394068467099551,44.715929836273254],[-0.394081845573772,44.71589392167981],[-0.394139556066628,44.71580726589863],[-0.394219692065785,44.715696402975624],[-0.394266443637546,44.71561035355218],[-0.394310049325499,44.715453301847795],[-0.394337192343738,44.71539416661481],[-0.394366718503414,44.71533054277275],[-0.394419834340932,44.715350000018205],[-0.394529979349809,44.71538464923493],[-0.39454865694818,44.71535487992102],[-0.39458646910748,44.7152840632069],[-0.39445188145776,44.71519618635932],[-0.39448887861864,44.715155852694984],[-0.394660494471767,44.71505308720257],[-0.395200081597663,44.71474015524709],[-0.395557315008439,44.71453428217521],[-0.395576533690446,44.71453234083454],[-0.395598706885897,44.714541663017265],[-0.39571231485616,44.71465883794805],[-0.395735773055613,44.714683169469204],[-0.39613803533311,44.714984688229094],[-0.396053910187576,44.71503566011169],[-0.396529667542356,44.715411518071534],[-0.396047841734178,44.71572034129556],[-0.395974148913126,44.71576828960232],[-0.395950123275894,44.71574712945603],[-0.39569802616204,44.715527780914016],[-0.395512535011731,44.71536919683419],[-0.395411976001226,44.71543058477342],[-0.395350770989626,44.71545300814265],[-0.395492075479813,44.71556419726654],[-0.395572582037866,44.71563543935166],[-0.395659405934197,44.71571712084197],[-0.395755398720689,44.71581879627725],[-0.395801791136008,44.715865042386575],[-0.395884131016232,44.71593523678883],[-0.395812646379005,44.71599465163265],[-0.395697776290895,44.71605765038531],[-0.395692495895818,44.71606439061315],[-0.396357359495415,44.7163758742525],[-0.396370500326728,44.71636745097185],[-0.396475465347211,44.7164292911083],[-0.396507139725158,44.716401285282515],[-0.396569235227175,44.71634963746869],[-0.39679226109637,44.71647670008761],[-0.396960766909986,44.71632869977307],[-0.397046831952831,44.71639147992819],[-0.39705705877779,44.71640387191121],[-0.397075443444058,44.71639438646445],[-0.397382807966957,44.716273031906645],[-0.397417643412172,44.71624087370163],[-0.397460038320607,44.71623344463331],[-0.397551561027705,44.716323811569424],[-0.397592716844791,44.71637120898846],[-0.397721971950988,44.71650250008416],[-0.398278054786683,44.71704655895976],[-0.398536537453379,44.7173022919605],[-0.39856675959985,44.71735696349846],[-0.398618062463032,44.71735890253298],[-0.398641653287708,44.71736655860454],[-0.398655514895468,44.71738262358071],[-0.398665791621457,44.71745232561331],[-0.398718174774889,44.7175600238069],[-0.398815839655399,44.7177645543574],[-0.398847244919694,44.717832526202116],[-0.39892015279245,44.71797870298584],[-0.399023928784594,44.71818394688649],[-0.399056147406985,44.718240269167715],[-0.39912750898012,44.71832945195237],[-0.399223883926045,44.71844354863787],[-0.399276967061771,44.71850004108891],[-0.399406564426239,44.718643124859156],[-0.39950671421463,44.71875692518015],[-0.399577696729511,44.71883981147712],[-0.399635279138287,44.71891427827298],[-0.399684760332428,44.71899899641037],[-0.399711685056702,44.71904926337281],[-0.399732278262871,44.7191327962324],[-0.399744674295952,44.71923126927829],[-0.399748895719391,44.71924465654025],[-0.39974996494552,44.71927490161967],[-0.399759059687523,44.71943168898857],[-0.399761644354097,44.71951838829206]],[[-0.396398708724007,44.715383817426904],[-0.396421041452035,44.715402055711394],[-0.396442573881671,44.71541959765146],[-0.396477676993616,44.715398154934675],[-0.396452208151268,44.71537821065325],[-0.396432703660731,44.71536285929539],[-0.396398708724007,44.715383817426904]],[[-0.39411346058283,44.72208747100592],[-0.394088799431954,44.72206209453774],[-0.394037104399609,44.722091434398706],[-0.394065014542423,44.72211409798491],[-0.394076641739165,44.72212455497387],[-0.39396439031818,44.72218720098927],[-0.393549291464276,44.72242160538665],[-0.393581161351118,44.722453339187346],[-0.393590030609688,44.72246207853049],[-0.393669112270663,44.72250957634664],[-0.393693918614012,44.722531073616025],[-0.393737862270261,44.72256180640591],[-0.393806970651267,44.72259483143795],[-0.393757657052855,44.72263851616622],[-0.393807834374931,44.72266572363616],[-0.393887405412591,44.72259560925324],[-0.393934781414313,44.72262037940407],[-0.394132776734208,44.722728210713306],[-0.394238206687106,44.72262161849727],[-0.394481835550861,44.722499073437035],[-0.394548685080209,44.722463231062726],[-0.39439511963444,44.72243189538855],[-0.394454468568274,44.72239114666338],[-0.39457686963104,44.7223081838508],[-0.394605316964952,44.72228946910363],[-0.394790097916456,44.722159446461895],[-0.394431016250782,44.721914448802984],[-0.39411346058283,44.72208747100592]]],[[[-0.392501135000779,44.71840191508056],[-0.392482047820061,44.718450079518114],[-0.392422695048706,44.71857246923688],[-0.392388514989869,44.71863443290986],[-0.39235322969667,44.718684355374094],[-0.39229171343798,44.71874571506465],[-0.392203864194909,44.71882311079796],[-0.39201521587135,44.71897694722383],[-0.391825547122206,44.71911387343175],[-0.391797279403674,44.71913555567155],[-0.3917259794163,44.71918559033438],[-0.391655063189983,44.7192357033011],[-0.391509979270637,44.7193260262376],[-0.391374277519657,44.719395876306244],[-0.391352962011711,44.7193819312089],[-0.391005417362439,44.719164234705175],[-0.390713866802865,44.7189822184967],[-0.390606631608326,44.718914134566646],[-0.390494204693916,44.718835396093205],[-0.390214613777653,44.71863156558722],[-0.390302388241382,44.71843333310704],[-0.390240579827685,44.718395486821564],[-0.390266990644644,44.71835556906018],[-0.390165375374684,44.718292629255075],[-0.390177003635065,44.71820873891756],[-0.3904463675432,44.717972323312075],[-0.39067941949777,44.71777513696915],[-0.390437022357233,44.71762847048328],[-0.390821863955506,44.71731390333354],[-0.390546160533441,44.71710526902932],[-0.390528403923079,44.71709373793824],[-0.390788002629346,44.7168589722249],[-0.39102003067736,44.716651183178925],[-0.391182886316283,44.71650354546842],[-0.391276395910079,44.7165704272109],[-0.391359368807205,44.71663862298545],[-0.391515246755723,44.71676523029866],[-0.391687481117989,44.71699334340888],[-0.391776353183657,44.71712164333368],[-0.391729726661904,44.71714695200657],[-0.391847849453357,44.717282465614105],[-0.392054204081328,44.71752304949549],[-0.392260553904488,44.717757235230934],[-0.392286548361167,44.717785905278646],[-0.392524751819191,44.71805786265581],[-0.392527387557469,44.71810157652643],[-0.392531677156697,44.7182293146428],[-0.392527968228468,44.71828728053826],[-0.392521871120326,44.71832450365362],[-0.392501135000779,44.71840191508056]]],[[[-0.391567751449588,44.72795839522091],[-0.39095734010773,44.72836962627745],[-0.390949332393423,44.72837518822179],[-0.390931641631581,44.72835851859451],[-0.390877395876442,44.728307914854284],[-0.390657074247922,44.72822626284217],[-0.390481152992993,44.728170284338425],[-0.390443520762277,44.728162515773725],[-0.390381078360573,44.728152082779886],[-0.390337836877028,44.72813304166327],[-0.39022374147616,44.72808354971048],[-0.39016959606277,44.728084937599526],[-0.390060213913224,44.728094775507586],[-0.38998102163896,44.72810215687618],[-0.389935853301069,44.72810777537409],[-0.38987293760207,44.72811465822459],[-0.389773965238559,44.72812733101586],[-0.389625237911129,44.72813873374526],[-0.389535067421087,44.728140143060905],[-0.389430680106826,44.72813847320828],[-0.389284451986094,44.7281158264903],[-0.38881746970196,44.72794953750282],[-0.388519710621977,44.72786024945803],[-0.388893268198044,44.72725001584941],[-0.388140785661907,44.726971082700736],[-0.387726933651841,44.72761129257211],[-0.387543544275411,44.727557160138375],[-0.387789116390679,44.72720811840381],[-0.387436294583863,44.727130064702536],[-0.387254627769033,44.72743831166389],[-0.387117878783999,44.727384103079025],[-0.386983430483466,44.72735550600362],[-0.386625334837167,44.727322126649405],[-0.386446205708629,44.72730093340683],[-0.386225734841961,44.72725442135236],[-0.386159427349596,44.727236444710904],[-0.386080255161219,44.727212643786615],[-0.38599747604669,44.72718561897595],[-0.385906331238284,44.72715191133095],[-0.385821751301732,44.72712016551767],[-0.385736008419965,44.727081696780175],[-0.385618446359466,44.727012301363445],[-0.38561586589209,44.72699462813871],[-0.385724644188707,44.72686766689785],[-0.38594802879305,44.72654048462543],[-0.386009627746263,44.726436142602246],[-0.386048408668079,44.726349619881745],[-0.386060371810154,44.726302665820036],[-0.386057719505428,44.72626489973448],[-0.386027016643124,44.72611390936524],[-0.386022390653079,44.72599924765586],[-0.386028693689842,44.72589605637035],[-0.386044309241436,44.72580898068419],[-0.386105875527701,44.72556550605523],[-0.386171110009543,44.72557828896158],[-0.386294300752998,44.725602635515],[-0.386298945259131,44.72559789769973],[-0.386314596150665,44.725555516643304],[-0.386350219823999,44.72556145561785],[-0.386370357662247,44.7255054204261],[-0.386395989982178,44.725458769056495],[-0.386243160264439,44.72540820548529],[-0.386168797527315,44.7253823652306],[-0.38620693228637,44.72527252311367],[-0.386250912330702,44.72516529565287],[-0.386287691194781,44.72507703184784],[-0.386303170134574,44.725050696063],[-0.386414654635172,44.725094774725015],[-0.386389794776436,44.72512905706801],[-0.38660370086491,44.72520523611484],[-0.386908509188367,44.7249709896337],[-0.386915187454368,44.724974840355124],[-0.387035997488978,44.725054137359926],[-0.38707007497012,44.725065890601186],[-0.387186350709935,44.725107659201456],[-0.387692871015548,44.72528869390743],[-0.38777959834812,44.72507905130305],[-0.38786354374084,44.72479803458847],[-0.388571868972316,44.724904673447014],[-0.388566774612172,44.72485157291124],[-0.38877653302966,44.724909221492574],[-0.389070707808281,44.724995914651174],[-0.38939289584725,44.72506291578096],[-0.3893439037476,44.72516867611084],[-0.389796608042618,44.725274573307274],[-0.389792440787228,44.72528722656979],[-0.391107458914309,44.725581807144884],[-0.391067874049815,44.72566114748377],[-0.39163249412584,44.72585579413861],[-0.391909539449796,44.72607961576259],[-0.3919494880167,44.726044058711686],[-0.392011758179375,44.72607053609025],[-0.392101741280903,44.72627990403539],[-0.392315293673133,44.72663299972554],[-0.392435396657021,44.72686388254349],[-0.392494490857473,44.72702003917106],[-0.392538209235625,44.72724821654971],[-0.392551459061372,44.727285567731734],[-0.392553314868489,44.727291187961136],[-0.392311317653962,44.727453778405085],[-0.392035834612355,44.72763965222675],[-0.391993217924725,44.72766871282126],[-0.391567751449588,44.72795839522091]]],[[[-0.389933566670223,44.7290767369937],[-0.389903946234569,44.72909494568088],[-0.389567040567093,44.72930017572032],[-0.389544228458498,44.72928032851098],[-0.389441812210714,44.72919181973841],[-0.389258905449841,44.72903251364492],[-0.389332704793943,44.72896077727815],[-0.388816989678528,44.7286781127458],[-0.388898431757717,44.728531799792435],[-0.389001013617195,44.72831464185249],[-0.389098810111025,44.72810619101647],[-0.389182241542052,44.72813769926557],[-0.389282717588028,44.728168865824486],[-0.389389594531624,44.728186679866695],[-0.389520209482655,44.728195656831595],[-0.389713685243617,44.728190543590955],[-0.389899123433641,44.72817161856706],[-0.390037782357419,44.72816304696057],[-0.390189566803626,44.728164616390494],[-0.390338680054166,44.72820366418989],[-0.390578941872233,44.728270107817146],[-0.390780296307948,44.728332786505376],[-0.390821802684862,44.72835449387682],[-0.390795027784056,44.7283758597145],[-0.390579610941758,44.72854547177022],[-0.389924702357345,44.72906808728368],[-0.389933566670223,44.7290767369937]]]]}}]}
