{"type": "FeatureCollection","name": "aoc_geojson","features": [{"type":"Feature","properties":{"dt":"Bordeaux","type_prod":"Vins","categorie":"Vin tranquille","type_denom":"dénomination géographique complémentaire","signe":"AOC","id_app":685,"app":"Côtes de Bordeaux","id_denom":2077,"denom":"Côtes de Bordeaux Cadillac","insee":"33534","cvi":"1R167S","nomcom":"LE TOURNE","insee2011":"33534","nomcom2011":"LE TOURNE","id_aire":1452,"crinao":null,"grp_name1":null,"grp_name2":null},"geometry":{"type":"MultiPolygon","coordinates":[[[[-0.409636133987922,44.71407133166233],[-0.409626176435282,44.71409470741631],[-0.409112043329181,44.7145573270451],[-0.40879349293995,44.7148439667688],[-0.408739561474098,44.71489248672952],[-0.408531008060217,44.71514239577724],[-0.408511074337179,44.71516382583858],[-0.408500391464311,44.715175238768154],[-0.408447468480286,44.71519660345462],[-0.408450221047492,44.715198230832655],[-0.407987810318919,44.71545721822413],[-0.407953923133674,44.71547988886576],[-0.407721079015963,44.7156355649907],[-0.407700254321898,44.71564855169363],[-0.407662296686197,44.71567287949453],[-0.4061557943363,44.71659713611613],[-0.406143773915848,44.71660525578109],[-0.406098093920566,44.716552143192224],[-0.406003916294532,44.7164432111753],[-0.405919939554093,44.716484003442226],[-0.405334204100273,44.716892036534006],[-0.404709386552047,44.71732478810049],[-0.404052643658046,44.717768970935204],[-0.40398582626355,44.717704883010875],[-0.403857976675061,44.71765979356202],[-0.403677533294831,44.71761650162654],[-0.40345301564113,44.71757168112572],[-0.40336297189632,44.71756237488078],[-0.403146873368941,44.71756271182406],[-0.403140504023559,44.717532629710156],[-0.40312310282034,44.71749567776689],[-0.403098037048112,44.71746364736557],[-0.402872113056919,44.7172827082886],[-0.402832337724571,44.71715164539904],[-0.402760107013598,44.71696039366716],[-0.40263159963169,44.71669121227447],[-0.4025725143036,44.71659192208474],[-0.402502984164293,44.71650800183416],[-0.402295829024969,44.71630503793936],[-0.402093456339019,44.71613725095578],[-0.401845024733428,44.71596015595464],[-0.401597988908293,44.715812394342606],[-0.401249545773491,44.71561151832886],[-0.401079529428239,44.71548968409371],[-0.400943372990429,44.715382308535624],[-0.400798218587046,44.71525150965923],[-0.400740007395212,44.7151979691208],[-0.400660717648902,44.71509677579227],[-0.40060671349745,44.715012467584536],[-0.400565643602387,44.71493515118403],[-0.400500149281052,44.714811276037125],[-0.400482339603521,44.714773795668705],[-0.400436663624622,44.7146955394094],[-0.400380580570406,44.71463328251007],[-0.400465683538144,44.71456092044448],[-0.400616821282137,44.71443318253277],[-0.40061076765028,44.714420842870396],[-0.40046554107371,44.714125680293975],[-0.400534929813941,44.714044249043376],[-0.400649012672327,44.71391819030226],[-0.400569508557522,44.71388242544317],[-0.400558780831995,44.71389311803565],[-0.400514686723951,44.71387239527754],[-0.400637706026688,44.713731103248506],[-0.400667395911286,44.71367450128145],[-0.400552587861857,44.713621258012296],[-0.400407636800707,44.71355019735297],[-0.400336811303278,44.71350118946687],[-0.400535473438605,44.713312967614236],[-0.400612967689225,44.71324020840572],[-0.4006321795052,44.71321934271146],[-0.400785182773599,44.71307235317859],[-0.400844833946792,44.71310584431225],[-0.400943931466078,44.713133347237786],[-0.401039673382037,44.713149238545995],[-0.401189788652563,44.71316147625838],[-0.401276597579092,44.713155023603576],[-0.401333784041479,44.71314146127151],[-0.401361866667803,44.71316700120589],[-0.401394955812504,44.71319382906442],[-0.401436778083428,44.713227146957806],[-0.401480389215377,44.71325869771363],[-0.401536554694768,44.71327841826535],[-0.401570794443525,44.71328664748384],[-0.401596042275851,44.713290377095795],[-0.401688674255376,44.71322345970361],[-0.401853866080119,44.713108804898255],[-0.401816206294921,44.713075359210215],[-0.401963297478371,44.712974867641634],[-0.402129797298136,44.71286305579634],[-0.402302107819191,44.71276584354136],[-0.402415393454103,44.71269567727051],[-0.402635508181837,44.71256770810135],[-0.403081133153588,44.71297149858092],[-0.403114094809829,44.71300247505573],[-0.403152291962179,44.71298210644152],[-0.403277265848431,44.71308639873716],[-0.403354446685396,44.71315269124705],[-0.403454686055539,44.71323665760777],[-0.4035396316323,44.71330595527645],[-0.403674546338148,44.71341787139221],[-0.403732756049355,44.71346510252725],[-0.403771843878743,44.71349706188433],[-0.403811073216404,44.713531359811896],[-0.404038306335294,44.71342704879608],[-0.404156278654726,44.71337169528565],[-0.40426477088219,44.71332258070799],[-0.40434040497184,44.71328808382982],[-0.404415965602875,44.713409033909606],[-0.404442052135663,44.71349555084019],[-0.404462623535692,44.71356610721682],[-0.404477258217229,44.71360746941107],[-0.404495246846002,44.713654135203825],[-0.404518138714885,44.71370037981992],[-0.404549105262161,44.71375475653434],[-0.404633847177452,44.71387704610884],[-0.404706952168946,44.71395112276461],[-0.404724473767034,44.71396500179415],[-0.40476903210892,44.713993368244324],[-0.404821510270334,44.71402104045863],[-0.404892133824091,44.71405410184713],[-0.404980105295246,44.71408563821525],[-0.405031914166509,44.71410224703486],[-0.405049103871556,44.714110639338735],[-0.405061406668001,44.71411972267529],[-0.405206604489442,44.71406316993272],[-0.405202725330364,44.71404292375989],[-0.405200270199598,44.71401488405706],[-0.40520433283702,44.71398177771144],[-0.405221594285594,44.71394123644292],[-0.405326510023024,44.713701461728505],[-0.405286579596656,44.71368692061284],[-0.405045032873142,44.71355467759437],[-0.404870796783439,44.71345712930476],[-0.404785998490348,44.71340909471395],[-0.404633473921052,44.71352624798334],[-0.404536681866039,44.71360582160969],[-0.404519360476546,44.713551385587365],[-0.40450706747981,44.71349859713589],[-0.404490396675909,44.71344864674463],[-0.4044842338735,44.71342198268183],[-0.404478204198457,44.71340378513688],[-0.404468567360975,44.71338236437939],[-0.40444318200309,44.71333250183988],[-0.404383824480131,44.71324124116889],[-0.404332303843824,44.71318551422008],[-0.404200154569358,44.71306918840877],[-0.403957090070441,44.71289923260414],[-0.403640651112345,44.71268827883216],[-0.403309721077952,44.71246335183054],[-0.40321609828237,44.71238846356054],[-0.403068400754721,44.71225945822569],[-0.402975996954478,44.71216083262996],[-0.402878656196804,44.712043254865996],[-0.402839388836949,44.711989493485014],[-0.402805283374364,44.71193332055557],[-0.402797700344526,44.71190823202975],[-0.40300386583539,44.71180042565469],[-0.403035076708767,44.71177738828486],[-0.40303641776601,44.711749412084984],[-0.403056216210228,44.7116818494794],[-0.403326293146578,44.711483676495135],[-0.403395497794414,44.711449468065],[-0.403592199539288,44.71146729847072],[-0.403751500852557,44.71143716738027],[-0.403859048688716,44.711428903280165],[-0.403872540896097,44.71142632557957],[-0.403912829530885,44.711421752198405],[-0.404122650068016,44.71138069492805],[-0.404123046279709,44.711343376032616],[-0.404147977817415,44.71134188822417],[-0.404213775158249,44.71133283543953],[-0.404379006789883,44.711331807672394],[-0.404400867933462,44.71131716767368],[-0.404467968712728,44.71132339382057],[-0.404559492011983,44.711325984976924],[-0.404595947442779,44.71132071825372],[-0.404621731203494,44.711314518251704],[-0.404634635231578,44.7113147520499],[-0.404692310612331,44.71134064229583],[-0.404751431482669,44.71137162447418],[-0.404760356203972,44.71134368525],[-0.40477866717096,44.71133302925152],[-0.40481454671722,44.71128065115154],[-0.404811103274606,44.7112676006183],[-0.404861493568632,44.71119188738967],[-0.405016813920377,44.71125262056961],[-0.405071312603451,44.71126986741524],[-0.405166967239899,44.7113282009301],[-0.40537871389175,44.71145054674561],[-0.405583696581005,44.71155507776079],[-0.405740365195138,44.71146266667023],[-0.405923454912096,44.7116063490458],[-0.405963914792887,44.7116359224432],[-0.405991674875683,44.711649846590824],[-0.406018288848031,44.71166362578035],[-0.406099590100685,44.71169149157145],[-0.406033931034838,44.711784256128084],[-0.406156824975211,44.71188545527324],[-0.406225971043021,44.7119442433906],[-0.406325904924557,44.71196675955153],[-0.406437763004636,44.71198584474685],[-0.4065627618434,44.711915133275625],[-0.406707559040678,44.71205873162241],[-0.406817384309261,44.712138164603545],[-0.406966399342219,44.71224495683113],[-0.406780046273674,44.712345943087435],[-0.406810427915614,44.71238645979265],[-0.407377511824937,44.71271692752923],[-0.407619573626165,44.71255087546542],[-0.407663695368597,44.712521942300384],[-0.408042120823295,44.71269195718308],[-0.408408240051605,44.712852797878604],[-0.408519682636972,44.71276483950428],[-0.408571839043671,44.71276215175016],[-0.408945722481524,44.71287589278067],[-0.409420209283171,44.71302311925058],[-0.409393854390593,44.71314504322893],[-0.409724253120551,44.71325435416],[-0.40989371917181,44.71331058995954],[-0.409891160547152,44.713318418527166],[-0.409883138950156,44.71334245556087],[-0.409645811210365,44.71404958658136],[-0.409636133987922,44.71407133166233]]],[[[-0.402328694090169,44.71847881307747],[-0.402378404446251,44.718454396260825],[-0.402765431435628,44.71826470515857],[-0.403048034873969,44.718122649103485],[-0.403119807563359,44.71822479313244],[-0.403211156922069,44.7183246230306],[-0.403234635520788,44.718361748561776],[-0.403298707410399,44.718443132959386],[-0.403288551271307,44.71845074440503],[-0.403138357556957,44.718556559516394],[-0.402666590225982,44.71883095007848],[-0.402328694090169,44.71847881307747]]],[[[-0.402540542828744,44.717636953419515],[-0.402509352555432,44.71766665831779],[-0.402241490844074,44.71746934510128],[-0.402039137173636,44.71732075128986],[-0.40207315293417,44.717300151195175],[-0.402058643192126,44.71727338310392],[-0.401925122240977,44.71705292590449],[-0.401786010418337,44.71682777434075],[-0.401645636061211,44.7166068066511],[-0.401605951239033,44.716539901034125],[-0.401576828230697,44.71649718149387],[-0.401557040263355,44.71646462813336],[-0.401692123257652,44.716428756625774],[-0.401826788565632,44.7164047926862],[-0.401996681719658,44.716380286413866],[-0.402118740352813,44.716329675755325],[-0.402157467126155,44.71636191718585],[-0.402296169531003,44.716530129487545],[-0.402390704538249,44.7166450910231],[-0.402466631627036,44.71674701749938],[-0.402507607549556,44.71682271422302],[-0.402545523975324,44.716929323615865],[-0.402551922201375,44.71701004832303],[-0.402552157545353,44.717032749545936],[-0.402561484860067,44.71708040287399],[-0.402574396267165,44.717112086139714],[-0.402597965577056,44.71716326659028],[-0.402621521744698,44.71720795931057],[-0.402678236194846,44.717268033165865],[-0.402713258705853,44.71729543211483],[-0.402788377405166,44.71750308578862],[-0.402650162234519,44.71756870204532],[-0.402580709444981,44.7176114781994],[-0.402540542828744,44.717636953419515]]],[[[-0.401044719647565,44.71669520182522],[-0.401022743735572,44.71668290088568],[-0.401009237138829,44.716678990518794],[-0.400985414624861,44.71667377511874],[-0.400955299876826,44.716671096000844],[-0.400933053077439,44.71667313130973],[-0.400910299466295,44.716679327378166],[-0.400882119230761,44.71668983538266],[-0.400865077037479,44.71670270451534],[-0.40085477620613,44.716714195030555],[-0.400844577441871,44.71673992023645],[-0.400841376781963,44.716755968557614],[-0.400842042140435,44.71677324977723],[-0.400846786765844,44.71678274605893],[-0.400849666338268,44.71679275021374],[-0.400813783277225,44.71680754996763],[-0.400559080962981,44.7163008318604],[-0.400247158665371,44.71633411504143],[-0.400394216796592,44.71662814065482],[-0.400026185728228,44.71636036804984],[-0.399782795392683,44.716122287590345],[-0.400173176978441,44.71586275514714],[-0.400221905548549,44.71581584124823],[-0.40039567061468,44.715648389691694],[-0.400491569688652,44.71555388862918],[-0.400584854064897,44.715466316387975],[-0.400818650851368,44.71564602640479],[-0.400957595799692,44.71552352879622],[-0.401181646002443,44.715686235939344],[-0.401241890664996,44.715723223144586],[-0.401307678243249,44.71576409504953],[-0.401457826654886,44.71585202638968],[-0.401430335305128,44.71586764980592],[-0.401151540823666,44.71602868870565],[-0.400868284974067,44.71619121564667],[-0.401104847235519,44.71665496603673],[-0.401044719647565,44.71669520182522]]],[[[-0.400730802512334,44.71976309882752],[-0.400588189199583,44.71981253701456],[-0.400118537448861,44.71997799475113],[-0.399970665957019,44.72002200664222],[-0.399703986397189,44.72010156763076],[-0.399759230983697,44.719992996852994],[-0.399821811376949,44.719830132980206],[-0.399841321575762,44.71977023940629],[-0.39986558563753,44.71966352132906],[-0.399878659239898,44.71957868397057],[-0.399881327429953,44.71948479450264],[-0.399884277114044,44.71935791507862],[-0.399878786999768,44.71924823613138],[-0.399869338906735,44.719154628746324],[-0.399856818774067,44.71909175410404],[-0.39993848410303,44.71905022663777],[-0.400481883944895,44.7187625634812],[-0.400819686226897,44.71913840843014],[-0.400837880526835,44.71915713354865],[-0.401197136046789,44.71954907937353],[-0.401117727730651,44.71956521668985],[-0.40070610801927,44.71964310624673],[-0.400714038257352,44.71965511794752],[-0.400774251388466,44.7197479765666],[-0.400730802512334,44.71976309882752]]],[[[-0.399761644354097,44.71951838829206],[-0.399754207557184,44.71959611379618],[-0.399736398481461,44.71968416042839],[-0.399717197994666,44.7197491809004],[-0.399654152935947,44.71994828435347],[-0.399589267461532,44.720142037525875],[-0.399535086543289,44.72029959695098],[-0.39946389860443,44.720502014234704],[-0.399411253757217,44.720628527585504],[-0.399383801832838,44.72067622941033],[-0.399295994969709,44.720816979091275],[-0.399237432509962,44.72090204193548],[-0.399199591410356,44.72095979496483],[-0.399157934784547,44.72102343238109],[-0.399091509222293,44.72112270411712],[-0.399059343364717,44.721192808501705],[-0.399007479187255,44.72131344033251],[-0.398974853387941,44.7214010407168],[-0.398943053192337,44.721483479303295],[-0.398928503259355,44.721537633389524],[-0.398912939294318,44.72160010899941],[-0.398910438776793,44.721627760331934],[-0.398904032488915,44.72168490840741],[-0.398923962524118,44.72175746807968],[-0.398661573176153,44.721933315366634],[-0.398484719206743,44.72205003499771],[-0.398332920469578,44.722148413067735],[-0.398106842161362,44.72229142438669],[-0.397938568013254,44.722393281403804],[-0.397260499509976,44.72281266414921],[-0.397227271627205,44.72284639494615],[-0.397207356329823,44.72286196491537],[-0.397246845489303,44.7228879670047],[-0.397349558124562,44.72294996610427],[-0.397485536376984,44.723016531062825],[-0.397645801584889,44.72309595741438],[-0.39764843103947,44.72310182415245],[-0.39764510242186,44.723109495808416],[-0.397506559151056,44.72321395389553],[-0.397316507272085,44.72335711923688],[-0.397106426503892,44.72352027319361],[-0.397048253480153,44.72356792598147],[-0.396870966539083,44.72371529450701],[-0.396668405826411,44.72388371368192],[-0.396580672421204,44.723956783997316],[-0.396469735859832,44.72404750743162],[-0.39632058410207,44.724171032919934],[-0.396158899373138,44.724300529719315],[-0.396055692760949,44.72438741102908],[-0.395976031895922,44.72444347217182],[-0.39535705685145,44.72408335577897],[-0.394775411612178,44.72397098281699],[-0.394588611968862,44.72433788360887],[-0.394529094755365,44.72445757632667],[-0.394474542465069,44.7245590040873],[-0.394430125211716,44.72462101207698],[-0.394365678543971,44.724703008497244],[-0.394077882303155,44.72506786892954],[-0.393951536268433,44.72511697950893],[-0.393886784698194,44.72514365573509],[-0.393701864527113,44.725076694421084],[-0.393515071404861,44.72499753489939],[-0.39330965112488,44.72489245296031],[-0.392977105057482,44.724716654120186],[-0.392750925859853,44.724625724431405],[-0.392621251797438,44.724575631302585],[-0.392934620780967,44.724075092377895],[-0.392180932930251,44.72313434736466],[-0.391932903544271,44.72284439638943],[-0.391654000164821,44.72250772144807],[-0.391675708467472,44.72247155191519],[-0.39149629889642,44.722470651211346],[-0.39136840701227,44.72246889267746],[-0.39133916045612,44.722468076621205],[-0.391288226253574,44.722466032668514],[-0.391267917013849,44.72246250973001],[-0.391249172326509,44.72250381490393],[-0.391298747841978,44.72321932169348],[-0.39066813927985,44.723156187497736],[-0.390671868443995,44.72318031353951],[-0.390661735880877,44.72318206572402],[-0.390182829063327,44.723270356614826],[-0.39020370503552,44.72333991488484],[-0.389657141574591,44.72318012330846],[-0.389472613043502,44.72312575908733],[-0.389387012732436,44.72324066042117],[-0.387960699100263,44.72267732875011],[-0.387984905604926,44.72261963679739],[-0.388005130103602,44.72259027190252],[-0.388051494930935,44.72252063764804],[-0.387971343187086,44.72250146400964],[-0.387913076970008,44.722497300005664],[-0.387511627557444,44.72248021011101],[-0.387389991366314,44.722475281828096],[-0.386986595678727,44.72245734847872],[-0.386571596035297,44.72242931567009],[-0.386193396773637,44.72240159731562],[-0.385946858457699,44.72238156484328],[-0.385899487470541,44.722375714818206],[-0.38586134094582,44.72237192552338],[-0.385628892327344,44.722333979575794],[-0.3856036410977,44.72232393846456],[-0.385574917743261,44.72230030648406],[-0.385559438709907,44.72223211438911],[-0.385533856906201,44.72212205876481],[-0.385495143402593,44.72195130868302],[-0.385225623305495,44.721851777707776],[-0.385363610640695,44.721618041572235],[-0.385437538708217,44.72142879755584],[-0.385497211995933,44.721298832780185],[-0.385528115572215,44.72126418556727],[-0.385556300174024,44.72124106576413],[-0.385677654226425,44.72119094602511],[-0.385742540874883,44.721172831147],[-0.385785541444681,44.721169082770864],[-0.385826391062936,44.72117999835805],[-0.385872280453831,44.72119905009087],[-0.385941502073556,44.72124036668509],[-0.385987386139426,44.72125932842397],[-0.386015361663451,44.721264239805464],[-0.386043552376497,44.72125382551342],[-0.386064064753781,44.721235536004414],[-0.386091529145463,44.72120045316036],[-0.386102243404204,44.72117056856909],[-0.386111345835433,44.72113280340755],[-0.386119085454186,44.72109129522224],[-0.386111519844292,44.72099708902987],[-0.386096746527324,44.720972129323464],[-0.38598981360531,44.7208712308257],[-0.385967616534191,44.72084262338115],[-0.385948101306827,44.720814474566644],[-0.385925389168505,44.72076470649661],[-0.385867671010868,44.7206814061747],[-0.385799119636879,44.72062601155578],[-0.385750509790347,44.72058694800298],[-0.385716038932547,44.720549704741344],[-0.385686827662525,44.72049274623654],[-0.385691986906127,44.72042725706703],[-0.385704862181123,44.72037027275813],[-0.385716299722871,44.72032090185267],[-0.385725422686229,44.720264572995006],[-0.385725354840631,44.72021933874185],[-0.385725552215797,44.72017851187464],[-0.385707211535542,44.72008166160788],[-0.385703728272136,44.72006158302456],[-0.386013406884445,44.719845662728936],[-0.386026540588271,44.71985598429502],[-0.386073079003141,44.71989213737012],[-0.387076663500882,44.71953819797846],[-0.387153820088662,44.71950979438163],[-0.387269698323592,44.719469572469414],[-0.387300888575505,44.71945861547158],[-0.387303844743631,44.719444737825704],[-0.38769838649224,44.71932227507469],[-0.387725997708137,44.71931485176451],[-0.388474548987583,44.71908323763817],[-0.388665403335928,44.71902882399541],[-0.389042126108348,44.7190512618007],[-0.389224342766437,44.719061181533334],[-0.389474446454682,44.71907767282218],[-0.389471409562678,44.71909020132787],[-0.389606275763865,44.719107157439474],[-0.38969655185883,44.719114034730744],[-0.389735598814447,44.71911392023204],[-0.389828290298272,44.719110540744836],[-0.389920694549857,44.719102394021036],[-0.389947849357163,44.719043349732104],[-0.390180041644487,44.71910238039352],[-0.390373375263119,44.71915205775104],[-0.390480766610821,44.71917868542736],[-0.391068354149354,44.71955420546734],[-0.391130466513973,44.71959916093387],[-0.39120736135141,44.719558056615845],[-0.391250449391071,44.71953691168715],[-0.39131813571856,44.71950239730416],[-0.391516090853282,44.71940225433524],[-0.39162761397031,44.7193338658972],[-0.391773128227382,44.7192318149924],[-0.391959591952092,44.71909832126791],[-0.392095216128926,44.71899576199248],[-0.392277005451275,44.71885394038291],[-0.392445102978209,44.71870514889517],[-0.392517810449172,44.71858415207023],[-0.392569805810635,44.71849695145843],[-0.392607814947384,44.718385308486454],[-0.392619562967193,44.71835376946079],[-0.392626228296219,44.71831968285723],[-0.392632120428308,44.718285349616565],[-0.392647352998529,44.71821099046066],[-0.392652687147212,44.71814225135606],[-0.392656386944258,44.71806527200248],[-0.392668066340137,44.717957139472105],[-0.392640375914498,44.7178814827805],[-0.392665974960555,44.71779040539563],[-0.392708437557995,44.717645734833596],[-0.392786026849329,44.71744853325348],[-0.39283977979158,44.717315050934985],[-0.392886684813316,44.71719376347338],[-0.392901948740717,44.71714508538189],[-0.392911808286236,44.717107386459396],[-0.392915387239682,44.717078711094366],[-0.392933067439174,44.7169443520934],[-0.392954338009118,44.716812946849124],[-0.39296542798952,44.71676421648395],[-0.392991582925678,44.7167012370712],[-0.393033387307083,44.71662741495324],[-0.393084328557655,44.71655421382747],[-0.393114435421402,44.71651904808517],[-0.393216509324027,44.716413550910815],[-0.393338519862724,44.71629915203081],[-0.393378570348592,44.71627170134573],[-0.39342572573812,44.71624889887487],[-0.393460447926217,44.7162336865981],[-0.393545827487263,44.71621601993741],[-0.393580242993875,44.716208296359426],[-0.393846508385631,44.71615976131958],[-0.393889897979431,44.71614996020459],[-0.393934009228715,44.7161269805206],[-0.393970372517964,44.71610126470533],[-0.394008322824487,44.716064146037134],[-0.394028635404358,44.71604261702803],[-0.39403998468338,44.71602334536407],[-0.394056180533498,44.71596499647985],[-0.394068467099551,44.715929836273254],[-0.394081840148167,44.715893831733744],[-0.394139550640939,44.71580717595255],[-0.394219686639979,44.71569631302955],[-0.394266438211674,44.71561026360613],[-0.394310049325499,44.715453301847795],[-0.394337192343738,44.71539416661481],[-0.394366718503414,44.71533054277275],[-0.394419834340932,44.715350000018205],[-0.394529973923537,44.71538455928888],[-0.394548651521882,44.71535478997499],[-0.39458646910748,44.7152840632069],[-0.394451876031631,44.71519609641326],[-0.39448887861864,44.715155852694984],[-0.394660494471767,44.71505308720257],[-0.395200076170383,44.71474006530111],[-0.395557315008439,44.71453428217521],[-0.395576528262585,44.714532250888574],[-0.395598706885897,44.714541663017265],[-0.39571231485616,44.71465883794805],[-0.395735767627483,44.71468307952323],[-0.39613803533311,44.714984688229094],[-0.396053904758904,44.71503557016573],[-0.396529667542356,44.715411518071534],[-0.396047836305449,44.71572025134958],[-0.39597414348451,44.71576819965633],[-0.395950117847318,44.71574703951003],[-0.395698020733889,44.715527690968024],[-0.395512535011731,44.71536919683419],[-0.395411970573541,44.7154304948274],[-0.395350765562037,44.715452918196654],[-0.395492075479813,44.71556419726654],[-0.395572576609905,44.71563534940566],[-0.395659400506089,44.71571703089595],[-0.395755398720689,44.71581879627725],[-0.395801791136008,44.715865042386575],[-0.395884131016232,44.71593523678883],[-0.395812640950625,44.71599456168663],[-0.395697770862693,44.71605756043929],[-0.395692495895818,44.71606439061315],[-0.396357354066129,44.7163757843065],[-0.396370500326728,44.71636745097185],[-0.396475465347211,44.7164292911083],[-0.396507139725158,44.716401285282515],[-0.396569229797552,44.716349547522704],[-0.39679226109637,44.71647670008761],[-0.39696076147974,44.7163286098271],[-0.397046826522442,44.71639138998222],[-0.39705705877779,44.71640387191121],[-0.397075438013622,44.71639429651849],[-0.397382802536042,44.71627294196072],[-0.397417643412172,44.71624087370163],[-0.397460038320607,44.71623344463331],[-0.397551561027705,44.716323811569424],[-0.397592711413531,44.716371119042535],[-0.397721971950988,44.71650250008416],[-0.398278049354264,44.71704646901385],[-0.398536537453379,44.7173022919605],[-0.398566754166939,44.71735687355254],[-0.398618062463032,44.71735890253298],[-0.398641647854677,44.717366468658625],[-0.398655514895468,44.71738262358071],[-0.398665786188379,44.717452235667395],[-0.398718174774889,44.7175600238069],[-0.398815834222051,44.71776446441148],[-0.398847244919694,44.717832526202116],[-0.398920147358914,44.71797861303992],[-0.399023923350873,44.71818385694057],[-0.399056147406985,44.718240269167715],[-0.39912750354622,44.71832936200644],[-0.39922387849198,44.71844345869195],[-0.399276967061771,44.71850004108891],[-0.399406564426239,44.718643124859156],[-0.39950671421463,44.71875692518015],[-0.399577691294842,44.71883972153122],[-0.399635273703519,44.718914188327076],[-0.399684754897573,44.718998906464456],[-0.399711679621798,44.71904917342689],[-0.399732278262871,44.7191327962324],[-0.399744674295952,44.71923126927829],[-0.399748895719391,44.71924465654025],[-0.399749959510533,44.719274811673756],[-0.399759054252507,44.71943159904266],[-0.399761644354097,44.71951838829206]],[[-0.396398708724007,44.715383817426904],[-0.396421041452035,44.715402055711394],[-0.396442573881671,44.71541959765146],[-0.396477676993616,44.715398154934675],[-0.396452208151268,44.71537821065325],[-0.396432703660731,44.71536285929539],[-0.396398708724007,44.715383817426904]],[[-0.394113455156578,44.72208738105964],[-0.394088799431954,44.72206209453774],[-0.394037104399609,44.722091434398706],[-0.394065009116246,44.72211400803862],[-0.394076636312968,44.72212446502758],[-0.39396439031818,44.72218720098927],[-0.393549286038894,44.72242151544032],[-0.393581155925681,44.72245324924103],[-0.393590030609688,44.72246207853049],[-0.39366910684508,44.72250948640031],[-0.393693918614012,44.722531073616025],[-0.393737862270261,44.72256180640591],[-0.393806970651267,44.72259483143795],[-0.393757657052855,44.72263851616622],[-0.393807834374931,44.72266572363616],[-0.393887399986651,44.72259551930695],[-0.393934775988295,44.722620289457744],[-0.394132776734208,44.722728210713306],[-0.394238201260604,44.72262152855098],[-0.394481835550861,44.722499073437035],[-0.394548685080209,44.722463231062726],[-0.39439511963444,44.72243189538855],[-0.394454468568274,44.72239114666338],[-0.394576864204027,44.722308093904516],[-0.394605311537895,44.72228937915736],[-0.394790092489115,44.72215935651563],[-0.394431016250782,44.721914448802984],[-0.394113455156578,44.72208738105964]]],[[[-0.392501135000779,44.71840191508056],[-0.392482047820061,44.718450079518114],[-0.392422695048706,44.71857246923688],[-0.392388514989869,44.71863443290986],[-0.39235322969667,44.718684355374094],[-0.39229171343798,44.71874571506465],[-0.392203864194909,44.71882311079796],[-0.39201521587135,44.71897694722383],[-0.391825541699895,44.719113783485454],[-0.391797273981407,44.71913546572522],[-0.391725973994142,44.71918550038808],[-0.391655063189983,44.7192357033011],[-0.39150997384881,44.71932593629126],[-0.391374272098041,44.719395786359925],[-0.39135295659013,44.71938184126256],[-0.391005417362439,44.719164234705175],[-0.390713866802865,44.7189822184967],[-0.390606631608326,44.718914134566646],[-0.390494204693916,44.718835396093205],[-0.390214613777653,44.71863156558722],[-0.390302382821572,44.718433243160696],[-0.390240574407976,44.71839539687521],[-0.390266990644644,44.71835556906018],[-0.390165369955105,44.71829253930871],[-0.390177003635065,44.71820873891756],[-0.3904463675432,44.717972323312075],[-0.39067941407742,44.71777504702284],[-0.390437016937284,44.71762838053696],[-0.390821858534973,44.71731381338724],[-0.390546160533441,44.71710526902932],[-0.390528403923079,44.71709373793824],[-0.390788002629346,44.7168589722249],[-0.391020025256574,44.71665109323266],[-0.391182886316283,44.71650354546842],[-0.391276395910079,44.7165704272109],[-0.391359368807205,44.71663862298545],[-0.391515241334135,44.71676514035242],[-0.391687481117989,44.71699334340888],[-0.391776353183657,44.71712164333368],[-0.391729726661904,44.71714695200657],[-0.391847844031188,44.71728237566786],[-0.392054204081328,44.71752304949549],[-0.392260548481614,44.7177571452847],[-0.392286542938248,44.717785815332405],[-0.392524751819191,44.71805786265581],[-0.392527382134135,44.7181014865802],[-0.392531671733344,44.71822922469656],[-0.392527962805115,44.718287190592015],[-0.392521865696979,44.71832441370737],[-0.392501135000779,44.71840191508056]]],[[[-0.391567751449588,44.72795839522091],[-0.39095734010773,44.72836962627745],[-0.390949326971622,44.728375098275144],[-0.390931641631581,44.72835851859451],[-0.390877390454761,44.72830782490764],[-0.390657074247922,44.72822626284217],[-0.39048114757196,44.728170194391765],[-0.390443520762277,44.728162515773725],[-0.390381078360573,44.728152082779886],[-0.390337831456226,44.72813295171659],[-0.390223736055546,44.72808345976381],[-0.39016959606277,44.728084937599526],[-0.390060213913224,44.728094775507586],[-0.38998102163896,44.72810215687618],[-0.389935853301069,44.72810777537409],[-0.38987293760207,44.72811465822459],[-0.389773959818659,44.728127241069174],[-0.389625237911129,44.72813873374526],[-0.389535067421087,44.728140143060905],[-0.389430680106826,44.72813847320828],[-0.389284451986094,44.7281158264903],[-0.38881746970196,44.72794953750282],[-0.388519710621977,44.72786024945803],[-0.388893262779636,44.727249925902676],[-0.388140785661907,44.726971082700736],[-0.387726933651841,44.72761129257211],[-0.387543544275411,44.727557160138375],[-0.387789110974039,44.72720802845704],[-0.387436294583863,44.727130064702536],[-0.387254627769033,44.72743831166389],[-0.387117873368415,44.72738401313223],[-0.3869834250681,44.72735541605682],[-0.386625329422376,44.72732203670259],[-0.386446205708629,44.72730093340683],[-0.386225734841961,44.72725442135236],[-0.386159427349596,44.727236444710904],[-0.386080255161219,44.727212643786615],[-0.385997470632915,44.727185529029086],[-0.385906325824658,44.7271518213841],[-0.385821745888244,44.727120075570824],[-0.385736003006618,44.727081606833316],[-0.385618440946313,44.72701221141658],[-0.38561586589209,44.72699462813871],[-0.385724644188707,44.72686766689785],[-0.385948023379415,44.726540394678594],[-0.38600962233254,44.72643605265542],[-0.386048408668079,44.726349619881745],[-0.386060371810154,44.726302665820036],[-0.386057714091645,44.72626480978767],[-0.386027016643124,44.72611390936524],[-0.386022390653079,44.72599924765586],[-0.386028693689842,44.72589605637035],[-0.386044309241436,44.72580898068419],[-0.386105875527701,44.72556550605523],[-0.386171104595644,44.725578199014784],[-0.386294295338901,44.72560254556823],[-0.386298939845027,44.72559780775294],[-0.386314590736541,44.72555542669652],[-0.386350214409816,44.725561365671076],[-0.386370357662247,44.7255054204261],[-0.386395989982178,44.725458769056495],[-0.386243160264439,44.72540820548529],[-0.386168797527315,44.7253823652306],[-0.386206926872445,44.7252724331669],[-0.386250912330702,44.72516529565287],[-0.386287685780745,44.72507694190107],[-0.386303170134574,44.725050696063],[-0.386414654635172,44.725094774725015],[-0.386389789362232,44.72512896712124],[-0.38660370086491,44.72520523611484],[-0.38690850377335,44.724970899686966],[-0.386915182039338,44.72497475040838],[-0.387035992073749,44.72505404741319],[-0.38707007497012,44.725065890601186],[-0.387186345294459,44.72510756925473],[-0.387692871015548,44.72528869390743],[-0.38777959834812,44.72507905130305],[-0.38786354374084,44.72479803458847],[-0.388571863554647,44.72490458350037],[-0.388566774612172,44.72485157291124],[-0.388776527611663,44.724909131545935],[-0.389070702389806,44.72499582470454],[-0.38939289584725,44.72506291578096],[-0.389343898328672,44.72516858616424],[-0.389796602622957,44.72527448336067],[-0.389792440787228,44.72528722656979],[-0.391107453492523,44.72558171719835],[-0.391067874049815,44.72566114748377],[-0.391632488703189,44.725855704192085],[-0.391909539449796,44.72607961576259],[-0.3919494880167,44.726044058711686],[-0.392011758179375,44.72607053609025],[-0.392101741280903,44.72627990403539],[-0.392315293673133,44.72663299972554],[-0.392435396657021,44.72686388254349],[-0.392494490857473,44.72702003917106],[-0.392538209235625,44.72724821654971],[-0.392551453637115,44.72728547778521],[-0.392553309444228,44.727291098014604],[-0.392311317653962,44.727453778405085],[-0.392035834612355,44.72763965222675],[-0.391993212501323,44.72766862287468],[-0.391567751449588,44.72795839522091]]],[[[-0.389933566670223,44.7290767369937],[-0.389903946234569,44.72909494568088],[-0.389567035147411,44.72930008577357],[-0.389544223038855,44.729280238564236],[-0.389441806791243,44.729191729791665],[-0.389258900030677,44.72903242369817],[-0.389332699374667,44.728960687331394],[-0.388816984260104,44.728678022799045],[-0.388898426339178,44.728531709845676],[-0.389001013617195,44.72831464185249],[-0.389098810111025,44.72810619101647],[-0.389182241542052,44.72813769926557],[-0.389282717588028,44.728168865824486],[-0.389389589112332,44.72818658991998],[-0.389520209482655,44.728195656831595],[-0.389713679823806,44.72819045364425],[-0.389899123433641,44.72817161856706],[-0.390037782357419,44.72816304696057],[-0.390189561383058,44.72816452644381],[-0.390338680054166,44.72820366418989],[-0.390578941872233,44.728270107817146],[-0.390780296307948,44.728332786505376],[-0.390821797263265,44.72835440393016],[-0.3907950223625,44.72837576976783],[-0.390579610941758,44.72854547177022],[-0.389924696937113,44.72906799733696],[-0.389933566670223,44.7290767369937]]]]}}]}
