{"type": "FeatureCollection","name": "aoc_geojson","features": [{"type":"Feature","properties":{"dt":"Pau","type_prod":"Vins","categorie":"Vin tranquille","type_denom":"appellation","signe":"AOC","id_app":9,"app":"Béarn","id_denom":61,"denom":"Béarn","insee":"64410","cvi":"1B101S, 1R101S, 1S101S","nomcom":"MOURENX","insee2011":"64410","nomcom2011":"MOURENX","id_aire":75,"crinao":null,"grp_name1":null,"grp_name2":null},"geometry":{"type":"Polygon","coordinates":[[[-0.631428545161521,43.35945085795385],[-0.631115546509933,43.36085210235436],[-0.630406969861621,43.36081708473275],[-0.629838498273859,43.36081950624245],[-0.629576842595217,43.3607883033853],[-0.629433947379102,43.360769234307604],[-0.629226129844394,43.3607482012004],[-0.629182428616084,43.36074219310703],[-0.62912345764056,43.36073282501175],[-0.629079485989327,43.36072448449882],[-0.629006081896879,43.3607074055901],[-0.628993918869531,43.36066521729972],[-0.628972875914029,43.360583972563774],[-0.628959759864461,43.36052470563669],[-0.62895006572843,43.360474689696666],[-0.628936155125305,43.360393025522086],[-0.628919492875028,43.36025399804281],[-0.628916749897092,43.360208521819075],[-0.628916030116952,43.36017360429777],[-0.628918269039376,43.36013471509279],[-0.62892270501665,43.360091519538685],[-0.628934642096293,43.36001655272781],[-0.628944635537692,43.35994795504986],[-0.628951215813597,43.35988199347175],[-0.628961009378022,43.359724067116524],[-0.628965107469799,43.35963243287501],[-0.628961433065013,43.35959176088808],[-0.628956881127716,43.359560664266624],[-0.628951785708031,43.359536610237335],[-0.62894320760807,43.35950429788497],[-0.62893138487601,43.35947533642147],[-0.628916604802302,43.35944449296808],[-0.628955071189611,43.35944383255236],[-0.629298591773989,43.359444371995295],[-0.629904601848987,43.359446366389484],[-0.630472257422614,43.35944883449279],[-0.631021605651726,43.35945065352701],[-0.631428545161521,43.35945085795385]]]}}]}
