{"type": "FeatureCollection","name": "aoc_geojson","features": [{"type":"Feature","properties":{"dt":"Angers","type_prod":"Vins","categorie":"Vin tranquille","type_denom":"appellation","signe":"AOC","id_app":1028,"app":"Fiefs Vendéens","id_denom":2344,"denom":"Fiefs Vendéens Vix","insee":"85009","cvi":"1B712S, 1R712S, 1S712S","nomcom":"AUCHAY-SUR-VENDEE","insee2011":"85009","nomcom2011":"AUZAY","id_aire":1689,"crinao":null,"grp_name1":null,"grp_name2":null},"geometry":{"type":"MultiPolygon","coordinates":[[[[-0.87987509899832,46.4378255787705],[-0.879834539685327,46.43770452759578],[-0.87980989154918,46.43763116824306],[-0.879763992014397,46.437559703369786],[-0.879693480596468,46.437450218514655],[-0.879663155482206,46.43740337729973],[-0.879582693979579,46.43727683079271],[-0.879534500606027,46.43718777350513],[-0.879482790374644,46.43712443968314],[-0.879445713835687,46.43707800823892],[-0.879391641855489,46.43695579350851],[-0.879434538923327,46.43694838507101],[-0.879376320065817,46.43677519360246],[-0.879358706139268,46.43670538155611],[-0.879329372751164,46.43669447827508],[-0.879324569364291,46.436496752039446],[-0.879672757966758,46.43649149676173],[-0.879930883756485,46.43651436546714],[-0.880086983537655,46.436496166078015],[-0.880244505627018,46.43649612936733],[-0.880486392081225,46.43649601859436],[-0.881037801330994,46.43648420939834],[-0.88111421330706,46.436482331975355],[-0.881461798223445,46.43648141919566],[-0.881808124210531,46.436455485140556],[-0.88233744947263,46.43642837326826],[-0.882390573607173,46.43642359088046],[-0.882552832309543,46.43638200875712],[-0.882644569747635,46.43635544740161],[-0.882814645503969,46.43630278035163],[-0.883006523578908,46.43623765106522],[-0.883135327710614,46.43619323957277],[-0.883352724732435,46.43611840616382],[-0.883562468023352,46.436053299048645],[-0.88380596499619,46.436024547256224],[-0.883991570893288,46.43645557205166],[-0.884060835035432,46.436617026217526],[-0.884092879211697,46.436741070662826],[-0.884098492465389,46.43677594988936],[-0.884106152555521,46.43686521303733],[-0.88410705552809,46.43687789415162],[-0.88410351454848,46.43695635931291],[-0.884096380941047,46.437107070698374],[-0.884092439416316,46.43713046482094],[-0.884085771592443,46.4371723433388],[-0.884082687051259,46.43719129070155],[-0.884077498257013,46.43721914486493],[-0.88406104282608,46.4373067044271],[-0.884054621182526,46.43733189589928],[-0.884012526315343,46.4374952468094],[-0.883976942572184,46.43763466535146],[-0.884033856113472,46.437890030541695],[-0.8840185311629,46.4379843132245],[-0.884008032428625,46.438049311610754],[-0.884005343733236,46.438057336748955],[-0.883990601727487,46.43810120298315],[-0.883985126629439,46.43812320680807],[-0.883930883668945,46.43828994618777],[-0.883919983511827,46.43831817501464],[-0.883903447724724,46.43836065979911],[-0.88385311362886,46.438498055902954],[-0.883819382582861,46.43857926137619],[-0.883786193030295,46.438658915774205],[-0.881664160772119,46.43836859841943],[-0.881664030681159,46.43836860284417],[-0.881587001675491,46.43836184667269],[-0.881403070990693,46.43882284299512],[-0.881395464200435,46.4388423948209],[-0.881303231042998,46.43907281176373],[-0.881037582425178,46.43973799204329],[-0.880928492036287,46.4400137886923],[-0.880928225447215,46.44001370760295],[-0.880928231846408,46.44001379754006],[-0.880850761284219,46.44020981376832],[-0.880847321211727,46.440209119352886],[-0.879481795979923,46.43995974739057],[-0.879551932699817,46.43974856509419],[-0.879551802605397,46.43974856951652],[-0.879615520264608,46.43946548163696],[-0.879615430707088,46.439464222516214],[-0.879740280095162,46.43903039135534],[-0.879744473056725,46.43901600437695],[-0.8797666599942,46.438928250866844],[-0.879820347229503,46.43872051244981],[-0.879838296281829,46.43864101690661],[-0.879840254142733,46.43863004163031],[-0.879857814966196,46.43855425562127],[-0.879885520839226,46.4384634294942],[-0.879884493687236,46.438353656008445],[-0.879885355683097,46.43829610801377],[-0.879899442383121,46.438204482718724],[-0.879913748724787,46.438108612681404],[-0.879904495774144,46.43802986159338],[-0.87987509899832,46.4378255787705]]],[[[-0.87381153397235,46.43778471851276],[-0.873896333919487,46.437651206368336],[-0.873934248409857,46.437569952443056],[-0.873959131902478,46.43747597830717],[-0.873969579923748,46.43745416690466],[-0.873994970946949,46.4374150795371],[-0.874025656186287,46.4373660757725],[-0.874099137714713,46.43732292171263],[-0.874161062577515,46.43729882187662],[-0.874218425551776,46.43727658980486],[-0.874584816087337,46.437055714052114],[-0.874942809850025,46.436878215941334],[-0.875043376854231,46.43684739424841],[-0.875122263289675,46.43682343915432],[-0.875224676082912,46.43673233144927],[-0.875287048337338,46.43672372233422],[-0.875427970658456,46.43670478261322],[-0.875435854877835,46.436703793638266],[-0.875516614980829,46.43670988622113],[-0.875841749754503,46.43673436516696],[-0.875853542987102,46.43673333355776],[-0.876181522659525,46.43670425330786],[-0.876716132505777,46.436657875411754],[-0.876966525008608,46.436612315738614],[-0.877042998012207,46.43662964189604],[-0.877069630071241,46.436657586576274],[-0.877080306807815,46.436675705534846],[-0.877092716876191,46.436701699205805],[-0.877077410945951,46.43681842841434],[-0.877369603978502,46.43686376603878],[-0.877727878343486,46.43694165724891],[-0.877792257232917,46.437073168958946],[-0.877864212050222,46.43719017878666],[-0.877897150300995,46.43723161250867],[-0.877926567840572,46.437269379365155],[-0.878021374548318,46.43737398264875],[-0.878085601413218,46.43744464503976],[-0.878128652763809,46.437487087362705],[-0.878138903798896,46.43749737725363],[-0.878202391618594,46.43755030424554],[-0.878274416504803,46.43760041675988],[-0.87846623186158,46.43773417866608],[-0.878496957895492,46.43775549278639],[-0.878575666706795,46.43781340173467],[-0.878582604532695,46.437868791347036],[-0.878583612936938,46.437879305165985],[-0.878587643160841,46.438031349190446],[-0.878593781974931,46.43806449776636],[-0.878637627048889,46.43812359155265],[-0.878650473063026,46.43815570078305],[-0.878655166117213,46.438185021844106],[-0.878654563660492,46.438220563238936],[-0.878652445205066,46.43824578837554],[-0.878632021299537,46.438305173159264],[-0.878583540032812,46.43844313460478],[-0.878549268825378,46.43856636866166],[-0.878538313620581,46.43862687409701],[-0.878520906261068,46.43871401410398],[-0.878513522635595,46.438725714668884],[-0.878427835756726,46.438820944984215],[-0.878406350401757,46.43884890182514],[-0.878388057776822,46.43887224243148],[-0.878370402233753,46.438911879365435],[-0.878367030230176,46.43891947678832],[-0.878344988574872,46.43905699034662],[-0.878322451586926,46.43914718956891],[-0.878320281783694,46.439171695197636],[-0.878314090102113,46.43924601267664],[-0.875957167514789,46.43858807817976],[-0.87588250289532,46.43856870640516],[-0.875839897239979,46.43864263753801],[-0.875745870337178,46.43880224873731],[-0.875710911031304,46.43886266743131],[-0.875674296499959,46.438925486337745],[-0.875653301752791,46.43896036784205],[-0.875573274599386,46.43909678451469],[-0.875452157224363,46.43930095009855],[-0.875436530765456,46.439328797521924],[-0.875419426235287,46.43935786714102],[-0.875391204228445,46.43940850056021],[-0.875308690691884,46.43955032053343],[-0.875232795698487,46.43967884330639],[-0.874385584290759,46.439477623669816],[-0.873572074421166,46.43928444983831],[-0.873231650101666,46.43920278410497],[-0.873263716968013,46.43915301249152],[-0.873295324650128,46.43909126592818],[-0.873342334845991,46.43892504868773],[-0.873355558155704,46.43880090818295],[-0.873338229626039,46.43858810104088],[-0.873340918418055,46.43854149015839],[-0.873347158866217,46.43845491052603],[-0.873354400157433,46.43841364454546],[-0.87336536869354,46.43837712039556],[-0.87340024933604,46.438299034915325],[-0.8734274721638,46.43826736834339],[-0.873623102949034,46.43807672340447],[-0.873656407871074,46.43804439955743],[-0.873680114958153,46.43802015474928],[-0.873729193298146,46.43794735710993],[-0.873781710187492,46.4378311686395],[-0.87381153397235,46.43778471851276]]],[[[-0.866610671584173,46.43473306762101],[-0.866632262046626,46.434566723191274],[-0.86666368668124,46.43430917030394],[-0.866693086464608,46.434089280217385],[-0.866740750618897,46.43373155682901],[-0.866785874830712,46.43363969348791],[-0.867014062297402,46.433157750942115],[-0.867238887882981,46.43268178171511],[-0.868272402432611,46.43286798991723],[-0.868410119479341,46.43289406399313],[-0.86856939107236,46.43260260558734],[-0.86878029804448,46.43273221921764],[-0.869106592843241,46.432876401836396],[-0.869233930875567,46.432949166079965],[-0.869574369115743,46.433143804993676],[-0.869668006795785,46.433197336709995],[-0.869710714726639,46.433222213476895],[-0.869769734064538,46.43325645404891],[-0.869839371832323,46.43329700591182],[-0.869975769249392,46.43337613357942],[-0.870279056019394,46.43355246700664],[-0.870380151889415,46.43360817939763],[-0.870905903518919,46.43389858389511],[-0.871146687208765,46.43402276248234],[-0.871286908714034,46.43409508756167],[-0.87128703879565,46.434095083148755],[-0.871287045178266,46.4340951730865],[-0.871288936529706,46.434096100620884],[-0.871288942912326,46.43409619055863],[-0.872144223984685,46.43457411031341],[-0.871910459665094,46.43528740913616],[-0.871674015015051,46.43579768058717],[-0.871604696505536,46.43594725419604],[-0.871602979854073,46.435946951817726],[-0.870335575627501,46.43566682979845],[-0.868645728981729,46.43528787239558],[-0.868569546205511,46.4352708915441],[-0.868419060332343,46.43573415588856],[-0.86827025533672,46.436193576469634],[-0.86654346564236,46.43590419105316],[-0.866554197050369,46.435809075633216],[-0.8665557970837,46.4354416439726],[-0.866554304137159,46.43515383289945],[-0.866599938072628,46.43482079051633],[-0.866610671584173,46.43473306762101]]]]}}]}
