{"type": "FeatureCollection","name": "aoc_geojson","features": [{"type":"Feature","properties":{"dt":"Bordeaux","type_prod":"Vins","categorie":"Vin tranquille","type_denom":"appellation","signe":"AOC","id_app":64,"app":"Premières Côtes de Bordeaux","id_denom":123,"denom":"Premières Côtes de Bordeaux","insee":"33099","cvi":"1B153D","nomcom":"CARIGNAN-DE-BORDEAUX","insee2011":"33099","nomcom2011":"CARIGNAN-DE-BORDEAUX","id_aire":122,"crinao":null,"grp_name1":null,"grp_name2":null},"geometry":{"type":"MultiPolygon","coordinates":[[[[-0.489403299318679,44.805419316065574],[-0.489678663265919,44.80549932531547],[-0.489895887636512,44.80556449221625],[-0.490088428886442,44.80562764217138],[-0.490071245203937,44.805668917500164],[-0.490187736427378,44.8056999458062],[-0.490352149252767,44.8057443348315],[-0.490315134809587,44.80581687548179],[-0.490262386507218,44.80580528877095],[-0.490128927754836,44.80608390671363],[-0.490033169548613,44.80628473537934],[-0.490503732743231,44.80638292908365],[-0.491005842157611,44.80648760730081],[-0.490930496500251,44.80665426926999],[-0.490826417745193,44.80688618185451],[-0.490801066347921,44.80693861907828],[-0.490530133591156,44.80686487129724],[-0.490444108843296,44.80684135519682],[-0.490307985972556,44.806804096096876],[-0.490190431342502,44.80677229023348],[-0.489947981139277,44.80670665627018],[-0.489829219284609,44.80671246812989],[-0.489789183925479,44.80680772384193],[-0.489682129190485,44.80678802345313],[-0.489656277869228,44.80678352021782],[-0.489525642705909,44.806761227591004],[-0.48914481537547,44.806681112928366],[-0.488651322511233,44.806598955517444],[-0.488385200295379,44.80653532492698],[-0.488582376014506,44.80590864315134],[-0.488869079060375,44.80597757330761],[-0.48925885191069,44.80536005823642],[-0.489403299318679,44.805419316065574]]],[[[-0.488866534046041,44.80253461954283],[-0.488694516022639,44.80248785459604],[-0.488798556994625,44.8023307450973],[-0.489000927194482,44.8020244558878],[-0.489016215302313,44.802036230948545],[-0.489406667927481,44.80215362192283],[-0.489426287202786,44.802167874055286],[-0.489437266337296,44.80218771527423],[-0.489438145174549,44.802214092750866],[-0.48939149778587,44.802292523746736],[-0.489435409468934,44.80229844102952],[-0.490412389183819,44.80249640368534],[-0.491570041216398,44.802698940371485],[-0.491838028243828,44.80275817826714],[-0.49192094703351,44.80277458132017],[-0.492445618441454,44.80294333752107],[-0.492535810638469,44.8029749214922],[-0.492514453143358,44.80312005702965],[-0.492507102207629,44.80312398358042],[-0.492484563090011,44.80313812167636],[-0.492456746991222,44.80315900481013],[-0.492430547555887,44.80318145915946],[-0.492374900877652,44.803235211823555],[-0.49232998034907,44.80328231809027],[-0.492239417923188,44.80337511137052],[-0.492118748963273,44.80347435043582],[-0.492029009832963,44.80356207086419],[-0.491971312005473,44.80362967630834],[-0.491943396047965,44.803665252028374],[-0.491895637324169,44.80372984070154],[-0.491849955804115,44.80379526511448],[-0.491808612125698,44.803849017477184],[-0.491798052306713,44.80386241755861],[-0.491697403369143,44.80396607216318],[-0.491608382822279,44.804038899765054],[-0.491525703614898,44.80409359363467],[-0.491427918654026,44.80407225129054],[-0.49093646468833,44.803977784180454],[-0.490897762738611,44.80397017132265],[-0.490812557214131,44.8039536592299],[-0.490799439915535,44.80398498352733],[-0.490755160115182,44.803975203165535],[-0.490239111776928,44.803861771299324],[-0.490260903458347,44.80381521400532],[-0.489847200930365,44.80371297678711],[-0.489845646686272,44.80371852304374],[-0.489861402918609,44.80372559703499],[-0.489853320657579,44.80376054771362],[-0.489921235289836,44.80377381990391],[-0.489882274347215,44.803870033117384],[-0.489960813650462,44.803889279166576],[-0.489895645680451,44.80395486565471],[-0.489884186425035,44.803970096259135],[-0.489844497357026,44.804068855745435],[-0.489791688243332,44.80412350900348],[-0.489764725943619,44.80411129049253],[-0.489753118615666,44.804105798139126],[-0.489698127480143,44.80408049347191],[-0.489582340258027,44.80403628509735],[-0.489513107404946,44.80401809759089],[-0.489467353776408,44.80410686428595],[-0.489431982954483,44.80417529745538],[-0.489368066108673,44.80416117813904],[-0.489221765971351,44.80412910483325],[-0.489133349805529,44.804109808686846],[-0.489093174489067,44.80410088978355],[-0.489074613288663,44.80413833313068],[-0.489071129516593,44.804137271233145],[-0.488886708948152,44.804080442889266],[-0.48883344705767,44.80416043362665],[-0.488823278792032,44.804176074077],[-0.488796875759194,44.80416266617336],[-0.488747986240462,44.804135727074964],[-0.488700529053287,44.80410739107502],[-0.488655003969131,44.80407755232557],[-0.488611301405838,44.80404648463788],[-0.488593158649594,44.80403155502678],[-0.488582014016978,44.804011088079086],[-0.488583767109526,44.80399039543224],[-0.488801548417819,44.803557093170134],[-0.488774705745046,44.803532524237056],[-0.488332019959196,44.803407852731304],[-0.488589412840659,44.80298664204832],[-0.488602892841491,44.80296521983051],[-0.488813742777126,44.802622165534444],[-0.488866534046041,44.80253461954283]]],[[[-0.488788812648455,44.80448942464803],[-0.488780051444843,44.80458072159384],[-0.488754547245834,44.80484882022724],[-0.488153653194694,44.804796086225004],[-0.488179973432583,44.804430993073964],[-0.488270282009491,44.80444202951668],[-0.488277497873028,44.80442368831749],[-0.488788812648455,44.80448942464803]]],[[[-0.485307249554383,44.80936926878196],[-0.485310128025636,44.8092667118907],[-0.485433386796052,44.809235349827084],[-0.485447923854133,44.80917379141488],[-0.485480475408699,44.809039390370444],[-0.485436184963914,44.8090274452283],[-0.485534760797249,44.808702347123365],[-0.485748576539581,44.80870634806152],[-0.485745252615654,44.80866094200528],[-0.485726401077399,44.80840406209623],[-0.485716777478371,44.80827549319176],[-0.485713734208159,44.808230528917186],[-0.485692665251423,44.807935868404755],[-0.485683661306452,44.807817283349294],[-0.486124764041973,44.80773239729712],[-0.486169317417386,44.807722074234796],[-0.486268548640598,44.807701379993105],[-0.486584937700098,44.807640691325325],[-0.486881309501099,44.80758180296625],[-0.486984059111783,44.80755865427403],[-0.487195302221687,44.80752127801806],[-0.487231410902438,44.807515636061474],[-0.487305596029384,44.80750546176607],[-0.487380019150829,44.8074970823328],[-0.487455059313704,44.807490485835984],[-0.487425007540512,44.80783839335266],[-0.487773879210931,44.80791348154299],[-0.488105551036894,44.8079827113753],[-0.488382344626894,44.808042762726885],[-0.488319824240392,44.80820613525058],[-0.489129131678456,44.808364869709],[-0.489812578931354,44.80849664964137],[-0.489920585047423,44.80851938415241],[-0.489844770584526,44.80868470826781],[-0.490080173146677,44.808732540621925],[-0.490263431042811,44.80872352633974],[-0.490385127075021,44.80864669716317],[-0.492176936146969,44.809342587391214],[-0.491919511814026,44.80995477314664],[-0.491657412394243,44.81056719562931],[-0.491447647583068,44.81105216117486],[-0.491286783922494,44.81123827927571],[-0.49118232640125,44.811394953795734],[-0.491082770428133,44.81155309601291],[-0.491001387011022,44.81168993818341],[-0.490894859094123,44.811854067469895],[-0.49057821097227,44.81183348756519],[-0.490524220110793,44.81205463050808],[-0.490383760237106,44.812630325646374],[-0.489411265860897,44.812725466666144],[-0.488834509263819,44.81281607603833],[-0.488738391944141,44.81283811628512],[-0.488393689241295,44.81298153046476],[-0.488221827075218,44.8129785571455],[-0.48697913569176,44.812879768226374],[-0.486977539150972,44.81287648399905],[-0.486971434844335,44.8128760451646],[-0.486935676767259,44.81287311449598],[-0.486451258115001,44.81280742243921],[-0.486483133834465,44.812723329207245],[-0.486642138505543,44.81225402956061],[-0.486716716619192,44.81202980821926],[-0.486809385689894,44.811750314902],[-0.486844132095491,44.81167577411838],[-0.486620774832005,44.811656934852806],[-0.486482883703908,44.811646401871],[-0.486501994170763,44.811554509190216],[-0.486551045059845,44.81121681859436],[-0.48659369491592,44.81092898547878],[-0.486632783429994,44.81067352735595],[-0.486649337759428,44.810575136294005],[-0.487231829540448,44.81066288521969],[-0.487245293045155,44.81049637035928],[-0.487338700933668,44.810504156182255],[-0.488016649920213,44.8105613212219],[-0.488162248346278,44.810573682462035],[-0.488253899732016,44.81045328183444],[-0.488746923296024,44.809805754048824],[-0.488656201722914,44.809743362219365],[-0.488777692645594,44.80954289654373],[-0.488708692135506,44.8094898244927],[-0.48870129408259,44.80949708669279],[-0.48863945981492,44.8094248638425],[-0.487883506701478,44.80931212008946],[-0.488179559268012,44.8090563261006],[-0.488395392151204,44.80908666370178],[-0.488431793754109,44.80892059837834],[-0.488020632337204,44.808865946646684],[-0.487346648804781,44.80877648469956],[-0.487327180679201,44.8090134820381],[-0.487324918708467,44.80904230149397],[-0.48728517360917,44.809038324887176],[-0.487251175691437,44.80903515878702],[-0.48724994584721,44.80901942646885],[-0.487236192830374,44.808989578788285],[-0.487212000961191,44.808958797818185],[-0.487179758299002,44.80893088358962],[-0.487132972827885,44.80890730200154],[-0.48676572195375,44.8088400894367],[-0.486716340380268,44.80882974686243],[-0.486684000180526,44.80880841432964],[-0.486633286921167,44.80882352744834],[-0.486641909239184,44.808831907767264],[-0.486586378256615,44.808830590316816],[-0.486526038357309,44.80882726121099],[-0.486465707584368,44.80882203926554],[-0.486373910832238,44.80918081028701],[-0.486303997237144,44.809257808711166],[-0.486468688341906,44.80929840998433],[-0.486665129872943,44.809346754008104],[-0.486836269515832,44.80939129744601],[-0.486902527405236,44.80940633609489],[-0.486889963249633,44.809467021612],[-0.486878455740765,44.80954065117681],[-0.486876472339669,44.80955152797006],[-0.486866172745638,44.8096079066113],[-0.486815299397147,44.80979993047561],[-0.486794843649909,44.809880330140054],[-0.486504876985863,44.809850879085644],[-0.486326573761949,44.80981331939108],[-0.486148668611825,44.809778090019314],[-0.486082440426817,44.80976557333689],[-0.485902651467296,44.8097305830626],[-0.485671061156249,44.809682982413825],[-0.485404861621229,44.809630521561274],[-0.485266803424973,44.8096008870595],[-0.485266729606689,44.80958133334886],[-0.485268326566214,44.80953973783773],[-0.485272467291126,44.809498332709076],[-0.485279410058836,44.80945719996192],[-0.485307249554383,44.80936926878196]],[[-0.490050577787201,44.811962660325285],[-0.490049822688698,44.81193420609129],[-0.490266447902372,44.81192819704154],[-0.49024465152746,44.811811726922926],[-0.490242038938551,44.81174115488075],[-0.490267934142253,44.81173817669557],[-0.490266721129635,44.81172884237797],[-0.490252443551697,44.811521474549814],[-0.49035174411148,44.81148347151692],[-0.490529800226747,44.81141505134148],[-0.490652194088939,44.811198603682904],[-0.490250593268005,44.81110049093013],[-0.49008373863223,44.811371598945726],[-0.489561437884723,44.81141129242624],[-0.489522698918195,44.81181075318821],[-0.489513016851146,44.81183016345019],[-0.489500808536907,44.81185578140813],[-0.489455174846339,44.81231953471119],[-0.490181537978274,44.812344522470546],[-0.490174160886955,44.81201185038823],[-0.489942494553361,44.812014187234],[-0.48994241287819,44.811941552868504],[-0.490050577787201,44.811962660325285]]],[[[-0.484983629055315,44.80856466903875],[-0.484962708314518,44.808700867111696],[-0.484876285257822,44.80897295251732],[-0.484870241586008,44.80910408676496],[-0.484887978501917,44.80924510757093],[-0.484931942279114,44.80940891529699],[-0.484726257378561,44.80941357897458],[-0.483672006501104,44.809436892178134],[-0.483665996575239,44.80955432700851],[-0.483161456366296,44.80928405112521],[-0.482913382345379,44.80927066762125],[-0.48269403104831,44.80925908476542],[-0.48269292028581,44.80935789052379],[-0.482319301578872,44.80936115727573],[-0.482321829002866,44.80916299455251],[-0.482326636739749,44.80888112903949],[-0.482336408344166,44.80865687439467],[-0.482746155086095,44.808668424029904],[-0.48301259711928,44.80867591361494],[-0.483031243012076,44.80867649930216],[-0.484886406722341,44.80841371061272],[-0.484985799860626,44.80839968135016],[-0.484983629055315,44.80856466903875]]],[[[-0.482660392963063,44.79681597236631],[-0.482685924456676,44.79678885518146],[-0.482818168823494,44.79667826834015],[-0.482886398310089,44.79662124142138],[-0.483522965664276,44.796954863502556],[-0.483549391937252,44.79696872234998],[-0.483932270680461,44.79717090109702],[-0.483998735385286,44.79720585085393],[-0.484109437016004,44.79726428289704],[-0.484642654290852,44.797545544256856],[-0.484524802968018,44.79765144521199],[-0.484271477409095,44.79787912107277],[-0.484141871907705,44.79781794899442],[-0.483607748735619,44.798259021642174],[-0.483366023333356,44.79846974867171],[-0.483237008735609,44.79842423773627],[-0.483099985782867,44.79838429538996],[-0.482935904787463,44.79833664185156],[-0.482620486121184,44.798252919533745],[-0.48254764188297,44.79823348969786],[-0.482616448197498,44.7981203905413],[-0.482740749021454,44.79787956044855],[-0.482557631169729,44.79780042210239],[-0.482608100221793,44.79772638016734],[-0.482122114103256,44.79755762641782],[-0.482287827918443,44.79732126338814],[-0.482461963100427,44.7970819318854],[-0.482619667730129,44.796859337891945],[-0.482660392963063,44.79681597236631]]],[[[-0.482687069106229,44.806796510043064],[-0.482751707298531,44.80639344630504],[-0.483093730794461,44.8064338875223],[-0.4832973509971,44.80645939142256],[-0.483352562074686,44.80625551778682],[-0.483483134301815,44.80578486443867],[-0.484104838436678,44.805913842031444],[-0.48421408836035,44.805691416916474],[-0.48445090841183,44.805203183526594],[-0.484632685638089,44.80483374560878],[-0.484700986916411,44.80484917172207],[-0.484772806687382,44.80485601591692],[-0.48484422712109,44.8048645848969],[-0.484886629822904,44.80487064159518],[-0.484980411433452,44.804888690993],[-0.485064919993395,44.804906220793406],[-0.485148897339269,44.80492538939034],[-0.485219502909363,44.80494326609575],[-0.485309208779865,44.804967030804704],[-0.485397504658222,44.80499255205673],[-0.485451947870378,44.805009044316996],[-0.485600045287581,44.805047644839995],[-0.485761549814742,44.80508402115449],[-0.485905055740052,44.80511186117254],[-0.485965693001255,44.805120047606074],[-0.486172343977333,44.805147523549465],[-0.486458063161395,44.80517827981623],[-0.486622680214449,44.80518932343582],[-0.486546512913562,44.805291932598614],[-0.486632644733692,44.805311122460495],[-0.486757049664511,44.80533712899917],[-0.486882617640298,44.80536147665715],[-0.487015283819336,44.80539208951048],[-0.486972350163709,44.8054713037535],[-0.487149612559718,44.80550862432009],[-0.487189873588955,44.80553114936717],[-0.48728531273309,44.805551397730156],[-0.487324565319033,44.80555971550711],[-0.487377548719433,44.80557102583134],[-0.487448042054378,44.80558502954308],[-0.48775149954747,44.80564045807108],[-0.487804462167509,44.80564735297213],[-0.48782957426153,44.80559510429558],[-0.487937254972905,44.80560658575724],[-0.487983108903442,44.80561316354142],[-0.488059752023245,44.80562426975379],[-0.488090470711196,44.80562970161061],[-0.488114914855633,44.80563397911037],[-0.488180861492637,44.80564407004337],[-0.488282192489255,44.80566133843509],[-0.488229344898978,44.805821432488294],[-0.488106237396828,44.80618740869269],[-0.488012237455001,44.80647172130198],[-0.487980790615977,44.806566706005725],[-0.487952946905228,44.806650402441406],[-0.487803775128393,44.80709821633359],[-0.487581861008231,44.80711457110675],[-0.487439580975965,44.80712084996204],[-0.487362625983446,44.80711290726672],[-0.48718443183072,44.80709940784451],[-0.487039229305633,44.80708919605033],[-0.486984680821478,44.80708532458723],[-0.486931163380082,44.80707970838458],[-0.486878034091655,44.80707218742717],[-0.486825677581404,44.80706283973693],[-0.486764255050764,44.80704611700327],[-0.486696937812613,44.80701804430065],[-0.48663597699762,44.80699040246156],[-0.486545977055169,44.80696196170272],[-0.486441550551874,44.80694379770312],[-0.486349547501302,44.80691163475676],[-0.486303895048685,44.806881798987924],[-0.486245531282463,44.80693067720442],[-0.486053619220787,44.80730809707157],[-0.486016808790528,44.807343229931135],[-0.485956645541642,44.80736720135127],[-0.485935047903221,44.80737004343237],[-0.48589928982598,44.80736909518532],[-0.485863683979563,44.807366519980874],[-0.485844806101272,44.80736422979953],[-0.485797018266862,44.80735302566944],[-0.485748699179361,44.80734346038385],[-0.485623982235562,44.807322689337745],[-0.485410119782961,44.80729336610413],[-0.485297402395903,44.80727420003085],[-0.485184298468424,44.80725288312156],[-0.484846204039099,44.80718609973162],[-0.484889860253216,44.80709397654414],[-0.484370022151007,44.80695846638926],[-0.484318810134506,44.80697368427107],[-0.484413348820286,44.80766923149733],[-0.48444826818123,44.80792605689142],[-0.483779051654829,44.808074430469425],[-0.483418647583011,44.80815217499016],[-0.483347569628318,44.808167566068555],[-0.483188506541169,44.808182928147865],[-0.483023896387092,44.80817620469989],[-0.482607152620097,44.80810891164693],[-0.482440078554982,44.80808081624549],[-0.482364349194619,44.80806814532838],[-0.482335048123273,44.80777518527932],[-0.482311489640931,44.807538099340945],[-0.482306462827403,44.807489682713914],[-0.482269382653639,44.80718966740672],[-0.482267695353812,44.80717674317094],[-0.48224689763996,44.807008692386326],[-0.482419255876388,44.80700976627384],[-0.482685002086308,44.80699799262639],[-0.482661597476979,44.80695943575647],[-0.482687069106229,44.806796510043064]]],[[[-0.482692940789952,44.80935789034449],[-0.482692126727888,44.80942847974351],[-0.48269292028581,44.80935789052379],[-0.482692940789952,44.80935789034449]]],[[[-0.480390626023631,44.79794581631424],[-0.480721431663535,44.797969492655525],[-0.480873091050802,44.797986268074304],[-0.481174619244227,44.79801951406311],[-0.481232873989269,44.7980261554881],[-0.481499516239851,44.79806220865752],[-0.481458001517299,44.79809694705427],[-0.481420685228015,44.798134076896034],[-0.481387803308144,44.798173320417845],[-0.481370440892208,44.79819747709019],[-0.481309558920165,44.798342499115655],[-0.481147049222862,44.79877368821154],[-0.481087703663045,44.79939296042694],[-0.480440049368067,44.79937094425767],[-0.480200667757626,44.79935412898149],[-0.479699563455584,44.799317413302234],[-0.479441429930441,44.79930028394181],[-0.478889999674173,44.79926027809831],[-0.47887419502637,44.79860641783603],[-0.478863170976148,44.79836091841533],[-0.478860019909508,44.79828549735395],[-0.478851020893516,44.7982055736526],[-0.478835906537208,44.79807798856522],[-0.478794974692128,44.797844152156365],[-0.479789701146712,44.797928006954066],[-0.480118704716808,44.79793894471504],[-0.480376514727102,44.79794481754056],[-0.480390626023631,44.79794581631424]],[[-0.479957920469857,44.79887835077258],[-0.479965040321294,44.79884207947196],[-0.479970376515453,44.79881379467987],[-0.479990372289105,44.79870952956506],[-0.48006232769824,44.79827731074188],[-0.479739917905643,44.79824003111825],[-0.479728604051884,44.79831076954144],[-0.479703005324379,44.79846558720978],[-0.479674596185961,44.79860364079441],[-0.479509323787396,44.798585759040414],[-0.479497678525264,44.79866750240077],[-0.479478308671405,44.7988043709483],[-0.479474542078283,44.79883143488099],[-0.479764255047984,44.798859828836605],[-0.479829073971611,44.798866174809014],[-0.479916282589166,44.79887434109232],[-0.479957920469857,44.79887835077258]]],[[[-0.47637787117409,44.80605983928518],[-0.476460648887602,44.80605760363211],[-0.476701328109289,44.8060826781663],[-0.476718142516676,44.806088459137264],[-0.476777808390087,44.8061116408805],[-0.476835004783589,44.80613787399328],[-0.476923758537868,44.80612788051793],[-0.477007599360832,44.80612236681247],[-0.477091805898499,44.80612071670723],[-0.47717598800079,44.80612276220183],[-0.477319153150055,44.80613899856802],[-0.477401704790924,44.806155604274416],[-0.477466829098077,44.80618924851615],[-0.477504119167985,44.80624359223549],[-0.477515718487205,44.80627350847854],[-0.477518494700089,44.80632244637419],[-0.477530373880699,44.80647140166409],[-0.477547685975612,44.80662018651785],[-0.477575924784931,44.80680233326763],[-0.477600655914193,44.80692781479109],[-0.477630429871581,44.80705295786988],[-0.477683459542785,44.807199991335914],[-0.476611054273964,44.80710313824202],[-0.476533947108058,44.80743431234942],[-0.476493160980106,44.80760780979735],[-0.476445463406433,44.80781486819044],[-0.475761567706696,44.80767716347031],[-0.475925405160294,44.807063810097056],[-0.475594104975801,44.806994082257184],[-0.475687587167902,44.80669015232931],[-0.475854872344688,44.806138693226494],[-0.476183921637188,44.806086198683424],[-0.47637787117409,44.80605983928518]]],[[[-0.471542990939529,44.79211072416829],[-0.471659896726728,44.79199342215256],[-0.471775680380449,44.79187435278287],[-0.471907893283175,44.79174467525935],[-0.472044187978411,44.791617573240494],[-0.472266984709515,44.79142188388494],[-0.472429795675157,44.79130611654456],[-0.47269813258527,44.79116748633959],[-0.472756179796496,44.791142236406905],[-0.472956086335473,44.791055405418916],[-0.473286353792536,44.790940066084495],[-0.473338260456027,44.79092194744132],[-0.473652177356723,44.79082874796389],[-0.473768408266322,44.7908009526864],[-0.473871683914129,44.79078059267386],[-0.473976697632399,44.79076378282896],[-0.474082576391311,44.79075073075436],[-0.474332879754562,44.790729906362564],[-0.474404441012452,44.79071856073272],[-0.474474747060063,44.79070328918201],[-0.474543194142436,44.79068456123694],[-0.474671249564649,44.79063719892797],[-0.474850501726403,44.79055002070709],[-0.475014532485243,44.79045205464562],[-0.47503551869855,44.79062974178128],[-0.47503901853839,44.7906597317332],[-0.475057384193591,44.79088508382565],[-0.475128223753622,44.79136752174721],[-0.475195933296947,44.79182797876272],[-0.475203414669769,44.79188551037496],[-0.475221232875397,44.79189531527978],[-0.47525414375883,44.791919967094294],[-0.475211839520247,44.79192760206655],[-0.475203827833562,44.79192902485467],[-0.475015577677501,44.79208155157704],[-0.474529757971134,44.7924607748799],[-0.474047739421454,44.79284221982847],[-0.473922190288218,44.79294249261643],[-0.474231247624635,44.79316558119649],[-0.474357448209561,44.7932477784214],[-0.474710126804854,44.79295437841133],[-0.474941400995296,44.79313322230972],[-0.475137934852796,44.79325782214008],[-0.475108123280538,44.79328534206156],[-0.475280331805603,44.79338700317156],[-0.47578320851157,44.79308501425693],[-0.475608269168683,44.79282257722876],[-0.476221707197889,44.79234598265697],[-0.476390609786366,44.792557871095106],[-0.477063617215919,44.79338360556489],[-0.477790724530995,44.79427333591368],[-0.478173989031194,44.79474614882522],[-0.478317204161695,44.79492108121664],[-0.478595131483927,44.79526030803047],[-0.478866426939632,44.79559253293297],[-0.478932305047237,44.79567328452636],[-0.479133856952862,44.79590315992091],[-0.479180428324118,44.79595622004673],[-0.479051032774484,44.79595550578586],[-0.478954053451908,44.79595503546677],[-0.478720195506595,44.796080342336545],[-0.478483247358359,44.79620277174312],[-0.478242813352798,44.79632206572668],[-0.47814512659029,44.796369470178114],[-0.477795882473981,44.796147922671004],[-0.476775965833248,44.79614730037344],[-0.476700544405408,44.79614750355889],[-0.476454612245753,44.79543543710129],[-0.476325042870252,44.79506776027954],[-0.475711914546451,44.79469254008389],[-0.475236119383307,44.794544526035125],[-0.474156128720387,44.79509269627946],[-0.473665399771055,44.79476247257297],[-0.473360328556108,44.79456097581554],[-0.473146349066851,44.79441213680379],[-0.473037798813276,44.7943288442941],[-0.472933107596862,44.79424245683466],[-0.472832457326189,44.79415386992493],[-0.472735963193519,44.79406289972852],[-0.472643461497437,44.79397099328745],[-0.472555884547019,44.793891188630234],[-0.472470914648903,44.79383103825056],[-0.472341884547574,44.79376037265512],[-0.472194684877802,44.79369469202082],[-0.471920792156059,44.79359819456351],[-0.471786034913543,44.79355771734858],[-0.47149283061386,44.79348047845424],[-0.471403881601273,44.79345217377414],[-0.471290435097911,44.793412470336186],[-0.471179435804616,44.793369355741525],[-0.471164353819236,44.7933608162669],[-0.471122687709167,44.7933337339233],[-0.471084902617111,44.79330391656266],[-0.471051015211015,44.79327163402321],[-0.471021558532438,44.79323732020691],[-0.470975916246949,44.79315611086881],[-0.470934521894878,44.7930473723762],[-0.471575557943386,44.79254362572485],[-0.471316706010337,44.792358609843376],[-0.471430523796893,44.79223023009611],[-0.471542990939529,44.79211072416829]]],[[[-0.471898915892154,44.80813516852407],[-0.471953416877629,44.80794574311531],[-0.472169990174654,44.8078797511968],[-0.47244290975515,44.80788769394401],[-0.472829144543419,44.807983917551965],[-0.472967849578843,44.80800372391866],[-0.473306706666723,44.80805231524651],[-0.473314997203018,44.80805331714531],[-0.473504425535829,44.80808883641038],[-0.47367762193074,44.808111616475756],[-0.473653996077895,44.80823726222819],[-0.473590224827551,44.80857558594595],[-0.473570301090758,44.80867921667864],[-0.473564216048563,44.80871797843609],[-0.473517095279666,44.80895502694861],[-0.473426466702715,44.809428199650874],[-0.473131848667442,44.80935199762209],[-0.473253029382203,44.80893680602045],[-0.473139625238277,44.808931076906724],[-0.473026998366268,44.80892153831385],[-0.472914643385283,44.80890820607827],[-0.472803444773607,44.808891052492186],[-0.47269353446401,44.80887016354605],[-0.472584538984966,44.808845641063236],[-0.472527949402665,44.80883128244884],[-0.472423305041619,44.80879932384667],[-0.472298573038288,44.808755738153884],[-0.472146717304524,44.80868704756658],[-0.471962658392554,44.808580704262404],[-0.471877905962611,44.80852442077078],[-0.47197224692838,44.808342579217246],[-0.472031406511739,44.80822852777563],[-0.471978052795276,44.80819072666829],[-0.471898915892154,44.80813516852407]]],[[[-0.471949722669528,44.82658663132855],[-0.471960086901375,44.8270840385175],[-0.471696912864877,44.827093900576756],[-0.47159802803946,44.82708600185454],[-0.471414636631971,44.82704262796808],[-0.471267027713376,44.827016788428395],[-0.471044565454286,44.82698256758023],[-0.470607041195686,44.82693344893798],[-0.47065913198217,44.82645057914042],[-0.470003134035517,44.8264419108186],[-0.46992912747401,44.826441072534784],[-0.469791167494206,44.826450436320876],[-0.469929121916324,44.826440982589006],[-0.469763498035528,44.82598006633293],[-0.469640907237011,44.825986065207665],[-0.468844738919641,44.82590986067093],[-0.468789881730356,44.82589715763777],[-0.468274107026279,44.8257782922221],[-0.468065496091099,44.82573038479979],[-0.468067708287844,44.82576005507181],[-0.468086933079246,44.82606315679469],[-0.468045934258095,44.8260574998777],[-0.468008548954348,44.82596476452981],[-0.467815970387744,44.825955016490994],[-0.467817428078331,44.82599912949502],[-0.467046927101108,44.82593454589883],[-0.466643968208031,44.82590154407125],[-0.466250172198583,44.82587131842676],[-0.466236051852746,44.82608570351196],[-0.46547087120852,44.826066272764905],[-0.465445593217668,44.826067062771514],[-0.46534174808643,44.8260669737365],[-0.46538227436388,44.82650413839959],[-0.464917924039434,44.82661733001257],[-0.46366951115281,44.82667201360007],[-0.463443658319015,44.826675102915274],[-0.462919622667025,44.82666245108799],[-0.462634463029687,44.82665459391566],[-0.461915447590254,44.826634327671094],[-0.462054148597375,44.8263021432591],[-0.46190175810946,44.8262438175698],[-0.461657400506923,44.82664310466888],[-0.461639825735441,44.826672311251635],[-0.461563200296344,44.82679744577882],[-0.461532458665961,44.826847250094254],[-0.461752212109988,44.82692393045076],[-0.461626631563097,44.8271464802691],[-0.461618894638167,44.8273291232648],[-0.461364234675853,44.82752028531777],[-0.461192908241603,44.82752049633745],[-0.46098919728905,44.8275726352631],[-0.460982458442807,44.82763178360289],[-0.460265162150855,44.82734776372736],[-0.459830834681719,44.827175670549224],[-0.459672655658057,44.827113827502444],[-0.459686135471543,44.82701607819579],[-0.459696395041034,44.82694005796896],[-0.459469819761678,44.8267238116048],[-0.459462012511711,44.82671630492817],[-0.459443984442366,44.82669911389281],[-0.45928481869081,44.82669317502656],[-0.45929013750033,44.826964538167644],[-0.458987236182642,44.826843404567235],[-0.459163717249956,44.82621148102607],[-0.459139907358496,44.826038744438236],[-0.458807164840933,44.826103285670754],[-0.458728699092745,44.82611843999536],[-0.458673009262878,44.826129188967904],[-0.458665003360643,44.82613079047008],[-0.458631594004326,44.82605712379902],[-0.45835276366269,44.82610673454778],[-0.458377084118682,44.8261705914251],[-0.458258648474136,44.82619266951793],[-0.458192314964924,44.826205372339096],[-0.458090803469082,44.826224669455605],[-0.457840302171041,44.82625519134745],[-0.457752544796797,44.825973422004246],[-0.457734530988069,44.82591531621697],[-0.457715244122476,44.825918801449404],[-0.457569384030461,44.82594587946015],[-0.457541707239276,44.82601054675777],[-0.457442977282508,44.82624162646396],[-0.457159659669162,44.826300656332634],[-0.457094650603438,44.82631430850277],[-0.457042774561973,44.82614839453262],[-0.45672549929497,44.826202984713255],[-0.456666099370522,44.826213127369776],[-0.456501081942766,44.82624170232427],[-0.456494683838602,44.82622622105549],[-0.45623203990021,44.82627550207205],[-0.456000578148192,44.82628001276536],[-0.455938662535325,44.82515455413378],[-0.455225500418129,44.82511171329689],[-0.455028602116848,44.82510162723913],[-0.454794874152018,44.82508980453693],[-0.454668513091429,44.82451986445192],[-0.454814178971781,44.82449378755445],[-0.454989964687577,44.82445712923819],[-0.455252784167472,44.824386126835634],[-0.455410242404007,44.82433561992128],[-0.455421665218934,44.82433192955249],[-0.455713702107756,44.824225409852424],[-0.455968322027409,44.82411996545664],[-0.456246068588001,44.82398703425544],[-0.456377957921716,44.82392849125368],[-0.456512722517389,44.82387346321461],[-0.456650081939952,44.823821508275714],[-0.4567898055795,44.82377299409295],[-0.456903927372629,44.82373645266473],[-0.457439549343387,44.824702950727975],[-0.457705599163867,44.824622739701304],[-0.457758197037651,44.82460704093277],[-0.457774557954708,44.82459923109101],[-0.457955692916733,44.82451373693199],[-0.458046499792504,44.82448927643554],[-0.458119361655409,44.824469520997404],[-0.458193970727853,44.82444935054171],[-0.458424028332479,44.82438720263307],[-0.459138043189358,44.824193163116455],[-0.459221244745034,44.824170651152386],[-0.459925341670536,44.823978087375025],[-0.460034058184048,44.82394838015533],[-0.460529854241569,44.82381142715618],[-0.460937065287547,44.82372265698952],[-0.461103568608834,44.823685467457324],[-0.461325647711529,44.82363572848599],[-0.4613897291513,44.82362147184396],[-0.461612313286268,44.82357171651833],[-0.461842759449478,44.823520093125076],[-0.461593597401132,44.823128373708556],[-0.461764321090125,44.823075460746686],[-0.462048843223154,44.82298700205697],[-0.461783146913732,44.822583813576415],[-0.461847679253671,44.82256251326041],[-0.461405063865434,44.821881513148256],[-0.461509456588988,44.82187212602101],[-0.461727445549112,44.82185270364632],[-0.461837143063484,44.82201771138779],[-0.461899441537045,44.82211219377486],[-0.462256885165285,44.82265211166099],[-0.462305865652423,44.822727724236366],[-0.462566319284527,44.82313206665389],[-0.462599516378585,44.823183749711816],[-0.462775385579778,44.82345663578285],[-0.462993170670214,44.82343586566734],[-0.463230686977483,44.823412676449486],[-0.463550404601331,44.82338160198917],[-0.463674261686619,44.823369532142756],[-0.463751550807971,44.82336207106939],[-0.463944773521566,44.82334341815052],[-0.463827580650417,44.823738647630805],[-0.464292182062614,44.82381668539066],[-0.465371139732932,44.82399655272688],[-0.465452240582087,44.82401186168589],[-0.46544375041341,44.823868116241364],[-0.465436189785576,44.82364503669151],[-0.465434633454532,44.82356235573724],[-0.465423112246862,44.8231889006401],[-0.46542646702879,44.82317554824198],[-0.465470926487983,44.823120357429566],[-0.465512447735956,44.82310373940359],[-0.465623712465972,44.823070252031634],[-0.46595175459471,44.82297303308617],[-0.466009685227767,44.82294121246523],[-0.467208622526444,44.82309766493419],[-0.467300634848564,44.823043599799846],[-0.46768004717932,44.82282067471665],[-0.467996633455819,44.822607733955984],[-0.468115299914551,44.82252805156652],[-0.468312629863236,44.822395531639316],[-0.468053087975183,44.82214807110506],[-0.468558063507798,44.82186299811901],[-0.468609621080614,44.82190229947952],[-0.46889163735207,44.82171612148466],[-0.468665429679634,44.82152863044006],[-0.469215079834338,44.82117772118058],[-0.469247238141294,44.8211571590314],[-0.469468724363874,44.82134200291701],[-0.46975464732427,44.82158602111944],[-0.470036546716672,44.82183250771443],[-0.470255139156245,44.82204420631601],[-0.469782080469102,44.822362083303055],[-0.469846533125086,44.82240512609981],[-0.470425951770051,44.82279207966367],[-0.470293842193358,44.822895976938526],[-0.470323345984332,44.82321155360494],[-0.470705923071163,44.82323670824508],[-0.471089011592709,44.82326193568609],[-0.471515584854757,44.82329003598675],[-0.471561841135254,44.82328858774097],[-0.471578523727636,44.82328806541809],[-0.471639043759834,44.82326949840567],[-0.471694329554677,44.82330760029166],[-0.470208285317979,44.82424305922235],[-0.47023564763896,44.82426166871379],[-0.470188571974307,44.82429495425908],[-0.47013559914388,44.82432707254582],[-0.470079404031492,44.82435622758061],[-0.469962728678356,44.82440052287757],[-0.469987256753293,44.82461099572234],[-0.470013471462183,44.824836465781445],[-0.470633979060002,44.824533438906194],[-0.470789314619043,44.824639333834746],[-0.47087432782985,44.82469741341791],[-0.471120357251852,44.82486517489894],[-0.47138793999802,44.82504767159827],[-0.471004890137944,44.8253101056972],[-0.471063251522594,44.825551602030565],[-0.471140718119503,44.82583584789],[-0.471627037610488,44.82565633466352],[-0.47175034612282,44.825610748518685],[-0.472108555790416,44.82591125679437],[-0.472948991591997,44.825918912307785],[-0.472937127347464,44.82647856762195],[-0.472847970537987,44.82647847614715],[-0.472379802309075,44.82649079471787],[-0.472383677886411,44.826582144972654],[-0.471949722669528,44.82658663132855]],[[-0.468595432443314,44.824282529735726],[-0.469161594587609,44.82427842563224],[-0.469155182695268,44.82417462823468],[-0.469044559639683,44.8240278599191],[-0.468776013257829,44.823954613075024],[-0.468706201507299,44.82393552881788],[-0.468485697461359,44.823875377735455],[-0.468495781658176,44.82395049235001],[-0.468510726758869,44.82406330512258],[-0.468539726900189,44.82428066752277],[-0.468595432443314,44.824282529735726]],[[-0.463952271968841,44.82565348323384],[-0.464149784868413,44.825646772162145],[-0.464105878158698,44.825162851029674],[-0.463867712324018,44.82513045856435],[-0.463672559168401,44.82510969919678],[-0.463713147443431,44.82541258412837],[-0.463723572624407,44.82548922040173],[-0.463727353454448,44.82551767013434],[-0.463726196668782,44.82553176488901],[-0.463628106859626,44.825514101464826],[-0.463618580830327,44.82577439336387],[-0.463784485331276,44.825805438983586],[-0.463940309709587,44.825833194481255],[-0.463948714748328,44.82570667466966],[-0.463952271968841,44.82565348323384]],[[-0.460104307868591,44.82696094470623],[-0.460323704676814,44.82697843064165],[-0.460354706468467,44.826782805665474],[-0.460128487569452,44.82675940458785],[-0.460104307868591,44.82696094470623]]],[[[-0.470624429665024,44.817842449610175],[-0.470355230812375,44.817739758962105],[-0.470145658326991,44.81765944355516],[-0.470355351625752,44.81773966506101],[-0.470624556036119,44.81784244565426],[-0.470884665312661,44.817941454985935],[-0.471153392484387,44.81804262715279],[-0.471427688029755,44.818145787219876],[-0.471525342110139,44.81818319319979],[-0.471693137045525,44.818247150909016],[-0.471870011926625,44.818314609061794],[-0.47191487647392,44.818331678632866],[-0.471926154411039,44.818335921557754],[-0.471952021353532,44.81830374991686],[-0.472227637446598,44.81840569519274],[-0.471829876420836,44.81877142024163],[-0.471408726284423,44.81915418770741],[-0.470748038864938,44.818920734992396],[-0.470663326217661,44.819000617967994],[-0.469617063489628,44.81864774496964],[-0.469669163403811,44.818544189428906],[-0.469894048434782,44.81809556614194],[-0.470120888007401,44.81764994523875],[-0.470121019935223,44.81765003122892],[-0.469894053991586,44.81809565608748],[-0.470293020748206,44.8182329473945],[-0.470624429665024,44.817842449610175]]],[[[-0.47066332972024,44.81900061914929],[-0.470524539514793,44.81913149148129],[-0.470663326217661,44.819000617967994],[-0.47066332972024,44.81900061914929]]],[[[-0.469338939610648,44.820413507424334],[-0.469763310430149,44.82025261192646],[-0.46979427033162,44.82027210016568],[-0.470402352851539,44.820656083093866],[-0.470517256084709,44.82072872766481],[-0.470613523293404,44.820788707902025],[-0.470363850214904,44.82104732564624],[-0.470382986521444,44.821059884137625],[-0.470508578876479,44.82114156661811],[-0.470851994566992,44.821365127740606],[-0.470815239157218,44.82140349771677],[-0.470749568953043,44.82147188143163],[-0.470670001540141,44.82155511925321],[-0.470588984035125,44.821639483837714],[-0.470508910627758,44.8217227373719],[-0.47038144558815,44.821573884247734],[-0.470138333289696,44.82138133777443],[-0.470106247590776,44.82135593694514],[-0.469810264176678,44.8211212464492],[-0.469577318511499,44.821244880480535],[-0.469516614174931,44.82119279846723],[-0.468846133907554,44.82063088436793],[-0.468842250847183,44.820609016704566],[-0.468860472722611,44.82058627721937],[-0.469041269746616,44.82052447613953],[-0.469219959590243,44.8204593161468],[-0.469338939610648,44.820413507424334]]],[[[-0.466742058099903,44.81087054435216],[-0.466725422155993,44.810912789729265],[-0.466730882093129,44.81094587292013],[-0.466988822402998,44.811098578630656],[-0.467023122538215,44.81117023200351],[-0.467149924353734,44.81164524924575],[-0.466995332568978,44.81235067013552],[-0.466911398695299,44.812518934011315],[-0.466554827712612,44.81275394044996],[-0.466213311869548,44.81355712655555],[-0.46604532528118,44.81354102053239],[-0.465915468016494,44.81352525422482],[-0.465745975509085,44.813499101495815],[-0.465687332561252,44.81355410505444],[-0.466204530030236,44.81379026895318],[-0.466658282028313,44.81380455857939],[-0.467810393992572,44.81388856450351],[-0.468539684582289,44.814241817072556],[-0.468935080714316,44.81484045437287],[-0.468982359563944,44.81561418131668],[-0.469087765764738,44.81562755515291],[-0.469659939657555,44.81570373426138],[-0.469835274282233,44.815727986180555],[-0.469931096968835,44.81576247674835],[-0.469958757140768,44.81569375112542],[-0.469981158438896,44.81562392842297],[-0.470010275387481,44.81556443948568],[-0.470017797663482,44.815565285473774],[-0.470076959291859,44.815840460697224],[-0.470089753023886,44.815899989644464],[-0.470044287513205,44.81601865803423],[-0.469989226916918,44.81616646492677],[-0.469826574537504,44.81659142190928],[-0.469750200490932,44.81678774912676],[-0.46959483569944,44.81675683400543],[-0.469485411591075,44.81695311388571],[-0.469301951216158,44.81742666469778],[-0.469284548186712,44.81742369461871],[-0.46917369701194,44.81777934990827],[-0.469155511212429,44.81783750525095],[-0.468664511986896,44.818397459266805],[-0.468535886739516,44.81854125851639],[-0.46822405820222,44.81874882555445],[-0.468949336715194,44.8190196541674],[-0.468843611664334,44.81938253855856],[-0.469131832544576,44.81943642399819],[-0.469109838047408,44.81946982555238],[-0.469082792677302,44.819501402511136],[-0.469069323430511,44.81951498138939],[-0.468820763961117,44.819740396708845],[-0.468327165143972,44.82018066157114],[-0.468128043347033,44.819992863192496],[-0.467932146194407,44.8198018995883],[-0.467817962625152,44.819687504740195],[-0.467511744831211,44.819368777198555],[-0.467429388147799,44.81927150062106],[-0.467253017645797,44.81906244217914],[-0.467154939047926,44.81890122178132],[-0.467101258241698,44.818792594417786],[-0.467034519909527,44.8186713981797],[-0.466981777632845,44.818586172453145],[-0.466924058331916,44.81850236401147],[-0.466866729165616,44.8184269244432],[-0.466820317623631,44.81836835625239],[-0.466768967869953,44.818311834963666],[-0.466729310533022,44.81827243119419],[-0.466354480933704,44.817963957153225],[-0.466618669460224,44.8178522399875],[-0.466586684968282,44.817816110925314],[-0.466135353525218,44.817542020642826],[-0.465861473374715,44.817662871316074],[-0.465480267149963,44.81743353842102],[-0.465328892621362,44.81733183916256],[-0.465138624433148,44.817186656221196],[-0.464994159454609,44.81706969069694],[-0.464791060385761,44.81688273247334],[-0.464651602247647,44.81673812375109],[-0.464623817570858,44.81670231354473],[-0.464562699788309,44.81662284590043],[-0.46453073823667,44.81656652892163],[-0.46450363299752,44.81650888863156],[-0.464487086066281,44.816466418888595],[-0.464467284386292,44.816401971667695],[-0.464440410416651,44.81624339073255],[-0.464425961306999,44.81609739869364],[-0.464417077980581,44.81595132285715],[-0.46441350211233,44.815805081176364],[-0.464413928071267,44.81571756222043],[-0.464416906639066,44.81553389654645],[-0.464425341113438,44.81535042086646],[-0.464439099527736,44.81516704918231],[-0.464455437564253,44.81500702785268],[-0.464458506058091,44.81497466933308],[-0.464515312494065,44.81466405605775],[-0.464543091776403,44.81441653204786],[-0.464540965465519,44.814269163710165],[-0.46451764588255,44.81410866947276],[-0.464693392594874,44.81377847814481],[-0.464782925269516,44.813633111638666],[-0.464913555881985,44.81341923174239],[-0.464816001574557,44.813407861684944],[-0.464717806890445,44.813400476794556],[-0.464677556106661,44.813398580577335],[-0.464572273522333,44.813399437668586],[-0.464467603020962,44.81340406053105],[-0.464425750842042,44.813406990575906],[-0.464240144025276,44.813462356155405],[-0.464255144048754,44.81347360289718],[-0.464265700454871,44.813486700756584],[-0.464355207489483,44.81421332722738],[-0.464359562306598,44.814302409003105],[-0.464357116247199,44.814439286165126],[-0.464326279461787,44.81461877563717],[-0.464263068646986,44.81495283962344],[-0.464239412908755,44.81520771459277],[-0.46419603341472,44.81591055702705],[-0.464194073340011,44.81602452880838],[-0.464197316523707,44.81613869848527],[-0.464205987995907,44.81625260843121],[-0.464240965989992,44.81645842894809],[-0.464288345843896,44.81658203379224],[-0.464344139660275,44.816671671158154],[-0.464432862981319,44.81678199821984],[-0.464512304938022,44.81687116690643],[-0.464610326599457,44.816974173994595],[-0.464712391209856,44.817074981924605],[-0.464819015356176,44.81717375477941],[-0.464929918566564,44.817270050715756],[-0.465044738384028,44.81736415140643],[-0.466021324622314,44.81797987014445],[-0.466112211983146,44.8180451589185],[-0.466323937876004,44.818166598998566],[-0.46645350333099,44.81825131556042],[-0.466530781266095,44.81830738677473],[-0.466585169569512,44.81835570242361],[-0.466100673741563,44.81874042927248],[-0.465791671736505,44.81898575089841],[-0.465750515240125,44.81901848905015],[-0.465783282860951,44.81903242455275],[-0.466303159245121,44.819253726705426],[-0.466617376318154,44.818975977837766],[-0.466851173011076,44.8187697741225],[-0.46694620560223,44.81891243529688],[-0.467048547492625,44.8190565801106],[-0.467265794321651,44.81932888599716],[-0.467489523565272,44.81957899968811],[-0.467816442855898,44.81990897561803],[-0.468164799889,44.82025387082238],[-0.468155368740949,44.820267233147845],[-0.468114535134686,44.82027238556151],[-0.467072809072934,44.82032749557789],[-0.46676910513362,44.820357178857606],[-0.466534712354506,44.8203876682035],[-0.466262853815589,44.82044095698812],[-0.465944782571682,44.82051894050264],[-0.465751686384998,44.820574361934824],[-0.465332621109168,44.82072705523081],[-0.464907349534611,44.820906435898884],[-0.464576125007492,44.821040159635466],[-0.46425130726623,44.82116692321914],[-0.463923985781574,44.82129006914325],[-0.463594056408853,44.82140996111693],[-0.463278380391046,44.82151255456679],[-0.462884147049784,44.82162255716646],[-0.462231440756636,44.82115485514918],[-0.462081139650228,44.821054199114656],[-0.461868166032045,44.82093513282273],[-0.461704449245071,44.82085715462491],[-0.461993453591285,44.82058687569537],[-0.461890223283847,44.82054729237585],[-0.461907541130905,44.820524221870876],[-0.461953158098292,44.820463138674775],[-0.461901327476749,44.820446012253996],[-0.461931106439991,44.820401194432016],[-0.461953584018323,44.8204084230723],[-0.461984105694205,44.82036538442644],[-0.461904130518783,44.82033742132145],[-0.46185664120906,44.82032088028518],[-0.461723564493408,44.82048319433362],[-0.460586206936379,44.81984740240449],[-0.460321051522361,44.8196950860706],[-0.459739864684548,44.8193373370273],[-0.459328768623835,44.81908296174175],[-0.458207281814132,44.81908649629582],[-0.458721459617113,44.81818566998128],[-0.459076266819255,44.81756323418863],[-0.459553896599926,44.816642996799786],[-0.459684116667072,44.81659468488864],[-0.459729108772613,44.816581024697385],[-0.459775838902574,44.816570915005094],[-0.459819027270293,44.816564971170635],[-0.459895819547445,44.81657014467462],[-0.461297325796571,44.81674745984452],[-0.461377260520629,44.816659801801705],[-0.461432160835089,44.81659942029087],[-0.461522375352538,44.8165121621344],[-0.46060933434379,44.81608403311334],[-0.460175063881784,44.81599368066607],[-0.459806719710738,44.81585747143466],[-0.459329249445859,44.815612468203504],[-0.459100821360588,44.81344313658788],[-0.459255242579039,44.81339731415541],[-0.459353214107995,44.81335586644651],[-0.459468667435473,44.81332486760926],[-0.459499217170728,44.813319318224394],[-0.459582391137876,44.81330689972877],[-0.459666292113309,44.81329806323315],[-0.459750947813215,44.81329325846532],[-0.459886107438511,44.81321838716153],[-0.459583285887274,44.81210657997276],[-0.460364546014589,44.8120284853955],[-0.460353923384801,44.81154983567899],[-0.461801183106905,44.81134171576128],[-0.461618191561531,44.81092585418552],[-0.458881480071129,44.810950267392634],[-0.458901144637207,44.81032386979019],[-0.459227364439718,44.81000485387841],[-0.460111475316948,44.80935057601913],[-0.459874450673542,44.80835720639241],[-0.4600224612458,44.80818082043848],[-0.460064142135329,44.8081299541696],[-0.460767558365047,44.80710975111727],[-0.460874308187855,44.80695619045598],[-0.461258952872462,44.806443571302346],[-0.461379837489535,44.806285243043334],[-0.460662176709788,44.80629710701175],[-0.46013161476725,44.80611784228397],[-0.459938376401997,44.806046912880674],[-0.459199534719176,44.80497259915021],[-0.458684889073998,44.80437305954984],[-0.458171042891219,44.803893260470815],[-0.457519518478799,44.80345515322739],[-0.457822961697226,44.803140906991594],[-0.457846511285198,44.80305050453407],[-0.457769247575692,44.8029736106926],[-0.457666209692982,44.80288310189467],[-0.457552772682855,44.802790213854415],[-0.45743031654685,44.80270914219591],[-0.457290489938519,44.802635821699894],[-0.457213633378285,44.80260460482232],[-0.457017131750095,44.80254620901934],[-0.456810363208198,44.80249786586013],[-0.456664643692522,44.802448069048786],[-0.456588326289917,44.80241737565425],[-0.456515220860492,44.80238333778641],[-0.456444959467147,44.80234614716236],[-0.45637805853198,44.802305967920496],[-0.456351970257783,44.80228929849799],[-0.456286747774626,44.80224347953243],[-0.456225440912488,44.80219546571386],[-0.456205675113062,44.802178689228896],[-0.456151392524452,44.8021275725574],[-0.45610151982605,44.80207406540048],[-0.456053594829366,44.802015180516364],[-0.455894125187135,44.80187145768981],[-0.45579696552954,44.801796174285215],[-0.455695786423961,44.80172344931574],[-0.455591098747522,44.80165335696089],[-0.455531226064685,44.80161629251703],[-0.4559134212515,44.8013990870264],[-0.456844209221226,44.80098868059834],[-0.457562520438598,44.80080955939894],[-0.45770569195897,44.80078715949829],[-0.457592761184771,44.80119810736873],[-0.459579761496602,44.80212091870483],[-0.460092829802548,44.802283968666536],[-0.46050697093975,44.80168139428462],[-0.4605778970989,44.80169440987656],[-0.460886842640864,44.80172675877964],[-0.461095435927313,44.8017348445118],[-0.461303928410132,44.80173923814221],[-0.46139978608243,44.80173984935102],[-0.461649644838616,44.80176232596832],[-0.461815229124931,44.80179139942898],[-0.461863096127478,44.80180405299674],[-0.461931257877531,44.801823552497765],[-0.461997092492373,44.80184636891398],[-0.462060226516092,44.80187260403338],[-0.462120659956425,44.80190225786069],[-0.462177464125717,44.80193463846083],[-0.462230781990812,44.80197001172943],[-0.462256527262527,44.80198930397011],[-0.462330112831877,44.802051620377135],[-0.462399289037736,44.802116327446974],[-0.462699052123673,44.80241859312215],[-0.462888019809113,44.80260725557761],[-0.463081656533994,44.80279360903613],[-0.463176363476953,44.8028823006372],[-0.46334023411616,44.80304777503303],[-0.463344850999952,44.803128827687715],[-0.463107546016532,44.80334297449973],[-0.463184001695917,44.80338609562345],[-0.463214680714436,44.80352031506648],[-0.463257467863714,44.80360864626205],[-0.463335476291546,44.803724174203076],[-0.463454170077325,44.803920619072095],[-0.463581383773571,44.80411562608197],[-0.463652261340575,44.80421812923485],[-0.463726197875335,44.804318914627586],[-0.464267201658545,44.804784593414304],[-0.463810033427728,44.805407632756605],[-0.463298204833635,44.8061318689606],[-0.463311321932344,44.80622554310737],[-0.463372711248784,44.80624597448375],[-0.463471774970346,44.806267661881066],[-0.463546156551746,44.806279125930075],[-0.463664062535863,44.80630049476427],[-0.463786612543044,44.80632532310911],[-0.463894436881319,44.806353585411145],[-0.463975005663594,44.806395586341516],[-0.463993040916382,44.80641502910951],[-0.464047209648532,44.80646821865938],[-0.464105678576072,44.806519291187094],[-0.464168040932993,44.80656780880403],[-0.464209537236218,44.806594088321255],[-0.464272358961317,44.80662952430153],[-0.464338397981239,44.80666170553963],[-0.464374807916934,44.80667940243983],[-0.464419361984168,44.806720365806676],[-0.464433403093918,44.80673867168217],[-0.464442468005868,44.80675839474663],[-0.464446397086994,44.80677899927734],[-0.46442074686678,44.80687830083065],[-0.464319606382877,44.807284833707214],[-0.464260633914905,44.80753558497528],[-0.464343414859586,44.807562106258594],[-0.465208802313587,44.80756218289753],[-0.46548453822235,44.807589159853734],[-0.466226657226606,44.807659499909484],[-0.46646872998586,44.80807846314964],[-0.466479668868813,44.80809776700744],[-0.466550034119939,44.8081035871273],[-0.466611887954731,44.80811508051924],[-0.46669288955036,44.808139402786544],[-0.467101281161503,44.808250183278986],[-0.466884958726823,44.809735712032015],[-0.466840150980586,44.81002711644657],[-0.466456304381294,44.81001271531582],[-0.466311277012367,44.810007427328905],[-0.466232099238675,44.810004495986355],[-0.466233094122249,44.80998779285978],[-0.466254014642389,44.809988310251335],[-0.466263521623374,44.809826429585534],[-0.466018002762531,44.809811306306024],[-0.466032643502478,44.80965259957664],[-0.466054971243296,44.80957539042777],[-0.466070212574284,44.809578248276786],[-0.466078086115498,44.80943912872272],[-0.465619022136281,44.80943050117772],[-0.465626517454655,44.80970999614194],[-0.465313100132745,44.80977215324075],[-0.46533091562917,44.80994192116871],[-0.465371569246339,44.810327981678086],[-0.465937880840137,44.81030396868315],[-0.466095830767459,44.810301193014794],[-0.466787381780277,44.81029867256256],[-0.466679691835444,44.810852848735784],[-0.466742058099903,44.81087054435216]],[[-0.46737839662859,44.814839947386595],[-0.46726856941391,44.815115902828765],[-0.467444146656022,44.81515438968356],[-0.467494585582243,44.815165428805],[-0.467542212401039,44.815042728794076],[-0.467575214376001,44.815048185152094],[-0.467675082682922,44.81506416671731],[-0.467783904297644,44.81475760172592],[-0.467437127354108,44.81469202723954],[-0.467401961443064,44.81478072299195],[-0.46737839662859,44.814839947386595]],[[-0.464287431032565,44.81111499111181],[-0.464176251572571,44.811114590336004],[-0.464058758738799,44.81109392973138],[-0.463778497238273,44.81104104571946],[-0.463678064003106,44.8110219244148],[-0.46329445731537,44.81094784594402],[-0.463287417102211,44.81101024793027],[-0.463279605229661,44.81103960038802],[-0.463261682886543,44.811104144722336],[-0.46325728656565,44.81112113430252],[-0.463249419207113,44.81114958730267],[-0.463296292357695,44.811158306367815],[-0.463266046114128,44.81128785097451],[-0.463243384313649,44.81138435534799],[-0.463678331117825,44.81147178974838],[-0.463847288234809,44.81150580247457],[-0.463931887680725,44.811522714847406],[-0.464030597267723,44.811542610767944],[-0.464139343789273,44.81160824375005],[-0.46463128045568,44.81170209447319],[-0.464757493494748,44.81142076360012],[-0.464175831727813,44.81127816934938],[-0.464287431032565,44.81111499111181]],[[-0.462391491042953,44.804873480076466],[-0.462318745703517,44.804935771401844],[-0.462294347945833,44.804921934261664],[-0.46217096061801,44.8050149156383],[-0.462132490862011,44.805043873764156],[-0.462312735999975,44.80515251428439],[-0.46226769220818,44.80519393394184],[-0.462597853732984,44.805387379111004],[-0.462829672152477,44.80520521687605],[-0.462960304366341,44.805102455815316],[-0.46301874310432,44.80505656203146],[-0.462534922119613,44.80475040350798],[-0.46242420423151,44.80484560285892],[-0.462391491042953,44.804873480076466]],[[-0.462466500279786,44.80634313577797],[-0.462850318767362,44.80612134956104],[-0.462620487403736,44.80591684040867],[-0.462221373983265,44.80614514151197],[-0.462466500279786,44.80634313577797]],[[-0.46135953952121,44.818568534811234],[-0.461685663704681,44.81797212845137],[-0.46128802690389,44.81786423431165],[-0.461338851179548,44.81777261870061],[-0.461272732154479,44.817755757930954],[-0.460971350465513,44.81767910286876],[-0.460916303298963,44.81777616713551],[-0.46060105586279,44.81834988197062],[-0.46135953952121,44.818568534811234]],[[-0.46074915964821,44.81746362511394],[-0.460789623328063,44.81733331167597],[-0.46040152549176,44.81726711224085],[-0.460363653665462,44.81740662686365],[-0.46074915964821,44.81746362511394]]],[[[-0.466787408096671,44.81029867246656],[-0.466787381780277,44.81029867256256],[-0.466840150980586,44.81002711644657],[-0.466787408096671,44.81029867246656]]],[[[-0.464893296126322,44.80316730832163],[-0.465057623157244,44.80327851462267],[-0.465351359478296,44.8034560576698],[-0.465410671669645,44.803487997852],[-0.465666159659174,44.80361798168878],[-0.46586847677783,44.80371502195038],[-0.466168464967946,44.80384199109938],[-0.469406915990982,44.80439430617793],[-0.469578542354249,44.803877418616466],[-0.469618776093576,44.80376026617686],[-0.469995145730989,44.80375470243634],[-0.470096064626396,44.80375316517523],[-0.47009018054197,44.80368864393084],[-0.470016962536063,44.80285778595005],[-0.468892614519531,44.80269093309052],[-0.467639441673736,44.80251836661225],[-0.467408275193587,44.80248711773499],[-0.467360014720295,44.802480426652984],[-0.466156324039655,44.80220698487489],[-0.465450436265157,44.80192869144274],[-0.465487218264535,44.80162618438394],[-0.464776456810093,44.801190692218135],[-0.464926333448683,44.80057716518448],[-0.46560134205319,44.80092563790953],[-0.466121742989807,44.801147909215004],[-0.466986216391606,44.801161425182286],[-0.467062736078273,44.800114374780954],[-0.467438637120811,44.80011802574039],[-0.467643060933333,44.800107845204785],[-0.468162549657032,44.80007951500124],[-0.468691307235631,44.800047557872176],[-0.469566345941959,44.8000807289512],[-0.469482345726163,44.79964078468605],[-0.468662013524513,44.7996038283439],[-0.467081511717625,44.79953459424356],[-0.467140584258486,44.79942938012924],[-0.467368434805755,44.799058442783405],[-0.467254361766993,44.7990312809813],[-0.467502769486347,44.79866123224295],[-0.46755597031074,44.798659838136246],[-0.467730428113249,44.79840006470461],[-0.467682244770233,44.798388414936845],[-0.467516711357525,44.798316993094495],[-0.467493205035641,44.79830321940753],[-0.467446514555116,44.798272688022934],[-0.467404337259254,44.798239401980574],[-0.467437890064192,44.798186263639266],[-0.467443166880785,44.79817537442202],[-0.467456803660172,44.7981563833263],[-0.467474978446427,44.7981391427449],[-0.467934428743791,44.79776384179718],[-0.468312996625309,44.797448025023435],[-0.468358933363534,44.79742739217064],[-0.468420154084344,44.79739600744777],[-0.468478159699392,44.79736174938969],[-0.468798422676975,44.79715743003177],[-0.468954977289346,44.79704655030242],[-0.469024466519952,44.79699535064909],[-0.469167454982959,44.79688615689227],[-0.46930636023881,44.79677438719339],[-0.469631054970832,44.796498462352034],[-0.46990315980365,44.7962666289922],[-0.469932750632686,44.79623956807668],[-0.470031965743123,44.79614508121159],[-0.470126609259901,44.79604830418572],[-0.470224260279643,44.79594079888327],[-0.470323415430315,44.79582486534041],[-0.470405892163512,44.795727838203526],[-0.47078666964305,44.79539905615972],[-0.471305337047254,44.79495456688064],[-0.471434858415239,44.79504955044964],[-0.471993704536905,44.794597941455656],[-0.472698392116054,44.79505637593871],[-0.472617361000871,44.7951111839778],[-0.472119566674652,44.79544886572381],[-0.472062439895148,44.79548499075864],[-0.472065920280255,44.79549010861558],[-0.470022504737363,44.797192828267505],[-0.469577118784432,44.797986209852034],[-0.469017203964216,44.797894512750055],[-0.468775613657791,44.79785404102072],[-0.468446324954058,44.797979878895596],[-0.468232448234931,44.79839246686115],[-0.468185913573928,44.79843213341163],[-0.468406786815552,44.798471182097046],[-0.468662456035027,44.798518243355545],[-0.468941340933796,44.79857845570454],[-0.468995782658308,44.79856846077765],[-0.469039282418272,44.798557546645355],[-0.469253354687859,44.79848848372954],[-0.469295202475571,44.79848771451171],[-0.46921484422566,44.79863144608217],[-0.469202439291599,44.79865193087341],[-0.46918368196164,44.798684329948564],[-0.469251854986441,44.798706077508704],[-0.469448314652169,44.79879247980826],[-0.470018234626049,44.79900912704521],[-0.470488154989315,44.79914977842738],[-0.47173665475419,44.79943825970055],[-0.471748455378055,44.80000203487944],[-0.472041973585163,44.79999572419343],[-0.472155363634129,44.79999947166729],[-0.472424217519016,44.80000573822825],[-0.472693073948325,44.80000794870293],[-0.47296408604805,44.80000612574086],[-0.473243574302522,44.79999808863821],[-0.473367133075015,44.800047567060645],[-0.473392143782174,44.80014501305438],[-0.473451030860439,44.80027447110396],[-0.473474921435918,44.800306705979196],[-0.473503627752711,44.80033698754606],[-0.473544784466668,44.80037210582149],[-0.473572415172001,44.80038908345706],[-0.47360730083921,44.8004046621652],[-0.473907376336949,44.800502318785966],[-0.47458816568941,44.80072637313781],[-0.474613611903359,44.80074486091955],[-0.474635039356347,44.800765907899425],[-0.474651914903339,44.8007890801978],[-0.474657739809863,44.80079935141176],[-0.474772123290767,44.80080685012878],[-0.474967387991409,44.80064446163003],[-0.475188929619758,44.80065725161956],[-0.475598147302843,44.800679656646736],[-0.475943780201173,44.80069522261125],[-0.475958166139676,44.800262830046904],[-0.475965519096548,44.800033876900414],[-0.476274054204417,44.800041142642975],[-0.476472215865904,44.80004637233435],[-0.476587709407912,44.80004932835609],[-0.476912481802222,44.80005716443468],[-0.47725195317899,44.80006525936197],[-0.477258384734933,44.79999124990144],[-0.477494376517188,44.79999826482713],[-0.477491375685979,44.800381275818474],[-0.477487635728171,44.80086686581515],[-0.477922024231988,44.8008827950869],[-0.477856983743394,44.801146902983696],[-0.477781350533525,44.8014484723873],[-0.477741050889355,44.801609248109585],[-0.477678686834331,44.80183073560494],[-0.477101576595524,44.80175863228835],[-0.476959844047327,44.801740819048476],[-0.47682660844171,44.80219370257797],[-0.476820215627232,44.802215171268166],[-0.476657768560832,44.80219809750509],[-0.476494544672516,44.80218483288303],[-0.476448708417526,44.80223574604154],[-0.476437278960879,44.80233947135761],[-0.476337060336254,44.803035541971184],[-0.476648384791269,44.80305488582335],[-0.477073091045167,44.803079774109236],[-0.477065306446892,44.80315238415295],[-0.476986328130328,44.80389906735999],[-0.477434041114269,44.80385789621508],[-0.477511927376599,44.8043411061267],[-0.477520882710384,44.80447555369013],[-0.477500907813061,44.80469273733283],[-0.477453905949474,44.80489662014407],[-0.477351118222826,44.80520543979069],[-0.477337697561913,44.80526470880464],[-0.477326818538422,44.805401851392595],[-0.477339406288942,44.80553158896555],[-0.477484272652531,44.80599251120309],[-0.477467162686165,44.80601467665166],[-0.477450423173139,44.8060264667376],[-0.477430577303102,44.80603510997248],[-0.477407493166232,44.80604052037337],[-0.477171801550017,44.806028538467515],[-0.477053057925208,44.80601622207061],[-0.476935355117814,44.80600026812327],[-0.47682330276719,44.80598152335565],[-0.476626704111771,44.805965069793174],[-0.476448730503549,44.80596524455682],[-0.476264228189996,44.8059826563502],[-0.476129372277403,44.80601067704666],[-0.475980232113428,44.80603698264671],[-0.475876223476643,44.806054122560475],[-0.475734123319873,44.80607759360175],[-0.475541864335741,44.80610263718518],[-0.47535992876512,44.80612267055337],[-0.475204745381397,44.80613519606507],[-0.475048943648591,44.80614386561123],[-0.474865463619221,44.80614916700738],[-0.474549646675979,44.806145458955555],[-0.474417274101606,44.806139965426446],[-0.474284909485673,44.8061305062414],[-0.474153201265932,44.80611733143577],[-0.474088659095848,44.80610944118667],[-0.473869341915319,44.80607359818013],[-0.473373247480403,44.80597955947109],[-0.472723694323065,44.8058583341502],[-0.472957826808454,44.805241071795855],[-0.473162269095113,44.80527594065339],[-0.473192937045471,44.80517206355871],[-0.472988371238616,44.805133143275945],[-0.473075228576628,44.80483654307391],[-0.472931503282012,44.804807071408085],[-0.473051982240952,44.80450761542821],[-0.473107271136603,44.804367910557],[-0.473197650366711,44.80414059169874],[-0.473359009463519,44.803728467071686],[-0.473350048255598,44.80371865453395],[-0.473257490139116,44.803720293249285],[-0.473165255704935,44.803897113424526],[-0.473129126757983,44.80393312162181],[-0.473038025860361,44.80400338529375],[-0.472924486884895,44.804083363839155],[-0.472865474649384,44.80417307899805],[-0.472805486355788,44.80430229690109],[-0.47268973299046,44.804434523563955],[-0.472557905655602,44.80478182742113],[-0.472513589893112,44.804898388064565],[-0.472433455984714,44.80510925400885],[-0.472368540069777,44.80528575835362],[-0.472336550432517,44.80537237369493],[-0.47228160080067,44.80552171026334],[-0.472197664738711,44.805748916584285],[-0.472167191706952,44.805829356261796],[-0.472242320430335,44.80584673897768],[-0.472451276028971,44.80589111058296],[-0.472608810250602,44.805922763808155],[-0.47301484992792,44.80600169377817],[-0.473422442678677,44.806077058982055],[-0.473830808116405,44.80614852337975],[-0.474189634695593,44.806190628068165],[-0.47443149187552,44.80621224606084],[-0.474552454658134,44.80621746639204],[-0.474713850987134,44.80622556461077],[-0.475126270361805,44.80622335985899],[-0.475425169685748,44.80620119174019],[-0.475375788917008,44.806381086214856],[-0.475303977172375,44.80663630277157],[-0.475159245006026,44.80715749471377],[-0.475052173769471,44.80753854173704],[-0.474882218200465,44.807506740448694],[-0.474309198837152,44.80741773031113],[-0.474134843356991,44.80739255440144],[-0.473820229047342,44.807361319969665],[-0.47365593472171,44.80735349140259],[-0.473491725431457,44.8073490844624],[-0.473323459491374,44.80734867952067],[-0.473367593361746,44.80724555193932],[-0.47192178942768,44.80713701246375],[-0.470164273685102,44.80723052731564],[-0.468815849980402,44.80675743145185],[-0.468501262173952,44.80650917469515],[-0.467289512792172,44.80555289253157],[-0.465370981347836,44.80475919281185],[-0.465110105243426,44.80451114068384],[-0.46472358201011,44.8041653616174],[-0.464341747975624,44.80381754233959],[-0.464135422772635,44.80362672091934],[-0.463900432451472,44.80342057362322],[-0.464679343798553,44.80299853512833],[-0.464755103313776,44.803061142594025],[-0.464775795172863,44.803078519533024],[-0.464893296126322,44.80316730832163]]],[[[-0.452038093296353,44.821445019062715],[-0.452598537258555,44.8210600647905],[-0.453057527211006,44.820083664214984],[-0.454245627437049,44.820351797607145],[-0.454546567139492,44.81974187029736],[-0.454401074779357,44.81970675116688],[-0.453349330934573,44.81946294050309],[-0.453706094962438,44.81870240099898],[-0.45384164924746,44.81841124051995],[-0.454152733916009,44.81775431698634],[-0.454222900073611,44.81710616051828],[-0.454398383821962,44.816187971549255],[-0.454708481429504,44.81584054442411],[-0.454942979612968,44.81557117196432],[-0.455176289282064,44.81480501207653],[-0.455467463772804,44.8148746104988],[-0.456145474783405,44.815037588175],[-0.457835788961322,44.815427813957996],[-0.456961939114761,44.81827911718593],[-0.456658370669072,44.81923050382084],[-0.456719030128358,44.81925123244732],[-0.454211173230118,44.82220859639459],[-0.453903382906563,44.822419149502295],[-0.452767955732798,44.82319177398568],[-0.452357757868311,44.82307964212785],[-0.452151785236883,44.82300008187137],[-0.451840721548584,44.82287738182149],[-0.451820313572826,44.82289351756425],[-0.451792492714618,44.82287969431577],[-0.452312474671358,44.822460404545865],[-0.453162260808356,44.821778869314],[-0.452549539762961,44.82163276268009],[-0.452026080746655,44.821457649198116],[-0.452038093296353,44.821445019062715]],[[-0.454772027990677,44.819033000602666],[-0.454758743236565,44.819061982188366],[-0.45482910967748,44.819079976144806],[-0.454847053673201,44.819050579008],[-0.454912122563532,44.81906684549444],[-0.454906558056197,44.819083420499275],[-0.455218673569429,44.819155521960035],[-0.455260387778362,44.81906383287094],[-0.455321292860311,44.81893009106116],[-0.455033493263752,44.81884776972064],[-0.454844158803043,44.81879356052],[-0.454824430702791,44.81878777683436],[-0.454872076306097,44.81866282952098],[-0.454818378660031,44.81865233676476],[-0.454814744112848,44.81865911880396],[-0.454691107768468,44.81862728432081],[-0.454418678978422,44.81855809044248],[-0.454297405928664,44.818844661319666],[-0.454266779714819,44.81891284404148],[-0.454221798273177,44.819013195771674],[-0.45448763193063,44.81907394429763],[-0.454659190911058,44.81911293722366],[-0.454697125820347,44.819021546371914],[-0.454716564543991,44.81901850746589],[-0.454772027990677,44.819033000602666]],[[-0.45424874098449,44.821409153948494],[-0.453842114312219,44.821311696173545],[-0.453488714091896,44.82158972595801],[-0.454134918720417,44.821738749586096],[-0.454193364329324,44.82161022183964],[-0.454207841011067,44.82157795891665],[-0.454281235212704,44.82141661278023],[-0.45424874098449,44.821409153948494]]]]}}]}
