{"type": "FeatureCollection","name": "aoc_geojson","features": [{"type":"Feature","properties":{"dt":"Angers","type_prod":"Vins","categorie":"Vin tranquille","type_denom":"appellation","signe":"AOC","id_app":1028,"app":"Fiefs Vendéens","id_denom":2342,"denom":"Fiefs Vendéens Mareuil","insee":"85074","cvi":"1B710S, 1R710S, 1S710S","nomcom":"LA COUTURE","insee2011":"85074","nomcom2011":"LA COUTURE","id_aire":1687,"crinao":null,"grp_name1":null,"grp_name2":null},"geometry":{"type":"MultiPolygon","coordinates":[[[[-1.280512820638583,46.536531213011614],[-1.280478784263102,46.53656035218194],[-1.281267357874387,46.53712797243285],[-1.281557289708683,46.537542838795005],[-1.280895445673849,46.537962059455964],[-1.280825717846541,46.5379677366314],[-1.280779508685799,46.53796838492209],[-1.280754384009506,46.53796130002691],[-1.279820558031277,46.53745935241368],[-1.279382994493929,46.537215934238695],[-1.279198778822459,46.537124988481324],[-1.278864362875303,46.53696851523496],[-1.279614723087528,46.535961466367546],[-1.279889152577264,46.53559932177166],[-1.280213254474941,46.53525073667406],[-1.280720761985523,46.535519667234404],[-1.28082536556258,46.535478957770906],[-1.280914593687248,46.53540058900583],[-1.281363788078321,46.53574546543852],[-1.281449022786222,46.53582235016565],[-1.281527462525354,46.53590255536059],[-1.281561713256797,46.53594095034623],[-1.281541834582658,46.536005540189365],[-1.281520362429398,46.53603159397725],[-1.281492085822051,46.53605420536499],[-1.281482738358597,46.5360599660884],[-1.280998254903794,46.53631157925871],[-1.280512820638583,46.536531213011614]]],[[[-1.276332372477289,46.534341641373004],[-1.276475862680831,46.53431688522588],[-1.276995687537916,46.5342090631827],[-1.277611524534231,46.534029381972076],[-1.277788647340806,46.534000299504726],[-1.278218706596622,46.5348852505337],[-1.278059110236824,46.53576593803207],[-1.277835974579029,46.5363935321594],[-1.27733069389915,46.536061382070294],[-1.276819232240728,46.535698710974756],[-1.27610499131087,46.53503846588288],[-1.27589405977887,46.53482515302993],[-1.275838368059252,46.5347499548929],[-1.275790084853372,46.53467258590379],[-1.275763685491957,46.5346226236026],[-1.275734453614429,46.5344999947215],[-1.275733938749528,46.534463492451756],[-1.275741413742178,46.53442723237714],[-1.27574894172629,46.534408284229485],[-1.275788730623362,46.53438416156467],[-1.275893101096883,46.53438206097335],[-1.276040539169762,46.53437429126676],[-1.276187134339408,46.53436078159595],[-1.276332372477289,46.534341641373004]]],[[[-1.276300173621418,46.53610092965748],[-1.276300332163784,46.536101284433016],[-1.276580094303178,46.536091179107494],[-1.27680469400395,46.53608250570013],[-1.277126673197763,46.536069196347576],[-1.277187400500878,46.53610200285564],[-1.277603165289644,46.53633100463352],[-1.277705024041229,46.53639500586498],[-1.277631322291045,46.53727969191366],[-1.277602770598505,46.5376364171457],[-1.276911229284416,46.537634788361146],[-1.276911098990193,46.53763479323592],[-1.276856875399625,46.53763655138886],[-1.276856868335568,46.5376364614765],[-1.276228677386565,46.5376444519076],[-1.276265635748441,46.537550999076046],[-1.276257134286843,46.53710674646205],[-1.276257003993825,46.53710675133607],[-1.276300173621418,46.53610092965748]]],[[[-1.270285461914361,46.53331623354096],[-1.270409509879104,46.533246852648396],[-1.271077097266351,46.532812328927605],[-1.271164641084678,46.53275900987619],[-1.271750806176483,46.532440966116596],[-1.271952238167016,46.53246860684407],[-1.272108493732163,46.53247169436315],[-1.272143271081026,46.53253523140261],[-1.272250655506174,46.53276639795369],[-1.272413479003773,46.53306961730481],[-1.272558488312552,46.53324572233152],[-1.272710734246392,46.53341912193778],[-1.272719464893802,46.53342880517436],[-1.272851807103418,46.53356336115522],[-1.272977477738865,46.53370114222269],[-1.273035300564596,46.5337685969143],[-1.273035706082688,46.533772098636994],[-1.273123209151432,46.53436750905233],[-1.273077889433285,46.5343628006837],[-1.272636819666089,46.53431372972461],[-1.272196869608669,46.53425893413279],[-1.271766718256799,46.53424074300934],[-1.27178667093516,46.53432350068128],[-1.272158292187425,46.534341805224706],[-1.272606665010714,46.53436905288208],[-1.273054172970602,46.53440192206918],[-1.273117092305505,46.53440777606089],[-1.273310508676373,46.53442308962355],[-1.273575067017023,46.53446577190405],[-1.273671438454727,46.53448994323185],[-1.273764694565137,46.534519371017815],[-1.273854176875844,46.53455398971334],[-1.273896414682731,46.534572700193884],[-1.274016901320724,46.534641057844325],[-1.274018542417432,46.534641988424866],[-1.274061797463916,46.53467698276166],[-1.274098517627027,46.53471528743059],[-1.274104307975895,46.53472246539784],[-1.274127664121129,46.53471870643881],[-1.274498261211505,46.53527476444539],[-1.27459047041686,46.535417312135735],[-1.274709348323543,46.53579963381219],[-1.274785971214121,46.53600327269284],[-1.274827151814944,46.5361000251141],[-1.274876427923203,46.53619503195491],[-1.274877192347661,46.5361964461925],[-1.274994871822884,46.53641369923875],[-1.275059490471893,46.536539333325344],[-1.275081233405894,46.53663482872329],[-1.275094933603513,46.53673107578542],[-1.27510029513252,46.53682763469768],[-1.275100355665362,46.53684837303713],[-1.27509869620395,46.53694871140475],[-1.275088785912026,46.53704881727563],[-1.275073932006685,46.53713422889533],[-1.275095751555304,46.53729392711332],[-1.275074108700005,46.537364442962385],[-1.275060635804959,46.53743582556382],[-1.275058849681651,46.537449689368344],[-1.275058221652221,46.537776151859944],[-1.275059000329663,46.53800571214984],[-1.275060377724334,46.53814804935377],[-1.275220994772507,46.538665697691805],[-1.275340919941694,46.53903292027453],[-1.27510920398822,46.539002719864165],[-1.274755432180475,46.53898249376854],[-1.274439229977862,46.53896807594905],[-1.274083258315424,46.538951446928635],[-1.273657424996723,46.53893048496217],[-1.273502738234511,46.53892265104723],[-1.273502745293199,46.538922740959755],[-1.273282471592529,46.53890843108813],[-1.273132373801084,46.538626108580935],[-1.272885284193123,46.53815028573986],[-1.272869024547913,46.53803636949054],[-1.272525353361148,46.53808979401166],[-1.272419923518519,46.53798191570438],[-1.272404952127588,46.53797264602077],[-1.271818977209219,46.538112314884],[-1.270953964602399,46.538318134992146],[-1.27088999073787,46.53833387117664],[-1.270610034371481,46.53806180793006],[-1.27065877790288,46.538050157748344],[-1.270577014898806,46.537959068265586],[-1.270502481502356,46.53786518372093],[-1.270446159690638,46.5377852273609],[-1.270381072497074,46.53767015916183],[-1.270326900586239,46.53754097639735],[-1.270273110421831,46.53736001819837],[-1.270198949752471,46.53702931679854],[-1.270148504337142,46.53680269461894],[-1.270134298347859,46.5367665235549],[-1.269603240019891,46.53613510732411],[-1.269490937181728,46.53600944810711],[-1.269427696547095,46.535937865619566],[-1.269406456971838,46.53588031489611],[-1.269355045513715,46.535887916149534],[-1.269174544808569,46.535304183748586],[-1.269104534020273,46.534966293138865],[-1.269092118607942,46.53485962749545],[-1.269076667412753,46.53467092471104],[-1.269069438531429,46.53448209519625],[-1.269057861208757,46.53425780847722],[-1.268919806488869,46.534263595560766],[-1.268841857645188,46.53424270008291],[-1.268843414822373,46.53400926594205],[-1.268847832378496,46.53399061484684],[-1.268810002735788,46.53394143875812],[-1.268801874202628,46.533924428489335],[-1.268799213730525,46.5339021641486],[-1.268804666242066,46.5338800477091],[-1.26948651851843,46.53366881879026],[-1.269532254412482,46.53365385458296],[-1.269580881743019,46.533644102753904],[-1.269631125875708,46.53363997161568],[-1.26964327061702,46.533639878683786],[-1.269744156311142,46.53359336675117],[-1.270285461914361,46.53331623354096]]],[[[-1.266511757904079,46.53828228916604],[-1.266512092565821,46.53828489177928],[-1.266513789092569,46.53834488566492],[-1.266507248724174,46.53840482626221],[-1.26651081461181,46.538610384581695],[-1.266029292768684,46.53857073234418],[-1.265909492715668,46.53856447198302],[-1.265683485508281,46.538538638694796],[-1.26557204939337,46.53853738626723],[-1.265499195403945,46.53853487447945],[-1.2654227279132,46.538516265809506],[-1.265327663334968,46.53850547487175],[-1.265388538658966,46.5378397793143],[-1.265446955059127,46.53719608809123],[-1.265695380893059,46.537207919392216],[-1.266012828237903,46.5372367425988],[-1.266622704133112,46.53730027988113],[-1.26664406581931,46.53738442838108],[-1.266628593617483,46.53748546192669],[-1.266602783090415,46.53760464599781],[-1.266568672230622,46.537722967560484],[-1.266551743608781,46.53786210970648],[-1.266511757904079,46.53828228916604]]],[[[-1.266316243177841,46.535720922906286],[-1.266295176138366,46.53575390200351],[-1.265518648436019,46.53570956769298],[-1.265157305676298,46.535674085090584],[-1.264373495112569,46.53714316609253],[-1.264252911465463,46.537774115944835],[-1.264134878065547,46.53830253062023],[-1.264039546500752,46.53826830287876],[-1.263886092230162,46.53820441092824],[-1.263830691580973,46.538181137897304],[-1.263531947332355,46.53804745788296],[-1.263541730681455,46.53799217593941],[-1.263493151700139,46.53795755671236],[-1.262914341828461,46.537594903413066],[-1.262770903274138,46.53749366452067],[-1.262633554000456,46.537388411024395],[-1.262557900249127,46.537326756355505],[-1.262542843517205,46.537288001160995],[-1.26250616438658,46.53714833396506],[-1.262496185400327,46.53699919465836],[-1.262487801068747,46.5369905798902],[-1.263469947978683,46.537070641298094],[-1.263530048009924,46.536116143074686],[-1.262539875522291,46.53603015994218],[-1.262548602630498,46.535991419639934],[-1.262600260168318,46.53578001504718],[-1.262677022513567,46.53537857561514],[-1.262707450250246,46.53511133217673],[-1.262729613169999,46.534843675504696],[-1.262735531419203,46.53474570423349],[-1.262725297357858,46.5343696920504],[-1.262715494540518,46.53421279099506],[-1.262708939691765,46.533726897606265],[-1.262688378613594,46.53333747357825],[-1.262672007176617,46.533251876008855],[-1.262647477128153,46.53316721391641],[-1.262614816664837,46.53308384694894],[-1.26260535223891,46.53306309874687],[-1.262328608109431,46.532592510953776],[-1.262230785449222,46.532416167721344],[-1.262150581398901,46.53219281709727],[-1.262124311500553,46.53205754099404],[-1.2620734890942,46.53182227365558],[-1.262866736520538,46.53172046181537],[-1.263197408597725,46.5316766576957],[-1.263471605030292,46.53163748407413],[-1.263807480557607,46.53154668276102],[-1.263817308206301,46.53149698993003],[-1.263835065341167,46.531448444117046],[-1.263840139288942,46.531438155138574],[-1.264071637258548,46.53145774434731],[-1.264196706649721,46.53146642457278],[-1.26422429797693,46.53146837104406],[-1.264325973230877,46.531475308780344],[-1.264440757533134,46.531477789606896],[-1.264566397394347,46.53148040635865],[-1.264607625947723,46.53148130288239],[-1.264650936309445,46.53156382115297],[-1.264733025561579,46.53171270487714],[-1.264808650315688,46.53184911494183],[-1.264922903318446,46.53205496198709],[-1.265156659037254,46.53249693940638],[-1.265394527239517,46.53291630916996],[-1.265479289819056,46.53307257732535],[-1.265585758644821,46.53326572898564],[-1.26571244863328,46.53351015750933],[-1.265706135596051,46.53352797742228],[-1.265698521569448,46.53360923961857],[-1.265679906304128,46.53378189994309],[-1.265706450881875,46.534067308340354],[-1.265712441688509,46.53422381066351],[-1.26570129816734,46.53450683808265],[-1.26631555239009,46.53449825201948],[-1.266316231741061,46.534491914342006],[-1.266316292433234,46.534425993397704],[-1.266313819337449,46.53439777042663],[-1.26624451808817,46.53371519942396],[-1.266466592222235,46.53371277223399],[-1.266850807582508,46.53375181510132],[-1.266851107673202,46.533767314184615],[-1.267030059174674,46.53379986073499],[-1.267310357247403,46.533853422015476],[-1.26747328857114,46.53390162536742],[-1.26752672621805,46.5349483784701],[-1.267794739448606,46.534923493321884],[-1.268227313297019,46.53488588021698],[-1.2683433756684,46.535152886496725],[-1.268622980567674,46.535664114742794],[-1.268593899845847,46.535691532115074],[-1.268571971240059,46.53572183857162],[-1.26855778981017,46.535754290487105],[-1.268555529729687,46.535762130030925],[-1.268590211842072,46.53589113947704],[-1.268708797685785,46.536261934179294],[-1.268751484408604,46.5363880295695],[-1.268762828576546,46.53640771522685],[-1.268786721437371,46.53644911560963],[-1.26892009453472,46.53664017793014],[-1.268635001873889,46.53696562901597],[-1.268439764808772,46.53722216607887],[-1.268269652301438,46.53721084336117],[-1.266605985739049,46.53710531211584],[-1.26651802168328,46.53659819902572],[-1.266476772341036,46.53629196785432],[-1.266395972292265,46.536011289801706],[-1.266383476036923,46.535955215833454],[-1.266379022617395,46.53589839080642],[-1.266381373079598,46.53585501859545],[-1.266539994970609,46.53580482189732],[-1.266701782543238,46.5357600075459],[-1.266833469800656,46.535727949209154],[-1.266834828580586,46.53571861035818],[-1.266741643460865,46.5357384104604],[-1.2666413026238,46.535753608064475],[-1.266539750132394,46.53576335006466],[-1.266531851728679,46.53576427609592],[-1.266485778154513,46.53576662696182],[-1.266439521220349,46.53576330356342],[-1.266395042347202,46.53575432287166],[-1.266353412059037,46.53574000563867],[-1.266316243177841,46.535720922906286]]],[[[-1.261505498444659,46.53394553832708],[-1.261555918002836,46.53344453584474],[-1.261620216894583,46.53287213764887],[-1.261588463046822,46.53286709938882],[-1.261094793252172,46.53278838430444],[-1.260956519678583,46.532363941633086],[-1.261524918725198,46.53236412347241],[-1.262108391942908,46.53236157619279],[-1.262396628270056,46.53287718449531],[-1.26246199528693,46.53300613313406],[-1.262500881168341,46.5330822342741],[-1.262543682078816,46.53318163512295],[-1.262578496988845,46.53328250605103],[-1.262585115828085,46.53332031342434],[-1.262598614654147,46.53363290047983],[-1.262611588076404,46.533848658292484],[-1.262616982800364,46.533972629212045],[-1.262627748532986,46.534188559517325],[-1.262634886703468,46.534299750628065],[-1.262641328825321,46.53450051226748],[-1.262639534659377,46.53470122033315],[-1.262631656290705,46.534877627455884],[-1.262617514099926,46.53502910910237],[-1.262597659841413,46.53519442028618],[-1.262529396451223,46.53564099134257],[-1.262464505118369,46.53562663835323],[-1.262455537445295,46.53570235968885],[-1.262427537667324,46.53597726755627],[-1.262407932628646,46.53625258378137],[-1.262390136861338,46.53643251674524],[-1.262368408531703,46.5366924018694],[-1.262366390349899,46.536705011550175],[-1.262364652816398,46.536751246321394],[-1.262370993478095,46.53679717988343],[-1.262426656571575,46.53726942882149],[-1.261945575557181,46.53705326962508],[-1.261487788949533,46.536915955466185],[-1.260964112234217,46.53676486396855],[-1.260714704531752,46.53667866419419],[-1.260469079972274,46.536587363246085],[-1.260227636521145,46.53649103649443],[-1.260126176866044,46.53644855756523],[-1.260301347865672,46.53617393714379],[-1.260361369255061,46.53608432000138],[-1.260393487584897,46.53603722356064],[-1.260512840169071,46.535845841123326],[-1.260514971556711,46.535831333580106],[-1.260514645395782,46.53565018285026],[-1.260505966570896,46.53546916307764],[-1.260493724887152,46.53533110953064],[-1.260313224675909,46.5351201528353],[-1.259381416862752,46.53507335856074],[-1.259279601570729,46.53506804458672],[-1.259224232427978,46.53506514801259],[-1.259119838918903,46.53510537845361],[-1.25875670063873,46.535041808065685],[-1.25869346460517,46.53504190959345],[-1.258674198160243,46.535054530548265],[-1.258661604284016,46.535070600108334],[-1.258658709110068,46.535077020257425],[-1.258461443398033,46.53576582577167],[-1.258469437063105,46.5357644458762],[-1.258725135595464,46.53586267977705],[-1.258703257703292,46.53589370364902],[-1.258181196417755,46.5366267106504],[-1.257885449929984,46.53695875152498],[-1.25776746631047,46.53708758816569],[-1.257323623851212,46.53754949515585],[-1.257118346101676,46.53751791360004],[-1.257041986212426,46.53751733056088],[-1.256858647191781,46.537488899278266],[-1.256844617889895,46.53748662626142],[-1.256740316094496,46.53721727873498],[-1.256729382851244,46.53718441113492],[-1.256716224159775,46.53712475413493],[-1.256711369201823,46.5370643370521],[-1.256719560476126,46.53698359557952],[-1.256732629131987,46.536953531410184],[-1.256950865876483,46.5366712714261],[-1.257325356429655,46.53624495275705],[-1.257433156188307,46.536109552300076],[-1.257455654504988,46.53607976805159],[-1.257516839034995,46.53598992889918],[-1.257570660417983,46.53589783903414],[-1.257643496440983,46.53575147668726],[-1.257651155573576,46.535690683670644],[-1.257647310750883,46.535656560193814],[-1.257646528447334,46.535631520548826],[-1.257526958840354,46.53541089600454],[-1.257499261320016,46.53534077915188],[-1.257497989284473,46.535289426508854],[-1.257498553444112,46.53528327356449],[-1.257567013192087,46.53465490590488],[-1.257643482174394,46.53402705133306],[-1.257680396988981,46.53377561967259],[-1.257680675338458,46.53377416649657],[-1.257699565560229,46.53369492000812],[-1.257726522736372,46.53361690601825],[-1.257761300325824,46.533540314054456],[-1.257781209454358,46.53350918331708],[-1.257827672224709,46.53344667432655],[-1.257881409414055,46.53338696031098],[-1.257906170065353,46.533361059360374],[-1.258055190588775,46.53321149792392],[-1.25821113613502,46.53306528530492],[-1.258542646756382,46.53275310133567],[-1.258597906378032,46.53266609717541],[-1.258649373860559,46.532575717416144],[-1.258721008959197,46.53246420654525],[-1.25880001331499,46.53235503614204],[-1.258907336853183,46.53222037292632],[-1.259037084074828,46.532068371928396],[-1.259174126071055,46.53191943543286],[-1.259246442445004,46.531806636303024],[-1.259551492694173,46.532041538605526],[-1.259558406457326,46.532104854797836],[-1.259582701829388,46.53232352713582],[-1.259583651536619,46.5323356654575],[-1.259565595022275,46.53250568820477],[-1.259552264025173,46.53263089790093],[-1.259508862740559,46.533083213070434],[-1.25950965148476,46.53308327385419],[-1.260769562910467,46.53318898482825],[-1.260740912552861,46.53344732405934],[-1.260723933544787,46.53361270795198],[-1.260700093434288,46.53380395747261],[-1.260700107508091,46.53380413729941],[-1.260700237794602,46.5338041324431],[-1.260820575677559,46.533817411508174],[-1.260822681373376,46.533817603545174],[-1.261505498444659,46.53394553832708]]],[[[-1.259783112280167,46.52995688240232],[-1.259724417904472,46.529948158591125],[-1.259676430777617,46.529941019580896],[-1.259566696682153,46.52992454901725],[-1.258982979274839,46.52984178723529],[-1.258780465091213,46.529813443186775],[-1.258608005940979,46.52978848776686],[-1.25845262696245,46.529766412584344],[-1.258633225963648,46.529093646563545],[-1.258668331902173,46.52896618280736],[-1.258678067335415,46.528930290862576],[-1.25884359058741,46.5283387931514],[-1.259062504505579,46.52758975240015],[-1.259067054852721,46.52757443331901],[-1.259084445532685,46.527522836001324],[-1.259086872072604,46.527515441346566],[-1.259209389511728,46.5276820292415],[-1.25924751988853,46.527726868433625],[-1.259371932733124,46.527769033246805],[-1.259552980754418,46.52783036872647],[-1.259787875536577,46.52782513124222],[-1.25991443432869,46.527852967741325],[-1.260127339350214,46.52787560187457],[-1.260223880197736,46.527893825985515],[-1.260288195029318,46.527905946994956],[-1.260340972153591,46.52791588294068],[-1.260438699667836,46.5279342429941],[-1.260748708675739,46.5279923024349],[-1.260886556429905,46.52801746265931],[-1.261218963540508,46.528059536326175],[-1.261434665212523,46.52808783506289],[-1.261524238919029,46.528108842795554],[-1.261285121435795,46.529004997955525],[-1.26125457953302,46.529097214195495],[-1.261229374512392,46.52920420063615],[-1.261087014804115,46.52921491853551],[-1.261022659853289,46.529509487262374],[-1.260833372904983,46.52950157452123],[-1.260695882857185,46.52949605908296],[-1.260600557930864,46.529797282645404],[-1.260408235337967,46.529835742478625],[-1.260254326997567,46.52986753998185],[-1.25989809483248,46.52994691602373],[-1.259822511809154,46.52996280843376],[-1.259783112280167,46.52995688240232]]],[[[-1.257590266575146,46.533662379853595],[-1.257571136206044,46.533716837000114],[-1.257560058763861,46.53377234683026],[-1.257526118909494,46.53402339709931],[-1.257395738947954,46.53518331087985],[-1.257391431665785,46.53533208047213],[-1.257413847101137,46.535401492318016],[-1.257430937997464,46.535444590882186],[-1.257537134700581,46.53562288024079],[-1.257535478290014,46.53566352089571],[-1.257525521000421,46.535741713184905],[-1.257507408251325,46.53581921728895],[-1.257331986477414,46.53608076686787],[-1.257184356986078,46.53626327932532],[-1.257175953700019,46.53627279017129],[-1.256913716353434,46.53657887240732],[-1.256658613666146,46.53688766403399],[-1.256640015466564,46.53692388567051],[-1.25662482836119,46.536968637124474],[-1.256617824951509,46.537014436477456],[-1.256619202571777,46.53706046480526],[-1.256619223205993,46.53706407105256],[-1.256622681429105,46.53714005031149],[-1.25663446448254,46.53721553923499],[-1.256654428044022,46.537290362845],[-1.256682515900663,46.53736380182857],[-1.256670934127607,46.537361076953054],[-1.256558155897525,46.53733091952207],[-1.256448755625241,46.53729549621172],[-1.25631326464578,46.53723723794918],[-1.256153581042945,46.53713362031637],[-1.256017494061431,46.537086114786064],[-1.255997783613377,46.53706800197099],[-1.25586287239157,46.53693190030354],[-1.255771936356795,46.536850160250445],[-1.255711959679885,46.536823446809876],[-1.255598801319922,46.53678004686929],[-1.255523123011605,46.53675139295504],[-1.255342325602206,46.536683548309895],[-1.254950851804802,46.536616962536776],[-1.255225913971312,46.53627253419009],[-1.254734612207431,46.53601704936324],[-1.255367198115522,46.535228094321255],[-1.255449635054484,46.53503565722846],[-1.255207552073905,46.534984431920584],[-1.254968044556667,46.53492769973092],[-1.254731387200876,46.534865630804],[-1.254648295178076,46.53484239235564],[-1.253508093219142,46.53500475838872],[-1.253500124452265,46.535004784382295],[-1.253492204861525,46.5350054397721],[-1.253033907380307,46.533601601272736],[-1.253177935720778,46.53357027184702],[-1.253614308997001,46.53345592360948],[-1.253775711852659,46.533379400271706],[-1.254236752997043,46.53308414165194],[-1.254949958182996,46.53264495296397],[-1.255069423139451,46.532568545936265],[-1.255178208270619,46.5324909131875],[-1.255280930304763,46.53240926779398],[-1.255579038443375,46.53207245600436],[-1.255586727212983,46.5320588237877],[-1.255605052428369,46.5320057496165],[-1.255933836258055,46.53187754269443],[-1.256417682205304,46.53176899015509],[-1.257000452488682,46.531682361128475],[-1.257332766875697,46.53163445506189],[-1.257788532799304,46.5315678821068],[-1.258327276724484,46.53149307598027],[-1.258370706600004,46.53148703939316],[-1.258432741464652,46.531892592444564],[-1.258514943749856,46.532599392138984],[-1.258488262582678,46.53264583465462],[-1.258449248545203,46.53270833699964],[-1.258010319568347,46.533118935980056],[-1.257807615782729,46.533320544447946],[-1.257751923515287,46.53338700424135],[-1.257723813047997,46.53342186713099],[-1.257676469231796,46.53348981942384],[-1.25763674146961,46.53355992275269],[-1.25760486926356,46.533631897679],[-1.257590266575146,46.533662379853595]]],[[[-1.257292393975055,46.5383782881955],[-1.257519296951474,46.53850086275308],[-1.257582695955853,46.53852618542459],[-1.257659577837715,46.5385618269571],[-1.25718402371721,46.53947561045929],[-1.257070729666327,46.5394222073323],[-1.256985088716989,46.53938653084494],[-1.256756594519455,46.539293772275386],[-1.256581671263777,46.53922931753377],[-1.25619409959867,46.53909757360069],[-1.256146912495441,46.53908237744917],[-1.255913285797102,46.5394872153975],[-1.255566863647951,46.5394020910085],[-1.255558535230288,46.53940086805557],[-1.255533859259888,46.539401155392774],[-1.25551066149387,46.53940697856652],[-1.255491512788449,46.53941779100205],[-1.255160801291927,46.53933469568232],[-1.25505954892889,46.539308255712676],[-1.254514720988358,46.53917081689652],[-1.254499152620716,46.53920737620545],[-1.254440731990235,46.53919223673039],[-1.254419983050825,46.539150806907344],[-1.254286953567846,46.53890335714131],[-1.254120261019441,46.53858799557806],[-1.254200261464828,46.538426129749595],[-1.254306620689989,46.53822198264962],[-1.254306750987632,46.538221977800596],[-1.254553225748327,46.53752332500993],[-1.254834944184553,46.537548188472506],[-1.255075501585699,46.53762823765779],[-1.255161372094306,46.53765687321869],[-1.255880299005976,46.5378969392304],[-1.256674501739063,46.538212199719574],[-1.256707534657926,46.53815334764238],[-1.257109910750873,46.53832574850447],[-1.257210301041024,46.53836790925823],[-1.257280833856531,46.53839756536667],[-1.257292393975055,46.5383782881955]]]]}}]}
