{"type": "FeatureCollection","name": "aoc_geojson","features": [{"type":"Feature","properties":{"dt":"Mâcon","type_prod":"Vins","categorie":"Vin primeur, Vin tranquille","type_denom":"dénomination géographique complémentaire","signe":"AOC","id_app":583,"app":"Mâcon","id_denom":1726,"denom":"Mâcon Lugny","insee":"71035","cvi":"1B370 48, 1B370 49, 1R371 57, 1S371 57","nomcom":"BISSY-LA-MACONNAISE","insee2011":"71035","nomcom2011":"BISSY-LA-MACONNAISE","id_aire":1356,"crinao":null,"grp_name1":null,"grp_name2":null},"geometry":{"type":"MultiPolygon","coordinates":[[[[4.776397983356353,46.48418445733806],[4.776366588136666,46.48421736977422],[4.776338579040322,46.48426617161264],[4.776319090869624,46.48431637217047],[4.776314912284159,46.48436822621818],[4.776239453934933,46.48440542613775],[4.776153241368469,46.48444072156411],[4.776001982461339,46.484500625500324],[4.775939875028543,46.48452338701372],[4.775907290969043,46.484531819291966],[4.775855158060443,46.48454055530268],[4.775804685534467,46.48454422168424],[4.775794066871298,46.4845184470843],[4.775744881947983,46.48443751958849],[4.775480927590584,46.48455636684207],[4.775281862509426,46.484665829273304],[4.775121473769175,46.48474974183876],[4.775052971046319,46.484780348029936],[4.774975954614448,46.48481378843366],[4.774945582849548,46.48482209600807],[4.774909669123624,46.484664134099404],[4.774827521056571,46.48476025133141],[4.774705165206326,46.48489500150498],[4.774576182654345,46.48503850094639],[4.774483245683298,46.48515171819147],[4.7744453163491,46.4851962602096],[4.774429851433909,46.485213883415064],[4.774388713550337,46.485243974285225],[4.774342188262227,46.485272797755],[4.774292914309573,46.485293287555386],[4.77421324033568,46.48531722147673],[4.774152624865792,46.485329781153226],[4.774120211380052,46.48533145516605],[4.774091205448313,46.485329653696546],[4.77403380570077,46.48532081729439],[4.773950273117072,46.48531031490164],[4.773894151779003,46.48530470103388],[4.77384241910591,46.485301721066214],[4.77376778106499,46.48529207124763],[4.77369556799984,46.485284815583114],[4.773671274390646,46.485283571355424],[4.773624816257042,46.485290416910374],[4.773594766159913,46.48530061055279],[4.773580137192751,46.48530786285504],[4.773571146016563,46.48531205543071],[4.77355643205293,46.48532471312422],[4.773540441156119,46.4853382012412],[4.77352727930902,46.485358490619944],[4.773519683482567,46.48537752274717],[4.773517987530746,46.48539754414179],[4.773520371217151,46.485422726172885],[4.773533245454366,46.48545774296267],[4.773556743610849,46.485494666461236],[4.773599168485458,46.48554822903147],[4.773638496419535,46.485590761289984],[4.773669048638615,46.485616046608826],[4.773724330872462,46.485664005537465],[4.77376566369241,46.48570803779609],[4.773790449320302,46.48574043787286],[4.773816081322281,46.48578282234907],[4.773852966876595,46.48585448438103],[4.773863798647338,46.48588683079649],[4.773880852412742,46.485946101024034],[4.773887696725949,46.4859801305444],[4.773906869507699,46.48603639563972],[4.77399529073115,46.48625325788559],[4.774081359403864,46.486457907343905],[4.774109074308318,46.48653223354048],[4.774181700705462,46.48670844997339],[4.77421837635553,46.486685453767194],[4.774246060611303,46.4866586341321],[4.774262356280564,46.486630460120196],[4.774346805639939,46.486496749333],[4.774422518143793,46.48637506307608],[4.774469243231372,46.4863042648341],[4.774498042936899,46.48626364742013],[4.774519719957446,46.48623656070269],[4.774536582171327,46.48622179797234],[4.774727988603983,46.48612920853335],[4.774969189970203,46.48600810456317],[4.775258437317026,46.48586887071386],[4.775282552286876,46.48585660718926],[4.7753781568165,46.485805314625075],[4.775535215211219,46.48571514873316],[4.775610814758205,46.48567020128301],[4.775657909281522,46.48563884654707],[4.775751321823065,46.48556831316396],[4.775844615521262,46.48549814181833],[4.775951124582571,46.485421370224465],[4.775995657449121,46.48538744317336],[4.776046782023877,46.48533170729066],[4.776071023406594,46.48530331945779],[4.776098453614986,46.48526074139223],[4.776096920040994,46.48524968686021],[4.776088789620371,46.48524026599484],[4.776073374213056,46.485235371663684],[4.776054214501062,46.48523161632932],[4.776014595020244,46.48523223197132],[4.775956514644767,46.48523853852917],[4.775898487024813,46.48524646546135],[4.775797796800965,46.48524965113284],[4.775720508435144,46.48525472484337],[4.775539649297757,46.48525861536458],[4.775462555507597,46.485257651323174],[4.775377111979239,46.48525654672363],[4.775332450736409,46.48525850139455],[4.775286467252458,46.48526389916828],[4.775251768106288,46.48527146342268],[4.775185995662736,46.48529383109016],[4.775123200329491,46.485323538054935],[4.7750769432735,46.48534857480801],[4.775064063607648,46.48530941513444],[4.775112783885215,46.48529595889773],[4.775155677351616,46.485275747971734],[4.775209857901669,46.48524977750861],[4.775236759300426,46.48523900186594],[4.77526126514339,46.4852347483186],[4.775293211358996,46.48523073947137],[4.775349711846014,46.485227970442715],[4.775440593903529,46.485227909766145],[4.775558985373075,46.48523174493276],[4.775612211653461,46.48523253928915],[4.775757986288734,46.48522838313392],[4.775802739710044,46.4852252559802],[4.775927834661276,46.48521871886346],[4.776018006154426,46.485208851357434],[4.776103362984314,46.48520329179285],[4.776159470805786,46.485196475405004],[4.776323454629808,46.485158890531494],[4.776372156867898,46.485144893623165],[4.776532274455717,46.48507269235179],[4.776603819145627,46.485031409959596],[4.776679928465897,46.48499816268631],[4.776834219050905,46.48493523849306],[4.776899377291732,46.48492206634511],[4.777048066767678,46.484895346209335],[4.777196473666991,46.48487196278851],[4.777446590930971,46.48482871367524],[4.77761922174905,46.48480044958073],[4.777730889129785,46.48477403413549],[4.777820281195786,46.484752288332075],[4.778168890897972,46.484658508542616],[4.778305091797971,46.48462072253582],[4.778292384403107,46.484602906637114],[4.778329699181508,46.48459160795841],[4.778342479976132,46.48461167441259],[4.778463092749412,46.48459169402428],[4.778623599737811,46.48457154303187],[4.778812733736305,46.48456157431504],[4.778940310683613,46.48455922844296],[4.779170367905579,46.48457663334885],[4.779545353717558,46.48461195663115],[4.779661015050542,46.48462006324146],[4.779691502437173,46.48461931832049],[4.779811738228127,46.484611771769075],[4.780056376155712,46.484600486326016],[4.780136681249023,46.48459599315413],[4.780262117293741,46.484579988799325],[4.780356000717053,46.48457204152294],[4.78049426832299,46.4845536754002],[4.781033222191545,46.4844033308795],[4.781410163308724,46.48429892189056],[4.781426277741389,46.48431722476406],[4.781435897320793,46.484320317282894],[4.781603555571654,46.484299600272415],[4.782195546253766,46.48420030269462],[4.782275463423256,46.48419194112583],[4.782601305824129,46.48417983422426],[4.782920726038816,46.4841707087562],[4.783305256961069,46.48415101927371],[4.783661710387908,46.484137981378524],[4.783728682375979,46.484136485856915],[4.783800472758394,46.484122845955085],[4.783887060499827,46.48409519461664],[4.783931856010686,46.48408143555239],[4.783969443942004,46.48405860201354],[4.78365802434715,46.4839933893686],[4.783589304713377,46.48398131182564],[4.783289996790984,46.48394752312007],[4.783069856480218,46.48393429508564],[4.782940853495948,46.483936847974306],[4.782608025549948,46.483962575046846],[4.782249402273686,46.484000952661766],[4.781919499815585,46.484040412527484],[4.781697622242532,46.484033873978454],[4.781503113101912,46.48405086653624],[4.781395332162232,46.484064435469996],[4.781300819778505,46.4840810399608],[4.781266617052613,46.48408778771699],[4.781179259714877,46.48410788331999],[4.781017352888339,46.48414499256086],[4.780940951445439,46.48416518745917],[4.780797760075028,46.48420443659509],[4.780691066283159,46.484239334063766],[4.780633720439273,46.484252116484775],[4.780590863182999,46.48425737764155],[4.780548748714957,46.484253440262236],[4.780442594927369,46.48423699025536],[4.78033438154855,46.48421336678348],[4.780133582262823,46.48416551586644],[4.779912361634517,46.484115190516604],[4.779793560357314,46.4840787616191],[4.779696840674186,46.484051716119055],[4.779679094131059,46.48404730891256],[4.779626623647971,46.48403767802466],[4.779564759955854,46.484031886158725],[4.779475889002346,46.48401759800638],[4.779440099000696,46.48401167032465],[4.779364725701454,46.48400743970329],[4.779276481537025,46.484008363146614],[4.779136444695902,46.48401243452788],[4.779053628978115,46.484015885272115],[4.778998308011984,46.48401080187174],[4.778962856180501,46.48400324755229],[4.778930687071813,46.4839923996769],[4.778847493435117,46.48396027926244],[4.778766262437459,46.483932361443664],[4.778718445720059,46.48392148683056],[4.778666762208439,46.48391598639049],[4.778613457895869,46.483912762851745],[4.778504526944682,46.483907072381996],[4.778301163360855,46.483896456301075],[4.778154962758606,46.48389143544325],[4.778088557419222,46.48389030691249],[4.777976691315137,46.48389456909066],[4.777886943861287,46.483901369273056],[4.777635157709017,46.483925280753915],[4.77749198780542,46.48393723477144],[4.777385758246137,46.483950415513725],[4.776962235759563,46.4840179770124],[4.77677070290353,46.484050316854876],[4.776566012913823,46.48408304102207],[4.776528835598359,46.484090554132266],[4.776501601058688,46.48409908357147],[4.776444113681355,46.484143570019775],[4.77641976874005,46.48416475411656],[4.776397983356353,46.48418445733806]]],[[[4.77671519379416,46.48399542765931],[4.776968500991272,46.483950148444364],[4.777234067027309,46.48390494824411],[4.777389968328039,46.4838795565598],[4.777736294423493,46.48384787040295],[4.777878922200027,46.483835294031394],[4.777985134371331,46.48382958874476],[4.778199079099426,46.48382481925677],[4.778283277076663,46.483823779459186],[4.778415585705306,46.48383063753717],[4.778578667261134,46.4838415199963],[4.778690080114234,46.48384735190511],[4.778754525362115,46.48385634651384],[4.778827873329102,46.48387844253553],[4.778862536123299,46.48388979203548],[4.778967697508483,46.48392382221579],[4.779041389637114,46.483944471656784],[4.779097864002817,46.483944943609046],[4.779148356311156,46.4839419059297],[4.779215717312655,46.48393635393056],[4.779296160632861,46.48393212938698],[4.779345937444523,46.48393513732102],[4.779447740762968,46.48394616191194],[4.779501568316474,46.48395342998066],[4.779569194478065,46.48396399583425],[4.779656031187998,46.48397588374955],[4.779700881123429,46.483983741855276],[4.77978853697805,46.484000750797605],[4.779895780558456,46.484026641582126],[4.780002146192254,46.484057589754705],[4.780074413107828,46.484082493935546],[4.780133967216595,46.484097418378646],[4.780296600956595,46.484126499138334],[4.780510147597566,46.48416541457963],[4.780569591221269,46.48417295493401],[4.78059775895766,46.48417305651781],[4.780632867220207,46.48417007771741],[4.780672322258855,46.48416045621138],[4.780810301607339,46.48411732544281],[4.780907968423806,46.48408950376078],[4.781277229514957,46.48401349624056],[4.781485005964003,46.48397954459462],[4.781594586799602,46.483969189970026],[4.781684126194302,46.48396401134147],[4.781895186110626,46.483946760435465],[4.782008116983377,46.4839351822971],[4.78243518683658,46.483908527692535],[4.782948280429686,46.483872873771546],[4.782697537984385,46.48383292181749],[4.782344582776038,46.48378537636924],[4.782335532141007,46.48376777407904],[4.782260032447053,46.48375967440798],[4.782189102043419,46.48375573664179],[4.782110802047468,46.483753715105536],[4.781988097049156,46.48375346667875],[4.78184511453166,46.48375515547859],[4.781771875667235,46.48375638732835],[4.781737399674785,46.48375476315123],[4.781710922303831,46.48374652936635],[4.781695109766445,46.48372948278039],[4.781656668381669,46.48367432984172],[4.781632045555055,46.48363904668253],[4.781613584515199,46.48362474341627],[4.781583215176269,46.4836171106804],[4.781540182060571,46.483616970854825],[4.781475161626134,46.48362230761525],[4.781390933805952,46.48363839161606],[4.781160858686587,46.483684219343594],[4.780911408108402,46.48373566253158],[4.780839282396589,46.483751017136015],[4.78076791801701,46.48375375029354],[4.780704145716989,46.483753392872444],[4.780781192331766,46.48390071479776],[4.780089503463483,46.48384574004511],[4.77970585151273,46.48381640799104],[4.779174467993981,46.48378306968791],[4.779025646458729,46.48377764040603],[4.778898550827613,46.48377070189805],[4.778531383115795,46.483751016840536],[4.778402464860373,46.48374815920829],[4.778336045012546,46.483746580709315],[4.778250022624936,46.48374764893312],[4.778191750358102,46.48374801514993],[4.777993128354536,46.48375083496974],[4.777873426050611,46.48376269460325],[4.7778734289854,46.483762784625654],[4.776607809034162,46.483889105364575],[4.776582250296146,46.48390904741489],[4.776564628291327,46.48393246881261],[4.7765650417933,46.48394516197635],[4.776583909258897,46.4839719791759],[4.776599209055804,46.48398534162562],[4.77662182883245,46.48399525777231],[4.77666544970478,46.48400142487493],[4.77671519379416,46.48399542765931]]],[[[4.776770727514502,46.48501557543093],[4.776598374709082,46.48509643362005],[4.776314297480245,46.48521802738456],[4.776083300030244,46.48541202088728],[4.775955931787527,46.48550091562761],[4.775809515442825,46.485613523840776],[4.775652005920459,46.48572585385237],[4.775568704071453,46.48578253974951],[4.775436822251341,46.48586501910265],[4.775285983380782,46.485929959284945],[4.775145737511849,46.4859998686173],[4.775006626154561,46.486068589269316],[4.774801622288747,46.486168055353495],[4.774654435638785,46.48625311318183],[4.774624152481976,46.486276190421705],[4.774505505141775,46.48644087532968],[4.774392865454601,46.48660186411851],[4.774253943790663,46.48683279319062],[4.774312540483626,46.486958519085626],[4.774347636482109,46.48701922046007],[4.77464972926562,46.48736264302442],[4.774795705068336,46.4875327664985],[4.774919763428922,46.48767449847264],[4.775055185156735,46.48783280648555],[4.775102503065564,46.487888364103824],[4.775150208196521,46.487971836746944],[4.77519289954818,46.48806952790319],[4.775203920134715,46.48818374301023],[4.775198548523038,46.488255070162836],[4.775667294226774,46.48814159916176],[4.775744192418333,46.4882245279904],[4.776111303334956,46.488581888042944],[4.77615154146788,46.48865223633073],[4.776296070154189,46.48857352273462],[4.776467301828104,46.48851393868654],[4.776592320678388,46.488472816050134],[4.776678921913135,46.48844526021397],[4.77647368255377,46.488141408526346],[4.77661538900096,46.488064179441906],[4.776423185808007,46.4878202003776],[4.776355361930322,46.48769560963983],[4.77655175593802,46.4875839353491],[4.77666547689691,46.487528307112434],[4.776782782794127,46.48747865758586],[4.77691990324305,46.48739681583526],[4.77703062747401,46.48734528686815],[4.777093737132583,46.48730917917161],[4.777103535020593,46.487273720187446],[4.777190863621382,46.48722453629807],[4.777173220433964,46.4871713102346],[4.777097640078057,46.48693677742501],[4.777077067274705,46.4868376622198],[4.777147850449805,46.486840975025736],[4.777221210462671,46.48683533098967],[4.777309604538853,46.48681486211824],[4.777573490350117,46.486729697295274],[4.777771270002025,46.48666870754069],[4.777892875605017,46.48664303810765],[4.778027817648238,46.48662247509676],[4.778268785499761,46.486502358475455],[4.778375340170728,46.48644702009509],[4.778436671517214,46.486428412489104],[4.778521035349023,46.486400349587925],[4.778633096558209,46.48637392718443],[4.778726754490081,46.486378954607154],[4.778848455305219,46.48640020810899],[4.778956557440924,46.486432301164264],[4.779508322722441,46.486625914894915],[4.779725499282794,46.486671890792735],[4.779723666186433,46.486703623293494],[4.779994862932122,46.486678774650656],[4.780164596635701,46.486657487150396],[4.780422120097612,46.486621231659925],[4.780524045467527,46.48659190296594],[4.780652507202818,46.486540634501594],[4.780931363461145,46.48637903098638],[4.781346508150305,46.48619827990305],[4.781698936001196,46.48605363149304],[4.782179546765522,46.48583736067832],[4.78266371461639,46.48561833025217],[4.783022144856685,46.485446113227084],[4.783392510499956,46.4852840666479],[4.783492113954252,46.48524765608037],[4.783542270019933,46.485242279949894],[4.783767187000836,46.48525786444978],[4.78400974907304,46.485270741252975],[4.784045738593055,46.485214967695256],[4.784083939951418,46.48513114838965],[4.784107794962109,46.48505520880671],[4.784123203733758,46.48497219560458],[4.784137524940112,46.4848758692812],[4.784169959912358,46.48475530205279],[4.784246296688269,46.48458568284286],[4.784260152296333,46.48452295920448],[4.784252072752013,46.48445535403909],[4.784239664489401,46.48436304768938],[4.784216391399862,46.48420966456023],[4.78421228718326,46.48410813168263],[4.784109446621482,46.48410928671557],[4.784022733123206,46.48411316217892],[4.783882167587293,46.48414093556619],[4.783744994053812,46.48416478290774],[4.783683649397321,46.48418285323504],[4.783638924404417,46.48419877273584],[4.78299079329512,46.484212037838894],[4.782492271932468,46.48423485509269],[4.782200955508303,46.48425011610983],[4.782027649816643,46.484281550097975],[4.781692239699376,46.48433208346418],[4.781507186562698,46.48436315937144],[4.781368084084446,46.48439586057905],[4.781247945360933,46.48444627969825],[4.78114829857334,46.48445341684696],[4.781077861286988,46.484464602140186],[4.780666522238788,46.48457783218095],[4.780405154484161,46.484639817682464],[4.780265090438513,46.484663075352515],[4.780136644956676,46.48467876630683],[4.779918992100431,46.484681885823896],[4.779688479156185,46.4846825031287],[4.779554527217896,46.484665314246215],[4.779293508873462,46.48464614039732],[4.779230544273807,46.4846346011222],[4.778978259121983,46.484611327612065],[4.778707173617446,46.484623292539695],[4.778561800116252,46.484639695499304],[4.77822665351154,46.48472245887245],[4.77788056262035,46.48480151856076],[4.7775367138998,46.48487738993297],[4.777340440903515,46.48490440032123],[4.776965502663562,46.48495058061575],[4.776893077118254,46.48496881952301],[4.776770727514502,46.48501557543093]]],[[[4.777073128421324,46.479114117991706],[4.777100202969952,46.47917278166508],[4.77716062744303,46.479310637005256],[4.77719552739614,46.47940538634717],[4.777203727991389,46.47942498373697],[4.777264197327413,46.47954419422969],[4.777324961994942,46.47967645997451],[4.777343952043886,46.47971507406564],[4.777362175377427,46.47976216647964],[4.777397839025395,46.47986032647366],[4.77743400352306,46.47995784819072],[4.777446390482858,46.48000187897906],[4.777460429257411,46.48004858611872],[4.777474147035504,46.48008944382246],[4.777492830253291,46.48013463763372],[4.777514050153249,46.48021365759481],[4.777536100887265,46.48027816366526],[4.777565974041227,46.480350654193536],[4.777582844742289,46.48039623645441],[4.777615564752468,46.480496063393424],[4.777751529943917,46.48049935258634],[4.777783110400758,46.4805002123613],[4.777935551172061,46.480504956342045],[4.778042628548955,46.480505992546334],[4.778075222191763,46.48050593579662],[4.778148817199357,46.48050776302275],[4.778252283899486,46.48051002609382],[4.778415796346368,46.4805224330898],[4.778473134191625,46.48052550383463],[4.778599116887737,46.4805345315879],[4.778712962627281,46.480543207690346],[4.778849935987515,46.480553415134885],[4.778936085462623,46.480556397468305],[4.778991028877357,46.48055401106887],[4.779073009356242,46.48055309519609],[4.779249587456529,46.48055034630142],[4.779365165938399,46.4805481866031],[4.779446933844383,46.480544751863434],[4.779493504696847,46.48054150483353],[4.779561404359657,46.480532611652876],[4.779697557437613,46.480509685775985],[4.779735373584352,46.4805058544321],[4.779765890985573,46.48050609973726],[4.779811619030845,46.480508990336524],[4.779872105085604,46.480512641829705],[4.780055697267236,46.48052905703764],[4.780236848819718,46.480546590788094],[4.780315353801853,46.480551042183556],[4.780530812868717,46.48057308485154],[4.780665461531396,46.480583956821924],[4.780746031082293,46.48058774527816],[4.780882053517319,46.480588778157305],[4.781025418760724,46.480599063536786],[4.781162046800539,46.48060666162345],[4.781171382511385,46.48060507503419],[4.781194774622611,46.480590749892315],[4.781188711430432,46.480580756751884],[4.781167265003483,46.48055884415628],[4.781130979201271,46.480529687167156],[4.781093412840836,46.480505233669746],[4.781034519799627,46.48047850053995],[4.780989197280631,46.48045209631277],[4.780806089106906,46.48033470862748],[4.780722507063589,46.48028656354358],[4.780572843789352,46.48020315049048],[4.780532726445045,46.480184410854655],[4.780463492121942,46.4801563974617],[4.780426996210286,46.48014075375723],[4.78036193703491,46.480104839329066],[4.78031442138678,46.48007513648516],[4.780263000307492,46.48004162152708],[4.78018079197186,46.47998760022913],[4.780133902680755,46.47995311394302],[4.780082812100183,46.47991373932755],[4.78005560022916,46.4798909255836],[4.780028883194776,46.479867293512626],[4.779940261813521,46.4797965291855],[4.779895493118085,46.47976309059595],[4.779790345497107,46.47970528315117],[4.779608357828733,46.47961408599801],[4.779510975383139,46.47957047822403],[4.779460761185828,46.47954595094127],[4.779393688830577,46.47951222896154],[4.779377378320247,46.47950383637031],[4.779338993069263,46.479490203244545],[4.779296471205164,46.47947366226023],[4.779275366650553,46.47946219190804],[4.779239038192779,46.47944366304692],[4.779207172714436,46.47942605544335],[4.779099966059088,46.479365036983886],[4.779008497753459,46.47931485181828],[4.77890406040747,46.479254780821684],[4.778844029011259,46.479209059935044],[4.778776305652489,46.479155352607314],[4.778748601009084,46.479129393848346],[4.778776508894361,46.479117610888984],[4.778763756331028,46.479106370722114],[4.778746997736284,46.4791122157857],[4.77865226138186,46.47901776768068],[4.779003686772482,46.47887557424044],[4.779042098601476,46.47893000793509],[4.779563216311801,46.47875806049179],[4.779526262362342,46.478688382741694],[4.779466756427239,46.478594827796094],[4.779402624421916,46.4784913472831],[4.779329733118105,46.47836314429951],[4.779308757017683,46.47832762375509],[4.779247345616643,46.478219597392616],[4.779190052264812,46.47811790172758],[4.779112369502522,46.477970678755895],[4.779086376596698,46.477925238706476],[4.779044608962525,46.477863831951396],[4.779006028684778,46.47780021392809],[4.778663239362881,46.477935157712125],[4.77781411574679,46.47826757178769],[4.777445575215158,46.47841263976923],[4.777146834228954,46.47853122192118],[4.776836744778228,46.47865367250631],[4.776876204256331,46.478740334988586],[4.776953417799204,46.478913326159045],[4.776957261790875,46.47892326394963],[4.777009159567888,46.47900351828832],[4.777052778665428,46.47907777670355],[4.777073128421324,46.479114117991706]]],[[[4.778881156654933,46.48081106444636],[4.778897507050584,46.480836659503176],[4.778911526858959,46.480850762113725],[4.778937705005736,46.48087386242131],[4.778972552330355,46.48090691541102],[4.779125347853287,46.48088652329282],[4.779204805077889,46.48087618945902],[4.779232593000825,46.480872694540146],[4.779392195871575,46.480825175641996],[4.779519021189264,46.48078807438481],[4.779607456439012,46.480861093645565],[4.779660811824505,46.48090592736563],[4.779778034241328,46.481006059079775],[4.779838271112177,46.48105799100778],[4.779870453771525,46.48104533061067],[4.779877721101985,46.4810482797487],[4.779968628630382,46.48110513803925],[4.780123129742063,46.48120090594744],[4.780150962587319,46.48121875626021],[4.780216067030176,46.481256021137625],[4.780275459173187,46.48129004243868],[4.780360044673344,46.481344927339535],[4.780405894778726,46.481371503736575],[4.780470418523107,46.481410939155865],[4.780498692506069,46.48143031367313],[4.78052320004263,46.48144614413566],[4.780559989767402,46.48147475305792],[4.780637736576791,46.4815318158718],[4.780693093318105,46.48157400597016],[4.78072780106331,46.48160273734736],[4.780759376296071,46.481639353453296],[4.780789491611596,46.48167518168518],[4.780799363487925,46.48167403711618],[4.780897293444707,46.4816544074671],[4.780987175924379,46.48163589388903],[4.781034354097307,46.48162326969115],[4.781139721505257,46.481711605737004],[4.78117408955243,46.48173791043643],[4.781228133010723,46.48178777654612],[4.781329971616841,46.481871844149],[4.781351269364475,46.48186124442425],[4.781438441836114,46.48193139982132],[4.781460569198658,46.482057960978885],[4.781459909998978,46.48207769618456],[4.781483732558748,46.482200267913164],[4.781506922967679,46.48237932223422],[4.78151798393902,46.48241058361206],[4.781543170325101,46.48250305129775],[4.781572457404332,46.48258933042024],[4.781655862849432,46.48260000932418],[4.781724064913916,46.48261227620332],[4.781789906528799,46.48262412950079],[4.781853887481502,46.482638893951204],[4.781992553453204,46.48266879626046],[4.782099988443581,46.48269261040559],[4.78215891057677,46.48270817411362],[4.782192330705791,46.482713417345785],[4.782242302484218,46.482714439464026],[4.782286812550822,46.48271590700504],[4.782314322919163,46.48271187526873],[4.782380130516242,46.48269076380278],[4.782463597830551,46.48266343237985],[4.782544689862529,46.482635237258975],[4.782648771665994,46.48259236265447],[4.782775384052027,46.48254868616701],[4.782844698156227,46.482527159457526],[4.782873038228479,46.48252059273199],[4.782902621810832,46.48251616823779],[4.782947204016304,46.4825118700288],[4.782998266099563,46.48251035289517],[4.783383262752472,46.482517225820764],[4.783394288932773,46.482535427684695],[4.783452223473513,46.48252875928961],[4.783468609315985,46.48252345977398],[4.783486927195653,46.48251344655924],[4.783528185376761,46.48248326034568],[4.783551160216606,46.482468130626515],[4.783592525706824,46.48244920124195],[4.783647035998931,46.48241358421531],[4.783614590142345,46.482394275561006],[4.783681814110988,46.48238061688976],[4.783750151272717,46.48236910244211],[4.783767961726044,46.4823635104433],[4.783800852551543,46.48234858618169],[4.783845969884747,46.482332750532834],[4.783891477396004,46.48232087177796],[4.783917956665391,46.48231721601731],[4.783972043151702,46.48231249885001],[4.784022489504479,46.48230810868285],[4.784095267679069,46.48230481098165],[4.784144184778989,46.48230548845412],[4.784158732755215,46.48230778325995],[4.784230737127062,46.48232467283866],[4.784271321146838,46.482333676558376],[4.784305887621671,46.4823380906618],[4.784342850657096,46.482340035496115],[4.784426598583125,46.48234124986833],[4.784474685956686,46.482344462065534],[4.784538907328145,46.482358590788444],[4.784592348219862,46.48237000562503],[4.784633113434769,46.48237657454557],[4.784709882361812,46.48238366205606],[4.784744389288997,46.482390238595904],[4.78480289732036,46.48240508686904],[4.784860909933781,46.48242471646729],[4.784879863921033,46.48243414783451],[4.784955782381488,46.48247898706442],[4.785064066503099,46.48254862992273],[4.785109096735527,46.4825739563292],[4.785122588192317,46.482571854170985],[4.785147777411436,46.48256065254161],[4.785161474843037,46.48254890985725],[4.785168254160205,46.482532951952756],[4.785168186089688,46.482514939363035],[4.785160878428004,46.48246695705196],[4.785139548850794,46.482317236477115],[4.785108617998306,46.48205742229916],[4.785096892445954,46.48198600116743],[4.785055580898739,46.48191891507086],[4.785026174263904,46.48186101012363],[4.784987799705412,46.48178406069091],[4.784950673369408,46.48171735953432],[4.784932523060383,46.48172052518767],[4.784921051416105,46.481672788028526],[4.784895010696887,46.481574299759444],[4.784892159580047,46.48155092653597],[4.784873542775464,46.48146015825836],[4.784864536175665,46.481408059318596],[4.784862058836209,46.481364234758495],[4.784865916497836,46.481338685190735],[4.784876609382825,46.481298888155294],[4.784888803720474,46.48127708132463],[4.784901708560469,46.481257064761614],[4.784904532713839,46.48124774362252],[4.784849022509292,46.48123681160412],[4.784813258005941,46.48122764276524],[4.784793923901533,46.48122650360924],[4.784701043681085,46.48122507186863],[4.784617120012816,46.48122241937585],[4.784452849464081,46.48122282272796],[4.784418259403074,46.48122165150481],[4.784392982221693,46.48121421022592],[4.784369645800973,46.48120232529557],[4.784340078446927,46.48118729518518],[4.784273553995209,46.481158521199575],[4.784243997741962,46.48114781416825],[4.784183317785215,46.48113029748837],[4.784100570104097,46.48111177424679],[4.784047012010283,46.481100721301345],[4.783960949044185,46.481088464421795],[4.783813990551472,46.48107202407098],[4.783658342128519,46.48105698011039],[4.783437047217811,46.48103998811088],[4.783410616427317,46.481041121102805],[4.783387940485232,46.48104543795302],[4.783335014690723,46.481057702484456],[4.783222357108604,46.48108143698423],[4.783209328623967,46.481065788257155],[4.783033390334659,46.48110411021499],[4.782923350640923,46.48112816384675],[4.782878483728307,46.48113967196454],[4.782836956294884,46.48115761288217],[4.782714756956798,46.481216532259644],[4.782643478338365,46.481249708362625],[4.782610431455256,46.48127580319239],[4.78256064077715,46.48132017281136],[4.782513772912761,46.48136620811692],[4.782466742651371,46.48142323425628],[4.782431524601839,46.48139487162528],[4.782451303628099,46.48136574132278],[4.782502550240213,46.48131405352083],[4.782550057034262,46.48127161098217],[4.782579525672587,46.4812477336185],[4.782630398308572,46.48121253407171],[4.782722029086228,46.48115580291204],[4.782792111137534,46.481121924876646],[4.782838831475761,46.481099309488286],[4.782734601316799,46.481073734787806],[4.782531451921037,46.48102151152149],[4.782346478734704,46.480970895869476],[4.782171101379846,46.48092265219766],[4.782011752385503,46.48087812134223],[4.781867669466592,46.480841908732515],[4.781724905521526,46.48080216272136],[4.781588853538235,46.48076033040347],[4.781481656595845,46.48072372243865],[4.781355325780895,46.48068011708813],[4.781291665647061,46.48065913268622],[4.781236095022065,46.4806463084426],[4.781170714484478,46.480636519243795],[4.781022616579999,46.480625046843265],[4.780896896845461,46.480616107722206],[4.780779210690172,46.48061361826386],[4.78067123946292,46.48060917595517],[4.780573697470271,46.480600698126956],[4.780421019165237,46.480584702835934],[4.78029383382203,46.480574795136796],[4.780117536168076,46.480558176620775],[4.779938273674373,46.48054259475985],[4.779829449201872,46.48053996631115],[4.779697774334916,46.48054030557057],[4.779606974332812,46.48055063624488],[4.779517717526407,46.48056031234082],[4.779457187087787,46.48056728939208],[4.779385758938693,46.48057993024076],[4.77936079700791,46.480582120246744],[4.779278657895665,46.48057817511534],[4.779239599431333,46.48057590101394],[4.779031531757775,46.480580581167004],[4.778965449791272,46.480581249536414],[4.778866740716247,46.4805849476208],[4.77879336104443,46.48058572947914],[4.778742643487488,46.480589761306554],[4.778780458214445,46.48065384167152],[4.778793973855561,46.48068047161245],[4.778828432777158,46.48074559494269],[4.778842248390848,46.48076942809731],[4.77887150484471,46.480798965411516],[4.778881156654933,46.48081106444636]]],[[[4.779303098163843,46.47771056468973],[4.779044842872525,46.47781104835877],[4.779104952522815,46.47791116908976],[4.77916097690136,46.478005949301206],[4.779192143775448,46.47806211696465],[4.779222702118937,46.4781236081166],[4.779255781570681,46.47818244803237],[4.779334686217617,46.47831515091136],[4.779388319906328,46.47840456414956],[4.779504204900979,46.478587759777675],[4.779552322270848,46.4786639287484],[4.779597173173079,46.4787398783607],[4.779641781201293,46.47881637214757],[4.779713092473753,46.47894405914012],[4.779740589266673,46.47899560027101],[4.779771938383497,46.47906131217406],[4.77982474442743,46.47916127608504],[4.779837631097346,46.479192599251896],[4.779844255006664,46.47921978674918],[4.779840445085298,46.479246866537466],[4.779834871636481,46.47926784915446],[4.779822759871544,46.47929622911942],[4.77981710520535,46.479310728091484],[4.779814005802212,46.47932761910915],[4.779814459884274,46.479357514671165],[4.779813596980621,46.47939499646984],[4.779815133029169,46.479410104001055],[4.779821786331397,46.47943819172288],[4.779825097662912,46.4794597565146],[4.779819770494066,46.479568191488575],[4.779820193533741,46.47958115471688],[4.779825366619963,46.47959584533301],[4.779856440026882,46.479653095099195],[4.779872888530339,46.47967769774529],[4.779902058711615,46.479708587166726],[4.779934229085256,46.47973951992258],[4.779959291169236,46.47976038567677],[4.780101527885126,46.47987597945202],[4.780162701576927,46.47992069115815],[4.780217974932468,46.47996837692409],[4.780285193251152,46.480014525568855],[4.780368355075848,46.48006979289448],[4.780419289329715,46.480096380140836],[4.780565120091468,46.480166252803436],[4.7806316913423,46.48019655933253],[4.780713870080297,46.4802416640272],[4.780833502352494,46.480311764423355],[4.78093989466888,46.48037567617866],[4.781076336319629,46.480453440384096],[4.781123763556142,46.48048440525357],[4.781170774472043,46.480522582047826],[4.781226235405287,46.480559996647415],[4.781325988428941,46.480624191669285],[4.78133845971945,46.48063876846854],[4.781358017011567,46.4806467499087],[4.781439920481383,46.480671412908045],[4.781503397439341,46.48069077885626],[4.781639733342912,46.480733327392116],[4.781647775824799,46.480740047199],[4.781814062333618,46.48078942414241],[4.78190255533839,46.48080425671411],[4.782025966699805,46.480834306692564],[4.782082900586058,46.48084494766321],[4.782188797642171,46.48086968633982],[4.782215699062815,46.48088295720448],[4.782235233036181,46.480890218315565],[4.782468694950746,46.48095638024954],[4.782583455184247,46.48098899640375],[4.78273005366084,46.481010397695684],[4.782842097660544,46.481031707367194],[4.782877590957219,46.4810325947698],[4.782985130569779,46.48102380171365],[4.783227945777154,46.481009115058406],[4.783224172747672,46.4809934119876],[4.783220822244483,46.480982656077046],[4.783277865687815,46.480980685195426],[4.783351717846117,46.480974398930144],[4.783428058357145,46.48098041313587],[4.78348248210828,46.480986048764265],[4.783611266568736,46.48100493480704],[4.783810651908452,46.481029744102756],[4.783822002018153,46.481025964217984],[4.783932389197208,46.48104045350057],[4.783992161944469,46.48104618553081],[4.784097974113888,46.48107227480644],[4.784194368948978,46.48109346718192],[4.784261337214375,46.48110791342948],[4.784340009769643,46.48112541936028],[4.784369159630359,46.48113964537426],[4.784401769951422,46.481163995065906],[4.784419348840717,46.48117524933845],[4.784429950947677,46.48118048789866],[4.784448633441929,46.4811816372899],[4.784575064734702,46.48118038370789],[4.784712782844024,46.481181385575],[4.784864986794853,46.481182791524986],[4.784908566465727,46.48117976914347],[4.784925709413908,46.48117770004304],[4.784936467496937,46.48117176765445],[4.785023949233036,46.481115819956436],[4.785138018104368,46.48104360488847],[4.784993036371269,46.480844566762],[4.785040939520389,46.480826255258556],[4.785046909158551,46.48083336748175],[4.785127615025362,46.4808054466931],[4.78511185275307,46.480770025852074],[4.785087895044473,46.480719241271395],[4.785079166541916,46.48070352558623],[4.785053766020135,46.48070824560065],[4.785040940146639,46.480682866534806],[4.78515048098159,46.48065557616781],[4.785139316769533,46.48062918040592],[4.78513305542823,46.480613155982915],[4.785125975221973,46.480588047452564],[4.785100656160276,46.48053151976742],[4.784909117922827,46.48059107423756],[4.784817653534399,46.48044163830309],[4.78543270463197,46.480263603587474],[4.785684395438135,46.48018959810807],[4.785612817814772,46.480018415789814],[4.785571350091319,46.479914674507945],[4.785467257011208,46.47976183364252],[4.785415452806516,46.47968086094054],[4.7853265074095,46.4795406630761],[4.785230856916222,46.479402731526704],[4.78520283510506,46.4793592159169],[4.785170666902876,46.479316485616074],[4.785098693240959,46.47924465452917],[4.78506754438213,46.47921712982336],[4.785037541177268,46.47919273960582],[4.784945363783705,46.479136985949374],[4.784898209539583,46.479114394732164],[4.784849108802961,46.479096067106404],[4.784759790838156,46.4790679196167],[4.784520097632309,46.478998437130514],[4.784409078958994,46.47896054057549],[4.784369938189518,46.47894376853061],[4.784342329682871,46.478928797917874],[4.784312761348567,46.47890971475616],[4.784256747062718,46.47886735652028],[4.784206768428404,46.47882616498424],[4.78413062082623,46.47875421833995],[4.78407726315342,46.47869740761882],[4.784038532801866,46.4786573013694],[4.784021451037868,46.47863730266272],[4.783989645674043,46.47859366569847],[4.78391331325269,46.47850010541133],[4.783869900891727,46.478444400309904],[4.783828938782066,46.478383883327325],[4.783814843306975,46.47835951470017],[4.783688452074046,46.47814253145255],[4.783661445951961,46.47809413594471],[4.783644134246938,46.478055136364084],[4.78357617743616,46.47790668362014],[4.783497918142532,46.47778604258818],[4.783354578628855,46.477549058126414],[4.783215136219578,46.47731957842127],[4.783162935789408,46.47723428765924],[4.783073231727603,46.47708653423957],[4.783027822925196,46.477013566874746],[4.782910360700129,46.476826256105575],[4.78286857360683,46.4767563845672],[4.782781869413712,46.47658867903834],[4.782741933010256,46.47650761011672],[4.782726210939837,46.47647732223086],[4.782710823481495,46.47643333874284],[4.78270236411375,46.47639789373228],[4.782691038059513,46.476306651099456],[4.782514772891748,46.47637839295633],[4.782381425530776,46.47643496416079],[4.782245527661326,46.47649328627927],[4.782087888942601,46.47655257774561],[4.781930358701853,46.47661519982305],[4.781887942842742,46.476633784789044],[4.781801243758429,46.47667764883949],[4.781684605618901,46.47673891243167],[4.781670602150321,46.47674525539737],[4.781627721864576,46.476709716480606],[4.781131826750881,46.47691865900731],[4.780600412567613,46.47714193318902],[4.780429801026465,46.47721529494194],[4.780457372174462,46.47725314438389],[4.779958058195896,46.4774534883703],[4.779303098163843,46.47771056468973]],[[4.783786140207614,46.478817329484414],[4.783752346983221,46.47879263782394],[4.783790745601557,46.478770782366006],[4.783822468566334,46.478795956671185],[4.783786140207614,46.478817329484414]]],[[[4.783703676210997,46.48908864375629],[4.783733309264186,46.489137448599095],[4.78381937088428,46.48926886598868],[4.783870426983757,46.489362640740545],[4.783930363647765,46.489504643459796],[4.783940822634054,46.48960112333034],[4.783948401191986,46.48964144564225],[4.78398064270257,46.48977793607014],[4.783984916492707,46.489812905869535],[4.783909328522295,46.48983426081563],[4.78387053451324,46.48991601762404],[4.783837067443744,46.489977245822345],[4.783820690979656,46.49001478958996],[4.783818384496204,46.49003995458902],[4.784022297933218,46.49001083259402],[4.784086639440143,46.49000046128711],[4.78407466823752,46.48997335749066],[4.784508762686697,46.48990092170331],[4.784648201415624,46.4898781191394],[4.784692404380274,46.48987400640416],[4.784745137543581,46.489875524824704],[4.784960658368802,46.4899181843538],[4.785029033082628,46.48993143745434],[4.785071469598015,46.48993311651978],[4.785329914374565,46.48991665079114],[4.785495751578327,46.489915501571154],[4.785837042113194,46.48990818849251],[4.786287926224692,46.48991843638996],[4.78641082853684,46.489920298561735],[4.786655849873146,46.489912055682815],[4.786793066312687,46.48990901015987],[4.786924991706643,46.48988776334153],[4.787010050664305,46.49005197895073],[4.787324256360409,46.4899662751887],[4.788451575583015,46.489659163183404],[4.788989340246084,46.489511412312616],[4.789619098380986,46.48933375702198],[4.789621013964952,46.489241136839674],[4.789622489565827,46.48916689747379],[4.789584539514592,46.48904761075672],[4.789539433144506,46.48889303923179],[4.789530693348054,46.48884129673082],[4.789543036566279,46.48874058727996],[4.78955181190396,46.48869010172046],[4.789594556110463,46.48861773814454],[4.789594668154109,46.488589364879424],[4.789650086340665,46.48859723383085],[4.789699192670231,46.488599527281316],[4.789749845623482,46.488597293079195],[4.789900591353563,46.48857349635809],[4.790038852658626,46.48853485354259],[4.790078869257238,46.48852242790871],[4.790104807055466,46.48850616967679],[4.790122122377477,46.48848545299406],[4.790147475598015,46.48844344437185],[4.790198822366266,46.48835113079473],[4.790218672176525,46.48830434465918],[4.790215095264033,46.48812786679278],[4.790205028921349,46.48790465503629],[4.790203006859307,46.48785100599021],[4.790188141607177,46.487711993193734],[4.790149959261052,46.4876452200994],[4.790126548889008,46.487579566667065],[4.790075866357337,46.48740211522107],[4.790037165340149,46.4872678890429],[4.78986013437559,46.48729723151148],[4.78982819068629,46.487341054581044],[4.789783600477077,46.487329323382674],[4.789834772199515,46.487271418782505],[4.789950028475813,46.48721133971719],[4.790003668114273,46.487180957294036],[4.790003655070229,46.4870454947429],[4.789995901632413,46.486992025514205],[4.790012424420824,46.48698690306752],[4.790009482184638,46.48680987481843],[4.790002343408102,46.48677513017442],[4.789979263464716,46.48669569108232],[4.789937183157253,46.486565750998984],[4.789855624571327,46.48636923814411],[4.789830236200451,46.4863068580857],[4.789842034117876,46.486304781903],[4.78975879446731,46.48610072956686],[4.789728626529446,46.486027796265766],[4.789716846394366,46.48603041256925],[4.789677424288153,46.48593375605294],[4.789691831653153,46.48593172909383],[4.78947340975601,46.48540293522122],[4.789451096596578,46.485342848712214],[4.789376187172365,46.48515812045013],[4.789255281158585,46.48485513194101],[4.789191682572427,46.484693193921004],[4.789150976831713,46.484597097735794],[4.789130764653697,46.48456525973631],[4.789111459186302,46.48456105851957],[4.789095612678383,46.484562927802116],[4.788854382547565,46.484638307935526],[4.788231010154995,46.48483018091317],[4.78792284134922,46.48492407957412],[4.787823528996507,46.48493346901691],[4.7877510293255,46.48493343215587],[4.787666439800998,46.48492655901715],[4.787557762099813,46.48490880401695],[4.787303847369175,46.48485188875441],[4.786794756429275,46.485005939322235],[4.786803086428761,46.48508506917533],[4.786838991540376,46.48536507051343],[4.786841719505806,46.48540853083827],[4.786831546389932,46.485464171929195],[4.786806004082517,46.485472587312394],[4.786797529306424,46.485476592734194],[4.78676854395826,46.485515234801554],[4.786729545839969,46.48556267993754],[4.786690658440202,46.48560156684348],[4.786628171687542,46.4856484784319],[4.786521283843745,46.48572121304728],[4.786618616244188,46.48583840160912],[4.786783523402177,46.48604802458223],[4.786829852780719,46.48610890700528],[4.786903876657375,46.486151432862734],[4.787208114808513,46.486307357858585],[4.787284838531313,46.486296971190676],[4.78733511245611,46.486370761567485],[4.787273746364876,46.48638424064839],[4.787248372891494,46.486389861367336],[4.787208979256345,46.486333734342246],[4.787089808880459,46.486282367329665],[4.786876156508941,46.486184921278344],[4.786855830278389,46.486169477101875],[4.786746342108905,46.486063377014155],[4.786612177147942,46.48592046437009],[4.786594635431112,46.48586264454544],[4.786481614102417,46.485740207021976],[4.786235020505768,46.48583124711303],[4.786133689928354,46.48587462232329],[4.78596455872776,46.48595796636259],[4.785915159316234,46.485990442263876],[4.785854325560956,46.48604804569999],[4.78580161211101,46.48611470918825],[4.785748801094875,46.48619830700011],[4.785635574418147,46.48638813839888],[4.785524747862575,46.4865676643973],[4.78550633673875,46.486598755334924],[4.785436985652985,46.48669495070346],[4.785262178799482,46.48691969930388],[4.785097257467253,46.48711186866807],[4.78493396219449,46.48729797780869],[4.784880069371391,46.48733664803328],[4.784771372041899,46.487425981705805],[4.784608347475828,46.48756065718463],[4.784563491655647,46.48764836337613],[4.784519464114052,46.487741460705315],[4.784451731234078,46.48783141544044],[4.784380372297987,46.487906205217755],[4.784316097534721,46.48797034638396],[4.784259071958153,46.488028880193355],[4.784154928025304,46.48811796201703],[4.784014170875172,46.48822788053257],[4.783963492854232,46.48826920216288],[4.783703171203599,46.48845529251889],[4.783683533929958,46.488476855038584],[4.78364315142487,46.48856584203718],[4.783635380459535,46.48858739951512],[4.783634855868745,46.4886192017526],[4.783632475749934,46.488717863499325],[4.783634748341073,46.48885112887233],[4.783642916109044,46.48892143469757],[4.783703676210997,46.48908864375629]],[[4.785607462527555,46.48742517261516],[4.785646047988018,46.48741682396017],[4.785657752850388,46.48744375163151],[4.785619051779336,46.48745255243724],[4.785607462527555,46.48742517261516]]],[[[4.783808976203673,46.48355366228769],[4.783781953659558,46.48356065901573],[4.78374787087817,46.48356308237857],[4.78369429930557,46.48356364824552],[4.783638860442009,46.48357090827566],[4.783556663952787,46.48359326695732],[4.783503312369973,46.48360454741778],[4.783412082263608,46.4836257860054],[4.783359213641847,46.483635887974884],[4.783285137646671,46.48364740163413],[4.783180698447273,46.483663442040516],[4.783146783353684,46.483670996493586],[4.783104429616071,46.48367967333984],[4.783071263249244,46.48369018833952],[4.783020495696738,46.48370872378175],[4.782859325329418,46.48374834609209],[4.782742476916761,46.48377169505035],[4.782700670815542,46.48378117381627],[4.782686049782672,46.483772665255145],[4.782639886237298,46.48378446366837],[4.783018565641597,46.483861059201935],[4.783430824568803,46.48389587829212],[4.783613997017834,46.483911033564816],[4.783999669044555,46.48398607566629],[4.784226781065891,46.48403702173384],[4.78436889042467,46.4836938048908],[4.784373923489929,46.483640405922564],[4.784384048303859,46.48348758220186],[4.784376029046924,46.48339790937578],[4.784341042599332,46.48328902269206],[4.784328872504713,46.48327173945557],[4.784298590658069,46.483286713197906],[4.784246192288736,46.48330320308871],[4.78419725663279,46.48331792760271],[4.784148792909959,46.48332715056642],[4.784102677919169,46.48333642691377],[4.784069077554121,46.48334163495931],[4.784087911656378,46.48339123875871],[4.784057435279214,46.48341621304417],[4.783988227187863,46.48346890242527],[4.783946832303398,46.48349891078965],[4.783910421353132,46.48351785302504],[4.783888019034213,46.483526579029075],[4.783860433238921,46.483536286613834],[4.783808976203673,46.48355366228769]]],[[[4.784022140309075,46.48532666032659],[4.783959791372678,46.48540175962031],[4.783938497199026,46.4854045238229],[4.783828575549165,46.48560384902702],[4.783742907997785,46.485823151003785],[4.783698040937225,46.48593841791894],[4.783685061429175,46.485984104901654],[4.783671209905775,46.48605097151131],[4.783658354015873,46.486100439423524],[4.783637869741669,46.486155880807],[4.783620296679037,46.486228569844926],[4.783594098431813,46.486284730861385],[4.783560123913946,46.48633038517125],[4.783495443751105,46.486441908086896],[4.78344941450553,46.4864977480248],[4.783380921845326,46.48656447641084],[4.783224925435453,46.48669877005949],[4.78309402648573,46.48681501860086],[4.783013085979435,46.486883922437165],[4.782931585573176,46.486923742936206],[4.782831199252169,46.486976197291376],[4.782646292437393,46.48705987240645],[4.782398545340524,46.4871678548065],[4.782204580774231,46.487257704994],[4.782034216550534,46.48735151016535],[4.781930131558919,46.487418522330316],[4.78193932362154,46.48742846665532],[4.782064279722853,46.48754522830186],[4.782154313633828,46.487646772401284],[4.782179176038059,46.48769331023646],[4.78218762799138,46.48772848515322],[4.782202712230908,46.48776310631752],[4.782248306213152,46.4877976120328],[4.782302506059138,46.48782811061105],[4.782339119995103,46.487831232477404],[4.782393883819238,46.48777525682928],[4.782488277692426,46.4876910122308],[4.782569486997672,46.48763426380874],[4.782635522441751,46.487599998804576],[4.782711183913484,46.487569006216326],[4.782781814471041,46.48754367626908],[4.782883486802748,46.487522545629716],[4.783493881095436,46.48748257994041],[4.783501282963685,46.48752948001816],[4.784585647796445,46.48750057585227],[4.784841122407822,46.48729411354936],[4.785007334269636,46.48713335822831],[4.785100829418158,46.48702579775587],[4.785187425499807,46.48691861515712],[4.785286383003618,46.48678674085682],[4.785385782418966,46.48664846471484],[4.785472360170573,46.486500931602244],[4.785515450626836,46.48643504908574],[4.785575750600938,46.486349172764214],[4.785651803996607,46.48623467880615],[4.785746532756658,46.486081253745944],[4.785791821545994,46.48602677542942],[4.785922252235515,46.48592034841864],[4.785957073935307,46.48582099946262],[4.785960395345112,46.48579500791162],[4.785968535719711,46.48567328859228],[4.78596621152015,46.485550561899004],[4.785946335898569,46.485497101728384],[4.785913743126049,46.48543357248467],[4.785862471983117,46.48533322696524],[4.785793546368324,46.48520343474445],[4.785775167014392,46.48516778467925],[4.785735527537811,46.48510805828398],[4.785614546730355,46.48493755779149],[4.785509793985317,46.48479274331858],[4.785333172746736,46.48454367155501],[4.785190699086664,46.48434189241283],[4.784751555674867,46.48424274036187],[4.784330001029473,46.48414709492163],[4.784261750851954,46.48415734736675],[4.784250856701904,46.48420696488773],[4.784251674074275,46.48425585916886],[4.784280721219496,46.48435457081337],[4.784308918048747,46.48445518715774],[4.784290913567189,46.48456246927026],[4.784264620403543,46.484643580855135],[4.784191211881471,46.484803066725156],[4.784167965298062,46.484953393170635],[4.784144687680428,46.485031035052195],[4.784107872941473,46.48512933371754],[4.784079697237844,46.48520074726406],[4.784022140309075,46.48532666032659]]],[[[4.784450387593635,46.483458805448095],[4.784450072666958,46.48349699929548],[4.784435051319691,46.483571900386615],[4.78441111523225,46.483709087734645],[4.784365273535402,46.48382635171865],[4.784296407814215,46.483965231222214],[4.784264166435001,46.484051839773265],[4.784356952869992,46.484074169234646],[4.784535511693814,46.48407183176769],[4.784630093917456,46.484073327210204],[4.784770202262251,46.48409933076785],[4.784944247636157,46.484146330468576],[4.785005814672028,46.48415896925314],[4.785098449817459,46.48413284377018],[4.784996045574248,46.483972050094295],[4.784853547248818,46.48375748125107],[4.784823062090299,46.48371445435905],[4.784769530533573,46.48355289727433],[4.784660865835804,46.48334815770817],[4.784606312279384,46.48325894130554],[4.784572853046442,46.483220644337685],[4.784536245732191,46.483213650193065],[4.784501221489419,46.483215187802024],[4.784451659451103,46.483238658826394],[4.784422560187245,46.48326586341859],[4.784431192343114,46.4834061450221],[4.784450387593635,46.483458805448095]]],[[[4.784607760254708,46.48304419600954],[4.784616442564971,46.483054508355096],[4.784624317137491,46.48306005969574],[4.784636992994721,46.48306490558723],[4.784659336931399,46.483066358054074],[4.784717791776959,46.483067606905564],[4.784755265516942,46.483065220363514],[4.784819394026042,46.48305656312499],[4.784868670365035,46.483056243937234],[4.7848977645164,46.48305678032621],[4.784940105927738,46.48306368480253],[4.785009351884579,46.483075933438265],[4.78509895164361,46.48308858467789],[4.78513924398235,46.483092638901084],[4.785169074558861,46.48309973870172],[4.785200690679039,46.483109602720965],[4.78522874325876,46.48312213437347],[4.785266861741469,46.483143425545066],[4.785351687610424,46.48318947641465],[4.785366095412702,46.483199429062736],[4.785404762461843,46.483217559231406],[4.785438625945037,46.48323234183363],[4.7854918177473,46.483252046435744],[4.785534381077145,46.48326173934458],[4.785591768730344,46.483270209886165],[4.785618875747,46.483269786387716],[4.785648518464823,46.483267161627744],[4.785690624946385,46.483262901035175],[4.785775714152391,46.483257248296795],[4.785846742675323,46.48325622854369],[4.785881835321116,46.483252798019706],[4.785953313240136,46.48323763045909],[4.786004528685075,46.48322485106108],[4.786103129447913,46.48320178389426],[4.786241622194301,46.48316656444393],[4.786367909316674,46.48312892361606],[4.786422291764414,46.48310933940585],[4.786444438760804,46.483100797022956],[4.786463301735273,46.48308753234812],[4.786474235719775,46.48307502208529],[4.786429189990098,46.48298556782203],[4.786395551488908,46.48292989099058],[4.786344172255339,46.48286998802054],[4.786273759160212,46.4827982232949],[4.78620668270637,46.48273676423407],[4.78616476243011,46.48270688623301],[4.786106632898889,46.482671767367215],[4.786022298341333,46.48264867679152],[4.785895515310621,46.482623367274364],[4.785838243872065,46.48261444473695],[4.785740629071869,46.48260786382364],[4.785639643016292,46.48260583891261],[4.785614289447713,46.48260803639177],[4.785588994826294,46.48261203430979],[4.78553003725146,46.48262727625894],[4.785439070853518,46.48264454938182],[4.785347797253311,46.482656423134124],[4.785282292416971,46.482662850470675],[4.785279723984618,46.48264811939541],[4.785267984643269,46.482640016489135],[4.785249759397229,46.482628952572504],[4.785075360320638,46.48268652817184],[4.784957305084857,46.48273664856967],[4.784888428285681,46.482767536837294],[4.784800847917106,46.48281258765477],[4.784628119365501,46.48289733707622],[4.784620167655365,46.48290935024831],[4.784614039034903,46.482929260958464],[4.784614637179607,46.482963477551465],[4.784613176559803,46.482982594826176],[4.784605942085177,46.48300855737522],[4.784604658916505,46.48302911297069],[4.784607760254708,46.48304419600954]]],[[[4.784852687487749,46.483659500433376],[4.784872252002425,46.48370350847645],[4.784915552618901,46.483767591321914],[4.785081699316967,46.48401547626607],[4.785102513124511,46.48402992237719],[4.785102436785218,46.484043523873844],[4.785103205607288,46.48405107759814],[4.785218052364799,46.484217531273146],[4.785224496544048,46.48422319498528],[4.785328962770944,46.484243810073465],[4.785638242903411,46.484299324271355],[4.785785763130573,46.48432467039288],[4.785833236084718,46.484328972465136],[4.785866492471373,46.48432917337887],[4.785901348741378,46.484326467099756],[4.785931868915362,46.48432274774574],[4.785976464755733,46.48431484543251],[4.786050882540643,46.4842978305308],[4.7862038565102,46.4842587821496],[4.786322367424521,46.484226486906],[4.786581369959708,46.4841562384257],[4.786611469926295,46.48412775667992],[4.786654177576191,46.484086108008846],[4.786734983054607,46.4840093675962],[4.786820545393359,46.483930571252614],[4.786875535596319,46.48388972122183],[4.786918691751677,46.48385779280757],[4.786944498484027,46.483837574304516],[4.786968170407551,46.48381189500716],[4.786980353202822,46.483785764860514],[4.786989787928102,46.483755354400785],[4.786990755113228,46.483721203395305],[4.786976282460263,46.48366153426162],[4.786899863034956,46.483442331944666],[4.786838192285584,46.48325937665872],[4.786741278230625,46.48299564063874],[4.78673794995702,46.482989568026056],[4.786726875580277,46.48298983122176],[4.786710692121505,46.48298936367187],[4.786696770765283,46.48299426485448],[4.786672778151905,46.48300616866654],[4.786629495710778,46.483034226038164],[4.786590712551408,46.48306032162622],[4.786563872890828,46.483076863402054],[4.786505355052584,46.48310155614621],[4.786479700605517,46.483114476643635],[4.786445411897884,46.48313050434762],[4.786351561394666,46.48315926193916],[4.786103592905936,46.4832318594566],[4.785987480544182,46.483261685185944],[4.785900161645069,46.48328286466579],[4.785820639046777,46.48329923871019],[4.785786896755113,46.483304089208154],[4.785707826507673,46.48330640545547],[4.785651409378363,46.48330368417726],[4.785580702283154,46.48329461114075],[4.785527060892658,46.48328905431994],[4.785487716643339,46.483282103235254],[4.785443660816491,46.48327063225923],[4.785391292206808,46.48325217573103],[4.785324228006882,46.48322692341233],[4.785248432949121,46.483197844429064],[4.785216536815866,46.48317942831164],[4.785218919292835,46.48317254591025],[4.785192110311016,46.48316215646867],[4.785117122532079,46.48314180141182],[4.785035958917277,46.4831239746054],[4.784988845628892,46.48311867585056],[4.78489971862679,46.48311250205518],[4.784833598310022,46.483112093549956],[4.784786965966841,46.483117505322994],[4.784613660175714,46.483144800179446],[4.784666404697579,46.48324647424403],[4.784761427096614,46.483432782715425],[4.784772188946975,46.48345882451844],[4.784852687487749,46.483659500433376]]],[[[4.785120189553265,46.47902905548678],[4.785165508247794,46.47908319919587],[4.785238228271688,46.4791897849516],[4.785350077500932,46.47935259249713],[4.786259062355852,46.47889813456332],[4.786326858896056,46.47898570212442],[4.786372470588211,46.479028852455365],[4.786467312201262,46.479102216731334],[4.787131267327943,46.47891323031255],[4.787161616247587,46.47890437935921],[4.787143445442221,46.47875569042994],[4.787132285679276,46.47864589146337],[4.787131042776723,46.47861591813158],[4.78711612972485,46.47855868771742],[4.78705161980584,46.478404328548265],[4.786999308045013,46.47832381480823],[4.786957240798146,46.47824160969545],[4.786860718121037,46.47810099103855],[4.786681403902898,46.47782097991339],[4.786652342050164,46.47775766586044],[4.786633694066262,46.47772967593165],[4.786590766357359,46.47764505229803],[4.786559627489207,46.47758996691573],[4.786518791966333,46.477497564668916],[4.786490468660753,46.477428924997426],[4.786405847096701,46.4772336285657],[4.786242894062283,46.47727787737946],[4.786150055302914,46.47730139520947],[4.78606409035865,46.4773238147805],[4.785983015144495,46.4773442664324],[4.785900565434525,46.477366540872914],[4.785685714635153,46.47742249816905],[4.785422419165545,46.477492091702096],[4.785329727676891,46.47751614696296],[4.785297925212126,46.47752438966848],[4.785244578655715,46.47747190258742],[4.785204375348705,46.47740272766118],[4.784998650250089,46.477064311980385],[4.784350301673867,46.47729150179845],[4.783501438203876,46.47758270351511],[4.783551914482239,46.477675046366734],[4.7837051466621,46.477943400092435],[4.783781168251402,46.47810721863092],[4.783850657295397,46.47823871450442],[4.783881880698846,46.478288485233044],[4.783900190285464,46.4783141390958],[4.783963735121437,46.47838745350526],[4.784084825134791,46.47851805366098],[4.784156315750559,46.47859511686147],[4.784200388169533,46.47863910267557],[4.784280329457724,46.47871144038469],[4.784344291154911,46.47876160053179],[4.784392921032182,46.478793445965],[4.784456776093432,46.47882838617374],[4.784731951572277,46.47889848555485],[4.784933325192683,46.47894442779119],[4.785013865003102,46.47897127115976],[4.78506144318839,46.4789908834524],[4.785120189553265,46.47902905548678]]],[[[4.786217665540228,46.485735325450676],[4.786256359398748,46.485726344395474],[4.786361496297102,46.48569966227441],[4.786428892888224,46.48568320723432],[4.786651929938954,46.48554182650924],[4.786738527408049,46.48540699164655],[4.786722136474356,46.4852529609418],[4.786704753712789,46.48509651389362],[4.786702235281606,46.48505944513668],[4.786661993490466,46.484682868292374],[4.786392235275016,46.48461989392052],[4.78624338534605,46.48458583272571],[4.785943921063136,46.48451557569525],[4.785774735708901,46.48447768851471],[4.785457348455513,46.484636573664964],[4.785552892296851,46.48474307290838],[4.785569461981916,46.48473939145707],[4.785678877306078,46.48491907951047],[4.78575609911622,46.485027486071836],[4.785817439686178,46.48513271812853],[4.78583844708742,46.485125184436534],[4.786028816278745,46.485431594240204],[4.786217665540228,46.485735325450676]]],[[[4.786388163656638,46.48424482322259],[4.786217085360307,46.48429244107427],[4.786121396991765,46.48431690388423],[4.786011995498799,46.4843566223003],[4.785852330092377,46.48443423411645],[4.786361924063375,46.48455038462978],[4.786671826903874,46.484620837672715],[4.786637991701538,46.484396015764865],[4.786621413950757,46.48418452438861],[4.786562896073445,46.484201291131875],[4.786518064484475,46.484201991899795],[4.786388163656638,46.48424482322259]]],[[[4.786780262341884,46.48488592476797],[4.786787487528529,46.48494327537322],[4.787188915841311,46.48482234218896],[4.787067821301034,46.48478775798014],[4.786780262341884,46.48488592476797]]],[[[4.787059704336465,46.48379199983932],[4.786980698149823,46.48386393874493],[4.786912846232569,46.483914176880376],[4.786831303206986,46.483972374889746],[4.786794061627479,46.48400574196427],[4.786768271363296,46.48403442659191],[4.786757175792721,46.48405792773556],[4.786752235487342,46.48407827033117],[4.786723694061195,46.48421003606951],[4.786696480443199,46.48433457557665],[4.786704001511148,46.484393002383854],[4.786729024192293,46.48453987284583],[4.786747107990339,46.484638124839044],[4.786892827077248,46.48467610726856],[4.787083705301053,46.48472734401196],[4.787181697699014,46.48475328261458],[4.787306379397536,46.48478591917423],[4.787435966914845,46.48481307478174],[4.787638117578846,46.48485413674547],[4.787733834382966,46.48486633002411],[4.787807373149733,46.48487022357793],[4.787884386922511,46.4848687486965],[4.788069450160711,46.484810191447174],[4.788351922409333,46.484723989981106],[4.788678264436061,46.48462368108094],[4.789080056884835,46.484498141963165],[4.789096698270422,46.48448473149279],[4.789100043551073,46.48447143908211],[4.789068838889077,46.48438672289122],[4.789002768577514,46.48422095052276],[4.788928478785152,46.48403116845503],[4.788802463868405,46.48371537968116],[4.788767919350325,46.48362819377036],[4.788685579391605,46.48342349613005],[4.78848141646398,46.482907447137066],[4.788431208760082,46.48278393848531],[4.788334649643125,46.482543165562525],[4.788235981455935,46.482285762917314],[4.788074290995995,46.482333146729665],[4.787934183661929,46.48237469849885],[4.787743065943227,46.48243127881333],[4.787793513045608,46.482617831832385],[4.787804455258218,46.48265729073351],[4.787727693055165,46.48268623251562],[4.787660572040314,46.48271097036927],[4.787791370181568,46.4828786131652],[4.787667716160683,46.48292891403998],[4.787579596863037,46.48296541895619],[4.787457864816615,46.48301469878487],[4.787330477469633,46.48295508426066],[4.787211812559302,46.482899026003366],[4.787192836179828,46.48292075900059],[4.787189038645248,46.482924240979145],[4.786815576696642,46.48303473961999],[4.786890726050544,46.48324306358654],[4.786926161085078,46.48335752679072],[4.78693390937485,46.483379112107734],[4.786974307585901,46.48350178398233],[4.786997059739067,46.48357537431924],[4.787019601983881,46.4836465360897],[4.787044097555718,46.48372955632926],[4.787086693269014,46.48376807001787],[4.787059704336465,46.48379199983932]]],[[[4.788071249678378,46.476382556155485],[4.788157493405343,46.47659935242572],[4.788202075680837,46.47670655679576],[4.788252487270844,46.47683249423242],[4.78831811202558,46.47698899698389],[4.788362516124375,46.4769157970203],[4.788753361792947,46.47674440434909],[4.789702429184681,46.47632964098077],[4.789722499809552,46.47635724787823],[4.789953954475373,46.4763228193561],[4.790006719928773,46.47638927401894],[4.789975138705156,46.47638832759835],[4.789677427860041,46.476370293132696],[4.788384426630987,46.47693193665959],[4.788332061927498,46.47703273207703],[4.788417626661982,46.47724863810151],[4.788474386819805,46.47733754803779],[4.788533950669978,46.47740858051972],[4.788709571500288,46.47753994371825],[4.788927076975666,46.47765642019454],[4.789068384840062,46.47774724878252],[4.789266212639481,46.4778599796086],[4.789390404423746,46.47790991451629],[4.78944348578275,46.47793033951469],[4.789536239258885,46.477963833667864],[4.789578926536723,46.477973433016395],[4.790128355576262,46.47757294001841],[4.790312997451693,46.477681101980444],[4.790496706024283,46.47755032661486],[4.790781383126055,46.47734987700956],[4.790767577428783,46.477334421430555],[4.790721386548229,46.47728560757046],[4.790677343526666,46.47722676243523],[4.79208486728157,46.47651648516505],[4.79216363382215,46.476600454763464],[4.792257428711286,46.47656646904147],[4.793126762628946,46.4762256125638],[4.793474056853601,46.47611406183503],[4.793691275606726,46.47605120730137],[4.793668229673385,46.47603229435356],[4.793607316151672,46.475960024673626],[4.793594301575258,46.47587745591648],[4.793559867862892,46.47571839483276],[4.793537245863766,46.47568065087319],[4.79346428631721,46.4755711016519],[4.793425051042785,46.475515784823585],[4.793388167226283,46.475460611216924],[4.793364905776671,46.47542323753481],[4.793328762604014,46.47535886529159],[4.793248064135587,46.47517648183674],[4.793226102968316,46.47513899765485],[4.793184588156203,46.47507380897594],[4.793101662583178,46.474938656307955],[4.793085810742554,46.474912514947505],[4.792980963291323,46.47474104826087],[4.792939934770598,46.4746747710452],[4.791924846283491,46.47500692385114],[4.791805120012408,46.474862619952276],[4.79164722424354,46.47467153832802],[4.791533448539564,46.474533715866855],[4.791476584557041,46.474465524770196],[4.791351491940111,46.47431653091689],[4.791276941387469,46.47422582963917],[4.791212103574249,46.47414902676221],[4.791168636740649,46.47409575703571],[4.79112771072592,46.474044428976214],[4.789188665196193,46.47484029759616],[4.789225311423615,46.47488439778718],[4.78925747132892,46.47492685691097],[4.789323740279181,46.475007601462764],[4.789394101963373,46.475089903123894],[4.789682488499555,46.47497496302083],[4.789714340947698,46.47501598574113],[4.789691184865009,46.47502544531683],[4.789477730797613,46.475107688090446],[4.78936302293264,46.475143980524784],[4.789155073502628,46.47484559716612],[4.789090429495134,46.47477860755848],[4.788855494164855,46.474853799871156],[4.788825003557144,46.47479465184099],[4.788512406960904,46.4749068162901],[4.788474889667309,46.47484408534045],[4.788284371853851,46.4745920831196],[4.788013017373391,46.47468973025482],[4.787204249718329,46.47497736090187],[4.787387858334579,46.47522550990741],[4.78753054938421,46.47543439837233],[4.787600634074011,46.475536160211945],[4.78773584573464,46.47572363907914],[4.787809546770881,46.47582831648173],[4.787878049574152,46.47591758339678],[4.787925894727768,46.47602095394655],[4.788032798180628,46.476275435948914],[4.788071249678378,46.476382556155485]]],[[[4.788905560676656,46.483690258222744],[4.789043950891607,46.48403746717001],[4.789133472731548,46.48427420654138],[4.789220431303498,46.484500357908125],[4.789312372504167,46.48472733189087],[4.789376250220529,46.484885842882214],[4.789403393681093,46.48495008699512],[4.7894730314717,46.48512517039781],[4.789489920904217,46.48515507885992],[4.789553170893249,46.485254694892745],[4.789615890262834,46.48536197500955],[4.789622556603962,46.48537439012872],[4.789631041863619,46.4854183907536],[4.78968251951706,46.48557646526118],[4.789721279543193,46.4856887139668],[4.789817407863824,46.485979570515966],[4.789850871230753,46.4860694751057],[4.789889373215385,46.48615794975709],[4.789958419863749,46.486318901406754],[4.790001435206007,46.48642171627428],[4.790125657635322,46.48672222024917],[4.790165122179246,46.48682409991813],[4.790315778065601,46.48719093032276],[4.79039188276732,46.487395994719805],[4.790502876136623,46.487678691856374],[4.790542502241714,46.4877775065469],[4.790581006014681,46.48787390696133],[4.790624103304103,46.48798311517293],[4.79070717117139,46.48818969151531],[4.790766611623097,46.48833593192141],[4.790810476873496,46.48844467769276],[4.790847364109362,46.48854344512463],[4.791309313224099,46.48850180047279],[4.791873414895578,46.48844179987485],[4.792444221549473,46.48838349269619],[4.792425889386591,46.48828200291853],[4.792424861781943,46.48827454335843],[4.79331303246234,46.48816775159843],[4.794336402699368,46.48804838263104],[4.794996990065888,46.48797244084213],[4.794859892162363,46.487467868717886],[4.794820409149029,46.48733005351708],[4.794799045926926,46.487255452030396],[4.794755608342606,46.487056902703685],[4.794749073622615,46.48700890876302],[4.795044094704587,46.48697509373795],[4.79496579852937,46.48673566042377],[4.794791737106893,46.486134034436915],[4.794709950687824,46.48584791022553],[4.795221719892776,46.485712246173925],[4.795958103931763,46.48551558690064],[4.796521804553664,46.48536532041979],[4.796406663550516,46.48513169106586],[4.79627962137255,46.484869246581255],[4.796215677289582,46.48474100319767],[4.796185173035826,46.48467789421432],[4.796039750021175,46.48437592805379],[4.795921360648262,46.48413064037642],[4.795774601965002,46.48383554009249],[4.795839493669969,46.48382236124217],[4.796122782192289,46.48377728877958],[4.796270534429859,46.483734345832424],[4.796268057864067,46.48372249570865],[4.796254372508471,46.48359994737944],[4.796215569816063,46.48328883000175],[4.796203320911625,46.483158423122774],[4.79617645939417,46.483059409605936],[4.796105840142163,46.48279571790858],[4.796103621796068,46.48270856641952],[4.796085644090367,46.48254672556004],[4.796083989874466,46.48250045632301],[4.796072520414818,46.48236994710317],[4.796116363056335,46.482161109680746],[4.796164865716214,46.481994801419944],[4.796198683004502,46.481897266104774],[4.796241052606199,46.481766451131215],[4.796263218948982,46.48169521878707],[4.796296653089505,46.481578144575394],[4.796307434943957,46.48152546513877],[4.796340818764745,46.48133561629339],[4.796349818050419,46.48129611487874],[4.796438210491175,46.4811177407565],[4.796507892609495,46.48100072716446],[4.79652464923218,46.48097902743868],[4.796572728694803,46.480946387367865],[4.796677094608863,46.48075028862115],[4.796789251335444,46.48047408636254],[4.796883840088024,46.48023851091657],[4.797019867479221,46.48011306818199],[4.797058278503549,46.4800719333257],[4.797163722743541,46.47983348484791],[4.797197858550352,46.479769449670115],[4.797420348754859,46.47952204480721],[4.79754950859368,46.47930700103347],[4.79760451288425,46.47921948983659],[4.797679963844914,46.47912733368838],[4.795320783231554,46.47955612767624],[4.7958635588948,46.48093807841442],[4.794211577174559,46.4812743112054],[4.794266686425284,46.48143151627393],[4.794368085657619,46.481711658627454],[4.7944786942842,46.4820338984286],[4.794529759146662,46.48216720865225],[4.794599560716612,46.482311213006405],[4.794647403299156,46.48238620938138],[4.79467021860814,46.482453492571956],[4.794823754585269,46.48289538949788],[4.794950753811729,46.483259883797324],[4.794986013175499,46.48336849307395],[4.795039472980491,46.48344772436294],[4.795145661186545,46.4835879144511],[4.795285177622579,46.48375820423069],[4.79538014171304,46.48390991905033],[4.795362681424316,46.48391424640806],[4.79534856212249,46.483917080185805],[4.795241857043997,46.48375726345969],[4.795146239399584,46.48362924681394],[4.795058972060715,46.483525147235056],[4.794977587182903,46.4834096065763],[4.794945399950967,46.48335868296221],[4.79492188490801,46.48328996971834],[4.794802758542663,46.482942825047495],[4.794720512074948,46.48268616039443],[4.794679483958192,46.482564671759384],[4.794662109659757,46.482528016494626],[4.794605807760477,46.482413883085194],[4.794567291941599,46.48233702894428],[4.79451379242461,46.48225257409779],[4.794479897197176,46.48215763367678],[4.794455041549346,46.48208380748463],[4.794424748082621,46.48199529542932],[4.794400843288031,46.481906773129054],[4.79435043648287,46.48175778059794],[4.794340117628573,46.48173740698433],[4.794300900720613,46.48165506958635],[4.794254540169685,46.481537897743316],[4.794190433129405,46.4813251715837],[4.79417130031269,46.48127071028891],[4.794096975840215,46.48107633831925],[4.794089438352747,46.4810374569758],[4.794081115939089,46.48101831295894],[4.79404399099484,46.48092027071544],[4.794011406455058,46.480833415752365],[4.793947691636341,46.480699943600015],[4.793878110064548,46.48055458438815],[4.793837079306778,46.48045669345647],[4.793804430127223,46.48037974698909],[4.793756857014738,46.48030492619001],[4.793741714130184,46.48027661214213],[4.793725594333878,46.480206701768914],[4.793691245627519,46.48011374974858],[4.793666691186182,46.480033163525135],[4.793650361307207,46.47996082458826],[4.793633794480761,46.47989317293083],[4.793599479197663,46.47976158096264],[4.7935611126885,46.47961780324415],[4.793525405980924,46.47947164198899],[4.793478285252161,46.47932728107942],[4.793416306865447,46.47914343308881],[4.793376726494552,46.47903011751993],[4.79338418695917,46.47902306516997],[4.793388872459161,46.47901092245966],[4.793391905935907,46.47896439949532],[4.793402956622221,46.47891189626443],[4.793420967199594,46.47885297901383],[4.793452205394243,46.47872450140498],[4.793459402769833,46.47868169596902],[4.793453933218967,46.47864620473238],[4.793430249957027,46.47860001096399],[4.793368377509563,46.478514516120576],[4.793087742269444,46.47863555839628],[4.79298253311254,46.478675398137725],[4.792877910047479,46.47872117310727],[4.792728361434013,46.478788458554426],[4.792644827782463,46.47882930898079],[4.792500636149421,46.47889696043202],[4.79228765618704,46.478997935042344],[4.792118403744942,46.479104438266695],[4.792088383695886,46.47912724600619],[4.79205328902168,46.47918210762656],[4.79202697976139,46.47920674859858],[4.791962763707294,46.479248286346106],[4.791894765536621,46.47928979328866],[4.791653676969289,46.47938850533713],[4.791744699173202,46.47953983446334],[4.791801908356154,46.479630266960584],[4.79181143161286,46.47966218202837],[4.791822748257148,46.47972487239704],[4.791822655136211,46.47975378583846],[4.791865484517887,46.47993829511351],[4.79187099840976,46.47995532167172],[4.791914054784257,46.48003561814283],[4.791967840760304,46.48013294943996],[4.792081547512227,46.48038732123235],[4.792109841092589,46.48045082618251],[4.792136985565749,46.480515069693155],[4.792239309676683,46.48075232668236],[4.792297434093353,46.48089831684194],[4.792387678979634,46.4810417316508],[4.792444644963586,46.48113261800202],[4.792559103932146,46.481338340572336],[4.79258850410613,46.48137597840221],[4.792622889419899,46.48139867673409],[4.792636587187536,46.48141080126246],[4.792671454403046,46.48146402523439],[4.792735590948884,46.48158263013288],[4.792789235894004,46.481639882806775],[4.792833856869103,46.48168043421058],[4.792877192484966,46.48172154617243],[4.792990154825092,46.48183803395398],[4.79305955377556,46.48190647804976],[4.793171055844009,46.48206577109846],[4.793269654427739,46.482201398361575],[4.793321739386132,46.482274617396044],[4.793347613080584,46.48231204016962],[4.793376425024358,46.482343652449515],[4.793427079703786,46.48241698395029],[4.793436684515397,46.4824394404205],[4.793490353207477,46.48260045129791],[4.793552377381829,46.48277367041081],[4.793571015103199,46.482856691271174],[4.793603788884857,46.48300875294582],[4.793693284370661,46.48324810146947],[4.793716990307175,46.48332266639683],[4.793732021386639,46.48335944863813],[4.793823469719119,46.483618491410894],[4.793789162198555,46.483625965135694],[4.793780842270437,46.48362672619372],[4.793710280859058,46.483400140514455],[4.793625627578041,46.48316927251936],[4.793573714172884,46.48301805162348],[4.79353878121014,46.48287169813919],[4.793515372615555,46.4827466901631],[4.793478131697928,46.48266891498854],[4.793400464134711,46.482460094055334],[4.793387577785428,46.48242904250088],[4.793295361195973,46.48229322512665],[4.793248879837789,46.4822278441841],[4.793222235319699,46.482234386900785],[4.793143643696578,46.48210051727548],[4.792982885633809,46.481878678809174],[4.792927459986691,46.481830731209676],[4.792847908936578,46.481739028490274],[4.792769083393574,46.481661455088194],[4.792713403896457,46.48159783945722],[4.792653637928303,46.48151303173885],[4.792604412580699,46.481443460370734],[4.792570975976716,46.481390123872224],[4.792558293634089,46.48139302484463],[4.792448311329888,46.48122830328643],[4.792408967053034,46.48115389330623],[4.79233191291152,46.48102702438266],[4.792259816916324,46.480904220805655],[4.792201671886128,46.480757600472515],[4.792148623177341,46.48063909162679],[4.792108397900417,46.48054578098481],[4.792023881372775,46.48035841279977],[4.791957210737573,46.480214177743576],[4.791900867299646,46.480082660520466],[4.791870607609873,46.480018826074286],[4.791826766470955,46.479938451823365],[4.791801494908001,46.47986373093578],[4.791788791172992,46.47975882019821],[4.79178528098964,46.4797075362001],[4.791769566455474,46.47964194251962],[4.791701713797336,46.47953708577871],[4.791647066391206,46.4794531880715],[4.791593463827195,46.4793852160804],[4.791589372279161,46.47935591789887],[4.791585540370185,46.479286895448],[4.791592868224151,46.47927182920374],[4.791636311312351,46.47923692212571],[4.791717377448258,46.479172513203544],[4.791729891305606,46.47915259201401],[4.791741108689332,46.479117019232795],[4.791735536146005,46.47909026619109],[4.791725340026196,46.479073583239426],[4.79171191550132,46.47906181459966],[4.791680185214404,46.47904844151208],[4.79163944825347,46.479042685300215],[4.791603959066443,46.47904189064009],[4.791423804707609,46.4790666014059],[4.791276513666515,46.479123311507216],[4.79105374601072,46.47921218786596],[4.790807571119431,46.479310887757116],[4.79063172150268,46.47938335614735],[4.790498594740391,46.479434709384314],[4.790408554885027,46.47947205732595],[4.790272584156746,46.47952813840565],[4.790130937253611,46.47960196164331],[4.789945731197571,46.479695291242415],[4.789689320318917,46.47981990853804],[4.789575225956309,46.47987519583328],[4.789647874627227,46.47995944307063],[4.790037514085395,46.47979842313],[4.790085278500853,46.479855408850504],[4.790200412363896,46.47999068955958],[4.789806466375079,46.48014367132282],[4.789788340178337,46.48015152094081],[4.789769858483287,46.48016045694415],[4.789968946204983,46.480386743217366],[4.789992164062649,46.480410878181985],[4.790064198277954,46.48049225260299],[4.790111486692695,46.48054663378741],[4.790163238137668,46.480605898808264],[4.790212741821653,46.4806642082638],[4.789761229656864,46.4808192623838],[4.789815100570457,46.48096297853342],[4.789823915506142,46.48098923052837],[4.789850879322217,46.481059962292825],[4.789892221824821,46.48117550306606],[4.789908581812734,46.48122109166477],[4.789939004063915,46.481305819916486],[4.789984471531437,46.4814357970669],[4.790012892288183,46.48151515254286],[4.790023303104658,46.48155029629987],[4.790014646143717,46.4816599550668],[4.790011830462304,46.48168539845623],[4.790008714174249,46.48172949071272],[4.790001231270209,46.48182327904787],[4.789996429520254,46.48190738806975],[4.790010246576286,46.48190329872457],[4.790020820435045,46.4818997105155],[4.790047623677082,46.48194963894876],[4.790077530372845,46.48200672423957],[4.790039263241765,46.48201669071368],[4.790025920159347,46.48201933154401],[4.789879968804164,46.48205755466755],[4.789703415524125,46.48210094036974],[4.789577474165975,46.482133085376695],[4.789373825056911,46.48218518112357],[4.789462511923904,46.482233600377334],[4.789492297587523,46.4822472747472],[4.78955780788252,46.48226885616348],[4.789694994347468,46.482321109307904],[4.789802848585803,46.48235760933411],[4.789830416658285,46.48236330225941],[4.789891591534206,46.48237990755298],[4.790292602520111,46.48295402736271],[4.790402653854775,46.483105059423956],[4.790463196591392,46.483154008880874],[4.79059779529974,46.48323854600706],[4.790634446118307,46.48322698345186],[4.790684865798052,46.48331707251559],[4.79079641025831,46.48353734341977],[4.790884980326179,46.48370915714572],[4.790949402395522,46.483836495143436],[4.791083513613672,46.48409270972733],[4.791042940998953,46.484100010591156],[4.790986710332151,46.483983892901165],[4.790914149806468,46.48383902904416],[4.790828747817898,46.4836803156853],[4.790734341354861,46.483489588932244],[4.790665057683333,46.483349177003824],[4.790595145331301,46.48326903064108],[4.790463733664192,46.4831822819423],[4.79039344069561,46.48313024276263],[4.790364505083516,46.48310673784794],[4.790250518791155,46.48293910473657],[4.79012933039642,46.48276654049444],[4.79001061263576,46.48259772030834],[4.789918863085885,46.482463964599454],[4.789874819061386,46.48241313525517],[4.789850391747446,46.48239190139135],[4.789754887263443,46.482366196357845],[4.789622818208338,46.48231890698088],[4.789367014971529,46.4822279801566],[4.789131312942893,46.482276794419626],[4.789113722361543,46.4822811228641],[4.788993321976202,46.482311289039295],[4.78888226314688,46.48234004791323],[4.788624658480003,46.48240883883892],[4.788395385021302,46.48243107085928],[4.788524874058542,46.4827535608253],[4.788728984481578,46.48326006332824],[4.788860808505449,46.483582066046054],[4.788881482979625,46.48357633835472],[4.788924063990431,46.48368591553247],[4.788905560676656,46.483690258222744]]],[[[4.790287246001174,46.48837928828085],[4.79029423395589,46.4884968080421],[4.790307997552377,46.48859827958534],[4.790757646087233,46.48855133567058],[4.790717231111302,46.488452353274596],[4.79067310241623,46.48834352152925],[4.790611153348557,46.48819632962596],[4.790524957835895,46.48798980221385],[4.790479721929458,46.48788296924486],[4.790441713058594,46.48778575043198],[4.790401079937685,46.48768803230312],[4.790277805410253,46.487376795639875],[4.790193698650054,46.48715834625492],[4.790131844135739,46.48700998173513],[4.790086935180362,46.486909088007046],[4.790084516773888,46.48704197666281],[4.790141367031004,46.48747881834762],[4.790158129832609,46.48755250190289],[4.790168355711969,46.48758197422354],[4.790242810678606,46.487705012306435],[4.790267347275124,46.48780496410613],[4.790269004738438,46.48790311261153],[4.790271629818605,46.48801484627551],[4.790278992827965,46.488227202102365],[4.790287246001174,46.48837928828085]]]]}},{"type":"Feature","properties":{"dt":"Mâcon","type_prod":"Vins","categorie":"Vin primeur, Vin tranquille","type_denom":"dénomination géographique complémentaire","signe":"AOC","id_app":583,"app":"Mâcon","id_denom":1726,"denom":"Mâcon Lugny - rouge exclusif","insee":"71035","cvi":"1B370 48, 1B370 49, 1R371 57, 1S371 57","nomcom":"BISSY-LA-MACONNAISE","insee2011":"71035","nomcom2011":null,"id_aire":1994,"crinao":null,"grp_name1":null,"grp_name2":null},"geometry":{"type":"Polygon","coordinates":[[[4.785329727676891,46.47751614696296],[4.78543059318478,46.47770992938972],[4.785458357680927,46.47776551812304],[4.785464194163985,46.47778848443221],[4.785486441289112,46.47786271343833],[4.785530858364241,46.477921194370495],[4.785592455126347,46.47803849169407],[4.785641481521145,46.47811032074974],[4.785695958385858,46.47821322826596],[4.785717114369063,46.47824216990332],[4.785778903011017,46.47834937647966],[4.785825692043746,46.47845240406851],[4.785849806402648,46.47848409157216],[4.785876312936419,46.47852114578915],[4.784731951572277,46.47889848555485],[4.784933325192683,46.47894442779119],[4.785013865003102,46.47897127115976],[4.78506144318839,46.4789908834524],[4.785120189553265,46.47902905548678],[4.785165508247794,46.47908319919587],[4.785238228271688,46.4791897849516],[4.785350077500932,46.47935259249713],[4.786259062355852,46.47889813456332],[4.786326858896056,46.47898570212442],[4.786372470588211,46.479028852455365],[4.786467312201262,46.479102216731334],[4.787131267327943,46.47891323031255],[4.787161616247587,46.47890437935921],[4.787143445442221,46.47875569042994],[4.787132285679276,46.47864589146337],[4.787131042776723,46.47861591813158],[4.78711612972485,46.47855868771742],[4.78705161980584,46.478404328548265],[4.786999308045013,46.47832381480823],[4.786957240798146,46.47824160969545],[4.786860718121037,46.47810099103855],[4.786681403902898,46.47782097991339],[4.786652342050164,46.47775766586044],[4.786633694066262,46.47772967593165],[4.786590766357359,46.47764505229803],[4.786559627489207,46.47758996691573],[4.786518791966333,46.477497564668916],[4.786490468660753,46.477428924997426],[4.786405847096701,46.4772336285657],[4.786242894062283,46.47727787737946],[4.786150055302914,46.47730139520947],[4.78606409035865,46.4773238147805],[4.785983015144495,46.4773442664324],[4.785900565434525,46.477366540872914],[4.785685714635153,46.47742249816905],[4.785422419165545,46.477492091702096],[4.785329727676891,46.47751614696296]]]}}]}
