{"type": "FeatureCollection","name": "aoc_geojson","features": [{"type":"Feature","properties":{"dt":"Angers","type_prod":"Vins","categorie":"Vin tranquille","type_denom":"appellation","signe":"AOC","id_app":1028,"app":"Fiefs Vendéens","id_denom":2342,"denom":"Fiefs Vendéens Mareuil","insee":"85061","cvi":"1B710S, 1R710S, 1S710S","nomcom":"CHATEAU-GUIBERT","insee2011":"85061","nomcom2011":"CHATEAU-GUIBERT","id_aire":1687,"crinao":null,"grp_name1":null,"grp_name2":null},"geometry":{"type":"MultiPolygon","coordinates":[[[[-1.301697685079547,46.55713222511891],[-1.301727703688858,46.55710846125844],[-1.301790304591242,46.55708013513133],[-1.301901261144216,46.55704007032014],[-1.302039818426774,46.55700022954158],[-1.302136347179961,46.55697775088562],[-1.302248748627079,46.55695927405393],[-1.302356464895779,46.556946023342014],[-1.302454026430808,46.55695975706907],[-1.30254268949558,46.55696841484305],[-1.302718916124541,46.556990009920256],[-1.302978094922337,46.557019124392866],[-1.303157414456895,46.55704015153639],[-1.30305451694214,46.55724493996593],[-1.302912137908134,46.55753733378136],[-1.302882828219439,46.557596511207635],[-1.302848605851074,46.55766299752753],[-1.302813051561489,46.55772917323718],[-1.303043869645317,46.55777486540551],[-1.303241764439996,46.557850562799544],[-1.303296635502539,46.55786996032586],[-1.303233961885614,46.558003166939486],[-1.303167045951694,46.558135631360436],[-1.303042185320569,46.558394992149395],[-1.302977356272608,46.5585257546864],[-1.302765313628258,46.55895892185716],[-1.302703007174114,46.55908192414186],[-1.302576679963027,46.5593360188973],[-1.302167382150968,46.56095838622092],[-1.30201322000899,46.560868777366025],[-1.301773594257326,46.56072340681537],[-1.30153814569935,46.56057463228881],[-1.301512790079175,46.56055818168494],[-1.300515410233285,46.55992621251191],[-1.300830677170932,46.559005815598],[-1.30089913063575,46.558740553312354],[-1.300911955652519,46.558691104443035],[-1.300909472720972,46.558671268535775],[-1.300904030729531,46.55862557271689],[-1.300943430298804,46.55860470270192],[-1.30096701370152,46.55857559009313],[-1.300991805690818,46.55854688291232],[-1.301017683029974,46.55851867597144],[-1.301038972369262,46.55848865766915],[-1.30110707348425,46.55837607942819],[-1.301133133790569,46.55832703450277],[-1.301142149274142,46.55830712683571],[-1.301176850728562,46.55823178568393],[-1.301217899003829,46.558139162194],[-1.301257752750776,46.55804631307848],[-1.301461829732134,46.55759992189635],[-1.301474525444278,46.55757365349001],[-1.301513747734005,46.55749101809092],[-1.301551645189474,46.55740816197369],[-1.301571149619977,46.55736549560418],[-1.301632731597655,46.557238282811916],[-1.301636170369709,46.557228865139116],[-1.301643327506765,46.557211913010455],[-1.301651809349832,46.55719518158355],[-1.301661499774109,46.55717885558202],[-1.301672398778726,46.557162935005564],[-1.301684499255299,46.557147329943334],[-1.301697685079547,46.55713222511891]]],[[[-1.290947021874276,46.571092173788216],[-1.290974618906044,46.57107734145731],[-1.291076621058167,46.571026081874635],[-1.291182324758285,46.57097865111461],[-1.291291469273809,46.57093505894927],[-1.291307365972109,46.57093103583651],[-1.291415501343249,46.5709061480389],[-1.291525555714463,46.57088569698655],[-1.291637137993223,46.57086969734846],[-1.291749987460784,46.5708581589035],[-1.291863582654649,46.57085110121499],[-1.291977553765543,46.57084880868896],[-1.292233185504262,46.570838855760414],[-1.292832110340557,46.570793114019224],[-1.293156947044274,46.57077199490558],[-1.293268856402553,46.572801467990416],[-1.293649332314692,46.57285391821396],[-1.293513012997538,46.5744022349896],[-1.292188979444068,46.57424289262165],[-1.290811386972427,46.5738238509147],[-1.290733118364016,46.573786477690525],[-1.290728458528688,46.573783766818345],[-1.290724073636057,46.57378122598682],[-1.290511975254087,46.57366022855621],[-1.290256218721595,46.57355601790721],[-1.290066601944397,46.573474665935166],[-1.289883249417433,46.57338983237899],[-1.289704751013973,46.57330021749736],[-1.289675972085186,46.573285155076086],[-1.289315279209864,46.57312536088697],[-1.289377013745595,46.573029352268144],[-1.289525708792822,46.572837200530905],[-1.289801396936894,46.57243143653093],[-1.289821558781585,46.5724068737249],[-1.289783897771211,46.57239358727422],[-1.289634203559634,46.57234419316204],[-1.289171108788207,46.572242164590506],[-1.288710596195649,46.57213471696518],[-1.288510500717704,46.57208621918285],[-1.288537786143209,46.57197121276805],[-1.288616214382497,46.57170712037208],[-1.288628159027097,46.57164300772431],[-1.288796599815548,46.57167646028985],[-1.289046504821518,46.57165518673089],[-1.289466278890296,46.57162411594842],[-1.289555174176662,46.57161555208958],[-1.290047167344848,46.57154353586488],[-1.290186584005168,46.57151071281938],[-1.290323090860005,46.571472497946495],[-1.290393004186792,46.571450397437104],[-1.290394918862447,46.571453121105115],[-1.290405855449005,46.57146578654414],[-1.290468336926529,46.571435668467295],[-1.290577883453095,46.57136068039611],[-1.290580082889585,46.57136204072622],[-1.290606768651178,46.57134228294475],[-1.290604287194156,46.57134066266303],[-1.290851144841352,46.57115312294088],[-1.290947021874276,46.571092173788216]],[[-1.290405732165862,46.57146588134517],[-1.290405992913779,46.57146587156497],[-1.290405855449005,46.57146578654414],[-1.290405732165862,46.57146588134517]]],[[[-1.272371459714312,46.57519694308788],[-1.271986693859538,46.57505810405013],[-1.271596295677656,46.574922449903916],[-1.271383428214363,46.5748527571649],[-1.27133908687338,46.57479931550015],[-1.271540066377597,46.57447114624347],[-1.271855735116395,46.57394995587458],[-1.27187424357658,46.57390922667573],[-1.272060130045206,46.57393510869695],[-1.272247104890983,46.57395653116371],[-1.272322611439501,46.57396390101777],[-1.272382738037672,46.574213335878895],[-1.272436258035947,46.57446355852018],[-1.272483026838942,46.574714393996466],[-1.272505262059707,46.57484765485097],[-1.272508319777387,46.574886586741265],[-1.272489277495448,46.57523519592181],[-1.272371459714312,46.57519694308788]]],[[[-1.269108239029241,46.57402637446629],[-1.269114708737098,46.5740255017882],[-1.269184878474862,46.5740181939038],[-1.269255668825128,46.57401546176664],[-1.269346260065614,46.57401676988205],[-1.26944244764116,46.57402273853505],[-1.269537677196076,46.57403316146764],[-1.269540327175749,46.57403360361396],[-1.269598235930867,46.57404668190037],[-1.269653854633212,46.574063903534814],[-1.269660592498975,46.574066447488605],[-1.269760920958,46.57410851190381],[-1.269857620394672,46.574154318718364],[-1.270254621302827,46.57439920515152],[-1.270308758860357,46.57443253303662],[-1.270441357941822,46.57451586493906],[-1.270738042305795,46.57473212170969],[-1.270829924864507,46.57479316693215],[-1.27093443948332,46.57484355061886],[-1.271907755168435,46.575160245207215],[-1.272705647424517,46.57546265360794],[-1.272776492032334,46.575502209754525],[-1.272616158434764,46.57576510892049],[-1.272607897823432,46.575784805230626],[-1.272583290272316,46.57585443820591],[-1.272565033002568,46.5759250062811],[-1.272547432721581,46.57625534605062],[-1.272524162166114,46.57649518080093],[-1.272507332839822,46.57657227834288],[-1.272390016025701,46.576926721873946],[-1.272348055406055,46.57706679881329],[-1.272192419935547,46.57756776572347],[-1.272143829903962,46.577686718472144],[-1.271930594105971,46.578100381583994],[-1.271843315326808,46.57826956387175],[-1.271733751597507,46.5784797063398],[-1.271620595414616,46.57866076590153],[-1.271584286695168,46.578716317160016],[-1.271536162462198,46.578779613795106],[-1.271482110177095,46.57884069700193],[-1.271366778189617,46.57894410611826],[-1.271293991216391,46.57900642975653],[-1.271113445636216,46.57918035591414],[-1.269789120714677,46.57880776915276],[-1.269599729842903,46.579200608271755],[-1.268983840422441,46.579011499363475],[-1.267855329137605,46.578592537906424],[-1.267801566924998,46.57857236039295],[-1.267534744199697,46.57847347233033],[-1.266822869670312,46.57807746364678],[-1.267914937243117,46.576243769719525],[-1.26772569875029,46.576190231783414],[-1.266205253735363,46.575776769708455],[-1.266598671866871,46.57507405916637],[-1.267050035350096,46.574276665386805],[-1.267531895781485,46.5742199146959],[-1.267717069349348,46.57419172505387],[-1.267993915200251,46.57415362220731],[-1.2682718956881,46.5741199851148],[-1.268999000676489,46.57403739469874],[-1.269108239029241,46.57402637446629]]],[[[-1.268872019285041,46.579061390905885],[-1.269171382380625,46.579158250158],[-1.269465283428832,46.57924881987225],[-1.269774628138613,46.57933619738913],[-1.269302142020456,46.58020941526667],[-1.268990210924229,46.5801341261733],[-1.268697731780975,46.580026729425924],[-1.268405205724093,46.579935384942765],[-1.268668453018096,46.57944700204091],[-1.268872019285041,46.579061390905885]]],[[[-1.26401474093532,46.575559599489885],[-1.263498739277737,46.575916718241174],[-1.263347651704637,46.57597447033629],[-1.262635788215849,46.57554940098732],[-1.261545614947987,46.57489377644337],[-1.261727176671675,46.57474264227381],[-1.262291461207893,46.5744376571513],[-1.262199804913307,46.57424250663618],[-1.262336337603609,46.574224344052304],[-1.262414659131909,46.574219261523936],[-1.262500172847884,46.57421418147223],[-1.262753419016078,46.574201949319686],[-1.262963434233257,46.5741953855379],[-1.26310204532772,46.574193736803615],[-1.263243373264114,46.57419505260472],[-1.263576585901583,46.57420707127497],[-1.264547685697603,46.57475647099483],[-1.264570824588624,46.57486814709322],[-1.264612094922978,46.57506598601183],[-1.26462616658897,46.575133724081404],[-1.264629535618806,46.575150010378565],[-1.264630920579696,46.57515600048862],[-1.264554296824441,46.575206108816985],[-1.264470840060871,46.57526080022375],[-1.264165995742888,46.57546063013628],[-1.26401474093532,46.575559599489885]]]]}}]}
