{"type": "FeatureCollection","name": "aoc_geojson","features": [{"type":"Feature","properties":{"dt":"Pau","type_prod":"Vins","categorie":"Vin tranquille","type_denom":"appellation","signe":"AOC","id_app":9,"app":"Béarn","id_denom":61,"denom":"Béarn","insee":"64500","cvi":"1B101S, 1R101S, 1S101S","nomcom":"SALLES-MONGISCARD","insee2011":"64500","nomcom2011":"SALLES-MONGISCARD","id_aire":75,"crinao":null,"grp_name1":null,"grp_name2":null},"geometry":{"type":"MultiPolygon","coordinates":[[[[-0.848922724197891,43.47583073608103],[-0.849634199482603,43.47604325776778],[-0.849668247895664,43.476051145592756],[-0.850453077921686,43.476282133364],[-0.850426772301673,43.47645439201632],[-0.850353989670668,43.47658281420881],[-0.850292904504587,43.476677222454924],[-0.850256112780779,43.47674653701348],[-0.850244553830867,43.47679739012444],[-0.850019622158215,43.47671710918089],[-0.849611926415378,43.47738527439601],[-0.849703013576699,43.47742662539841],[-0.84933503808336,43.47809698131997],[-0.849194750946532,43.47825734579342],[-0.848242613179099,43.477715314387936],[-0.847665491251402,43.477388840084856],[-0.847516976327412,43.477239814831464],[-0.847525601666397,43.47657249970776],[-0.847439998092056,43.47652987137202],[-0.847493201668559,43.47646916277901],[-0.847904193065945,43.47599770436504],[-0.848213893546574,43.47562622279898],[-0.848660269272723,43.47506090703449],[-0.849125241336618,43.4744779044147],[-0.849319189719875,43.474062611822774],[-0.849372863962177,43.4739462189585],[-0.849498209288244,43.473749454372346],[-0.849623228547131,43.473540450975634],[-0.849925022978133,43.473630971596506],[-0.850276511569507,43.473709997202526],[-0.84976160790961,43.47466435884427],[-0.849339990988707,43.47521132517135],[-0.848922724197891,43.47583073608103]]],[[[-0.848754048780875,43.47484706941225],[-0.848598126944217,43.47503429038662],[-0.847982691083952,43.47577170951928],[-0.847732791879417,43.47606098956049],[-0.847286270144569,43.47661513714778],[-0.847190116010847,43.47674375635681],[-0.846914999751047,43.47692439811158],[-0.846540537757253,43.4766225192913],[-0.846432167068439,43.47671464057756],[-0.846162096767425,43.4769411297237],[-0.846481487905381,43.477218572954115],[-0.846332806323674,43.47732014195254],[-0.846158561285147,43.477383525476554],[-0.846098538249097,43.47731836986892],[-0.846079332681903,43.4773289599269],[-0.846003346842423,43.47725076953662],[-0.846028981345211,43.47723643833944],[-0.84598552577631,43.47719888817821],[-0.845921316872722,43.47712847655852],[-0.845924833283229,43.47710709394516],[-0.845742744898092,43.477003395157695],[-0.84576505029913,43.4768801909933],[-0.845855564723749,43.47675042221532],[-0.846016694604656,43.47650591278264],[-0.846738466839673,43.47544045894617],[-0.847149426705288,43.475084931762645],[-0.847941262923759,43.474347828265586],[-0.848037237412729,43.47440684169473],[-0.848592830699337,43.473886017611164],[-0.848186938746629,43.4736188601118],[-0.848416550076721,43.47330570919501],[-0.848365397740493,43.47324555442993],[-0.848538614071431,43.47306915909027],[-0.848793492004431,43.4728840075032],[-0.849013864726613,43.472743227245346],[-0.849329546452405,43.4725850984714],[-0.849652246346733,43.4727440546408],[-0.84989862948666,43.47286599872815],[-0.84972883351634,43.47321152641149],[-0.849603005329121,43.47338813153575],[-0.849470335609345,43.47355678274293],[-0.849363169231536,43.473851353748884],[-0.849202988037112,43.47410601326544],[-0.849118209680002,43.47426215345174],[-0.848936604177706,43.4745589183325],[-0.848847993224711,43.47471879748211],[-0.848754048780875,43.47484706941225]]],[[[-0.848014635493877,43.48621467911128],[-0.848354918250227,43.48683078587812],[-0.848246784834303,43.4868417420351],[-0.847765285144923,43.486956122432524],[-0.846994536350623,43.487149857956275],[-0.847016322892698,43.48720177903811],[-0.846901131486794,43.48724406064278],[-0.846969788263785,43.48736962147376],[-0.847037307529247,43.4874929707628],[-0.847028476725645,43.48774720889091],[-0.846570098987441,43.48830681990278],[-0.846392428832415,43.48850246642837],[-0.846242221705578,43.48867407841241],[-0.846151825903524,43.48864882271633],[-0.845683527419843,43.48844322478259],[-0.845302939140933,43.48820794021991],[-0.845358896933322,43.48816785239124],[-0.845469457541382,43.48808961632292],[-0.845562760130057,43.48800676815945],[-0.845529745614326,43.48753945413945],[-0.845476253345871,43.487328052347515],[-0.845387699354505,43.48719905326684],[-0.845364774254956,43.48708204735709],[-0.845188452705741,43.4866454004916],[-0.845163127051901,43.48656090713679],[-0.845166100563865,43.48652215903645],[-0.845181580085241,43.486505756387736],[-0.845202691635595,43.48649032487429],[-0.845281074587481,43.48648772361346],[-0.845384779387166,43.486536287633456],[-0.845599091445849,43.486642268119674],[-0.845899661189951,43.48682814690797],[-0.846134013799309,43.48694701665818],[-0.846327390761908,43.487024824468904],[-0.846392246190867,43.487027116308745],[-0.846439129261016,43.48706031161037],[-0.846407945075371,43.48708790087208],[-0.846457251106015,43.48712956739246],[-0.846478434598045,43.4871189070979],[-0.846526277571276,43.48716458887062],[-0.846495801165263,43.48718242481911],[-0.846591105166234,43.487269928627306],[-0.84662034178444,43.487240967225496],[-0.846655880263339,43.48725438810541],[-0.846747750240012,43.48733309615848],[-0.846867022053712,43.48725382874551],[-0.84674143237744,43.487144520936674],[-0.846785412937459,43.487117738383255],[-0.846709924533049,43.48705087936934],[-0.846734410854627,43.48702118580124],[-0.846799224809221,43.48700438274064],[-0.846714531382979,43.48684993626381],[-0.846646854450766,43.486877559958174],[-0.846529616312161,43.48684677206505],[-0.846407057637406,43.48700073874222],[-0.846384803197599,43.48699540349782],[-0.846263037617671,43.48696351494799],[-0.846009524929805,43.486837488876255],[-0.845649610052525,43.48662074865407],[-0.845358077183294,43.48646265228696],[-0.84523296652953,43.48642142338077],[-0.845326611395708,43.48636405478682],[-0.845021723160413,43.48622633832956],[-0.844228642476309,43.48565556185756],[-0.843900899018531,43.485795546473234],[-0.8430775883249,43.48444712998817],[-0.843321488905521,43.4842762531373],[-0.843412970850218,43.48421986370107],[-0.843718900797763,43.484121908900775],[-0.844124026239713,43.483994132073],[-0.844231129012327,43.484054736593826],[-0.844362757623654,43.48420085354597],[-0.844724700900605,43.4845239945795],[-0.845232481471704,43.48496329175164],[-0.845305696262854,43.48502212538885],[-0.84548748132519,43.4851227745689],[-0.845726463731879,43.48526102694691],[-0.845883795066893,43.48537704561872],[-0.846106365073161,43.485515879754615],[-0.846247495475095,43.48587585827129],[-0.846287683588058,43.48596243604011],[-0.847172482218214,43.48548055640426],[-0.847504694106534,43.4853815676675],[-0.847590283405973,43.48544410400305],[-0.848014635493877,43.48621467911128]]],[[[-0.846579127023276,43.47208108660912],[-0.846533720672084,43.47215106578803],[-0.846425245983938,43.472269222464284],[-0.846403530616251,43.47231989505715],[-0.846377208198493,43.472431081536186],[-0.846364089205703,43.47251964076816],[-0.846372866151372,43.47256022325799],[-0.84640413814671,43.4726209045181],[-0.846440907227326,43.472713817652],[-0.846445033593281,43.47277915577136],[-0.846397870555828,43.47288387620175],[-0.846387326317038,43.47293144993443],[-0.846404554145252,43.4729689400708],[-0.846452267913251,43.47301471565096],[-0.846480853689717,43.47305189260117],[-0.846486941164679,43.47307077240266],[-0.846476715466714,43.47320624820157],[-0.846461793272154,43.473306671362884],[-0.846407678084136,43.47355143533144],[-0.84641075102294,43.473619513148435],[-0.846284401283127,43.473561216511165],[-0.845945434502088,43.47424016669641],[-0.845044236712791,43.474027239928645],[-0.844507491677611,43.4745529605192],[-0.844241782192068,43.474813158129706],[-0.842829184985755,43.47409601223376],[-0.843357595055284,43.47357681137918],[-0.844013341769152,43.47274260122933],[-0.844264620032141,43.47242211572665],[-0.844431463401523,43.472205780107636],[-0.844503801554026,43.4721279104104],[-0.845340569864035,43.47135266228628],[-0.845697495592749,43.471014281529726],[-0.845849672694986,43.470937449932954],[-0.846231127980946,43.470742046276676],[-0.846909274278973,43.471117360389854],[-0.84675641008444,43.47133356402407],[-0.846685320398087,43.4714521949965],[-0.846679060956265,43.47153051233287],[-0.846690959804659,43.47154197974823],[-0.846716027475813,43.471565409932815],[-0.846720501358196,43.471597137652864],[-0.846550702707613,43.47184862120271],[-0.846518990297446,43.47189775718708],[-0.846518095493728,43.471923190130994],[-0.846520095529665,43.47195491562428],[-0.846566872366053,43.47200702961623],[-0.846587443954315,43.47203350188348],[-0.846579127023276,43.47208108660912]]],[[[-0.846169539115212,43.470716219551015],[-0.846153065185687,43.47072878439392],[-0.846057960667485,43.470771343433285],[-0.84589182297623,43.47086317301471],[-0.845592018590117,43.471025682103715],[-0.845084265152275,43.471522092915166],[-0.845042178032127,43.471527099600394],[-0.844515965943077,43.47127266737992],[-0.84389131315548,43.47097020286427],[-0.845010705639108,43.47055955067243],[-0.845531443097363,43.470373708068585],[-0.845904439220729,43.470604480188705],[-0.846169539115212,43.470716219551015]]],[[[-0.845781761100488,43.47744031710963],[-0.845177804984675,43.477758731533285],[-0.845095158018241,43.47779355128769],[-0.84452775786546,43.477449421392556],[-0.844166343121387,43.47759753823773],[-0.843789723933612,43.477749526018734],[-0.844336309420913,43.47814123752797],[-0.844188443473874,43.47820332148443],[-0.843997365278168,43.47827216270638],[-0.843721720269838,43.47834715631476],[-0.843472262451395,43.47839203584762],[-0.843190750586731,43.47843111597913],[-0.843067276080201,43.47844180091108],[-0.842895726895683,43.478445723744464],[-0.842484572006921,43.4784458036775],[-0.842152999411243,43.478415136670534],[-0.842135447606113,43.4784042294423],[-0.843351604095693,43.477425934735535],[-0.84329670439517,43.47738554679419],[-0.843729553486336,43.47695548521283],[-0.844114003304781,43.47719423651754],[-0.844781255017972,43.47663686413928],[-0.84514653700539,43.476847918272924],[-0.845150437962794,43.47688957478266],[-0.845158306612634,43.477012698737944],[-0.845439828807476,43.47722339185816],[-0.845637987397673,43.4773066141208],[-0.845624891557304,43.47731608648261],[-0.845692050255261,43.47737882724742],[-0.845748661760805,43.477407803774376],[-0.845781761100488,43.47744031710963]]],[[[-0.843861744964632,43.482388920115035],[-0.843467701689214,43.48247694006256],[-0.842958715244374,43.48258497857009],[-0.84270396706762,43.48263797007825],[-0.842673007379243,43.482626367364844],[-0.842715759555429,43.48210223285076],[-0.842747389477698,43.481718830583176],[-0.84290296129834,43.48081381929269],[-0.843202405579134,43.4807171765095],[-0.843315166239575,43.48067939858382],[-0.843780834766037,43.48057127327911],[-0.844064683132797,43.48071856533733],[-0.844337996130214,43.4808544306175],[-0.844210944218258,43.48112601233143],[-0.843943545931616,43.48162028556158],[-0.845034778542306,43.481876295197154],[-0.84443150824432,43.48224638376661],[-0.843861744964632,43.482388920115035]]],[[[-0.844133079934707,43.4920145381987],[-0.843979473665925,43.49207087980249],[-0.843821976482129,43.49213933932651],[-0.843465726884358,43.49235311460144],[-0.843305390349351,43.4922534116307],[-0.843657734885542,43.4919091648629],[-0.844399282151763,43.49159227580103],[-0.844669113086632,43.49181582083585],[-0.844133079934707,43.4920145381987]]],[[[-0.842036634960827,43.473768955432625],[-0.841790030394818,43.47366753879147],[-0.842872673555127,43.47312436202336],[-0.843555565425286,43.47184908599676],[-0.84301389850522,43.47161501133406],[-0.84331788142267,43.47132436504187],[-0.843448297933706,43.47118840913302],[-0.843909982392044,43.471018180882545],[-0.845019132374323,43.471565298647924],[-0.844379536099695,43.472154298391324],[-0.844350043506032,43.4721922756865],[-0.844313619942993,43.47227085250996],[-0.843884562218656,43.472819860989425],[-0.843277837664309,43.473595584031465],[-0.84277308098826,43.47406530499361],[-0.84275000459079,43.47405684577163],[-0.84233636295093,43.473887943709826],[-0.842036634960827,43.473768955432625]]],[[[-0.843302601326435,43.49296250072172],[-0.843212132018824,43.493080466185354],[-0.843002531114559,43.493052589007796],[-0.842344866287748,43.4928722456835],[-0.842423985586091,43.492797289478965],[-0.842301398020021,43.49275695797019],[-0.84214194618414,43.49269451345957],[-0.842101919329752,43.49268431267954],[-0.842014370872895,43.492651746263334],[-0.841975446057129,43.49269131849879],[-0.841280269172528,43.49220522935984],[-0.841299010905634,43.49219501699075],[-0.840817399050586,43.49184781904409],[-0.841116472246554,43.49167256015296],[-0.841356247625462,43.4917909785607],[-0.841468579518285,43.4917778991146],[-0.841555643261958,43.491773641948846],[-0.841667992684908,43.491788575341594],[-0.841747179638535,43.49182008723301],[-0.841878423555668,43.49188073981613],[-0.842041358095461,43.49195089774238],[-0.842301839302365,43.4919663436863],[-0.842831044596661,43.49220366628911],[-0.84349124230831,43.4925680323958],[-0.843417551918422,43.492812860885266],[-0.843302601326435,43.49296250072172]],[[-0.841567205498629,43.491781879399035],[-0.841467342301765,43.4918482023272],[-0.8415564498898,43.4919189061146],[-0.841509069092893,43.49195598555289],[-0.841538045263198,43.491978558366846],[-0.841590347573475,43.49194661894859],[-0.841697625424018,43.49188201473643],[-0.841567205498629,43.491781879399035]]],[[[-0.843099197934325,43.49221910854931],[-0.843210745714266,43.49197609054275],[-0.842964543830254,43.4919225786471],[-0.84297644706506,43.49189522376946],[-0.842996685299305,43.49184820694346],[-0.843076555356744,43.49186032728958],[-0.843120442097887,43.491739600181845],[-0.842975159252063,43.491709532349184],[-0.842985350004211,43.49167692370485],[-0.842890206085937,43.49165471592913],[-0.842882651670294,43.491665702873355],[-0.842853550177621,43.491657907345626],[-0.842837065706442,43.49170740323866],[-0.842813077156392,43.491746446155766],[-0.842544837927817,43.491655702657575],[-0.842422222741891,43.491968200662654],[-0.842344928751108,43.49193725265862],[-0.842258460022217,43.4919226634406],[-0.842077156453788,43.49192008363502],[-0.841941390603354,43.49185842059863],[-0.841703435648786,43.49175984571349],[-0.841350601972278,43.491728755946035],[-0.841116457366537,43.49162608142888],[-0.840712809699025,43.4918619745527],[-0.839616605307124,43.49096213664548],[-0.839666121634622,43.49090147259078],[-0.839795191263475,43.49078529538306],[-0.839868088973063,43.49068759225123],[-0.839891439761221,43.4906167758633],[-0.842364048112957,43.49021251821304],[-0.842438425991989,43.49026834039339],[-0.84251546772833,43.49030109868129],[-0.84262030029449,43.49031836925644],[-0.842762520229708,43.49035449103409],[-0.842900054403528,43.490437077903316],[-0.843643090512803,43.49098027806615],[-0.844352101307636,43.491562062498986],[-0.84372439101733,43.49183104663685],[-0.843577512718761,43.4918936345292],[-0.843238684401863,43.49224388718218],[-0.843099197934325,43.49221910854931]]],[[[-0.842575380594578,43.48307543338979],[-0.842545980956867,43.48294289386902],[-0.842545587472059,43.48285193148753],[-0.842577253994724,43.48275758029962],[-0.842610374563133,43.48271641220225],[-0.842669999590521,43.482690517762265],[-0.842967214073803,43.48262881418536],[-0.843249381386759,43.48256223894463],[-0.843514723981264,43.48250860010418],[-0.843912356095533,43.48241135503676],[-0.844421265305753,43.482285569786924],[-0.844501878160617,43.48225352511746],[-0.844713337938292,43.48298815573544],[-0.844143020958757,43.48308369354254],[-0.844345492907982,43.48371730891584],[-0.844138926065728,43.48380822762559],[-0.844089525493897,43.48383718303346],[-0.844017459129007,43.48382875038586],[-0.843735491554499,43.483890996777816],[-0.843415729556094,43.48397818280791],[-0.84334939179949,43.48399620892722],[-0.843119839903832,43.48406163877257],[-0.842945563169075,43.4840527770216],[-0.84282602693099,43.484052242313744],[-0.842756357400606,43.484035256709824],[-0.842639620007224,43.48401183339982],[-0.842605867350169,43.48382161958786],[-0.84251015530852,43.48352623283983],[-0.842484084112432,43.48339906983684],[-0.842484317809035,43.48329898755195],[-0.842514100691528,43.48309138806342],[-0.842575380594578,43.48307543338979]]],[[[-0.84253899140926,43.48757879924948],[-0.842601303305686,43.487724314158],[-0.842504702968063,43.487841145093576],[-0.842550451638963,43.487966529916335],[-0.842720538651651,43.48836755177318],[-0.842751596356541,43.48836392832033],[-0.842936543574241,43.488689299725074],[-0.843117063086418,43.48900023567489],[-0.843151736683193,43.48924113034747],[-0.8429559946394,43.48927041081258],[-0.842174141907951,43.48935614308678],[-0.842157430221579,43.48923576356325],[-0.842128585021478,43.489157789637765],[-0.84203530679685,43.48897472959121],[-0.841945813697553,43.48886305560509],[-0.841892622190908,43.48880395998913],[-0.841781452432846,43.48871593367567],[-0.84163711297331,43.48857404677324],[-0.841535747202363,43.488473512451606],[-0.841430190811412,43.48842501031079],[-0.841298854907862,43.48837210741782],[-0.84124329903737,43.48833129067821],[-0.841141928374425,43.48823066614322],[-0.8409861366974,43.48807288073353],[-0.841325436085517,43.48797591233124],[-0.841292642181288,43.48762794088679],[-0.841160753123349,43.487629643474094],[-0.840916965010417,43.48764152736878],[-0.840966395633265,43.48707265820362],[-0.841581963423089,43.48691869642654],[-0.84168771912922,43.48694061884767],[-0.841828370614374,43.48700336941236],[-0.842100857138976,43.48713206505425],[-0.842368717719446,43.48715643610702],[-0.84253899140926,43.48757879924948]]],[[[-0.842925565479408,43.5011657182598],[-0.843050668774144,43.50119344008615],[-0.843003728195226,43.50142768269482],[-0.842014342762651,43.50179685193708],[-0.841448150621119,43.50200130683063],[-0.841333596829152,43.50171874244233],[-0.841320255849576,43.50168948992189],[-0.841205088986133,43.501453246659835],[-0.842239167201727,43.5010696196056],[-0.841195052564092,43.50143639768668],[-0.840999863829537,43.50102310701691],[-0.840548228438327,43.500470186756594],[-0.840322051301906,43.50019292816525],[-0.840153636753388,43.49998190075108],[-0.841251919991685,43.499674194493146],[-0.84128309304271,43.499664802661044],[-0.841333048923001,43.49978823866522],[-0.842063523752824,43.49953535435567],[-0.842421787902817,43.49946932869823],[-0.842498029540131,43.49949734195391],[-0.842799107263135,43.499922999223],[-0.842890734853068,43.500192052482255],[-0.842913630790787,43.500478765627506],[-0.842955583881338,43.50081911944667],[-0.842925565479408,43.5011657182598]]],[[[-0.841210889395641,43.497852499556224],[-0.841165956378119,43.49766907495142],[-0.841161675389664,43.49757545707933],[-0.840644301518825,43.497512002514455],[-0.84063444699197,43.49753487082376],[-0.840520094851628,43.4982229634034],[-0.840054262127368,43.49827162616323],[-0.83993097701919,43.498296891817795],[-0.839109362118347,43.49845606787987],[-0.838902046335519,43.49850151336043],[-0.83866144001089,43.498252506844665],[-0.838770482037244,43.49741057457533],[-0.838929748456773,43.497046159518455],[-0.839036107092206,43.496900972418906],[-0.83965936094847,43.49609775240386],[-0.839803221694908,43.49584728788535],[-0.839825090035509,43.495856061191574],[-0.839845647766506,43.4958322733181],[-0.83987749881178,43.49584600743084],[-0.839893671639194,43.49583066192077],[-0.839975214436359,43.49588253920829],[-0.840159834255705,43.495917883318015],[-0.840621499196089,43.49591080230591],[-0.840995218944775,43.4961224789169],[-0.841518677538037,43.49642324709123],[-0.841567139211397,43.49643927442556],[-0.842586779348472,43.49649779875257],[-0.842477994579192,43.497303876776165],[-0.842403567532038,43.4979077762233],[-0.841210889395641,43.497852499556224]]],[[[-0.840889458708631,43.48690631302017],[-0.840892870316901,43.48696474133526],[-0.840883884882966,43.48713935640914],[-0.840864332599683,43.487516746311414],[-0.84085680004731,43.48767608714121],[-0.840769945395345,43.487909129070914],[-0.84072959581237,43.487864440352254],[-0.840648956258632,43.48775929750474],[-0.840484514402348,43.487547952788994],[-0.840344194982783,43.487397635061775],[-0.84027321583664,43.48731854185296],[-0.840206243668657,43.487258672892665],[-0.840180390857084,43.487243915882225],[-0.84013120997243,43.48720035063749],[-0.840104122442623,43.48718933047077],[-0.840005159620838,43.487117263847615],[-0.839908239294998,43.48707575050954],[-0.839889549183305,43.48709226612113],[-0.839184966641816,43.48682142230939],[-0.838949416049084,43.486701049235926],[-0.838837959337834,43.486528989961776],[-0.840687397237188,43.48615629834525],[-0.840465089822687,43.486419091550175],[-0.840605821463998,43.48653489533474],[-0.840783009295946,43.48670192098254],[-0.840829569612399,43.48675809932898],[-0.840856086723303,43.486801296565496],[-0.840889458708631,43.48690631302017]]],[[[-0.84162843139427,43.49319687714949],[-0.842181443904491,43.49298721196521],[-0.842375466239468,43.49291908132594],[-0.8431132376157,43.49311874260092],[-0.843208599636697,43.493277318056116],[-0.843123942083601,43.49377249707243],[-0.84348082540495,43.494174552546895],[-0.843604320849338,43.494339336255614],[-0.843012029245056,43.49458526099991],[-0.842225718923972,43.49492543496975],[-0.842001130419915,43.495002845712705],[-0.841639727562193,43.494477631083576],[-0.841366915577275,43.494089254113845],[-0.840886400610415,43.493440441487394],[-0.841060207169252,43.49339374726566],[-0.841250212008388,43.49333395803695],[-0.84162843139427,43.49319687714949]]],[[[-0.838882038700288,43.480664599375835],[-0.838708078288485,43.480751019603986],[-0.837680576687985,43.481377949909],[-0.837100823766106,43.48098945073935],[-0.836825408022586,43.48075329855772],[-0.836234029538745,43.4802609001055],[-0.83638065241137,43.48010960702553],[-0.836273164241139,43.480052251824596],[-0.836273731282815,43.480032955688294],[-0.83624209368045,43.480009305202856],[-0.836177877692072,43.4799701442699],[-0.836163124984669,43.479990032720934],[-0.836134094530088,43.47997763935563],[-0.8360582511898,43.48010336702633],[-0.835713487790566,43.48007900195477],[-0.8358611809165,43.4797899470502],[-0.836022217132563,43.47955995913047],[-0.83605164401719,43.47956161955319],[-0.83617621593369,43.4793672409495],[-0.836321674442344,43.47914852302754],[-0.836434185556599,43.47901807402159],[-0.836593882588491,43.47885145535497],[-0.83672036817912,43.47877284477321],[-0.837387139726391,43.47835884676485],[-0.837623608132545,43.47822499699283],[-0.838027074735443,43.47798209530987],[-0.838164006169866,43.477904373979825],[-0.838220388352846,43.478131797730114],[-0.838635568388442,43.478249409453376],[-0.839022128446348,43.4784477501864],[-0.838926219633437,43.47858220766273],[-0.838690675398043,43.47886131875581],[-0.839256800098444,43.47900159385679],[-0.83861567643946,43.47971608655344],[-0.838744061700411,43.47987142150576],[-0.838878772763975,43.48003626034605],[-0.839257555025302,43.480495644313876],[-0.838882038700288,43.480664599375835]]],[[[-0.839266472699496,43.49156372810773],[-0.839149392695879,43.49170569201832],[-0.838994588741862,43.491823770867136],[-0.838947974135298,43.491842716718494],[-0.838912041089911,43.491841917842706],[-0.838891530738519,43.49182381850906],[-0.838548610955086,43.491407834368395],[-0.838201185963821,43.490994711281665],[-0.838185694694969,43.49097580355126],[-0.838198065628259,43.49097023108438],[-0.838205038371119,43.49096719177759],[-0.838648510248295,43.49077547604819],[-0.838372909880343,43.490383679732595],[-0.838341204361303,43.49033318925873],[-0.838171306155355,43.4901197820463],[-0.838148204683083,43.49010177439539],[-0.838134028656832,43.49008588267389],[-0.838121419189352,43.490063810313835],[-0.837899056286604,43.489698411496335],[-0.83784586737662,43.48972263396561],[-0.837485337495942,43.489881684417526],[-0.837302989219088,43.4892040163413],[-0.838001429890378,43.48921783475573],[-0.838640023942104,43.489443194796024],[-0.838593682849752,43.48950879009671],[-0.839917230538979,43.49012530855894],[-0.839899342825915,43.490222323601586],[-0.839850276009382,43.49061174894478],[-0.839821438544588,43.490693028384314],[-0.839761171701566,43.49075758638449],[-0.839595403598739,43.49090037512516],[-0.839559139424674,43.490959398638],[-0.839488236512254,43.491133235124025],[-0.839395461510596,43.49131117926781],[-0.839266472699496,43.49156372810773]]],[[[-0.839459430753456,43.49504481818668],[-0.839253774843271,43.49490572984893],[-0.839387031718082,43.494668792813506],[-0.839659580852722,43.49417975178848],[-0.839699052985186,43.494122416041286],[-0.839770461493713,43.494065299924536],[-0.839739364667982,43.49404802614235],[-0.840682680039122,43.49355602289143],[-0.84069764785694,43.493561527555165],[-0.840837229340168,43.49352478398315],[-0.84096498720265,43.49367203453682],[-0.84117555160972,43.49393633161806],[-0.841600613566213,43.494549547274836],[-0.841964082115674,43.4950723468522],[-0.841976541103191,43.49509028075913],[-0.841987227110907,43.49510575537927],[-0.841718355481556,43.4952425643304],[-0.841492556549906,43.49532965504305],[-0.841182684762801,43.49543251585709],[-0.841096870707464,43.49548329770135],[-0.840760621000951,43.49567095317079],[-0.83999534858219,43.4954581971558],[-0.839476016802009,43.495117102246944],[-0.839418301403172,43.49508662938022],[-0.839459430753456,43.49504481818668]]],[[[-0.837251393822013,43.48589052122742],[-0.837174186458807,43.48578291276812],[-0.836665095850967,43.48594740153346],[-0.83654747600733,43.48579222246015],[-0.836437882340542,43.48583132205818],[-0.836009778947304,43.48546347716939],[-0.835901745590393,43.485525940589405],[-0.836131584717424,43.48572398682501],[-0.83606347991062,43.48576377908615],[-0.835965853401102,43.48582092001055],[-0.835678845178678,43.485544820041525],[-0.835463400108491,43.48530663032124],[-0.835324559894453,43.48506329691106],[-0.83548066110998,43.48501669738774],[-0.835630300740826,43.48497708200288],[-0.835754645014832,43.48494214498117],[-0.836392737202542,43.48476255445611],[-0.836817988463768,43.48464688376214],[-0.837014661666512,43.484904020805814],[-0.837124100552058,43.48497932182652],[-0.837650902472719,43.485278272119196],[-0.837710600991239,43.48531822309465],[-0.837904313591131,43.48544206192127],[-0.837963283711598,43.485515546656636],[-0.838242700699772,43.485864871024226],[-0.837718113161083,43.48596587004299],[-0.837691542525978,43.48588664385576],[-0.837337827836007,43.485997352537694],[-0.837251393822013,43.48589052122742]]],[[[-0.837196813594827,43.48881837879635],[-0.837191898249969,43.48874108777295],[-0.837206026244079,43.48846918956542],[-0.837216209793778,43.48836605266269],[-0.837282015669082,43.48795658063572],[-0.837358605759667,43.48783821142492],[-0.838507858350507,43.48743009020069],[-0.83873623821116,43.48749496154802],[-0.838806794353583,43.48755479449595],[-0.838932458647374,43.48774319483618],[-0.838937596700614,43.487851554031884],[-0.838877005661045,43.487922338187296],[-0.838720122862196,43.488105434889206],[-0.838664995245897,43.488174674250054],[-0.838454317862673,43.48835256012503],[-0.838417340278449,43.48843052433187],[-0.838122627582364,43.48831909044901],[-0.837370807062164,43.48912469024694],[-0.837313276044016,43.4891413197027],[-0.837196813594827,43.48881837879635]]],[[[-0.836687216829985,43.48370383143727],[-0.836747342269111,43.48403732317497],[-0.836841077702658,43.48455175729642],[-0.83640246340521,43.48417275707854],[-0.835589142424139,43.48344527747718],[-0.835249914962168,43.483270648922655],[-0.835110334245488,43.483305223955455],[-0.834684239488374,43.483143126102384],[-0.83453200662934,43.48278055646765],[-0.834579679599392,43.482023229343696],[-0.834590950531504,43.48188258358186],[-0.834646276371515,43.481712545551275],[-0.834682257856303,43.481649300523635],[-0.835247781286495,43.48078708321662],[-0.835315438449163,43.48079810958968],[-0.835369555164737,43.48228882839837],[-0.835593888039233,43.48259732169571],[-0.836181438023695,43.48303581552623],[-0.836223140635647,43.48306937837951],[-0.83642087880724,43.48327774749948],[-0.83654376387846,43.48347480496886],[-0.836687216829985,43.48370383143727]]],[[[-0.835930446244958,43.48245966270737],[-0.835988208245551,43.48260777319054],[-0.836074955051963,43.482750894232396],[-0.836236641447111,43.48301035149655],[-0.835629443206437,43.48256660852433],[-0.835432993306792,43.48227739524898],[-0.835377627567564,43.48125718267431],[-0.835353831845136,43.48078954458642],[-0.835337684631859,43.48061807282636],[-0.835346274322993,43.48058182884099],[-0.835437511391779,43.4804346593924],[-0.835476101601452,43.48038086970966],[-0.835939825986366,43.48056955457625],[-0.83634767387508,43.48096991081621],[-0.836620652700161,43.481352972989555],[-0.837034655946331,43.48234913700845],[-0.836855767829712,43.482413750231714],[-0.836664540840715,43.482480691624005],[-0.836442864967626,43.48248809012111],[-0.835919934692217,43.48243562445435],[-0.835930446244958,43.48245966270737]]],[[[-0.835951905189675,43.48722019542045],[-0.835611327444051,43.48727954049221],[-0.835552832667022,43.48729097877429],[-0.834825867905908,43.48744623565243],[-0.834773104734963,43.48666507721297],[-0.835588194308803,43.486555071735324],[-0.83587368327275,43.48649893773706],[-0.835922335109045,43.4863604810123],[-0.835975119416656,43.48620980787651],[-0.836062120213517,43.485963884711445],[-0.836481591334116,43.48626168635054],[-0.836721448340645,43.486713389841846],[-0.836910203451586,43.48706673848468],[-0.83620601813794,43.48728884496318],[-0.836161462588483,43.4871829621817],[-0.836132483502946,43.48711210780534],[-0.836099487328173,43.487116338443464],[-0.83610507675775,43.487146315868834],[-0.835931539441885,43.487172725949726],[-0.835951905189675,43.48722019542045]]],[[[-0.835018488974854,43.48539290611618],[-0.834913776960282,43.48542174295008],[-0.834930000048104,43.48545350585298],[-0.835040067045503,43.4854252000877],[-0.835052374283858,43.48545575043159],[-0.83518401012387,43.48542253769977],[-0.835483907078262,43.485350671917054],[-0.83578925935617,43.485697732884006],[-0.835937082036593,43.48587544329124],[-0.836011111221987,43.48592993049739],[-0.835931630105647,43.48616063489973],[-0.835847576854972,43.48641365966204],[-0.835825185139734,43.486461831964384],[-0.835810625980869,43.486469823588386],[-0.835766720401881,43.48647741279277],[-0.835190225883072,43.48655708724929],[-0.83507533750415,43.48657250281549],[-0.834791000309355,43.486616253586895],[-0.834726811636936,43.486623929615796],[-0.834508524353195,43.48665453321514],[-0.83445252930253,43.486662639745454],[-0.83438436579467,43.486506969427836],[-0.834235558714642,43.48617544309202],[-0.83390416535299,43.4854362107102],[-0.833766652018161,43.48513851318934],[-0.834157448661765,43.48496246070058],[-0.834756570051146,43.484688238665925],[-0.834794149451455,43.48467114558802],[-0.834962573700835,43.484924061379836],[-0.835100987956667,43.48514065787038],[-0.835138331438587,43.48520527133557],[-0.835086613725558,43.48521998250179],[-0.835095668432059,43.48524443275142],[-0.835082594801689,43.485246877107926],[-0.835075861823905,43.48523126214375],[-0.83501571228935,43.48524753274552],[-0.835025106435822,43.48526224285331],[-0.835010264858005,43.48535680674593],[-0.835018488974854,43.48539290611618]]],[[[-0.834826068060582,43.48359442766365],[-0.83467093623719,43.48317548350093],[-0.835090457688337,43.48334844293909],[-0.835249367856771,43.483369931159835],[-0.835410194458938,43.48342197689204],[-0.835511468568211,43.48348252572089],[-0.835785921845088,43.483722679359126],[-0.836775229947697,43.48460308984154],[-0.835264193054057,43.48503183543138],[-0.834984703422431,43.48463846014533],[-0.834841286146786,43.48395770285854],[-0.834839821018539,43.48366888350677],[-0.834826068060582,43.48359442766365]]],[[[-0.834050290993116,43.48110833497888],[-0.833715762954629,43.48127636163201],[-0.833323880800569,43.481435787431664],[-0.832644651496386,43.481788228152716],[-0.832528206598488,43.481388901242234],[-0.832413057085739,43.481044204023156],[-0.83229689063563,43.48086041650754],[-0.832264509203988,43.480810759558814],[-0.83155539939865,43.47968197908976],[-0.831213297557436,43.47913723415588],[-0.830412626811348,43.47781073022624],[-0.829949803652946,43.477015159647],[-0.829914578432831,43.477022980261395],[-0.829667836537941,43.47689523918154],[-0.829674870446406,43.47687643521475],[-0.829717027677201,43.47684828304301],[-0.83001672010855,43.476835167280896],[-0.830112063368257,43.476819997106794],[-0.830320157369951,43.47678174506712],[-0.830783653423565,43.476841561277475],[-0.831366021794695,43.47693113012031],[-0.83170963521726,43.477190823747705],[-0.831678109583172,43.47723742633359],[-0.831845718329843,43.477287615206485],[-0.832321097862722,43.47744761817785],[-0.832702024182099,43.47765464665498],[-0.832898470344629,43.4777087679949],[-0.833445462599098,43.47803359181204],[-0.833548595394046,43.47813515016173],[-0.833719361326454,43.478293764732115],[-0.833985389496577,43.47842297659258],[-0.835121118961069,43.478300273526884],[-0.835152784949703,43.47854118386229],[-0.83518336513571,43.47865278511907],[-0.835360493025962,43.47896961397098],[-0.835410650425868,43.47915582487302],[-0.835438342592902,43.47936868253877],[-0.835280101935087,43.479849969781945],[-0.835195994292283,43.48007984576379],[-0.835213717484432,43.48033052767721],[-0.834879041312261,43.48059629472434],[-0.834535553556441,43.480880207366724],[-0.834050290993116,43.48110833497888]]],[[[-0.833960686595343,43.48284454939423],[-0.834113239494032,43.48270593045986],[-0.834179312728188,43.48262090354334],[-0.83434646298944,43.482482308185006],[-0.834489598372118,43.48236942312203],[-0.834477186523156,43.48281177084982],[-0.834604131584644,43.48311425458202],[-0.833960686595343,43.48284454939423]]],[[[-0.834352773906149,43.483722329440454],[-0.83401180727925,43.48336589688272],[-0.833644377638488,43.48313560413786],[-0.833206400830428,43.48254318217254],[-0.833604857179805,43.482765802919694],[-0.834576386113043,43.483171173121654],[-0.834600682007534,43.48317562776282],[-0.834756783532228,43.483590574382056],[-0.834758805065081,43.483682019239104],[-0.83477884789251,43.48397117195018],[-0.834894388461854,43.48459941116272],[-0.834855483347968,43.484609615398895],[-0.834734151892067,43.48442466115104],[-0.834398772117857,43.48381284865545],[-0.834352773906149,43.483722329440454]]],[[[-0.833190726637301,43.48248068413698],[-0.833161090524271,43.482446242974966],[-0.832916050457221,43.48211640927659],[-0.83389569014106,43.48158138468319],[-0.834394505833081,43.481771266871604],[-0.834557942584035,43.48183655236542],[-0.834501982523665,43.48203786884812],[-0.834380022538369,43.48236978780396],[-0.834319690732886,43.4824277693022],[-0.83415718727205,43.48256926274437],[-0.833976914861774,43.48275777332301],[-0.833897386500697,43.48281913605592],[-0.833190726637301,43.48248068413698]]],[[[-0.832929755401955,43.48342507508083],[-0.83243172086873,43.4836197784387],[-0.832328628197675,43.48361351633612],[-0.832101191215416,43.483375114612365],[-0.832015586346758,43.48328977842189],[-0.831980743205946,43.48325516077142],[-0.831928256909217,43.4831841462132],[-0.831880449282358,43.483140619210005],[-0.831854247923187,43.48311686522549],[-0.8318064583889,43.48307360778092],[-0.831640922618777,43.48284886950844],[-0.831554329478758,43.48276167641063],[-0.831430362238485,43.48263157799584],[-0.831408043013218,43.48259183346659],[-0.831396503880357,43.482557922930106],[-0.831389620463402,43.48250664345858],[-0.831397186417991,43.48243089313799],[-0.831415252664661,43.482390170981745],[-0.831449663964505,43.482336710749664],[-0.831496669315827,43.482292172969444],[-0.832214006041109,43.48201198325547],[-0.832639668553214,43.481847043204276],[-0.832926028140702,43.48222702872798],[-0.833634431306341,43.48315153902817],[-0.83322417011248,43.483306390107934],[-0.832929755401955,43.48342507508083]]],[[[-0.83235013358017,43.47740263472388],[-0.832009143165554,43.477247246656994],[-0.831686608914153,43.47711633570995],[-0.831422295014815,43.47690878330161],[-0.83139758367296,43.47689434448492],[-0.83081472537808,43.47678443630375],[-0.830455892488111,43.4767323594942],[-0.830292210269399,43.47671319555622],[-0.82995523391148,43.476783025879186],[-0.829629807519537,43.4768090309881],[-0.829610697548245,43.47679511439031],[-0.829591968615929,43.47677577985369],[-0.829651045919349,43.476739823692995],[-0.829090882151113,43.476305917255594],[-0.829405457644108,43.47590000305558],[-0.82837978984587,43.47518458002498],[-0.828449220121997,43.47508682803281],[-0.828791106260388,43.474652748394824],[-0.829539081591683,43.47433059851684],[-0.830717061261243,43.474434604357356],[-0.830924210834655,43.474413858727964],[-0.831098714925797,43.47447299210953],[-0.831161796020496,43.47449156864914],[-0.831375992582406,43.474704496226344],[-0.831749310134332,43.47507411013553],[-0.832033237324733,43.475371852678265],[-0.832186134042512,43.47552236369889],[-0.832371961509281,43.47566774643602],[-0.832502930350989,43.475769491730034],[-0.832605377691836,43.475805230345486],[-0.834073003739737,43.47630672266582],[-0.834320532999792,43.47655179340049],[-0.834608037012355,43.476854628001526],[-0.834828571811888,43.477132539697415],[-0.834897512734197,43.477218462928484],[-0.834996752504742,43.47734321682056],[-0.835040461372233,43.477777541739876],[-0.835115969794238,43.47824722154196],[-0.8342332754233,43.47833962275282],[-0.8340405989251,43.47832536350654],[-0.833822823824958,43.47825380370076],[-0.833507726728109,43.477995358930855],[-0.832830939097552,43.47756235355909],[-0.832794139965617,43.477602207307726],[-0.83235013358017,43.47740263472388]]],[[[-0.831877319162882,43.493452194357126],[-0.83254310609706,43.492816407427725],[-0.832343471982179,43.49268745283004],[-0.8327940821791,43.49203855577816],[-0.832926569681017,43.49205494776487],[-0.833462895514444,43.49226053642437],[-0.833224218397351,43.492820242017764],[-0.833431368211323,43.49289677540343],[-0.833881594355319,43.493061631111736],[-0.833911883262951,43.493074251121506],[-0.83390574312937,43.49308050341264],[-0.833921407837648,43.493089046904835],[-0.833899042590193,43.49311172651457],[-0.833347963842503,43.49363816648787],[-0.833036189637734,43.49388501206518],[-0.832358458312652,43.49365757842725],[-0.831877319162882,43.493452194357126]]],[[[-0.830596545663698,43.48457316946883],[-0.830160780919895,43.484137928006724],[-0.829679862344845,43.4836134855176],[-0.829845252429629,43.48359674098051],[-0.829910250743873,43.48359012004363],[-0.830129643160978,43.48358551803584],[-0.830950965708975,43.48356026681224],[-0.831781700368213,43.48319761581195],[-0.831893467035644,43.4833580503099],[-0.831961961013646,43.48345948461346],[-0.831883490933501,43.48351450311321],[-0.831863677209792,43.483499350583486],[-0.831743071175552,43.48358846618203],[-0.831832749274777,43.4836514100337],[-0.831776985327217,43.48369076311901],[-0.831823461932922,43.48372731141376],[-0.831855569444465,43.483750586342495],[-0.831490736045803,43.48400614939114],[-0.830646267991379,43.48458789546933],[-0.830596545663698,43.48457316946883]]],[[[-0.82947933047439,43.4842647885329],[-0.829995907974277,43.48425337686679],[-0.830144775534868,43.48467903376163],[-0.829835212203334,43.48467087938361],[-0.829662958399743,43.48464408994646],[-0.829585835723823,43.484609884850514],[-0.829526139780749,43.484590286500165],[-0.829303804929697,43.48463246231709],[-0.829026257432521,43.48479098386768],[-0.828740467026679,43.485000327967995],[-0.828639454740442,43.484531544082834],[-0.82947933047439,43.4842647885329]]],[[[-0.828812687628882,43.492771806975966],[-0.828528368970064,43.492209331994175],[-0.828441137615931,43.49186580348158],[-0.828409834880323,43.491754405149095],[-0.828445728472349,43.491457599890104],[-0.829338738767701,43.49131453570321],[-0.829246680668705,43.49049404935623],[-0.829179282339885,43.48993210899567],[-0.829324443794729,43.48992157518291],[-0.829690181699997,43.489912704320226],[-0.8305620622989,43.48990215622846],[-0.830624542851748,43.48990219958053],[-0.830717798215282,43.49031550185595],[-0.830505744397998,43.49039343637548],[-0.830745532109726,43.4907313905491],[-0.831268118519782,43.4912061699901],[-0.83141499026205,43.491293575154764],[-0.828881166059236,43.49291747172365],[-0.828812687628882,43.492771806975966]]]]}}]}
